{
  "type": "FeatureCollection",
  "crs": {
    "type": "name",
    "properties": {
      "name": "EPSG:4326"
    }
  },
  "features": [
    {
      "type": "Feature",
      "properties": {
        "id": "train_029_REF_001",
        "parcel_id": "train_029_P_001",
        "parcel_layer": "REFERENCE",
        "boundary_representation": "REFERENCE",
        "land_use_class": "residential",
        "area_sqm": 3818.1,
        "perimeter_m": 247.75,
        "source": "Synthetic Legacy Cadastral Map (Non-Authoritative Demo)"
      },
      "geometry": {
        "type": "Polygon",
        "coordinates": [
          [
            [
              77.619063,
              12.9983424
            ],
            [
              77.6196817,
              12.9983355
            ],
            [
              77.6196779,
              12.9978175
            ],
            [
              77.6190804,
              12.9978153
            ],
            [
              77.619063,
              12.9983424
            ]
          ]
        ]
      }
    },
    {
      "type": "Feature",
      "properties": {
        "id": "train_029_REF_002",
        "parcel_id": "train_029_P_002",
        "parcel_layer": "REFERENCE",
        "boundary_representation": "REFERENCE",
        "land_use_class": "residential",
        "area_sqm": 3684.03,
        "perimeter_m": 243.3,
        "source": "Synthetic Legacy Cadastral Map (Non-Authoritative Demo)"
      },
      "geometry": {
        "type": "Polygon",
        "coordinates": [
          [
            [
              77.6190841,
              12.9978073
            ],
            [
              77.6196797,
              12.9978054
            ],
            [
              77.6196706,
              12.9972996
            ],
            [
              77.6190782,
              12.9972806
            ],
            [
              77.6190841,
              12.9978073
            ]
          ]
        ]
      }
    },
    {
      "type": "Feature",
      "properties": {
        "id": "train_029_REF_003",
        "parcel_id": "train_029_P_003",
        "parcel_layer": "REFERENCE",
        "boundary_representation": "REFERENCE",
        "land_use_class": "residential",
        "area_sqm": 3692.69,
        "perimeter_m": 243.72,
        "source": "Synthetic Legacy Cadastral Map (Non-Authoritative Demo)"
      },
      "geometry": {
        "type": "Polygon",
        "coordinates": [
          [
            [
              77.6197063,
              12.9983405
            ],
            [
              77.6203094,
              12.9983249
            ],
            [
              77.6203101,
              12.9978163
            ],
            [
              77.6197118,
              12.9978258
            ],
            [
              77.6197063,
              12.9983405
            ]
          ]
        ]
      }
    },
    {
      "type": "Feature",
      "properties": {
        "id": "train_029_REF_004",
        "parcel_id": "train_029_P_004",
        "parcel_layer": "REFERENCE",
        "boundary_representation": "REFERENCE",
        "land_use_class": "commercial",
        "area_sqm": 3751.79,
        "perimeter_m": 245.82,
        "source": "Synthetic Legacy Cadastral Map (Non-Authoritative Demo)"
      },
      "geometry": {
        "type": "Polygon",
        "coordinates": [
          [
            [
              77.6197312,
              12.9978265
            ],
            [
              77.6203523,
              12.9978188
            ],
            [
              77.620341,
              12.9973089
            ],
            [
              77.6197394,
              12.997315
            ],
            [
              77.6197312,
              12.9978265
            ]
          ]
        ]
      }
    },
    {
      "type": "Feature",
      "properties": {
        "id": "train_029_REF_005",
        "parcel_id": "train_029_P_005",
        "parcel_layer": "REFERENCE",
        "boundary_representation": "REFERENCE",
        "land_use_class": "mixed_use",
        "area_sqm": 2359.97,
        "perimeter_m": 196.47,
        "source": "Synthetic Legacy Cadastral Map (Non-Authoritative Demo)"
      },
      "geometry": {
        "type": "Polygon",
        "coordinates": [
          [
            [
              77.6205106,
              12.9983245
            ],
            [
              77.6209105,
              12.9983392
            ],
            [
              77.6208979,
              12.9978192
            ],
            [
              77.6205242,
              12.997829
            ],
            [
              77.6205106,
              12.9983245
            ]
          ]
        ]
      }
    },
    {
      "type": "Feature",
      "properties": {
        "id": "train_029_REF_006",
        "parcel_id": "train_029_P_006",
        "parcel_layer": "REFERENCE",
        "boundary_representation": "REFERENCE",
        "land_use_class": "vegetation",
        "area_sqm": 2357.71,
        "perimeter_m": 197.01,
        "source": "Synthetic Legacy Cadastral Map (Non-Authoritative Demo)"
      },
      "geometry": {
        "type": "Polygon",
        "coordinates": [
          [
            [
              77.6205253,
              12.9978029
            ],
            [
              77.6209079,
              12.9978103
            ],
            [
              77.6208985,
              12.9972858
            ],
            [
              77.6205251,
              12.9972892
            ],
            [
              77.6205253,
              12.9978029
            ]
          ]
        ]
      }
    },
    {
      "type": "Feature",
      "properties": {
        "id": "train_029_REF_007",
        "parcel_id": "train_029_P_007",
        "parcel_layer": "REFERENCE",
        "boundary_representation": "REFERENCE",
        "land_use_class": "vegetation",
        "area_sqm": 2497.78,
        "perimeter_m": 202.14,
        "source": "Synthetic Legacy Cadastral Map (Non-Authoritative Demo)"
      },
      "geometry": {
        "type": "Polygon",
        "coordinates": [
          [
            [
              77.6209382,
              12.9983442
            ],
            [
              77.6213254,
              12.9983391
            ],
            [
              77.6213264,
              12.9978146
            ],
            [
              77.6209201,
              12.9978211
            ],
            [
              77.6209382,
              12.9983442
            ]
          ]
        ]
      }
    },
    {
      "type": "Feature",
      "properties": {
        "id": "train_029_REF_008",
        "parcel_id": "train_029_P_008",
        "parcel_layer": "REFERENCE",
        "boundary_representation": "REFERENCE",
        "land_use_class": "vacant",
        "area_sqm": 2445.93,
        "perimeter_m": 200.03,
        "source": "Synthetic Legacy Cadastral Map (Non-Authoritative Demo)"
      },
      "geometry": {
        "type": "Polygon",
        "coordinates": [
          [
            [
              77.6209658,
              12.9978214
            ],
            [
              77.6213544,
              12.9978179
            ],
            [
              77.6213503,
              12.9972969
            ],
            [
              77.620954,
              12.9973053
            ],
            [
              77.6209658,
              12.9978214
            ]
          ]
        ]
      }
    },
    {
      "type": "Feature",
      "properties": {
        "id": "train_029_REF_009",
        "parcel_id": "train_029_P_009",
        "parcel_layer": "REFERENCE",
        "boundary_representation": "REFERENCE",
        "land_use_class": "industrial",
        "area_sqm": 3439.27,
        "perimeter_m": 235.99,
        "source": "Synthetic Legacy Cadastral Map (Non-Authoritative Demo)"
      },
      "geometry": {
        "type": "Polygon",
        "coordinates": [
          [
            [
              77.6190647,
              12.9970731
            ],
            [
              77.6196689,
              12.9970691
            ],
            [
              77.6196756,
              12.9965969
            ],
            [
              77.6190754,
              12.9965947
            ],
            [
              77.6190647,
              12.9970731
            ]
          ]
        ]
      }
    },
    {
      "type": "Feature",
      "properties": {
        "id": "train_029_REF_010",
        "parcel_id": "train_029_P_010",
        "parcel_layer": "REFERENCE",
        "boundary_representation": "REFERENCE",
        "land_use_class": "residential",
        "area_sqm": 3555.66,
        "perimeter_m": 239.75,
        "source": "Synthetic Legacy Cadastral Map (Non-Authoritative Demo)"
      },
      "geometry": {
        "type": "Polygon",
        "coordinates": [
          [
            [
              77.61907,
              12.9965622
            ],
            [
              77.6196756,
              12.9965746
            ],
            [
              77.6196724,
              12.9960818
            ],
            [
              77.6190634,
              12.9960804
            ],
            [
              77.61907,
              12.9965622
            ]
          ]
        ]
      }
    },
    {
      "type": "Feature",
      "properties": {
        "id": "train_029_REF_011",
        "parcel_id": "train_029_P_011",
        "parcel_layer": "REFERENCE",
        "boundary_representation": "REFERENCE",
        "land_use_class": "residential",
        "area_sqm": 3591.8,
        "perimeter_m": 241.08,
        "source": "Synthetic Legacy Cadastral Map (Non-Authoritative Demo)"
      },
      "geometry": {
        "type": "Polygon",
        "coordinates": [
          [
            [
              77.619701,
              12.9970883
            ],
            [
              77.6203155,
              12.9970706
            ],
            [
              77.6203114,
              12.9965853
            ],
            [
              77.6196994,
              12.9965989
            ],
            [
              77.619701,
              12.9970883
            ]
          ]
        ]
      }
    },
    {
      "type": "Feature",
      "properties": {
        "id": "train_029_REF_012",
        "parcel_id": "train_029_P_012",
        "parcel_layer": "REFERENCE",
        "boundary_representation": "REFERENCE",
        "land_use_class": "residential",
        "area_sqm": 3581.76,
        "perimeter_m": 240.39,
        "source": "Synthetic Legacy Cadastral Map (Non-Authoritative Demo)"
      },
      "geometry": {
        "type": "Polygon",
        "coordinates": [
          [
            [
              77.6197399,
              12.9965979
            ],
            [
              77.6203455,
              12.9965922
            ],
            [
              77.6203368,
              12.9960971
            ],
            [
              77.6197346,
              12.996106
            ],
            [
              77.6197399,
              12.9965979
            ]
          ]
        ]
      }
    },
    {
      "type": "Feature",
      "properties": {
        "id": "train_029_REF_013",
        "parcel_id": "train_029_P_013",
        "parcel_layer": "REFERENCE",
        "boundary_representation": "REFERENCE",
        "land_use_class": "commercial",
        "area_sqm": 2283.25,
        "perimeter_m": 192.74,
        "source": "Synthetic Legacy Cadastral Map (Non-Authoritative Demo)"
      },
      "geometry": {
        "type": "Polygon",
        "coordinates": [
          [
            [
              77.6205206,
              12.9970784
            ],
            [
              77.6209015,
              12.9970859
            ],
            [
              77.6209141,
              12.9965868
            ],
            [
              77.6205202,
              12.9965965
            ],
            [
              77.6205206,
              12.9970784
            ]
          ]
        ]
      }
    },
    {
      "type": "Feature",
      "properties": {
        "id": "train_029_REF_014",
        "parcel_id": "train_029_P_014",
        "parcel_layer": "REFERENCE",
        "boundary_representation": "REFERENCE",
        "land_use_class": "water",
        "area_sqm": 2321.28,
        "perimeter_m": 193.67,
        "source": "Synthetic Legacy Cadastral Map (Non-Authoritative Demo)"
      },
      "geometry": {
        "type": "Polygon",
        "coordinates": [
          [
            [
              77.6205182,
              12.9965662
            ],
            [
              77.6209175,
              12.9965732
            ],
            [
              77.620915,
              12.9960894
            ],
            [
              77.6205094,
              12.9960899
            ],
            [
              77.6205182,
              12.9965662
            ]
          ]
        ]
      }
    },
    {
      "type": "Feature",
      "properties": {
        "id": "train_029_REF_015",
        "parcel_id": "train_029_P_015",
        "parcel_layer": "REFERENCE",
        "boundary_representation": "REFERENCE",
        "land_use_class": "mixed_use",
        "area_sqm": 2234.15,
        "perimeter_m": 190.12,
        "source": "Synthetic Legacy Cadastral Map (Non-Authoritative Demo)"
      },
      "geometry": {
        "type": "Polygon",
        "coordinates": [
          [
            [
              77.6209312,
              12.9970719
            ],
            [
              77.621313,
              12.997074
            ],
            [
              77.6213306,
              12.996603
            ],
            [
              77.6209278,
              12.9965952
            ],
            [
              77.6209312,
              12.9970719
            ]
          ]
        ]
      }
    },
    {
      "type": "Feature",
      "properties": {
        "id": "train_029_REF_016",
        "parcel_id": "train_029_P_016",
        "parcel_layer": "REFERENCE",
        "boundary_representation": "REFERENCE",
        "land_use_class": "agricultural",
        "area_sqm": 2286.26,
        "perimeter_m": 192.13,
        "source": "Synthetic Legacy Cadastral Map (Non-Authoritative Demo)"
      },
      "geometry": {
        "type": "Polygon",
        "coordinates": [
          [
            [
              77.6209557,
              12.9965878
            ],
            [
              77.6213616,
              12.9965866
            ],
            [
              77.6213587,
              12.9961163
            ],
            [
              77.6209631,
              12.9961086
            ],
            [
              77.6209557,
              12.9965878
            ]
          ]
        ]
      }
    }
  ]
}