{
  "type": "FeatureCollection",
  "crs": {
    "type": "name",
    "properties": {
      "name": "EPSG:4326"
    }
  },
  "features": [
    {
      "type": "Feature",
      "properties": {
        "id": "train_091_REF_001",
        "parcel_id": "train_091_P_001",
        "parcel_layer": "REFERENCE",
        "boundary_representation": "REFERENCE",
        "land_use_class": "industrial",
        "area_sqm": 1860.87,
        "perimeter_m": 179.14,
        "source": "Synthetic Legacy Cadastral Map (Non-Authoritative Demo)"
      },
      "geometry": {
        "type": "Polygon",
        "coordinates": [
          [
            [
              77.6250971,
              13.0103417
            ],
            [
              77.6253919,
              13.0102877
            ],
            [
              77.6253993,
              13.0098079
            ],
            [
              77.6250839,
              13.0098068
            ],
            [
              77.6250971,
              13.0103417
            ]
          ]
        ]
      }
    },
    {
      "type": "Feature",
      "properties": {
        "id": "train_091_REF_002",
        "parcel_id": "train_091_P_002",
        "parcel_layer": "REFERENCE",
        "boundary_representation": "REFERENCE",
        "land_use_class": "residential",
        "area_sqm": 1782.28,
        "perimeter_m": 173.68,
        "source": "Synthetic Legacy Cadastral Map (Non-Authoritative Demo)"
      },
      "geometry": {
        "type": "Polygon",
        "coordinates": [
          [
            [
              77.6251263,
              13.0097798
            ],
            [
              77.625383,
              13.0097662
            ],
            [
              77.6254369,
              13.0093055
            ],
            [
              77.6250684,
              13.0092915
            ],
            [
              77.6251263,
              13.0097798
            ]
          ]
        ]
      }
    },
    {
      "type": "Feature",
      "properties": {
        "id": "train_091_REF_003",
        "parcel_id": "train_091_P_003",
        "parcel_layer": "REFERENCE",
        "boundary_representation": "REFERENCE",
        "land_use_class": "residential",
        "area_sqm": 1985.57,
        "perimeter_m": 183.47,
        "source": "Synthetic Legacy Cadastral Map (Non-Authoritative Demo)"
      },
      "geometry": {
        "type": "Polygon",
        "coordinates": [
          [
            [
              77.6255082,
              13.0103317
            ],
            [
              77.6258275,
              13.0102975
            ],
            [
              77.62582,
              13.0098095
            ],
            [
              77.6254922,
              13.0097991
            ],
            [
              77.6255082,
              13.0103317
            ]
          ]
        ]
      }
    },
    {
      "type": "Feature",
      "properties": {
        "id": "train_091_REF_004",
        "parcel_id": "train_091_P_004",
        "parcel_layer": "REFERENCE",
        "boundary_representation": "REFERENCE",
        "land_use_class": "residential",
        "area_sqm": 1936.82,
        "perimeter_m": 181.53,
        "source": "Synthetic Legacy Cadastral Map (Non-Authoritative Demo)"
      },
      "geometry": {
        "type": "Polygon",
        "coordinates": [
          [
            [
              77.6255293,
              13.0097563
            ],
            [
              77.6258638,
              13.0097956
            ],
            [
              77.6258116,
              13.0092634
            ],
            [
              77.6254999,
              13.009289
            ],
            [
              77.6255293,
              13.0097563
            ]
          ]
        ]
      }
    },
    {
      "type": "Feature",
      "properties": {
        "id": "train_091_REF_005",
        "parcel_id": "train_091_P_005",
        "parcel_layer": "REFERENCE",
        "boundary_representation": "REFERENCE",
        "land_use_class": "commercial",
        "area_sqm": 3644.69,
        "perimeter_m": 242.83,
        "source": "Synthetic Legacy Cadastral Map (Non-Authoritative Demo)"
      },
      "geometry": {
        "type": "Polygon",
        "coordinates": [
          [
            [
              77.6260236,
              13.0103325
            ],
            [
              77.6266543,
              13.010292
            ],
            [
              77.6266255,
              13.0098218
            ],
            [
              77.6260286,
              13.009815
            ],
            [
              77.6260236,
              13.0103325
            ]
          ]
        ]
      }
    },
    {
      "type": "Feature",
      "properties": {
        "id": "train_091_REF_006",
        "parcel_id": "train_091_P_006",
        "parcel_layer": "REFERENCE",
        "boundary_representation": "REFERENCE",
        "land_use_class": "mixed_use",
        "area_sqm": 3278.08,
        "perimeter_m": 231.26,
        "source": "Synthetic Legacy Cadastral Map (Non-Authoritative Demo)"
      },
      "geometry": {
        "type": "Polygon",
        "coordinates": [
          [
            [
              77.6259833,
              13.009729
            ],
            [
              77.6266005,
              13.0097483
            ],
            [
              77.6265922,
              13.0092845
            ],
            [
              77.6259986,
              13.0092916
            ],
            [
              77.6259833,
              13.009729
            ]
          ]
        ]
      }
    },
    {
      "type": "Feature",
      "properties": {
        "id": "train_091_REF_007",
        "parcel_id": "train_091_P_007",
        "parcel_layer": "REFERENCE",
        "boundary_representation": "REFERENCE",
        "land_use_class": "mixed_use",
        "area_sqm": 3778.59,
        "perimeter_m": 247.94,
        "source": "Synthetic Legacy Cadastral Map (Non-Authoritative Demo)"
      },
      "geometry": {
        "type": "Polygon",
        "coordinates": [
          [
            [
              77.6266575,
              13.0103324
            ],
            [
              77.6272992,
              13.0103277
            ],
            [
              77.6273022,
              13.0098506
            ],
            [
              77.6266559,
              13.0098329
            ],
            [
              77.6266575,
              13.0103324
            ]
          ]
        ]
      }
    },
    {
      "type": "Feature",
      "properties": {
        "id": "train_091_REF_008",
        "parcel_id": "train_091_P_008",
        "parcel_layer": "REFERENCE",
        "boundary_representation": "REFERENCE",
        "land_use_class": "vegetation",
        "area_sqm": 3606.47,
        "perimeter_m": 241.41,
        "source": "Synthetic Legacy Cadastral Map (Non-Authoritative Demo)"
      },
      "geometry": {
        "type": "Polygon",
        "coordinates": [
          [
            [
              77.6267454,
              13.0097858
            ],
            [
              77.6273353,
              13.0097714
            ],
            [
              77.6273548,
              13.0092727
            ],
            [
              77.62673,
              13.009296
            ],
            [
              77.6267454,
              13.0097858
            ]
          ]
        ]
      }
    },
    {
      "type": "Feature",
      "properties": {
        "id": "train_091_REF_009",
        "parcel_id": "train_091_P_009",
        "parcel_layer": "REFERENCE",
        "boundary_representation": "REFERENCE",
        "land_use_class": "vacant",
        "area_sqm": 1509.2,
        "perimeter_m": 156.65,
        "source": "Synthetic Legacy Cadastral Map (Non-Authoritative Demo)"
      },
      "geometry": {
        "type": "Polygon",
        "coordinates": [
          [
            [
              77.6250682,
              13.0089907
            ],
            [
              77.625387,
              13.008989
            ],
            [
              77.6254045,
              13.0086202
            ],
            [
              77.6250865,
              13.0085731
            ],
            [
              77.6250682,
              13.0089907
            ]
          ]
        ]
      }
    },
    {
      "type": "Feature",
      "properties": {
        "id": "train_091_REF_010",
        "parcel_id": "train_091_P_010",
        "parcel_layer": "REFERENCE",
        "boundary_representation": "REFERENCE",
        "land_use_class": "industrial",
        "area_sqm": 1411.5,
        "perimeter_m": 152.66,
        "source": "Synthetic Legacy Cadastral Map (Non-Authoritative Demo)"
      },
      "geometry": {
        "type": "Polygon",
        "coordinates": [
          [
            [
              77.6251271,
              13.0085018
            ],
            [
              77.6253918,
              13.0085099
            ],
            [
              77.6254426,
              13.008122
            ],
            [
              77.6251236,
              13.0080881
            ],
            [
              77.6251271,
              13.0085018
            ]
          ]
        ]
      }
    },
    {
      "type": "Feature",
      "properties": {
        "id": "train_091_REF_011",
        "parcel_id": "train_091_P_011",
        "parcel_layer": "REFERENCE",
        "boundary_representation": "REFERENCE",
        "land_use_class": "industrial",
        "area_sqm": 1453.45,
        "perimeter_m": 155.52,
        "source": "Synthetic Legacy Cadastral Map (Non-Authoritative Demo)"
      },
      "geometry": {
        "type": "Polygon",
        "coordinates": [
          [
            [
              77.6254652,
              13.0090394
            ],
            [
              77.6257682,
              13.0089879
            ],
            [
              77.6257829,
              13.0086282
            ],
            [
              77.6254893,
              13.0085874
            ],
            [
              77.6254652,
              13.0090394
            ]
          ]
        ]
      }
    },
    {
      "type": "Feature",
      "properties": {
        "id": "train_091_REF_012",
        "parcel_id": "train_091_P_012",
        "parcel_layer": "REFERENCE",
        "boundary_representation": "REFERENCE",
        "land_use_class": "residential",
        "area_sqm": 1626.59,
        "perimeter_m": 164.82,
        "source": "Synthetic Legacy Cadastral Map (Non-Authoritative Demo)"
      },
      "geometry": {
        "type": "Polygon",
        "coordinates": [
          [
            [
              77.6255293,
              13.0085687
            ],
            [
              77.6258016,
              13.0085443
            ],
            [
              77.6258367,
              13.0081398
            ],
            [
              77.6254908,
              13.0080972
            ],
            [
              77.6255293,
              13.0085687
            ]
          ]
        ]
      }
    },
    {
      "type": "Feature",
      "properties": {
        "id": "train_091_REF_013",
        "parcel_id": "train_091_P_013",
        "parcel_layer": "REFERENCE",
        "boundary_representation": "REFERENCE",
        "land_use_class": "residential",
        "area_sqm": 2967.86,
        "perimeter_m": 222.68,
        "source": "Synthetic Legacy Cadastral Map (Non-Authoritative Demo)"
      },
      "geometry": {
        "type": "Polygon",
        "coordinates": [
          [
            [
              77.6260407,
              13.0089901
            ],
            [
              77.6266327,
              13.0090088
            ],
            [
              77.6266423,
              13.0086126
            ],
            [
              77.6260081,
              13.0085796
            ],
            [
              77.6260407,
              13.0089901
            ]
          ]
        ]
      }
    },
    {
      "type": "Feature",
      "properties": {
        "id": "train_091_REF_014",
        "parcel_id": "train_091_P_014",
        "parcel_layer": "REFERENCE",
        "boundary_representation": "REFERENCE",
        "land_use_class": "commercial",
        "area_sqm": 2860.61,
        "perimeter_m": 218.69,
        "source": "Synthetic Legacy Cadastral Map (Non-Authoritative Demo)"
      },
      "geometry": {
        "type": "Polygon",
        "coordinates": [
          [
            [
              77.6260342,
              13.0085071
            ],
            [
              77.6266475,
              13.0085633
            ],
            [
              77.626606,
              13.008136
            ],
            [
              77.626025,
              13.0081346
            ],
            [
              77.6260342,
              13.0085071
            ]
          ]
        ]
      }
    },
    {
      "type": "Feature",
      "properties": {
        "id": "train_091_REF_015",
        "parcel_id": "train_091_P_015",
        "parcel_layer": "REFERENCE",
        "boundary_representation": "REFERENCE",
        "land_use_class": "commercial",
        "area_sqm": 3280.74,
        "perimeter_m": 233.03,
        "source": "Synthetic Legacy Cadastral Map (Non-Authoritative Demo)"
      },
      "geometry": {
        "type": "Polygon",
        "coordinates": [
          [
            [
              77.6266755,
              13.009052
            ],
            [
              77.6273196,
              13.0090492
            ],
            [
              77.6273016,
              13.0086212
            ],
            [
              77.6266774,
              13.0086189
            ],
            [
              77.6266755,
              13.009052
            ]
          ]
        ]
      }
    },
    {
      "type": "Feature",
      "properties": {
        "id": "train_091_REF_016",
        "parcel_id": "train_091_P_016",
        "parcel_layer": "REFERENCE",
        "boundary_representation": "REFERENCE",
        "land_use_class": "mixed_use",
        "area_sqm": 3009.4,
        "perimeter_m": 223.79,
        "source": "Synthetic Legacy Cadastral Map (Non-Authoritative Demo)"
      },
      "geometry": {
        "type": "Polygon",
        "coordinates": [
          [
            [
              77.6267358,
              13.0085347
            ],
            [
              77.6273429,
              13.0085551
            ],
            [
              77.6273662,
              13.008106
            ],
            [
              77.6267562,
              13.0081595
            ],
            [
              77.6267358,
              13.0085347
            ]
          ]
        ]
      }
    }
  ]
}