{
  "type": "FeatureCollection",
  "crs": {
    "type": "name",
    "properties": {
      "name": "EPSG:4326"
    }
  },
  "features": [
    {
      "type": "Feature",
      "properties": {
        "id": "train_007_BND_001",
        "parcel_id": "train_007_P_001",
        "boundary_type": "VISIBLE",
        "confidence": 0.888,
        "length_m": 37.74,
        "evidence_sources": [
          "Drone_RGB_Edge",
          "DSM_Breakline"
        ]
      },
      "geometry": {
        "type": "LineString",
        "coordinates": [
          [
            77.5980707,
            12.9953393
          ],
          [
            77.598418,
            12.9953236
          ]
        ]
      }
    },
    {
      "type": "Feature",
      "properties": {
        "id": "train_007_BND_002",
        "parcel_id": "train_007_P_001",
        "boundary_type": "VISIBLE",
        "confidence": 0.898,
        "length_m": 35.68,
        "evidence_sources": [
          "Drone_RGB_Edge",
          "DSM_Breakline"
        ]
      },
      "geometry": {
        "type": "LineString",
        "coordinates": [
          [
            77.598418,
            12.9953236
          ],
          [
            77.5984211,
            12.9950013
          ]
        ]
      }
    },
    {
      "type": "Feature",
      "properties": {
        "id": "train_007_BND_003",
        "parcel_id": "train_007_P_001",
        "boundary_type": "VISIBLE",
        "confidence": 0.937,
        "length_m": 38.73,
        "evidence_sources": [
          "Drone_RGB_Edge",
          "DSM_Breakline"
        ]
      },
      "geometry": {
        "type": "LineString",
        "coordinates": [
          [
            77.5984211,
            12.9950013
          ],
          [
            77.5980643,
            12.9949978
          ]
        ]
      }
    },
    {
      "type": "Feature",
      "properties": {
        "id": "train_007_BND_004",
        "parcel_id": "train_007_P_001",
        "boundary_type": "VISIBLE",
        "confidence": 0.852,
        "length_m": 37.81,
        "evidence_sources": [
          "Drone_RGB_Edge",
          "DSM_Breakline"
        ]
      },
      "geometry": {
        "type": "LineString",
        "coordinates": [
          [
            77.5980643,
            12.9949978
          ],
          [
            77.5980707,
            12.9953393
          ]
        ]
      }
    },
    {
      "type": "Feature",
      "properties": {
        "id": "train_007_BND_005",
        "parcel_id": "train_007_P_002",
        "boundary_type": "VISIBLE",
        "confidence": 0.846,
        "length_m": 38.14,
        "evidence_sources": [
          "Drone_RGB_Edge",
          "DSM_Breakline"
        ]
      },
      "geometry": {
        "type": "LineString",
        "coordinates": [
          [
            77.5980705,
            12.9949806
          ],
          [
            77.5984219,
            12.99498
          ]
        ]
      }
    },
    {
      "type": "Feature",
      "properties": {
        "id": "train_007_BND_006",
        "parcel_id": "train_007_P_002",
        "boundary_type": "VISIBLE",
        "confidence": 0.848,
        "length_m": 34.7,
        "evidence_sources": [
          "Drone_RGB_Edge",
          "DSM_Breakline"
        ]
      },
      "geometry": {
        "type": "LineString",
        "coordinates": [
          [
            77.5984219,
            12.99498
          ],
          [
            77.5984118,
            12.9946667
          ]
        ]
      }
    },
    {
      "type": "Feature",
      "properties": {
        "id": "train_007_BND_007",
        "parcel_id": "train_007_P_002",
        "boundary_type": "VISIBLE",
        "confidence": 0.93,
        "length_m": 38.29,
        "evidence_sources": [
          "Drone_RGB_Edge",
          "DSM_Breakline"
        ]
      },
      "geometry": {
        "type": "LineString",
        "coordinates": [
          [
            77.5984118,
            12.9946667
          ],
          [
            77.5980593,
            12.9946529
          ]
        ]
      }
    },
    {
      "type": "Feature",
      "properties": {
        "id": "train_007_BND_008",
        "parcel_id": "train_007_P_002",
        "boundary_type": "VISIBLE",
        "confidence": 0.907,
        "length_m": 36.3,
        "evidence_sources": [
          "Drone_RGB_Edge",
          "DSM_Breakline"
        ]
      },
      "geometry": {
        "type": "LineString",
        "coordinates": [
          [
            77.5980593,
            12.9946529
          ],
          [
            77.5980705,
            12.9949806
          ]
        ]
      }
    },
    {
      "type": "Feature",
      "properties": {
        "id": "train_007_BND_009",
        "parcel_id": "train_007_P_003",
        "boundary_type": "VISIBLE",
        "confidence": 0.902,
        "length_m": 38.26,
        "evidence_sources": [
          "Drone_RGB_Edge",
          "DSM_Breakline"
        ]
      },
      "geometry": {
        "type": "LineString",
        "coordinates": [
          [
            77.5984399,
            12.9953418
          ],
          [
            77.5987923,
            12.9953343
          ]
        ]
      }
    },
    {
      "type": "Feature",
      "properties": {
        "id": "train_007_BND_010",
        "parcel_id": "train_007_P_003",
        "boundary_type": "INFERRED",
        "confidence": 0.723,
        "length_m": 35.07,
        "evidence_sources": [
          "Road_Corridor_Offset",
          "Adjacent_Parcel_Topology"
        ]
      },
      "geometry": {
        "type": "LineString",
        "coordinates": [
          [
            77.5987923,
            12.9953343
          ],
          [
            77.5988005,
            12.9950176
          ]
        ]
      }
    },
    {
      "type": "Feature",
      "properties": {
        "id": "train_007_BND_011",
        "parcel_id": "train_007_P_003",
        "boundary_type": "VISIBLE",
        "confidence": 0.851,
        "length_m": 39.27,
        "evidence_sources": [
          "Drone_RGB_Edge",
          "DSM_Breakline"
        ]
      },
      "geometry": {
        "type": "LineString",
        "coordinates": [
          [
            77.5988005,
            12.9950176
          ],
          [
            77.5984389,
            12.9950061
          ]
        ]
      }
    },
    {
      "type": "Feature",
      "properties": {
        "id": "train_007_BND_012",
        "parcel_id": "train_007_P_003",
        "boundary_type": "INFERRED",
        "confidence": 0.739,
        "length_m": 37.16,
        "evidence_sources": [
          "Road_Corridor_Offset",
          "Adjacent_Parcel_Topology"
        ]
      },
      "geometry": {
        "type": "LineString",
        "coordinates": [
          [
            77.5984389,
            12.9950061
          ],
          [
            77.5984399,
            12.9953418
          ]
        ]
      }
    },
    {
      "type": "Feature",
      "properties": {
        "id": "train_007_BND_013",
        "parcel_id": "train_007_P_004",
        "boundary_type": "INFERRED",
        "confidence": 0.666,
        "length_m": 36.57,
        "evidence_sources": [
          "Road_Corridor_Offset",
          "Adjacent_Parcel_Topology"
        ]
      },
      "geometry": {
        "type": "LineString",
        "coordinates": [
          [
            77.5984483,
            12.9949753
          ],
          [
            77.5987852,
            12.9949804
          ]
        ]
      }
    },
    {
      "type": "Feature",
      "properties": {
        "id": "train_007_BND_014",
        "parcel_id": "train_007_P_004",
        "boundary_type": "VISIBLE",
        "confidence": 0.937,
        "length_m": 34.28,
        "evidence_sources": [
          "Drone_RGB_Edge",
          "DSM_Breakline"
        ]
      },
      "geometry": {
        "type": "LineString",
        "coordinates": [
          [
            77.5987852,
            12.9949804
          ],
          [
            77.5987933,
            12.9946708
          ]
        ]
      }
    },
    {
      "type": "Feature",
      "properties": {
        "id": "train_007_BND_015",
        "parcel_id": "train_007_P_004",
        "boundary_type": "VISIBLE",
        "confidence": 0.912,
        "length_m": 37.74,
        "evidence_sources": [
          "Drone_RGB_Edge",
          "DSM_Breakline"
        ]
      },
      "geometry": {
        "type": "LineString",
        "coordinates": [
          [
            77.5987933,
            12.9946708
          ],
          [
            77.5984456,
            12.9946675
          ]
        ]
      }
    },
    {
      "type": "Feature",
      "properties": {
        "id": "train_007_BND_016",
        "parcel_id": "train_007_P_004",
        "boundary_type": "VISIBLE",
        "confidence": 0.877,
        "length_m": 34.07,
        "evidence_sources": [
          "Drone_RGB_Edge",
          "DSM_Breakline"
        ]
      },
      "geometry": {
        "type": "LineString",
        "coordinates": [
          [
            77.5984456,
            12.9946675
          ],
          [
            77.5984483,
            12.9949753
          ]
        ]
      }
    },
    {
      "type": "Feature",
      "properties": {
        "id": "train_007_BND_017",
        "parcel_id": "train_007_P_005",
        "boundary_type": "VISIBLE",
        "confidence": 0.935,
        "length_m": 68.91,
        "evidence_sources": [
          "Drone_RGB_Edge",
          "DSM_Breakline"
        ]
      },
      "geometry": {
        "type": "LineString",
        "coordinates": [
          [
            77.599014,
            12.9953246
          ],
          [
            77.5996486,
            12.9953406
          ]
        ]
      }
    },
    {
      "type": "Feature",
      "properties": {
        "id": "train_007_BND_018",
        "parcel_id": "train_007_P_005",
        "boundary_type": "INFERRED",
        "confidence": 0.641,
        "length_m": 37.76,
        "evidence_sources": [
          "Road_Corridor_Offset",
          "Adjacent_Parcel_Topology"
        ]
      },
      "geometry": {
        "type": "LineString",
        "coordinates": [
          [
            77.5996486,
            12.9953406
          ],
          [
            77.5996529,
            12.9949995
          ]
        ]
      }
    },
    {
      "type": "Feature",
      "properties": {
        "id": "train_007_BND_019",
        "parcel_id": "train_007_P_005",
        "boundary_type": "VISIBLE",
        "confidence": 0.945,
        "length_m": 69.58,
        "evidence_sources": [
          "Drone_RGB_Edge",
          "DSM_Breakline"
        ]
      },
      "geometry": {
        "type": "LineString",
        "coordinates": [
          [
            77.5996529,
            12.9949995
          ],
          [
            77.5990119,
            12.9949972
          ]
        ]
      }
    },
    {
      "type": "Feature",
      "properties": {
        "id": "train_007_BND_020",
        "parcel_id": "train_007_P_005",
        "boundary_type": "VISIBLE",
        "confidence": 0.936,
        "length_m": 36.24,
        "evidence_sources": [
          "Drone_RGB_Edge",
          "DSM_Breakline"
        ]
      },
      "geometry": {
        "type": "LineString",
        "coordinates": [
          [
            77.5990119,
            12.9949972
          ],
          [
            77.599014,
            12.9953246
          ]
        ]
      }
    },
    {
      "type": "Feature",
      "properties": {
        "id": "train_007_BND_021",
        "parcel_id": "train_007_P_006",
        "boundary_type": "VISIBLE",
        "confidence": 0.917,
        "length_m": 67.61,
        "evidence_sources": [
          "Drone_RGB_Edge",
          "DSM_Breakline"
        ]
      },
      "geometry": {
        "type": "LineString",
        "coordinates": [
          [
            77.5990145,
            12.9949866
          ],
          [
            77.5996373,
            12.9949947
          ]
        ]
      }
    },
    {
      "type": "Feature",
      "properties": {
        "id": "train_007_BND_022",
        "parcel_id": "train_007_P_006",
        "boundary_type": "VISIBLE",
        "confidence": 0.856,
        "length_m": 36.75,
        "evidence_sources": [
          "Drone_RGB_Edge",
          "DSM_Breakline"
        ]
      },
      "geometry": {
        "type": "LineString",
        "coordinates": [
          [
            77.5996373,
            12.9949947
          ],
          [
            77.599649,
            12.9946629
          ]
        ]
      }
    },
    {
      "type": "Feature",
      "properties": {
        "id": "train_007_BND_023",
        "parcel_id": "train_007_P_006",
        "boundary_type": "VISIBLE",
        "confidence": 0.839,
        "length_m": 70.57,
        "evidence_sources": [
          "Drone_RGB_Edge",
          "DSM_Breakline"
        ]
      },
      "geometry": {
        "type": "LineString",
        "coordinates": [
          [
            77.599649,
            12.9946629
          ],
          [
            77.5989989,
            12.9946579
          ]
        ]
      }
    },
    {
      "type": "Feature",
      "properties": {
        "id": "train_007_BND_024",
        "parcel_id": "train_007_P_006",
        "boundary_type": "VISIBLE",
        "confidence": 0.843,
        "length_m": 36.42,
        "evidence_sources": [
          "Drone_RGB_Edge",
          "DSM_Breakline"
        ]
      },
      "geometry": {
        "type": "LineString",
        "coordinates": [
          [
            77.5989989,
            12.9946579
          ],
          [
            77.5990145,
            12.9949866
          ]
        ]
      }
    },
    {
      "type": "Feature",
      "properties": {
        "id": "train_007_BND_025",
        "parcel_id": "train_007_P_007",
        "boundary_type": "VISIBLE",
        "confidence": 0.889,
        "length_m": 69.36,
        "evidence_sources": [
          "Drone_RGB_Edge",
          "DSM_Breakline"
        ]
      },
      "geometry": {
        "type": "LineString",
        "coordinates": [
          [
            77.5996778,
            12.9953255
          ],
          [
            77.6003168,
            12.9953283
          ]
        ]
      }
    },
    {
      "type": "Feature",
      "properties": {
        "id": "train_007_BND_026",
        "parcel_id": "train_007_P_007",
        "boundary_type": "VISIBLE",
        "confidence": 0.891,
        "length_m": 35.72,
        "evidence_sources": [
          "Drone_RGB_Edge",
          "DSM_Breakline"
        ]
      },
      "geometry": {
        "type": "LineString",
        "coordinates": [
          [
            77.6003168,
            12.9953283
          ],
          [
            77.6003151,
            12.9950056
          ]
        ]
      }
    },
    {
      "type": "Feature",
      "properties": {
        "id": "train_007_BND_027",
        "parcel_id": "train_007_P_007",
        "boundary_type": "INFERRED",
        "confidence": 0.694,
        "length_m": 69.39,
        "evidence_sources": [
          "Road_Corridor_Offset",
          "Adjacent_Parcel_Topology"
        ]
      },
      "geometry": {
        "type": "LineString",
        "coordinates": [
          [
            77.6003151,
            12.9950056
          ],
          [
            77.5996759,
            12.9950156
          ]
        ]
      }
    },
    {
      "type": "Feature",
      "properties": {
        "id": "train_007_BND_028",
        "parcel_id": "train_007_P_007",
        "boundary_type": "VISIBLE",
        "confidence": 0.876,
        "length_m": 34.31,
        "evidence_sources": [
          "Drone_RGB_Edge",
          "DSM_Breakline"
        ]
      },
      "geometry": {
        "type": "LineString",
        "coordinates": [
          [
            77.5996759,
            12.9950156
          ],
          [
            77.5996778,
            12.9953255
          ]
        ]
      }
    },
    {
      "type": "Feature",
      "properties": {
        "id": "train_007_BND_029",
        "parcel_id": "train_007_P_008",
        "boundary_type": "VISIBLE",
        "confidence": 0.879,
        "length_m": 69.89,
        "evidence_sources": [
          "Drone_RGB_Edge",
          "DSM_Breakline"
        ]
      },
      "geometry": {
        "type": "LineString",
        "coordinates": [
          [
            77.599671,
            12.9949937
          ],
          [
            77.6003148,
            12.9949847
          ]
        ]
      }
    },
    {
      "type": "Feature",
      "properties": {
        "id": "train_007_BND_030",
        "parcel_id": "train_007_P_008",
        "boundary_type": "VISIBLE",
        "confidence": 0.829,
        "length_m": 34.97,
        "evidence_sources": [
          "Drone_RGB_Edge",
          "DSM_Breakline"
        ]
      },
      "geometry": {
        "type": "LineString",
        "coordinates": [
          [
            77.6003148,
            12.9949847
          ],
          [
            77.6003106,
            12.9946688
          ]
        ]
      }
    },
    {
      "type": "Feature",
      "properties": {
        "id": "train_007_BND_031",
        "parcel_id": "train_007_P_008",
        "boundary_type": "VISIBLE",
        "confidence": 0.914,
        "length_m": 68.27,
        "evidence_sources": [
          "Drone_RGB_Edge",
          "DSM_Breakline"
        ]
      },
      "geometry": {
        "type": "LineString",
        "coordinates": [
          [
            77.6003106,
            12.9946688
          ],
          [
            77.5996817,
            12.994665
          ]
        ]
      }
    },
    {
      "type": "Feature",
      "properties": {
        "id": "train_007_BND_032",
        "parcel_id": "train_007_P_008",
        "boundary_type": "INFERRED",
        "confidence": 0.654,
        "length_m": 36.4,
        "evidence_sources": [
          "Road_Corridor_Offset",
          "Adjacent_Parcel_Topology"
        ]
      },
      "geometry": {
        "type": "LineString",
        "coordinates": [
          [
            77.5996817,
            12.994665
          ],
          [
            77.599671,
            12.9949937
          ]
        ]
      }
    },
    {
      "type": "Feature",
      "properties": {
        "id": "train_007_BND_033",
        "parcel_id": "train_007_P_009",
        "boundary_type": "VISIBLE",
        "confidence": 0.85,
        "length_m": 37.56,
        "evidence_sources": [
          "Drone_RGB_Edge",
          "DSM_Breakline"
        ]
      },
      "geometry": {
        "type": "LineString",
        "coordinates": [
          [
            77.5980687,
            12.9943672
          ],
          [
            77.5984145,
            12.9943786
          ]
        ]
      }
    },
    {
      "type": "Feature",
      "properties": {
        "id": "train_007_BND_034",
        "parcel_id": "train_007_P_009",
        "boundary_type": "VISIBLE",
        "confidence": 0.846,
        "length_m": 71.07,
        "evidence_sources": [
          "Drone_RGB_Edge",
          "DSM_Breakline"
        ]
      },
      "geometry": {
        "type": "LineString",
        "coordinates": [
          [
            77.5984145,
            12.9943786
          ],
          [
            77.5984175,
            12.9937366
          ]
        ]
      }
    },
    {
      "type": "Feature",
      "properties": {
        "id": "train_007_BND_035",
        "parcel_id": "train_007_P_009",
        "boundary_type": "VISIBLE",
        "confidence": 0.844,
        "length_m": 37.49,
        "evidence_sources": [
          "Drone_RGB_Edge",
          "DSM_Breakline"
        ]
      },
      "geometry": {
        "type": "LineString",
        "coordinates": [
          [
            77.5984175,
            12.9937366
          ],
          [
            77.5980722,
            12.9937409
          ]
        ]
      }
    },
    {
      "type": "Feature",
      "properties": {
        "id": "train_007_BND_036",
        "parcel_id": "train_007_P_009",
        "boundary_type": "VISIBLE",
        "confidence": 0.832,
        "length_m": 69.33,
        "evidence_sources": [
          "Drone_RGB_Edge",
          "DSM_Breakline"
        ]
      },
      "geometry": {
        "type": "LineString",
        "coordinates": [
          [
            77.5980722,
            12.9937409
          ],
          [
            77.5980687,
            12.9943672
          ]
        ]
      }
    },
    {
      "type": "Feature",
      "properties": {
        "id": "train_007_BND_037",
        "parcel_id": "train_007_P_010",
        "boundary_type": "VISIBLE",
        "confidence": 0.823,
        "length_m": 39.32,
        "evidence_sources": [
          "Drone_RGB_Edge",
          "DSM_Breakline"
        ]
      },
      "geometry": {
        "type": "LineString",
        "coordinates": [
          [
            77.5980679,
            12.9937089
          ],
          [
            77.5984301,
            12.9937118
          ]
        ]
      }
    },
    {
      "type": "Feature",
      "properties": {
        "id": "train_007_BND_038",
        "parcel_id": "train_007_P_010",
        "boundary_type": "INFERRED",
        "confidence": 0.777,
        "length_m": 69.6,
        "evidence_sources": [
          "Road_Corridor_Offset",
          "Adjacent_Parcel_Topology"
        ]
      },
      "geometry": {
        "type": "LineString",
        "coordinates": [
          [
            77.5984301,
            12.9937118
          ],
          [
            77.5984191,
            12.9930831
          ]
        ]
      }
    },
    {
      "type": "Feature",
      "properties": {
        "id": "train_007_BND_039",
        "parcel_id": "train_007_P_010",
        "boundary_type": "VISIBLE",
        "confidence": 0.895,
        "length_m": 37.99,
        "evidence_sources": [
          "Drone_RGB_Edge",
          "DSM_Breakline"
        ]
      },
      "geometry": {
        "type": "LineString",
        "coordinates": [
          [
            77.5984191,
            12.9930831
          ],
          [
            77.5980692,
            12.9930776
          ]
        ]
      }
    },
    {
      "type": "Feature",
      "properties": {
        "id": "train_007_BND_040",
        "parcel_id": "train_007_P_010",
        "boundary_type": "VISIBLE",
        "confidence": 0.894,
        "length_m": 69.88,
        "evidence_sources": [
          "Drone_RGB_Edge",
          "DSM_Breakline"
        ]
      },
      "geometry": {
        "type": "LineString",
        "coordinates": [
          [
            77.5980692,
            12.9930776
          ],
          [
            77.5980679,
            12.9937089
          ]
        ]
      }
    },
    {
      "type": "Feature",
      "properties": {
        "id": "train_007_BND_041",
        "parcel_id": "train_007_P_011",
        "boundary_type": "VISIBLE",
        "confidence": 0.898,
        "length_m": 39.69,
        "evidence_sources": [
          "Drone_RGB_Edge",
          "DSM_Breakline"
        ]
      },
      "geometry": {
        "type": "LineString",
        "coordinates": [
          [
            77.5984394,
            12.9943725
          ],
          [
            77.5988049,
            12.9943806
          ]
        ]
      }
    },
    {
      "type": "Feature",
      "properties": {
        "id": "train_007_BND_042",
        "parcel_id": "train_007_P_011",
        "boundary_type": "VISIBLE",
        "confidence": 0.826,
        "length_m": 70.92,
        "evidence_sources": [
          "Drone_RGB_Edge",
          "DSM_Breakline"
        ]
      },
      "geometry": {
        "type": "LineString",
        "coordinates": [
          [
            77.5988049,
            12.9943806
          ],
          [
            77.5988028,
            12.9937399
          ]
        ]
      }
    },
    {
      "type": "Feature",
      "properties": {
        "id": "train_007_BND_043",
        "parcel_id": "train_007_P_011",
        "boundary_type": "VISIBLE",
        "confidence": 0.943,
        "length_m": 37.98,
        "evidence_sources": [
          "Drone_RGB_Edge",
          "DSM_Breakline"
        ]
      },
      "geometry": {
        "type": "LineString",
        "coordinates": [
          [
            77.5988028,
            12.9937399
          ],
          [
            77.5984531,
            12.9937501
          ]
        ]
      }
    },
    {
      "type": "Feature",
      "properties": {
        "id": "train_007_BND_044",
        "parcel_id": "train_007_P_011",
        "boundary_type": "INFERRED",
        "confidence": 0.663,
        "length_m": 68.91,
        "evidence_sources": [
          "Road_Corridor_Offset",
          "Adjacent_Parcel_Topology"
        ]
      },
      "geometry": {
        "type": "LineString",
        "coordinates": [
          [
            77.5984531,
            12.9937501
          ],
          [
            77.5984394,
            12.9943725
          ]
        ]
      }
    },
    {
      "type": "Feature",
      "properties": {
        "id": "train_007_BND_045",
        "parcel_id": "train_007_P_012",
        "boundary_type": "VISIBLE",
        "confidence": 0.866,
        "length_m": 38.43,
        "evidence_sources": [
          "Drone_RGB_Edge",
          "DSM_Breakline"
        ]
      },
      "geometry": {
        "type": "LineString",
        "coordinates": [
          [
            77.5984345,
            12.9937282
          ],
          [
            77.5987881,
            12.9937117
          ]
        ]
      }
    },
    {
      "type": "Feature",
      "properties": {
        "id": "train_007_BND_046",
        "parcel_id": "train_007_P_012",
        "boundary_type": "VISIBLE",
        "confidence": 0.852,
        "length_m": 70.2,
        "evidence_sources": [
          "Drone_RGB_Edge",
          "DSM_Breakline"
        ]
      },
      "geometry": {
        "type": "LineString",
        "coordinates": [
          [
            77.5987881,
            12.9937117
          ],
          [
            77.5987952,
            12.9930776
          ]
        ]
      }
    },
    {
      "type": "Feature",
      "properties": {
        "id": "train_007_BND_047",
        "parcel_id": "train_007_P_012",
        "boundary_type": "VISIBLE",
        "confidence": 0.893,
        "length_m": 38.28,
        "evidence_sources": [
          "Drone_RGB_Edge",
          "DSM_Breakline"
        ]
      },
      "geometry": {
        "type": "LineString",
        "coordinates": [
          [
            77.5987952,
            12.9930776
          ],
          [
            77.5984428,
            12.9930903
          ]
        ]
      }
    },
    {
      "type": "Feature",
      "properties": {
        "id": "train_007_BND_048",
        "parcel_id": "train_007_P_012",
        "boundary_type": "VISIBLE",
        "confidence": 0.846,
        "length_m": 70.62,
        "evidence_sources": [
          "Drone_RGB_Edge",
          "DSM_Breakline"
        ]
      },
      "geometry": {
        "type": "LineString",
        "coordinates": [
          [
            77.5984428,
            12.9930903
          ],
          [
            77.5984345,
            12.9937282
          ]
        ]
      }
    },
    {
      "type": "Feature",
      "properties": {
        "id": "train_007_BND_049",
        "parcel_id": "train_007_P_013",
        "boundary_type": "INFERRED",
        "confidence": 0.652,
        "length_m": 70.75,
        "evidence_sources": [
          "Road_Corridor_Offset",
          "Adjacent_Parcel_Topology"
        ]
      },
      "geometry": {
        "type": "LineString",
        "coordinates": [
          [
            77.5989978,
            12.9943781
          ],
          [
            77.5996495,
            12.9943862
          ]
        ]
      }
    },
    {
      "type": "Feature",
      "properties": {
        "id": "train_007_BND_050",
        "parcel_id": "train_007_P_013",
        "boundary_type": "VISIBLE",
        "confidence": 0.945,
        "length_m": 70.23,
        "evidence_sources": [
          "Drone_RGB_Edge",
          "DSM_Breakline"
        ]
      },
      "geometry": {
        "type": "LineString",
        "coordinates": [
          [
            77.5996495,
            12.9943862
          ],
          [
            77.5996471,
            12.9937518
          ]
        ]
      }
    },
    {
      "type": "Feature",
      "properties": {
        "id": "train_007_BND_051",
        "parcel_id": "train_007_P_013",
        "boundary_type": "VISIBLE",
        "confidence": 0.831,
        "length_m": 69.81,
        "evidence_sources": [
          "Drone_RGB_Edge",
          "DSM_Breakline"
        ]
      },
      "geometry": {
        "type": "LineString",
        "coordinates": [
          [
            77.5996471,
            12.9937518
          ],
          [
            77.599004,
            12.993748
          ]
        ]
      }
    },
    {
      "type": "Feature",
      "properties": {
        "id": "train_007_BND_052",
        "parcel_id": "train_007_P_013",
        "boundary_type": "VISIBLE",
        "confidence": 0.907,
        "length_m": 69.75,
        "evidence_sources": [
          "Drone_RGB_Edge",
          "DSM_Breakline"
        ]
      },
      "geometry": {
        "type": "LineString",
        "coordinates": [
          [
            77.599004,
            12.993748
          ],
          [
            77.5989978,
            12.9943781
          ]
        ]
      }
    },
    {
      "type": "Feature",
      "properties": {
        "id": "train_007_BND_053",
        "parcel_id": "train_007_P_014",
        "boundary_type": "VISIBLE",
        "confidence": 0.877,
        "length_m": 69.8,
        "evidence_sources": [
          "Drone_RGB_Edge",
          "DSM_Breakline"
        ]
      },
      "geometry": {
        "type": "LineString",
        "coordinates": [
          [
            77.5990005,
            12.9937194
          ],
          [
            77.5996435,
            12.9937154
          ]
        ]
      }
    },
    {
      "type": "Feature",
      "properties": {
        "id": "train_007_BND_054",
        "parcel_id": "train_007_P_014",
        "boundary_type": "VISIBLE",
        "confidence": 0.883,
        "length_m": 69.67,
        "evidence_sources": [
          "Drone_RGB_Edge",
          "DSM_Breakline"
        ]
      },
      "geometry": {
        "type": "LineString",
        "coordinates": [
          [
            77.5996435,
            12.9937154
          ],
          [
            77.5996555,
            12.9930861
          ]
        ]
      }
    },
    {
      "type": "Feature",
      "properties": {
        "id": "train_007_BND_055",
        "parcel_id": "train_007_P_014",
        "boundary_type": "VISIBLE",
        "confidence": 0.917,
        "length_m": 71.43,
        "evidence_sources": [
          "Drone_RGB_Edge",
          "DSM_Breakline"
        ]
      },
      "geometry": {
        "type": "LineString",
        "coordinates": [
          [
            77.5996555,
            12.9930861
          ],
          [
            77.5989975,
            12.993093
          ]
        ]
      }
    },
    {
      "type": "Feature",
      "properties": {
        "id": "train_007_BND_056",
        "parcel_id": "train_007_P_014",
        "boundary_type": "INFERRED",
        "confidence": 0.727,
        "length_m": 69.34,
        "evidence_sources": [
          "Road_Corridor_Offset",
          "Adjacent_Parcel_Topology"
        ]
      },
      "geometry": {
        "type": "LineString",
        "coordinates": [
          [
            77.5989975,
            12.993093
          ],
          [
            77.5990005,
            12.9937194
          ]
        ]
      }
    },
    {
      "type": "Feature",
      "properties": {
        "id": "train_007_BND_057",
        "parcel_id": "train_007_P_015",
        "boundary_type": "VISIBLE",
        "confidence": 0.827,
        "length_m": 71.74,
        "evidence_sources": [
          "Drone_RGB_Edge",
          "DSM_Breakline"
        ]
      },
      "geometry": {
        "type": "LineString",
        "coordinates": [
          [
            77.5996606,
            12.994369
          ],
          [
            77.6003213,
            12.994383
          ]
        ]
      }
    },
    {
      "type": "Feature",
      "properties": {
        "id": "train_007_BND_058",
        "parcel_id": "train_007_P_015",
        "boundary_type": "VISIBLE",
        "confidence": 0.905,
        "length_m": 70.45,
        "evidence_sources": [
          "Drone_RGB_Edge",
          "DSM_Breakline"
        ]
      },
      "geometry": {
        "type": "LineString",
        "coordinates": [
          [
            77.6003213,
            12.994383
          ],
          [
            77.6003152,
            12.9937466
          ]
        ]
      }
    },
    {
      "type": "Feature",
      "properties": {
        "id": "train_007_BND_059",
        "parcel_id": "train_007_P_015",
        "boundary_type": "VISIBLE",
        "confidence": 0.923,
        "length_m": 68.82,
        "evidence_sources": [
          "Drone_RGB_Edge",
          "DSM_Breakline"
        ]
      },
      "geometry": {
        "type": "LineString",
        "coordinates": [
          [
            77.6003152,
            12.9937466
          ],
          [
            77.5996812,
            12.9937417
          ]
        ]
      }
    },
    {
      "type": "Feature",
      "properties": {
        "id": "train_007_BND_060",
        "parcel_id": "train_007_P_015",
        "boundary_type": "VISIBLE",
        "confidence": 0.909,
        "length_m": 69.47,
        "evidence_sources": [
          "Drone_RGB_Edge",
          "DSM_Breakline"
        ]
      },
      "geometry": {
        "type": "LineString",
        "coordinates": [
          [
            77.5996812,
            12.9937417
          ],
          [
            77.5996606,
            12.994369
          ]
        ]
      }
    },
    {
      "type": "Feature",
      "properties": {
        "id": "train_007_BND_061",
        "parcel_id": "train_007_P_016",
        "boundary_type": "INFERRED",
        "confidence": 0.667,
        "length_m": 69.29,
        "evidence_sources": [
          "Road_Corridor_Offset",
          "Adjacent_Parcel_Topology"
        ]
      },
      "geometry": {
        "type": "LineString",
        "coordinates": [
          [
            77.5996648,
            12.993719
          ],
          [
            77.6003031,
            12.9937195
          ]
        ]
      }
    },
    {
      "type": "Feature",
      "properties": {
        "id": "train_007_BND_062",
        "parcel_id": "train_007_P_016",
        "boundary_type": "VISIBLE",
        "confidence": 0.881,
        "length_m": 70.68,
        "evidence_sources": [
          "Drone_RGB_Edge",
          "DSM_Breakline"
        ]
      },
      "geometry": {
        "type": "LineString",
        "coordinates": [
          [
            77.6003031,
            12.9937195
          ],
          [
            77.600313,
            12.9930811
          ]
        ]
      }
    },
    {
      "type": "Feature",
      "properties": {
        "id": "train_007_BND_063",
        "parcel_id": "train_007_P_016",
        "boundary_type": "VISIBLE",
        "confidence": 0.941,
        "length_m": 70.61,
        "evidence_sources": [
          "Drone_RGB_Edge",
          "DSM_Breakline"
        ]
      },
      "geometry": {
        "type": "LineString",
        "coordinates": [
          [
            77.600313,
            12.9930811
          ],
          [
            77.5996625,
            12.9930843
          ]
        ]
      }
    },
    {
      "type": "Feature",
      "properties": {
        "id": "train_007_BND_064",
        "parcel_id": "train_007_P_016",
        "boundary_type": "INFERRED",
        "confidence": 0.728,
        "length_m": 70.26,
        "evidence_sources": [
          "Road_Corridor_Offset",
          "Adjacent_Parcel_Topology"
        ]
      },
      "geometry": {
        "type": "LineString",
        "coordinates": [
          [
            77.5996625,
            12.9930843
          ],
          [
            77.5996648,
            12.993719
          ]
        ]
      }
    }
  ]
}