{
  "type": "FeatureCollection",
  "crs": {
    "type": "name",
    "properties": {
      "name": "EPSG:4326"
    }
  },
  "features": [
    {
      "type": "Feature",
      "properties": {
        "id": "train_019_REF_001",
        "parcel_id": "train_019_P_001",
        "parcel_layer": "REFERENCE",
        "boundary_representation": "REFERENCE",
        "land_use_class": "vegetation",
        "area_sqm": 2169.77,
        "perimeter_m": 186.44,
        "source": "Synthetic Legacy Cadastral Map (Non-Authoritative Demo)"
      },
      "geometry": {
        "type": "Polygon",
        "coordinates": [
          [
            [
              77.6340724,
              12.9953279
            ],
            [
              77.6344883,
              12.9953307
            ],
            [
              77.6344871,
              12.9948894
            ],
            [
              77.6340733,
              12.9948987
            ],
            [
              77.6340724,
              12.9953279
            ]
          ]
        ]
      }
    },
    {
      "type": "Feature",
      "properties": {
        "id": "train_019_REF_002",
        "parcel_id": "train_019_P_002",
        "parcel_layer": "REFERENCE",
        "boundary_representation": "REFERENCE",
        "land_use_class": "vacant",
        "area_sqm": 2065.9,
        "perimeter_m": 181.95,
        "source": "Synthetic Legacy Cadastral Map (Non-Authoritative Demo)"
      },
      "geometry": {
        "type": "Polygon",
        "coordinates": [
          [
            [
              77.6340836,
              12.9948819
            ],
            [
              77.6344815,
              12.9948695
            ],
            [
              77.6344767,
              12.9944495
            ],
            [
              77.6340675,
              12.9944502
            ],
            [
              77.6340836,
              12.9948819
            ]
          ]
        ]
      }
    },
    {
      "type": "Feature",
      "properties": {
        "id": "train_019_REF_003",
        "parcel_id": "train_019_P_003",
        "parcel_layer": "REFERENCE",
        "boundary_representation": "REFERENCE",
        "land_use_class": "vacant",
        "area_sqm": 2137.04,
        "perimeter_m": 185.08,
        "source": "Synthetic Legacy Cadastral Map (Non-Authoritative Demo)"
      },
      "geometry": {
        "type": "Polygon",
        "coordinates": [
          [
            [
              77.6345059,
              12.9953307
            ],
            [
              77.6349086,
              12.9953338
            ],
            [
              77.6349229,
              12.9948991
            ],
            [
              77.6345073,
              12.9948962
            ],
            [
              77.6345059,
              12.9953307
            ]
          ]
        ]
      }
    },
    {
      "type": "Feature",
      "properties": {
        "id": "train_019_REF_004",
        "parcel_id": "train_019_P_004",
        "parcel_layer": "REFERENCE",
        "boundary_representation": "REFERENCE",
        "land_use_class": "industrial",
        "area_sqm": 2194.95,
        "perimeter_m": 187.6,
        "source": "Synthetic Legacy Cadastral Map (Non-Authoritative Demo)"
      },
      "geometry": {
        "type": "Polygon",
        "coordinates": [
          [
            [
              77.6345361,
              12.994888
            ],
            [
              77.6349422,
              12.9948909
            ],
            [
              77.6349487,
              12.994447
            ],
            [
              77.6345295,
              12.9944466
            ],
            [
              77.6345361,
              12.994888
            ]
          ]
        ]
      }
    },
    {
      "type": "Feature",
      "properties": {
        "id": "train_019_REF_005",
        "parcel_id": "train_019_P_005",
        "parcel_layer": "REFERENCE",
        "boundary_representation": "REFERENCE",
        "land_use_class": "residential",
        "area_sqm": 3136.22,
        "perimeter_m": 226.63,
        "source": "Synthetic Legacy Cadastral Map (Non-Authoritative Demo)"
      },
      "geometry": {
        "type": "Polygon",
        "coordinates": [
          [
            [
              77.6350794,
              12.9953261
            ],
            [
              77.6356812,
              12.9953327
            ],
            [
              77.6356896,
              12.9948952
            ],
            [
              77.6350898,
              12.9948949
            ],
            [
              77.6350794,
              12.9953261
            ]
          ]
        ]
      }
    },
    {
      "type": "Feature",
      "properties": {
        "id": "train_019_REF_006",
        "parcel_id": "train_019_P_006",
        "parcel_layer": "REFERENCE",
        "boundary_representation": "REFERENCE",
        "land_use_class": "residential",
        "area_sqm": 3223.89,
        "perimeter_m": 230.13,
        "source": "Synthetic Legacy Cadastral Map (Non-Authoritative Demo)"
      },
      "geometry": {
        "type": "Polygon",
        "coordinates": [
          [
            [
              77.6350941,
              12.9948769
            ],
            [
              77.6357009,
              12.9948715
            ],
            [
              77.6356997,
              12.9944287
            ],
            [
              77.6350765,
              12.9944476
            ],
            [
              77.6350941,
              12.9948769
            ]
          ]
        ]
      }
    },
    {
      "type": "Feature",
      "properties": {
        "id": "train_019_REF_007",
        "parcel_id": "train_019_P_007",
        "parcel_layer": "REFERENCE",
        "boundary_representation": "REFERENCE",
        "land_use_class": "residential",
        "area_sqm": 3147.79,
        "perimeter_m": 226.72,
        "source": "Synthetic Legacy Cadastral Map (Non-Authoritative Demo)"
      },
      "geometry": {
        "type": "Polygon",
        "coordinates": [
          [
            [
              77.6357235,
              12.9953438
            ],
            [
              77.6363142,
              12.9953278
            ],
            [
              77.6363093,
              12.9948889
            ],
            [
              77.635708,
              12.9949042
            ],
            [
              77.6357235,
              12.9953438
            ]
          ]
        ]
      }
    },
    {
      "type": "Feature",
      "properties": {
        "id": "train_019_REF_008",
        "parcel_id": "train_019_P_008",
        "parcel_layer": "REFERENCE",
        "boundary_representation": "REFERENCE",
        "land_use_class": "commercial",
        "area_sqm": 3230.36,
        "perimeter_m": 230.71,
        "source": "Synthetic Legacy Cadastral Map (Non-Authoritative Demo)"
      },
      "geometry": {
        "type": "Polygon",
        "coordinates": [
          [
            [
              77.6357421,
              12.9948921
            ],
            [
              77.6363647,
              12.9948905
            ],
            [
              77.6363605,
              12.9944501
            ],
            [
              77.6357404,
              12.9944673
            ],
            [
              77.6357421,
              12.9948921
            ]
          ]
        ]
      }
    },
    {
      "type": "Feature",
      "properties": {
        "id": "train_019_REF_009",
        "parcel_id": "train_019_P_009",
        "parcel_layer": "REFERENCE",
        "boundary_representation": "REFERENCE",
        "land_use_class": "mixed_use",
        "area_sqm": 2762.12,
        "perimeter_m": 213.22,
        "source": "Synthetic Legacy Cadastral Map (Non-Authoritative Demo)"
      },
      "geometry": {
        "type": "Polygon",
        "coordinates": [
          [
            [
              77.6340752,
              12.9942257
            ],
            [
              77.6344732,
              12.9942222
            ],
            [
              77.6344894,
              12.9936595
            ],
            [
              77.6340683,
              12.9936658
            ],
            [
              77.6340752,
              12.9942257
            ]
          ]
        ]
      }
    },
    {
      "type": "Feature",
      "properties": {
        "id": "train_019_REF_010",
        "parcel_id": "train_019_P_010",
        "parcel_layer": "REFERENCE",
        "boundary_representation": "REFERENCE",
        "land_use_class": "vegetation",
        "area_sqm": 2714.59,
        "perimeter_m": 211.54,
        "source": "Synthetic Legacy Cadastral Map (Non-Authoritative Demo)"
      },
      "geometry": {
        "type": "Polygon",
        "coordinates": [
          [
            [
              77.6340758,
              12.9936446
            ],
            [
              77.6344777,
              12.9936482
            ],
            [
              77.6344775,
              12.9930797
            ],
            [
              77.6340715,
              12.9930947
            ],
            [
              77.6340758,
              12.9936446
            ]
          ]
        ]
      }
    },
    {
      "type": "Feature",
      "properties": {
        "id": "train_019_REF_011",
        "parcel_id": "train_019_P_011",
        "parcel_layer": "REFERENCE",
        "boundary_representation": "REFERENCE",
        "land_use_class": "vegetation",
        "area_sqm": 2807.08,
        "perimeter_m": 214.93,
        "source": "Synthetic Legacy Cadastral Map (Non-Authoritative Demo)"
      },
      "geometry": {
        "type": "Polygon",
        "coordinates": [
          [
            [
              77.6344935,
              12.9942342
            ],
            [
              77.6349099,
              12.9942274
            ],
            [
              77.6349107,
              12.9936643
            ],
            [
              77.6345016,
              12.9936653
            ],
            [
              77.6344935,
              12.9942342
            ]
          ]
        ]
      }
    },
    {
      "type": "Feature",
      "properties": {
        "id": "train_019_REF_012",
        "parcel_id": "train_019_P_012",
        "parcel_layer": "REFERENCE",
        "boundary_representation": "REFERENCE",
        "land_use_class": "vacant",
        "area_sqm": 2704.48,
        "perimeter_m": 211.07,
        "source": "Synthetic Legacy Cadastral Map (Non-Authoritative Demo)"
      },
      "geometry": {
        "type": "Polygon",
        "coordinates": [
          [
            [
              77.6345487,
              12.9936711
            ],
            [
              77.63494,
              12.9936716
            ],
            [
              77.6349512,
              12.9931162
            ],
            [
              77.6345343,
              12.9931126
            ],
            [
              77.6345487,
              12.9936711
            ]
          ]
        ]
      }
    },
    {
      "type": "Feature",
      "properties": {
        "id": "train_019_REF_013",
        "parcel_id": "train_019_P_013",
        "parcel_layer": "REFERENCE",
        "boundary_representation": "REFERENCE",
        "land_use_class": "industrial",
        "area_sqm": 4026.29,
        "perimeter_m": 254.15,
        "source": "Synthetic Legacy Cadastral Map (Non-Authoritative Demo)"
      },
      "geometry": {
        "type": "Polygon",
        "coordinates": [
          [
            [
              77.6350827,
              12.9942276
            ],
            [
              77.6357005,
              12.9942203
            ],
            [
              77.6356942,
              12.9936775
            ],
            [
              77.6350816,
              12.9936812
            ],
            [
              77.6350827,
              12.9942276
            ]
          ]
        ]
      }
    },
    {
      "type": "Feature",
      "properties": {
        "id": "train_019_REF_014",
        "parcel_id": "train_019_P_014",
        "parcel_layer": "REFERENCE",
        "boundary_representation": "REFERENCE",
        "land_use_class": "water",
        "area_sqm": 4006.63,
        "perimeter_m": 253.3,
        "source": "Synthetic Legacy Cadastral Map (Non-Authoritative Demo)"
      },
      "geometry": {
        "type": "Polygon",
        "coordinates": [
          [
            [
              77.6350932,
              12.993649
            ],
            [
              77.635691,
              12.9936584
            ],
            [
              77.6356929,
              12.9930958
            ],
            [
              77.6350921,
              12.9930989
            ],
            [
              77.6350932,
              12.993649
            ]
          ]
        ]
      }
    },
    {
      "type": "Feature",
      "properties": {
        "id": "train_019_REF_015",
        "parcel_id": "train_019_P_015",
        "parcel_layer": "REFERENCE",
        "boundary_representation": "REFERENCE",
        "land_use_class": "residential",
        "area_sqm": 4035.82,
        "perimeter_m": 254.28,
        "source": "Synthetic Legacy Cadastral Map (Non-Authoritative Demo)"
      },
      "geometry": {
        "type": "Polygon",
        "coordinates": [
          [
            [
              77.6357213,
              12.9942388
            ],
            [
              77.6363199,
              12.9942251
            ],
            [
              77.6363244,
              12.993677
            ],
            [
              77.6357117,
              12.9936779
            ],
            [
              77.6357213,
              12.9942388
            ]
          ]
        ]
      }
    },
    {
      "type": "Feature",
      "properties": {
        "id": "train_019_REF_016",
        "parcel_id": "train_019_P_016",
        "parcel_layer": "REFERENCE",
        "boundary_representation": "REFERENCE",
        "land_use_class": "agricultural",
        "area_sqm": 4150.37,
        "perimeter_m": 257.71,
        "source": "Synthetic Legacy Cadastral Map (Non-Authoritative Demo)"
      },
      "geometry": {
        "type": "Polygon",
        "coordinates": [
          [
            [
              77.6357513,
              12.9936731
            ],
            [
              77.6363541,
              12.9936735
            ],
            [
              77.6363489,
              12.9930963
            ],
            [
              77.6357536,
              12.9930972
            ],
            [
              77.6357513,
              12.9936731
            ]
          ]
        ]
      }
    }
  ]
}