{
  "type": "FeatureCollection",
  "crs": {
    "type": "name",
    "properties": {
      "name": "EPSG:4326"
    }
  },
  "features": [
    {
      "type": "Feature",
      "properties": {
        "id": "train_047_REF_001",
        "parcel_id": "train_047_P_001",
        "parcel_layer": "REFERENCE",
        "boundary_representation": "REFERENCE",
        "land_use_class": "vegetation",
        "area_sqm": 2212.59,
        "perimeter_m": 191.37,
        "source": "Synthetic Legacy Cadastral Map (Non-Authoritative Demo)"
      },
      "geometry": {
        "type": "Polygon",
        "coordinates": [
          [
            [
              77.6280693,
              13.0013337
            ],
            [
              77.628588,
              13.0013405
            ],
            [
              77.6286046,
              13.0009872
            ],
            [
              77.6280818,
              13.0009802
            ],
            [
              77.6280693,
              13.0013337
            ]
          ]
        ]
      }
    },
    {
      "type": "Feature",
      "properties": {
        "id": "train_047_REF_002",
        "parcel_id": "train_047_P_002",
        "parcel_layer": "REFERENCE",
        "boundary_representation": "REFERENCE",
        "land_use_class": "vacant",
        "area_sqm": 2257.89,
        "perimeter_m": 193.77,
        "source": "Synthetic Legacy Cadastral Map (Non-Authoritative Demo)"
      },
      "geometry": {
        "type": "Polygon",
        "coordinates": [
          [
            [
              77.628064,
              13.0009518
            ],
            [
              77.6286051,
              13.000965
            ],
            [
              77.6285913,
              13.0006039
            ],
            [
              77.6280681,
              13.0006066
            ],
            [
              77.628064,
              13.0009518
            ]
          ]
        ]
      }
    },
    {
      "type": "Feature",
      "properties": {
        "id": "train_047_REF_003",
        "parcel_id": "train_047_P_003",
        "parcel_layer": "REFERENCE",
        "boundary_representation": "REFERENCE",
        "land_use_class": "vacant",
        "area_sqm": 2307.12,
        "perimeter_m": 195.26,
        "source": "Synthetic Legacy Cadastral Map (Non-Authoritative Demo)"
      },
      "geometry": {
        "type": "Polygon",
        "coordinates": [
          [
            [
              77.6286079,
              13.0013371
            ],
            [
              77.6291407,
              13.0013389
            ],
            [
              77.6291452,
              13.0009784
            ],
            [
              77.6286184,
              13.0009729
            ],
            [
              77.6286079,
              13.0013371
            ]
          ]
        ]
      }
    },
    {
      "type": "Feature",
      "properties": {
        "id": "train_047_REF_004",
        "parcel_id": "train_047_P_004",
        "parcel_layer": "REFERENCE",
        "boundary_representation": "REFERENCE",
        "land_use_class": "industrial",
        "area_sqm": 2178.28,
        "perimeter_m": 189.81,
        "source": "Synthetic Legacy Cadastral Map (Non-Authoritative Demo)"
      },
      "geometry": {
        "type": "Polygon",
        "coordinates": [
          [
            [
              77.6286515,
              13.0009799
            ],
            [
              77.6291721,
              13.0009881
            ],
            [
              77.6291718,
              13.0006343
            ],
            [
              77.6286605,
              13.0006311
            ],
            [
              77.6286515,
              13.0009799
            ]
          ]
        ]
      }
    },
    {
      "type": "Feature",
      "properties": {
        "id": "train_047_REF_005",
        "parcel_id": "train_047_P_005",
        "parcel_layer": "REFERENCE",
        "boundary_representation": "REFERENCE",
        "land_use_class": "residential",
        "area_sqm": 2025.7,
        "perimeter_m": 182.52,
        "source": "Synthetic Legacy Cadastral Map (Non-Authoritative Demo)"
      },
      "geometry": {
        "type": "Polygon",
        "coordinates": [
          [
            [
              77.6293115,
              13.0013351
            ],
            [
              77.6298067,
              13.0013406
            ],
            [
              77.6298004,
              13.0009931
            ],
            [
              77.6293169,
              13.0009936
            ],
            [
              77.6293115,
              13.0013351
            ]
          ]
        ]
      }
    },
    {
      "type": "Feature",
      "properties": {
        "id": "train_047_REF_006",
        "parcel_id": "train_047_P_006",
        "parcel_layer": "REFERENCE",
        "boundary_representation": "REFERENCE",
        "land_use_class": "residential",
        "area_sqm": 2107.46,
        "perimeter_m": 186.08,
        "source": "Synthetic Legacy Cadastral Map (Non-Authoritative Demo)"
      },
      "geometry": {
        "type": "Polygon",
        "coordinates": [
          [
            [
              77.6293159,
              13.0009619
            ],
            [
              77.6298068,
              13.0009612
            ],
            [
              77.6298129,
              13.0006133
            ],
            [
              77.6293087,
              13.0006048
            ],
            [
              77.6293159,
              13.0009619
            ]
          ]
        ]
      }
    },
    {
      "type": "Feature",
      "properties": {
        "id": "train_047_REF_007",
        "parcel_id": "train_047_P_007",
        "parcel_layer": "REFERENCE",
        "boundary_representation": "REFERENCE",
        "land_use_class": "residential",
        "area_sqm": 2125.57,
        "perimeter_m": 186.46,
        "source": "Synthetic Legacy Cadastral Map (Non-Authoritative Demo)"
      },
      "geometry": {
        "type": "Polygon",
        "coordinates": [
          [
            [
              77.6298274,
              13.0013444
            ],
            [
              77.6303162,
              13.0013297
            ],
            [
              77.6303287,
              13.0009813
            ],
            [
              77.6298346,
              13.0009728
            ],
            [
              77.6298274,
              13.0013444
            ]
          ]
        ]
      }
    },
    {
      "type": "Feature",
      "properties": {
        "id": "train_047_REF_008",
        "parcel_id": "train_047_P_008",
        "parcel_layer": "REFERENCE",
        "boundary_representation": "REFERENCE",
        "land_use_class": "vegetation",
        "area_sqm": 2087.22,
        "perimeter_m": 184.88,
        "source": "Synthetic Legacy Cadastral Map (Non-Authoritative Demo)"
      },
      "geometry": {
        "type": "Polygon",
        "coordinates": [
          [
            [
              77.6298675,
              13.0009752
            ],
            [
              77.6303506,
              13.00097
            ],
            [
              77.6303533,
              13.0006147
            ],
            [
              77.6298563,
              13.0006217
            ],
            [
              77.6298675,
              13.0009752
            ]
          ]
        ]
      }
    },
    {
      "type": "Feature",
      "properties": {
        "id": "train_047_REF_009",
        "parcel_id": "train_047_P_009",
        "parcel_layer": "REFERENCE",
        "boundary_representation": "REFERENCE",
        "land_use_class": "mixed_use",
        "area_sqm": 3823.25,
        "perimeter_m": 248.3,
        "source": "Synthetic Legacy Cadastral Map (Non-Authoritative Demo)"
      },
      "geometry": {
        "type": "Polygon",
        "coordinates": [
          [
            [
              77.6280727,
              13.0003209
            ],
            [
              77.6285848,
              13.0003171
            ],
            [
              77.6286043,
              12.9997061
            ],
            [
              77.6280702,
              12.9997152
            ],
            [
              77.6280727,
              13.0003209
            ]
          ]
        ]
      }
    },
    {
      "type": "Feature",
      "properties": {
        "id": "train_047_REF_010",
        "parcel_id": "train_047_P_010",
        "parcel_layer": "REFERENCE",
        "boundary_representation": "REFERENCE",
        "land_use_class": "vegetation",
        "area_sqm": 3846.17,
        "perimeter_m": 248.94,
        "source": "Synthetic Legacy Cadastral Map (Non-Authoritative Demo)"
      },
      "geometry": {
        "type": "Polygon",
        "coordinates": [
          [
            [
              77.6280648,
              12.999687
            ],
            [
              77.6286012,
              12.9996991
            ],
            [
              77.6285907,
              12.9990831
            ],
            [
              77.6280742,
              12.999087
            ],
            [
              77.6280648,
              12.999687
            ]
          ]
        ]
      }
    },
    {
      "type": "Feature",
      "properties": {
        "id": "train_047_REF_011",
        "parcel_id": "train_047_P_011",
        "parcel_layer": "REFERENCE",
        "boundary_representation": "REFERENCE",
        "land_use_class": "vegetation",
        "area_sqm": 3772.27,
        "perimeter_m": 246.5,
        "source": "Synthetic Legacy Cadastral Map (Non-Authoritative Demo)"
      },
      "geometry": {
        "type": "Polygon",
        "coordinates": [
          [
            [
              77.6286216,
              13.0003245
            ],
            [
              77.6291379,
              13.0003154
            ],
            [
              77.6291465,
              12.9997168
            ],
            [
              77.628619,
              12.99972
            ],
            [
              77.6286216,
              13.0003245
            ]
          ]
        ]
      }
    },
    {
      "type": "Feature",
      "properties": {
        "id": "train_047_REF_012",
        "parcel_id": "train_047_P_012",
        "parcel_layer": "REFERENCE",
        "boundary_representation": "REFERENCE",
        "land_use_class": "vacant",
        "area_sqm": 3807.05,
        "perimeter_m": 247.43,
        "source": "Synthetic Legacy Cadastral Map (Non-Authoritative Demo)"
      },
      "geometry": {
        "type": "Polygon",
        "coordinates": [
          [
            [
              77.6286415,
              12.9997135
            ],
            [
              77.6291811,
              12.9997043
            ],
            [
              77.6291742,
              12.9991145
            ],
            [
              77.6286532,
              12.9991084
            ],
            [
              77.6286415,
              12.9997135
            ]
          ]
        ]
      }
    },
    {
      "type": "Feature",
      "properties": {
        "id": "train_047_REF_013",
        "parcel_id": "train_047_P_013",
        "parcel_layer": "REFERENCE",
        "boundary_representation": "REFERENCE",
        "land_use_class": "vegetation",
        "area_sqm": 3584.06,
        "perimeter_m": 240.62,
        "source": "Synthetic Legacy Cadastral Map (Non-Authoritative Demo)"
      },
      "geometry": {
        "type": "Polygon",
        "coordinates": [
          [
            [
              77.6293038,
              13.0003116
            ],
            [
              77.6298115,
              13.0003219
            ],
            [
              77.6297954,
              12.9997177
            ],
            [
              77.6293009,
              12.9997253
            ],
            [
              77.6293038,
              13.0003116
            ]
          ]
        ]
      }
    },
    {
      "type": "Feature",
      "properties": {
        "id": "train_047_REF_014",
        "parcel_id": "train_047_P_014",
        "parcel_layer": "REFERENCE",
        "boundary_representation": "REFERENCE",
        "land_use_class": "residential",
        "area_sqm": 3504.8,
        "perimeter_m": 238.88,
        "source": "Synthetic Legacy Cadastral Map (Non-Authoritative Demo)"
      },
      "geometry": {
        "type": "Polygon",
        "coordinates": [
          [
            [
              77.6293156,
              12.9996898
            ],
            [
              77.6297937,
              12.9997009
            ],
            [
              77.6297932,
              12.9990928
            ],
            [
              77.6293145,
              12.9990785
            ],
            [
              77.6293156,
              12.9996898
            ]
          ]
        ]
      }
    },
    {
      "type": "Feature",
      "properties": {
        "id": "train_047_REF_015",
        "parcel_id": "train_047_P_015",
        "parcel_layer": "REFERENCE",
        "boundary_representation": "REFERENCE",
        "land_use_class": "residential",
        "area_sqm": 3540.56,
        "perimeter_m": 239.81,
        "source": "Synthetic Legacy Cadastral Map (Non-Authoritative Demo)"
      },
      "geometry": {
        "type": "Polygon",
        "coordinates": [
          [
            [
              77.6298339,
              13.0003274
            ],
            [
              77.6303283,
              13.0003156
            ],
            [
              77.6303129,
              12.9997251
            ],
            [
              77.6298347,
              12.999706
            ],
            [
              77.6298339,
              13.0003274
            ]
          ]
        ]
      }
    },
    {
      "type": "Feature",
      "properties": {
        "id": "train_047_REF_016",
        "parcel_id": "train_047_P_016",
        "parcel_layer": "REFERENCE",
        "boundary_representation": "REFERENCE",
        "land_use_class": "residential",
        "area_sqm": 3631.69,
        "perimeter_m": 242.73,
        "source": "Synthetic Legacy Cadastral Map (Non-Authoritative Demo)"
      },
      "geometry": {
        "type": "Polygon",
        "coordinates": [
          [
            [
              77.6298586,
              12.9997137
            ],
            [
              77.6303455,
              12.9997211
            ],
            [
              77.6303615,
              12.9991137
            ],
            [
              77.629861,
              12.9990972
            ],
            [
              77.6298586,
              12.9997137
            ]
          ]
        ]
      }
    }
  ]
}