{
  "type": "FeatureCollection",
  "crs": {
    "type": "name",
    "properties": {
      "name": "EPSG:4326"
    }
  },
  "features": [
    {
      "type": "Feature",
      "properties": {
        "id": "train_044_BND_001",
        "parcel_id": "train_044_P_001",
        "boundary_type": "VISIBLE",
        "confidence": 0.887,
        "length_m": 36.69,
        "evidence_sources": [
          "Drone_RGB_Edge",
          "DSM_Breakline"
        ]
      },
      "geometry": {
        "type": "LineString",
        "coordinates": [
          [
            77.619057,
            13.0013229
          ],
          [
            77.619395,
            13.0013259
          ]
        ]
      }
    },
    {
      "type": "Feature",
      "properties": {
        "id": "train_044_BND_002",
        "parcel_id": "train_044_P_001",
        "boundary_type": "VISIBLE",
        "confidence": 0.909,
        "length_m": 43.11,
        "evidence_sources": [
          "Drone_RGB_Edge",
          "DSM_Breakline"
        ]
      },
      "geometry": {
        "type": "LineString",
        "coordinates": [
          [
            77.619395,
            13.0013259
          ],
          [
            77.6193977,
            13.0009365
          ]
        ]
      }
    },
    {
      "type": "Feature",
      "properties": {
        "id": "train_044_BND_003",
        "parcel_id": "train_044_P_001",
        "boundary_type": "VISIBLE",
        "confidence": 0.932,
        "length_m": 35.47,
        "evidence_sources": [
          "Drone_RGB_Edge",
          "DSM_Breakline"
        ]
      },
      "geometry": {
        "type": "LineString",
        "coordinates": [
          [
            77.6193977,
            13.0009365
          ],
          [
            77.619071,
            13.0009294
          ]
        ]
      }
    },
    {
      "type": "Feature",
      "properties": {
        "id": "train_044_BND_004",
        "parcel_id": "train_044_P_001",
        "boundary_type": "INFERRED",
        "confidence": 0.727,
        "length_m": 43.59,
        "evidence_sources": [
          "Road_Corridor_Offset",
          "Adjacent_Parcel_Topology"
        ]
      },
      "geometry": {
        "type": "LineString",
        "coordinates": [
          [
            77.619071,
            13.0009294
          ],
          [
            77.619057,
            13.0013229
          ]
        ]
      }
    },
    {
      "type": "Feature",
      "properties": {
        "id": "train_044_BND_005",
        "parcel_id": "train_044_P_002",
        "boundary_type": "INFERRED",
        "confidence": 0.746,
        "length_m": 37.69,
        "evidence_sources": [
          "Road_Corridor_Offset",
          "Adjacent_Parcel_Topology"
        ]
      },
      "geometry": {
        "type": "LineString",
        "coordinates": [
          [
            77.6190627,
            13.0009196
          ],
          [
            77.6194097,
            13.0009083
          ]
        ]
      }
    },
    {
      "type": "Feature",
      "properties": {
        "id": "train_044_BND_006",
        "parcel_id": "train_044_P_002",
        "boundary_type": "VISIBLE",
        "confidence": 0.894,
        "length_m": 45.19,
        "evidence_sources": [
          "Drone_RGB_Edge",
          "DSM_Breakline"
        ]
      },
      "geometry": {
        "type": "LineString",
        "coordinates": [
          [
            77.6194097,
            13.0009083
          ],
          [
            77.6193968,
            13.0005003
          ]
        ]
      }
    },
    {
      "type": "Feature",
      "properties": {
        "id": "train_044_BND_007",
        "parcel_id": "train_044_P_002",
        "boundary_type": "INFERRED",
        "confidence": 0.64,
        "length_m": 36.0,
        "evidence_sources": [
          "Road_Corridor_Offset",
          "Adjacent_Parcel_Topology"
        ]
      },
      "geometry": {
        "type": "LineString",
        "coordinates": [
          [
            77.6193968,
            13.0005003
          ],
          [
            77.6190652,
            13.0005056
          ]
        ]
      }
    },
    {
      "type": "Feature",
      "properties": {
        "id": "train_044_BND_008",
        "parcel_id": "train_044_P_002",
        "boundary_type": "INFERRED",
        "confidence": 0.68,
        "length_m": 45.83,
        "evidence_sources": [
          "Road_Corridor_Offset",
          "Adjacent_Parcel_Topology"
        ]
      },
      "geometry": {
        "type": "LineString",
        "coordinates": [
          [
            77.6190652,
            13.0005056
          ],
          [
            77.6190627,
            13.0009196
          ]
        ]
      }
    },
    {
      "type": "Feature",
      "properties": {
        "id": "train_044_BND_009",
        "parcel_id": "train_044_P_003",
        "boundary_type": "VISIBLE",
        "confidence": 0.907,
        "length_m": 37.67,
        "evidence_sources": [
          "Drone_RGB_Edge",
          "DSM_Breakline"
        ]
      },
      "geometry": {
        "type": "LineString",
        "coordinates": [
          [
            77.6194201,
            13.0013222
          ],
          [
            77.6197667,
            13.0013393
          ]
        ]
      }
    },
    {
      "type": "Feature",
      "properties": {
        "id": "train_044_BND_010",
        "parcel_id": "train_044_P_003",
        "boundary_type": "VISIBLE",
        "confidence": 0.931,
        "length_m": 45.05,
        "evidence_sources": [
          "Drone_RGB_Edge",
          "DSM_Breakline"
        ]
      },
      "geometry": {
        "type": "LineString",
        "coordinates": [
          [
            77.6197667,
            13.0013393
          ],
          [
            77.6197466,
            13.0009328
          ]
        ]
      }
    },
    {
      "type": "Feature",
      "properties": {
        "id": "train_044_BND_011",
        "parcel_id": "train_044_P_003",
        "boundary_type": "VISIBLE",
        "confidence": 0.935,
        "length_m": 34.14,
        "evidence_sources": [
          "Drone_RGB_Edge",
          "DSM_Breakline"
        ]
      },
      "geometry": {
        "type": "LineString",
        "coordinates": [
          [
            77.6197466,
            13.0009328
          ],
          [
            77.6194321,
            13.0009336
          ]
        ]
      }
    },
    {
      "type": "Feature",
      "properties": {
        "id": "train_044_BND_012",
        "parcel_id": "train_044_P_003",
        "boundary_type": "VISIBLE",
        "confidence": 0.937,
        "length_m": 43.04,
        "evidence_sources": [
          "Drone_RGB_Edge",
          "DSM_Breakline"
        ]
      },
      "geometry": {
        "type": "LineString",
        "coordinates": [
          [
            77.6194321,
            13.0009336
          ],
          [
            77.6194201,
            13.0013222
          ]
        ]
      }
    },
    {
      "type": "Feature",
      "properties": {
        "id": "train_044_BND_013",
        "parcel_id": "train_044_P_004",
        "boundary_type": "VISIBLE",
        "confidence": 0.95,
        "length_m": 34.63,
        "evidence_sources": [
          "Drone_RGB_Edge",
          "DSM_Breakline"
        ]
      },
      "geometry": {
        "type": "LineString",
        "coordinates": [
          [
            77.6194338,
            13.0009127
          ],
          [
            77.6197528,
            13.0009147
          ]
        ]
      }
    },
    {
      "type": "Feature",
      "properties": {
        "id": "train_044_BND_014",
        "parcel_id": "train_044_P_004",
        "boundary_type": "VISIBLE",
        "confidence": 0.873,
        "length_m": 43.48,
        "evidence_sources": [
          "Drone_RGB_Edge",
          "DSM_Breakline"
        ]
      },
      "geometry": {
        "type": "LineString",
        "coordinates": [
          [
            77.6197528,
            13.0009147
          ],
          [
            77.6197471,
            13.000522
          ]
        ]
      }
    },
    {
      "type": "Feature",
      "properties": {
        "id": "train_044_BND_015",
        "parcel_id": "train_044_P_004",
        "boundary_type": "VISIBLE",
        "confidence": 0.867,
        "length_m": 35.93,
        "evidence_sources": [
          "Drone_RGB_Edge",
          "DSM_Breakline"
        ]
      },
      "geometry": {
        "type": "LineString",
        "coordinates": [
          [
            77.6197471,
            13.000522
          ],
          [
            77.6194161,
            13.0005171
          ]
        ]
      }
    },
    {
      "type": "Feature",
      "properties": {
        "id": "train_044_BND_016",
        "parcel_id": "train_044_P_004",
        "boundary_type": "VISIBLE",
        "confidence": 0.9,
        "length_m": 43.83,
        "evidence_sources": [
          "Drone_RGB_Edge",
          "DSM_Breakline"
        ]
      },
      "geometry": {
        "type": "LineString",
        "coordinates": [
          [
            77.6194161,
            13.0005171
          ],
          [
            77.6194338,
            13.0009127
          ]
        ]
      }
    },
    {
      "type": "Feature",
      "properties": {
        "id": "train_044_BND_017",
        "parcel_id": "train_044_P_005",
        "boundary_type": "VISIBLE",
        "confidence": 0.828,
        "length_m": 71.03,
        "evidence_sources": [
          "Drone_RGB_Edge",
          "DSM_Breakline"
        ]
      },
      "geometry": {
        "type": "LineString",
        "coordinates": [
          [
            77.6199746,
            13.0013346
          ],
          [
            77.620629,
            13.0013359
          ]
        ]
      }
    },
    {
      "type": "Feature",
      "properties": {
        "id": "train_044_BND_018",
        "parcel_id": "train_044_P_005",
        "boundary_type": "INFERRED",
        "confidence": 0.753,
        "length_m": 45.07,
        "evidence_sources": [
          "Road_Corridor_Offset",
          "Adjacent_Parcel_Topology"
        ]
      },
      "geometry": {
        "type": "LineString",
        "coordinates": [
          [
            77.620629,
            13.0013359
          ],
          [
            77.620639,
            13.0009289
          ]
        ]
      }
    },
    {
      "type": "Feature",
      "properties": {
        "id": "train_044_BND_019",
        "parcel_id": "train_044_P_005",
        "boundary_type": "INFERRED",
        "confidence": 0.784,
        "length_m": 72.08,
        "evidence_sources": [
          "Road_Corridor_Offset",
          "Adjacent_Parcel_Topology"
        ]
      },
      "geometry": {
        "type": "LineString",
        "coordinates": [
          [
            77.620639,
            13.0009289
          ],
          [
            77.6199751,
            13.0009397
          ]
        ]
      }
    },
    {
      "type": "Feature",
      "properties": {
        "id": "train_044_BND_020",
        "parcel_id": "train_044_P_005",
        "boundary_type": "VISIBLE",
        "confidence": 0.91,
        "length_m": 43.71,
        "evidence_sources": [
          "Drone_RGB_Edge",
          "DSM_Breakline"
        ]
      },
      "geometry": {
        "type": "LineString",
        "coordinates": [
          [
            77.6199751,
            13.0009397
          ],
          [
            77.6199746,
            13.0013346
          ]
        ]
      }
    },
    {
      "type": "Feature",
      "properties": {
        "id": "train_044_BND_021",
        "parcel_id": "train_044_P_006",
        "boundary_type": "VISIBLE",
        "confidence": 0.824,
        "length_m": 72.41,
        "evidence_sources": [
          "Drone_RGB_Edge",
          "DSM_Breakline"
        ]
      },
      "geometry": {
        "type": "LineString",
        "coordinates": [
          [
            77.6199581,
            13.0009013
          ],
          [
            77.6206251,
            13.0009131
          ]
        ]
      }
    },
    {
      "type": "Feature",
      "properties": {
        "id": "train_044_BND_022",
        "parcel_id": "train_044_P_006",
        "boundary_type": "INFERRED",
        "confidence": 0.761,
        "length_m": 45.72,
        "evidence_sources": [
          "Road_Corridor_Offset",
          "Adjacent_Parcel_Topology"
        ]
      },
      "geometry": {
        "type": "LineString",
        "coordinates": [
          [
            77.6206251,
            13.0009131
          ],
          [
            77.6206284,
            13.0005001
          ]
        ]
      }
    },
    {
      "type": "Feature",
      "properties": {
        "id": "train_044_BND_023",
        "parcel_id": "train_044_P_006",
        "boundary_type": "INFERRED",
        "confidence": 0.781,
        "length_m": 70.69,
        "evidence_sources": [
          "Road_Corridor_Offset",
          "Adjacent_Parcel_Topology"
        ]
      },
      "geometry": {
        "type": "LineString",
        "coordinates": [
          [
            77.6206284,
            13.0005001
          ],
          [
            77.6199772,
            13.0005065
          ]
        ]
      }
    },
    {
      "type": "Feature",
      "properties": {
        "id": "train_044_BND_024",
        "parcel_id": "train_044_P_006",
        "boundary_type": "VISIBLE",
        "confidence": 0.833,
        "length_m": 43.75,
        "evidence_sources": [
          "Drone_RGB_Edge",
          "DSM_Breakline"
        ]
      },
      "geometry": {
        "type": "LineString",
        "coordinates": [
          [
            77.6199772,
            13.0005065
          ],
          [
            77.6199581,
            13.0009013
          ]
        ]
      }
    },
    {
      "type": "Feature",
      "properties": {
        "id": "train_044_BND_025",
        "parcel_id": "train_044_P_007",
        "boundary_type": "VISIBLE",
        "confidence": 0.88,
        "length_m": 72.21,
        "evidence_sources": [
          "Drone_RGB_Edge",
          "DSM_Breakline"
        ]
      },
      "geometry": {
        "type": "LineString",
        "coordinates": [
          [
            77.6206413,
            13.001342
          ],
          [
            77.6213063,
            13.001324
          ]
        ]
      }
    },
    {
      "type": "Feature",
      "properties": {
        "id": "train_044_BND_026",
        "parcel_id": "train_044_P_007",
        "boundary_type": "VISIBLE",
        "confidence": 0.839,
        "length_m": 42.7,
        "evidence_sources": [
          "Drone_RGB_Edge",
          "DSM_Breakline"
        ]
      },
      "geometry": {
        "type": "LineString",
        "coordinates": [
          [
            77.6213063,
            13.001324
          ],
          [
            77.6213029,
            13.0009383
          ]
        ]
      }
    },
    {
      "type": "Feature",
      "properties": {
        "id": "train_044_BND_027",
        "parcel_id": "train_044_P_007",
        "boundary_type": "VISIBLE",
        "confidence": 0.902,
        "length_m": 70.8,
        "evidence_sources": [
          "Drone_RGB_Edge",
          "DSM_Breakline"
        ]
      },
      "geometry": {
        "type": "LineString",
        "coordinates": [
          [
            77.6213029,
            13.0009383
          ],
          [
            77.6206507,
            13.0009442
          ]
        ]
      }
    },
    {
      "type": "Feature",
      "properties": {
        "id": "train_044_BND_028",
        "parcel_id": "train_044_P_007",
        "boundary_type": "VISIBLE",
        "confidence": 0.834,
        "length_m": 44.05,
        "evidence_sources": [
          "Drone_RGB_Edge",
          "DSM_Breakline"
        ]
      },
      "geometry": {
        "type": "LineString",
        "coordinates": [
          [
            77.6206507,
            13.0009442
          ],
          [
            77.6206413,
            13.001342
          ]
        ]
      }
    },
    {
      "type": "Feature",
      "properties": {
        "id": "train_044_BND_029",
        "parcel_id": "train_044_P_008",
        "boundary_type": "VISIBLE",
        "confidence": 0.894,
        "length_m": 72.3,
        "evidence_sources": [
          "Drone_RGB_Edge",
          "DSM_Breakline"
        ]
      },
      "geometry": {
        "type": "LineString",
        "coordinates": [
          [
            77.6206424,
            13.0009105
          ],
          [
            77.6213084,
            13.0009016
          ]
        ]
      }
    },
    {
      "type": "Feature",
      "properties": {
        "id": "train_044_BND_030",
        "parcel_id": "train_044_P_008",
        "boundary_type": "VISIBLE",
        "confidence": 0.857,
        "length_m": 44.3,
        "evidence_sources": [
          "Drone_RGB_Edge",
          "DSM_Breakline"
        ]
      },
      "geometry": {
        "type": "LineString",
        "coordinates": [
          [
            77.6213084,
            13.0009016
          ],
          [
            77.6213148,
            13.0005015
          ]
        ]
      }
    },
    {
      "type": "Feature",
      "properties": {
        "id": "train_044_BND_031",
        "parcel_id": "train_044_P_008",
        "boundary_type": "INFERRED",
        "confidence": 0.66,
        "length_m": 72.24,
        "evidence_sources": [
          "Road_Corridor_Offset",
          "Adjacent_Parcel_Topology"
        ]
      },
      "geometry": {
        "type": "LineString",
        "coordinates": [
          [
            77.6213148,
            13.0005015
          ],
          [
            77.6206493,
            13.0005002
          ]
        ]
      }
    },
    {
      "type": "Feature",
      "properties": {
        "id": "train_044_BND_032",
        "parcel_id": "train_044_P_008",
        "boundary_type": "INFERRED",
        "confidence": 0.736,
        "length_m": 45.43,
        "evidence_sources": [
          "Road_Corridor_Offset",
          "Adjacent_Parcel_Topology"
        ]
      },
      "geometry": {
        "type": "LineString",
        "coordinates": [
          [
            77.6206493,
            13.0005002
          ],
          [
            77.6206424,
            13.0009105
          ]
        ]
      }
    },
    {
      "type": "Feature",
      "properties": {
        "id": "train_044_BND_033",
        "parcel_id": "train_044_P_009",
        "boundary_type": "VISIBLE",
        "confidence": 0.879,
        "length_m": 37.1,
        "evidence_sources": [
          "Drone_RGB_Edge",
          "DSM_Breakline"
        ]
      },
      "geometry": {
        "type": "LineString",
        "coordinates": [
          [
            77.6190595,
            13.0002155
          ],
          [
            77.6194012,
            13.000224
          ]
        ]
      }
    },
    {
      "type": "Feature",
      "properties": {
        "id": "train_044_BND_034",
        "parcel_id": "train_044_P_009",
        "boundary_type": "VISIBLE",
        "confidence": 0.868,
        "length_m": 61.16,
        "evidence_sources": [
          "Drone_RGB_Edge",
          "DSM_Breakline"
        ]
      },
      "geometry": {
        "type": "LineString",
        "coordinates": [
          [
            77.6194012,
            13.000224
          ],
          [
            77.619404,
            12.9996715
          ]
        ]
      }
    },
    {
      "type": "Feature",
      "properties": {
        "id": "train_044_BND_035",
        "parcel_id": "train_044_P_009",
        "boundary_type": "VISIBLE",
        "confidence": 0.901,
        "length_m": 35.42,
        "evidence_sources": [
          "Drone_RGB_Edge",
          "DSM_Breakline"
        ]
      },
      "geometry": {
        "type": "LineString",
        "coordinates": [
          [
            77.619404,
            12.9996715
          ],
          [
            77.6190778,
            12.9996625
          ]
        ]
      }
    },
    {
      "type": "Feature",
      "properties": {
        "id": "train_044_BND_036",
        "parcel_id": "train_044_P_009",
        "boundary_type": "VISIBLE",
        "confidence": 0.897,
        "length_m": 61.25,
        "evidence_sources": [
          "Drone_RGB_Edge",
          "DSM_Breakline"
        ]
      },
      "geometry": {
        "type": "LineString",
        "coordinates": [
          [
            77.6190778,
            12.9996625
          ],
          [
            77.6190595,
            13.0002155
          ]
        ]
      }
    },
    {
      "type": "Feature",
      "properties": {
        "id": "train_044_BND_037",
        "parcel_id": "train_044_P_010",
        "boundary_type": "VISIBLE",
        "confidence": 0.909,
        "length_m": 36.89,
        "evidence_sources": [
          "Drone_RGB_Edge",
          "DSM_Breakline"
        ]
      },
      "geometry": {
        "type": "LineString",
        "coordinates": [
          [
            77.619073,
            12.9996549
          ],
          [
            77.6194124,
            12.9996373
          ]
        ]
      }
    },
    {
      "type": "Feature",
      "properties": {
        "id": "train_044_BND_038",
        "parcel_id": "train_044_P_010",
        "boundary_type": "INFERRED",
        "confidence": 0.619,
        "length_m": 61.55,
        "evidence_sources": [
          "Road_Corridor_Offset",
          "Adjacent_Parcel_Topology"
        ]
      },
      "geometry": {
        "type": "LineString",
        "coordinates": [
          [
            77.6194124,
            12.9996373
          ],
          [
            77.6193923,
            12.9990816
          ]
        ]
      }
    },
    {
      "type": "Feature",
      "properties": {
        "id": "train_044_BND_039",
        "parcel_id": "train_044_P_010",
        "boundary_type": "VISIBLE",
        "confidence": 0.889,
        "length_m": 34.17,
        "evidence_sources": [
          "Drone_RGB_Edge",
          "DSM_Breakline"
        ]
      },
      "geometry": {
        "type": "LineString",
        "coordinates": [
          [
            77.6193923,
            12.9990816
          ],
          [
            77.6190775,
            12.9990835
          ]
        ]
      }
    },
    {
      "type": "Feature",
      "properties": {
        "id": "train_044_BND_040",
        "parcel_id": "train_044_P_010",
        "boundary_type": "VISIBLE",
        "confidence": 0.957,
        "length_m": 63.25,
        "evidence_sources": [
          "Drone_RGB_Edge",
          "DSM_Breakline"
        ]
      },
      "geometry": {
        "type": "LineString",
        "coordinates": [
          [
            77.6190775,
            12.9990835
          ],
          [
            77.619073,
            12.9996549
          ]
        ]
      }
    },
    {
      "type": "Feature",
      "properties": {
        "id": "train_044_BND_041",
        "parcel_id": "train_044_P_011",
        "boundary_type": "VISIBLE",
        "confidence": 0.949,
        "length_m": 37.31,
        "evidence_sources": [
          "Drone_RGB_Edge",
          "DSM_Breakline"
        ]
      },
      "geometry": {
        "type": "LineString",
        "coordinates": [
          [
            77.6194131,
            13.0002347
          ],
          [
            77.6197565,
            13.0002212
          ]
        ]
      }
    },
    {
      "type": "Feature",
      "properties": {
        "id": "train_044_BND_042",
        "parcel_id": "train_044_P_011",
        "boundary_type": "VISIBLE",
        "confidence": 0.92,
        "length_m": 61.95,
        "evidence_sources": [
          "Drone_RGB_Edge",
          "DSM_Breakline"
        ]
      },
      "geometry": {
        "type": "LineString",
        "coordinates": [
          [
            77.6197565,
            13.0002212
          ],
          [
            77.6197622,
            12.9996616
          ]
        ]
      }
    },
    {
      "type": "Feature",
      "properties": {
        "id": "train_044_BND_043",
        "parcel_id": "train_044_P_011",
        "boundary_type": "VISIBLE",
        "confidence": 0.947,
        "length_m": 36.23,
        "evidence_sources": [
          "Drone_RGB_Edge",
          "DSM_Breakline"
        ]
      },
      "geometry": {
        "type": "LineString",
        "coordinates": [
          [
            77.6197622,
            12.9996616
          ],
          [
            77.6194285,
            12.9996683
          ]
        ]
      }
    },
    {
      "type": "Feature",
      "properties": {
        "id": "train_044_BND_044",
        "parcel_id": "train_044_P_011",
        "boundary_type": "VISIBLE",
        "confidence": 0.841,
        "length_m": 62.72,
        "evidence_sources": [
          "Drone_RGB_Edge",
          "DSM_Breakline"
        ]
      },
      "geometry": {
        "type": "LineString",
        "coordinates": [
          [
            77.6194285,
            12.9996683
          ],
          [
            77.6194131,
            13.0002347
          ]
        ]
      }
    },
    {
      "type": "Feature",
      "properties": {
        "id": "train_044_BND_045",
        "parcel_id": "train_044_P_012",
        "boundary_type": "VISIBLE",
        "confidence": 0.937,
        "length_m": 36.36,
        "evidence_sources": [
          "Drone_RGB_Edge",
          "DSM_Breakline"
        ]
      },
      "geometry": {
        "type": "LineString",
        "coordinates": [
          [
            77.619433,
            12.9996452
          ],
          [
            77.6197679,
            12.9996518
          ]
        ]
      }
    },
    {
      "type": "Feature",
      "properties": {
        "id": "train_044_BND_046",
        "parcel_id": "train_044_P_012",
        "boundary_type": "VISIBLE",
        "confidence": 0.842,
        "length_m": 61.91,
        "evidence_sources": [
          "Drone_RGB_Edge",
          "DSM_Breakline"
        ]
      },
      "geometry": {
        "type": "LineString",
        "coordinates": [
          [
            77.6197679,
            12.9996518
          ],
          [
            77.6197566,
            12.9990926
          ]
        ]
      }
    },
    {
      "type": "Feature",
      "properties": {
        "id": "train_044_BND_047",
        "parcel_id": "train_044_P_012",
        "boundary_type": "VISIBLE",
        "confidence": 0.895,
        "length_m": 37.14,
        "evidence_sources": [
          "Drone_RGB_Edge",
          "DSM_Breakline"
        ]
      },
      "geometry": {
        "type": "LineString",
        "coordinates": [
          [
            77.6197566,
            12.9990926
          ],
          [
            77.6194147,
            12.9990805
          ]
        ]
      }
    },
    {
      "type": "Feature",
      "properties": {
        "id": "train_044_BND_048",
        "parcel_id": "train_044_P_012",
        "boundary_type": "VISIBLE",
        "confidence": 0.926,
        "length_m": 62.54,
        "evidence_sources": [
          "Drone_RGB_Edge",
          "DSM_Breakline"
        ]
      },
      "geometry": {
        "type": "LineString",
        "coordinates": [
          [
            77.6194147,
            12.9990805
          ],
          [
            77.619433,
            12.9996452
          ]
        ]
      }
    },
    {
      "type": "Feature",
      "properties": {
        "id": "train_044_BND_049",
        "parcel_id": "train_044_P_013",
        "boundary_type": "INFERRED",
        "confidence": 0.764,
        "length_m": 72.43,
        "evidence_sources": [
          "Road_Corridor_Offset",
          "Adjacent_Parcel_Topology"
        ]
      },
      "geometry": {
        "type": "LineString",
        "coordinates": [
          [
            77.6199717,
            13.0002371
          ],
          [
            77.6206389,
            13.0002334
          ]
        ]
      }
    },
    {
      "type": "Feature",
      "properties": {
        "id": "train_044_BND_050",
        "parcel_id": "train_044_P_013",
        "boundary_type": "VISIBLE",
        "confidence": 0.951,
        "length_m": 61.56,
        "evidence_sources": [
          "Drone_RGB_Edge",
          "DSM_Breakline"
        ]
      },
      "geometry": {
        "type": "LineString",
        "coordinates": [
          [
            77.6206389,
            13.0002334
          ],
          [
            77.6206237,
            12.9996775
          ]
        ]
      }
    },
    {
      "type": "Feature",
      "properties": {
        "id": "train_044_BND_051",
        "parcel_id": "train_044_P_013",
        "boundary_type": "INFERRED",
        "confidence": 0.672,
        "length_m": 70.98,
        "evidence_sources": [
          "Road_Corridor_Offset",
          "Adjacent_Parcel_Topology"
        ]
      },
      "geometry": {
        "type": "LineString",
        "coordinates": [
          [
            77.6206237,
            12.9996775
          ],
          [
            77.6199699,
            12.9996649
          ]
        ]
      }
    },
    {
      "type": "Feature",
      "properties": {
        "id": "train_044_BND_052",
        "parcel_id": "train_044_P_013",
        "boundary_type": "INFERRED",
        "confidence": 0.698,
        "length_m": 63.34,
        "evidence_sources": [
          "Road_Corridor_Offset",
          "Adjacent_Parcel_Topology"
        ]
      },
      "geometry": {
        "type": "LineString",
        "coordinates": [
          [
            77.6199699,
            12.9996649
          ],
          [
            77.6199717,
            13.0002371
          ]
        ]
      }
    },
    {
      "type": "Feature",
      "properties": {
        "id": "train_044_BND_053",
        "parcel_id": "train_044_P_014",
        "boundary_type": "VISIBLE",
        "confidence": 0.881,
        "length_m": 71.57,
        "evidence_sources": [
          "Drone_RGB_Edge",
          "DSM_Breakline"
        ]
      },
      "geometry": {
        "type": "LineString",
        "coordinates": [
          [
            77.6199715,
            12.9996434
          ],
          [
            77.6206308,
            12.9996454
          ]
        ]
      }
    },
    {
      "type": "Feature",
      "properties": {
        "id": "train_044_BND_054",
        "parcel_id": "train_044_P_014",
        "boundary_type": "VISIBLE",
        "confidence": 0.867,
        "length_m": 61.95,
        "evidence_sources": [
          "Drone_RGB_Edge",
          "DSM_Breakline"
        ]
      },
      "geometry": {
        "type": "LineString",
        "coordinates": [
          [
            77.6206308,
            12.9996454
          ],
          [
            77.6206394,
            12.9990858
          ]
        ]
      }
    },
    {
      "type": "Feature",
      "properties": {
        "id": "train_044_BND_055",
        "parcel_id": "train_044_P_014",
        "boundary_type": "VISIBLE",
        "confidence": 0.835,
        "length_m": 71.91,
        "evidence_sources": [
          "Drone_RGB_Edge",
          "DSM_Breakline"
        ]
      },
      "geometry": {
        "type": "LineString",
        "coordinates": [
          [
            77.6206394,
            12.9990858
          ],
          [
            77.619977,
            12.9990942
          ]
        ]
      }
    },
    {
      "type": "Feature",
      "properties": {
        "id": "train_044_BND_056",
        "parcel_id": "train_044_P_014",
        "boundary_type": "VISIBLE",
        "confidence": 0.908,
        "length_m": 60.8,
        "evidence_sources": [
          "Drone_RGB_Edge",
          "DSM_Breakline"
        ]
      },
      "geometry": {
        "type": "LineString",
        "coordinates": [
          [
            77.619977,
            12.9990942
          ],
          [
            77.6199715,
            12.9996434
          ]
        ]
      }
    },
    {
      "type": "Feature",
      "properties": {
        "id": "train_044_BND_057",
        "parcel_id": "train_044_P_015",
        "boundary_type": "VISIBLE",
        "confidence": 0.865,
        "length_m": 70.97,
        "evidence_sources": [
          "Drone_RGB_Edge",
          "DSM_Breakline"
        ]
      },
      "geometry": {
        "type": "LineString",
        "coordinates": [
          [
            77.6206626,
            13.0002225
          ],
          [
            77.6213164,
            13.0002153
          ]
        ]
      }
    },
    {
      "type": "Feature",
      "properties": {
        "id": "train_044_BND_058",
        "parcel_id": "train_044_P_015",
        "boundary_type": "VISIBLE",
        "confidence": 0.838,
        "length_m": 61.22,
        "evidence_sources": [
          "Drone_RGB_Edge",
          "DSM_Breakline"
        ]
      },
      "geometry": {
        "type": "LineString",
        "coordinates": [
          [
            77.6213164,
            13.0002153
          ],
          [
            77.6213116,
            12.9996623
          ]
        ]
      }
    },
    {
      "type": "Feature",
      "properties": {
        "id": "train_044_BND_059",
        "parcel_id": "train_044_P_015",
        "boundary_type": "INFERRED",
        "confidence": 0.767,
        "length_m": 71.23,
        "evidence_sources": [
          "Road_Corridor_Offset",
          "Adjacent_Parcel_Topology"
        ]
      },
      "geometry": {
        "type": "LineString",
        "coordinates": [
          [
            77.6213116,
            12.9996623
          ],
          [
            77.6206554,
            12.9996684
          ]
        ]
      }
    },
    {
      "type": "Feature",
      "properties": {
        "id": "train_044_BND_060",
        "parcel_id": "train_044_P_015",
        "boundary_type": "INFERRED",
        "confidence": 0.766,
        "length_m": 61.34,
        "evidence_sources": [
          "Road_Corridor_Offset",
          "Adjacent_Parcel_Topology"
        ]
      },
      "geometry": {
        "type": "LineString",
        "coordinates": [
          [
            77.6206554,
            12.9996684
          ],
          [
            77.6206626,
            13.0002225
          ]
        ]
      }
    },
    {
      "type": "Feature",
      "properties": {
        "id": "train_044_BND_061",
        "parcel_id": "train_044_P_016",
        "boundary_type": "VISIBLE",
        "confidence": 0.958,
        "length_m": 73.65,
        "evidence_sources": [
          "Drone_RGB_Edge",
          "DSM_Breakline"
        ]
      },
      "geometry": {
        "type": "LineString",
        "coordinates": [
          [
            77.6206434,
            12.999652
          ],
          [
            77.6213218,
            12.9996405
          ]
        ]
      }
    },
    {
      "type": "Feature",
      "properties": {
        "id": "train_044_BND_062",
        "parcel_id": "train_044_P_016",
        "boundary_type": "VISIBLE",
        "confidence": 0.831,
        "length_m": 61.0,
        "evidence_sources": [
          "Drone_RGB_Edge",
          "DSM_Breakline"
        ]
      },
      "geometry": {
        "type": "LineString",
        "coordinates": [
          [
            77.6213218,
            12.9996405
          ],
          [
            77.6213166,
            12.9990895
          ]
        ]
      }
    },
    {
      "type": "Feature",
      "properties": {
        "id": "train_044_BND_063",
        "parcel_id": "train_044_P_016",
        "boundary_type": "VISIBLE",
        "confidence": 0.887,
        "length_m": 72.95,
        "evidence_sources": [
          "Drone_RGB_Edge",
          "DSM_Breakline"
        ]
      },
      "geometry": {
        "type": "LineString",
        "coordinates": [
          [
            77.6213166,
            12.9990895
          ],
          [
            77.6206446,
            12.9990957
          ]
        ]
      }
    },
    {
      "type": "Feature",
      "properties": {
        "id": "train_044_BND_064",
        "parcel_id": "train_044_P_016",
        "boundary_type": "VISIBLE",
        "confidence": 0.957,
        "length_m": 61.58,
        "evidence_sources": [
          "Drone_RGB_Edge",
          "DSM_Breakline"
        ]
      },
      "geometry": {
        "type": "LineString",
        "coordinates": [
          [
            77.6206446,
            12.9990957
          ],
          [
            77.6206434,
            12.999652
          ]
        ]
      }
    }
  ]
}