{
  "type": "FeatureCollection",
  "crs": {
    "type": "name",
    "properties": {
      "name": "EPSG:4326"
    }
  },
  "features": [
    {
      "type": "Feature",
      "properties": {
        "id": "train_044_BLDG_001",
        "parcel_id": "train_044_P_001",
        "area_sqm": 670.28,
        "perimeter_m": 104.63,
        "centroid_lon": 77.6192237,
        "centroid_lat": 13.0011328,
        "height_m": 9.81,
        "confidence": 0.825,
        "temporal_epoch": "T1"
      },
      "geometry": {
        "type": "Polygon",
        "coordinates": [
          [
            [
              77.6191204,
              13.0012678
            ],
            [
              77.619327,
              13.0012678
            ],
            [
              77.619327,
              13.0009978
            ],
            [
              77.6191204,
              13.0009978
            ],
            [
              77.6191204,
              13.0012678
            ]
          ]
        ]
      }
    },
    {
      "type": "Feature",
      "properties": {
        "id": "train_044_BLDG_002",
        "parcel_id": "train_044_P_002",
        "area_sqm": 670.28,
        "perimeter_m": 104.63,
        "centroid_lon": 77.6192237,
        "centroid_lat": 13.0007109,
        "height_m": 6.46,
        "confidence": 0.917,
        "temporal_epoch": "T1"
      },
      "geometry": {
        "type": "Polygon",
        "coordinates": [
          [
            [
              77.6191204,
              13.0008459
            ],
            [
              77.619327,
              13.0008459
            ],
            [
              77.619327,
              13.0005759
            ],
            [
              77.6191204,
              13.0005759
            ],
            [
              77.6191204,
              13.0008459
            ]
          ]
        ]
      }
    },
    {
      "type": "Feature",
      "properties": {
        "id": "train_044_BLDG_003",
        "parcel_id": "train_044_P_003",
        "area_sqm": 1099.83,
        "perimeter_m": 133.37,
        "centroid_lon": 77.6196461,
        "centroid_lat": 13.0011328,
        "height_m": 6.21,
        "confidence": 0.947,
        "temporal_epoch": "T1"
      },
      "geometry": {
        "type": "Polygon",
        "coordinates": [
          [
            [
              77.6194766,
              13.0012678
            ],
            [
              77.6198156,
              13.0012678
            ],
            [
              77.6198156,
              13.0009978
            ],
            [
              77.6194766,
              13.0009978
            ],
            [
              77.6194766,
              13.0012678
            ]
          ]
        ]
      }
    },
    {
      "type": "Feature",
      "properties": {
        "id": "train_044_BLDG_004",
        "parcel_id": "train_044_P_004",
        "area_sqm": 670.28,
        "perimeter_m": 104.63,
        "centroid_lon": 77.6195799,
        "centroid_lat": 13.0007109,
        "height_m": 6.37,
        "confidence": 0.951,
        "temporal_epoch": "T1"
      },
      "geometry": {
        "type": "Polygon",
        "coordinates": [
          [
            [
              77.6194766,
              13.0008459
            ],
            [
              77.6196832,
              13.0008459
            ],
            [
              77.6196832,
              13.0005759
            ],
            [
              77.6194766,
              13.0005759
            ],
            [
              77.6194766,
              13.0008459
            ]
          ]
        ]
      }
    },
    {
      "type": "Feature",
      "properties": {
        "id": "train_044_BLDG_005",
        "parcel_id": "train_044_P_008",
        "area_sqm": 1288.01,
        "perimeter_m": 145.96,
        "centroid_lon": 77.6209623,
        "centroid_lat": 13.0007109,
        "height_m": 7.38,
        "confidence": 0.853,
        "temporal_epoch": "T1"
      },
      "geometry": {
        "type": "Polygon",
        "coordinates": [
          [
            [
              77.6207638,
              13.0008459
            ],
            [
              77.6211608,
              13.0008459
            ],
            [
              77.6211608,
              13.0005759
            ],
            [
              77.6207638,
              13.0005759
            ],
            [
              77.6207638,
              13.0008459
            ]
          ]
        ]
      }
    },
    {
      "type": "Feature",
      "properties": {
        "id": "train_044_BLDG_006",
        "parcel_id": "train_044_P_009",
        "area_sqm": 923.5,
        "perimeter_m": 127.21,
        "centroid_lon": 77.6192237,
        "centroid_lat": 12.9999469,
        "height_m": 5.88,
        "confidence": 0.851,
        "temporal_epoch": "T1"
      },
      "geometry": {
        "type": "Polygon",
        "coordinates": [
          [
            [
              77.6191204,
              13.0001329
            ],
            [
              77.619327,
              13.0001329
            ],
            [
              77.619327,
              12.9997609
            ],
            [
              77.6191204,
              12.9997609
            ],
            [
              77.6191204,
              13.0001329
            ]
          ]
        ]
      }
    },
    {
      "type": "Feature",
      "properties": {
        "id": "train_044_BLDG_007",
        "parcel_id": "train_044_P_010",
        "area_sqm": 923.5,
        "perimeter_m": 127.21,
        "centroid_lon": 77.6192237,
        "centroid_lat": 12.9993656,
        "height_m": 4.63,
        "confidence": 0.785,
        "temporal_epoch": "T1"
      },
      "geometry": {
        "type": "Polygon",
        "coordinates": [
          [
            [
              77.6191204,
              12.9995516
            ],
            [
              77.619327,
              12.9995516
            ],
            [
              77.619327,
              12.9991796
            ],
            [
              77.6191204,
              12.9991796
            ],
            [
              77.6191204,
              12.9995516
            ]
          ]
        ]
      }
    },
    {
      "type": "Feature",
      "properties": {
        "id": "train_044_BLDG_008",
        "parcel_id": "train_044_P_011",
        "area_sqm": 923.5,
        "perimeter_m": 127.21,
        "centroid_lon": 77.6195799,
        "centroid_lat": 12.9999469,
        "height_m": 8.02,
        "confidence": 0.951,
        "temporal_epoch": "T1"
      },
      "geometry": {
        "type": "Polygon",
        "coordinates": [
          [
            [
              77.6194766,
              13.0001329
            ],
            [
              77.6196832,
              13.0001329
            ],
            [
              77.6196832,
              12.9997609
            ],
            [
              77.6194766,
              12.9997609
            ],
            [
              77.6194766,
              13.0001329
            ]
          ]
        ]
      }
    },
    {
      "type": "Feature",
      "properties": {
        "id": "train_044_BLDG_009",
        "parcel_id": "train_044_P_012",
        "area_sqm": 923.5,
        "perimeter_m": 127.21,
        "centroid_lon": 77.6195799,
        "centroid_lat": 12.9993656,
        "height_m": 9.78,
        "confidence": 0.897,
        "temporal_epoch": "T1"
      },
      "geometry": {
        "type": "Polygon",
        "coordinates": [
          [
            [
              77.6194766,
              12.9995516
            ],
            [
              77.6196832,
              12.9995516
            ],
            [
              77.6196832,
              12.9991796
            ],
            [
              77.6194766,
              12.9991796
            ],
            [
              77.6194766,
              12.9995516
            ]
          ]
        ]
      }
    },
    {
      "type": "Feature",
      "properties": {
        "id": "train_044_BLDG_010",
        "parcel_id": "train_044_P_013",
        "area_sqm": 1774.59,
        "perimeter_m": 168.55,
        "centroid_lon": 77.6202779,
        "centroid_lat": 12.9999469,
        "height_m": 7.88,
        "confidence": 0.902,
        "temporal_epoch": "T1"
      },
      "geometry": {
        "type": "Polygon",
        "coordinates": [
          [
            [
              77.6200794,
              13.0001329
            ],
            [
              77.6204764,
              13.0001329
            ],
            [
              77.6204764,
              12.9997609
            ],
            [
              77.6200794,
              12.9997609
            ],
            [
              77.6200794,
              13.0001329
            ]
          ]
        ]
      }
    }
  ]
}