{
  "type": "FeatureCollection",
  "crs": {
    "type": "name",
    "properties": {
      "name": "EPSG:4326"
    }
  },
  "features": [
    {
      "type": "Feature",
      "properties": {
        "id": "train_092_BND_001",
        "parcel_id": "train_092_P_001",
        "boundary_type": "VISIBLE",
        "confidence": 0.83,
        "length_m": 37.51,
        "evidence_sources": [
          "Drone_RGB_Edge",
          "DSM_Breakline"
        ]
      },
      "geometry": {
        "type": "LineString",
        "coordinates": [
          [
            77.6280647,
            13.0103215
          ],
          [
            77.6284097,
            13.0103416
          ]
        ]
      }
    },
    {
      "type": "Feature",
      "properties": {
        "id": "train_092_BND_002",
        "parcel_id": "train_092_P_001",
        "boundary_type": "VISIBLE",
        "confidence": 0.86,
        "length_m": 69.28,
        "evidence_sources": [
          "Drone_RGB_Edge",
          "DSM_Breakline"
        ]
      },
      "geometry": {
        "type": "LineString",
        "coordinates": [
          [
            77.6284097,
            13.0103416
          ],
          [
            77.6283998,
            13.0097158
          ]
        ]
      }
    },
    {
      "type": "Feature",
      "properties": {
        "id": "train_092_BND_003",
        "parcel_id": "train_092_P_001",
        "boundary_type": "VISIBLE",
        "confidence": 0.862,
        "length_m": 36.35,
        "evidence_sources": [
          "Drone_RGB_Edge",
          "DSM_Breakline"
        ]
      },
      "geometry": {
        "type": "LineString",
        "coordinates": [
          [
            77.6283998,
            13.0097158
          ],
          [
            77.6280649,
            13.0097152
          ]
        ]
      }
    },
    {
      "type": "Feature",
      "properties": {
        "id": "train_092_BND_004",
        "parcel_id": "train_092_P_001",
        "boundary_type": "INFERRED",
        "confidence": 0.618,
        "length_m": 67.12,
        "evidence_sources": [
          "Road_Corridor_Offset",
          "Adjacent_Parcel_Topology"
        ]
      },
      "geometry": {
        "type": "LineString",
        "coordinates": [
          [
            77.6280649,
            13.0097152
          ],
          [
            77.6280647,
            13.0103215
          ]
        ]
      }
    },
    {
      "type": "Feature",
      "properties": {
        "id": "train_092_BND_005",
        "parcel_id": "train_092_P_002",
        "boundary_type": "VISIBLE",
        "confidence": 0.931,
        "length_m": 37.95,
        "evidence_sources": [
          "Drone_RGB_Edge",
          "DSM_Breakline"
        ]
      },
      "geometry": {
        "type": "LineString",
        "coordinates": [
          [
            77.6280587,
            13.0096835
          ],
          [
            77.6284083,
            13.0096786
          ]
        ]
      }
    },
    {
      "type": "Feature",
      "properties": {
        "id": "train_092_BND_006",
        "parcel_id": "train_092_P_002",
        "boundary_type": "VISIBLE",
        "confidence": 0.87,
        "length_m": 68.08,
        "evidence_sources": [
          "Drone_RGB_Edge",
          "DSM_Breakline"
        ]
      },
      "geometry": {
        "type": "LineString",
        "coordinates": [
          [
            77.6284083,
            13.0096786
          ],
          [
            77.6284141,
            13.0090636
          ]
        ]
      }
    },
    {
      "type": "Feature",
      "properties": {
        "id": "train_092_BND_007",
        "parcel_id": "train_092_P_002",
        "boundary_type": "VISIBLE",
        "confidence": 0.938,
        "length_m": 36.99,
        "evidence_sources": [
          "Drone_RGB_Edge",
          "DSM_Breakline"
        ]
      },
      "geometry": {
        "type": "LineString",
        "coordinates": [
          [
            77.6284141,
            13.0090636
          ],
          [
            77.6280733,
            13.0090661
          ]
        ]
      }
    },
    {
      "type": "Feature",
      "properties": {
        "id": "train_092_BND_008",
        "parcel_id": "train_092_P_002",
        "boundary_type": "INFERRED",
        "confidence": 0.649,
        "length_m": 68.36,
        "evidence_sources": [
          "Road_Corridor_Offset",
          "Adjacent_Parcel_Topology"
        ]
      },
      "geometry": {
        "type": "LineString",
        "coordinates": [
          [
            77.6280733,
            13.0090661
          ],
          [
            77.6280587,
            13.0096835
          ]
        ]
      }
    },
    {
      "type": "Feature",
      "properties": {
        "id": "train_092_BND_009",
        "parcel_id": "train_092_P_003",
        "boundary_type": "VISIBLE",
        "confidence": 0.876,
        "length_m": 35.7,
        "evidence_sources": [
          "Drone_RGB_Edge",
          "DSM_Breakline"
        ]
      },
      "geometry": {
        "type": "LineString",
        "coordinates": [
          [
            77.6284406,
            13.0103399
          ],
          [
            77.6287692,
            13.0103269
          ]
        ]
      }
    },
    {
      "type": "Feature",
      "properties": {
        "id": "train_092_BND_010",
        "parcel_id": "train_092_P_003",
        "boundary_type": "INFERRED",
        "confidence": 0.666,
        "length_m": 68.58,
        "evidence_sources": [
          "Road_Corridor_Offset",
          "Adjacent_Parcel_Topology"
        ]
      },
      "geometry": {
        "type": "LineString",
        "coordinates": [
          [
            77.6287692,
            13.0103269
          ],
          [
            77.6287863,
            13.0097076
          ]
        ]
      }
    },
    {
      "type": "Feature",
      "properties": {
        "id": "train_092_BND_011",
        "parcel_id": "train_092_P_003",
        "boundary_type": "VISIBLE",
        "confidence": 0.939,
        "length_m": 38.92,
        "evidence_sources": [
          "Drone_RGB_Edge",
          "DSM_Breakline"
        ]
      },
      "geometry": {
        "type": "LineString",
        "coordinates": [
          [
            77.6287863,
            13.0097076
          ],
          [
            77.6284278,
            13.0097118
          ]
        ]
      }
    },
    {
      "type": "Feature",
      "properties": {
        "id": "train_092_BND_012",
        "parcel_id": "train_092_P_003",
        "boundary_type": "INFERRED",
        "confidence": 0.63,
        "length_m": 69.54,
        "evidence_sources": [
          "Road_Corridor_Offset",
          "Adjacent_Parcel_Topology"
        ]
      },
      "geometry": {
        "type": "LineString",
        "coordinates": [
          [
            77.6284278,
            13.0097118
          ],
          [
            77.6284406,
            13.0103399
          ]
        ]
      }
    },
    {
      "type": "Feature",
      "properties": {
        "id": "train_092_BND_013",
        "parcel_id": "train_092_P_004",
        "boundary_type": "VISIBLE",
        "confidence": 0.847,
        "length_m": 37.37,
        "evidence_sources": [
          "Drone_RGB_Edge",
          "DSM_Breakline"
        ]
      },
      "geometry": {
        "type": "LineString",
        "coordinates": [
          [
            77.6284284,
            13.0096787
          ],
          [
            77.6287723,
            13.0096952
          ]
        ]
      }
    },
    {
      "type": "Feature",
      "properties": {
        "id": "train_092_BND_014",
        "parcel_id": "train_092_P_004",
        "boundary_type": "VISIBLE",
        "confidence": 0.918,
        "length_m": 70.69,
        "evidence_sources": [
          "Drone_RGB_Edge",
          "DSM_Breakline"
        ]
      },
      "geometry": {
        "type": "LineString",
        "coordinates": [
          [
            77.6287723,
            13.0096952
          ],
          [
            77.6287835,
            13.0090567
          ]
        ]
      }
    },
    {
      "type": "Feature",
      "properties": {
        "id": "train_092_BND_015",
        "parcel_id": "train_092_P_004",
        "boundary_type": "INFERRED",
        "confidence": 0.672,
        "length_m": 38.41,
        "evidence_sources": [
          "Road_Corridor_Offset",
          "Adjacent_Parcel_Topology"
        ]
      },
      "geometry": {
        "type": "LineString",
        "coordinates": [
          [
            77.6287835,
            13.0090567
          ],
          [
            77.6284298,
            13.009068
          ]
        ]
      }
    },
    {
      "type": "Feature",
      "properties": {
        "id": "train_092_BND_016",
        "parcel_id": "train_092_P_004",
        "boundary_type": "INFERRED",
        "confidence": 0.775,
        "length_m": 67.6,
        "evidence_sources": [
          "Road_Corridor_Offset",
          "Adjacent_Parcel_Topology"
        ]
      },
      "geometry": {
        "type": "LineString",
        "coordinates": [
          [
            77.6284298,
            13.009068
          ],
          [
            77.6284284,
            13.0096787
          ]
        ]
      }
    },
    {
      "type": "Feature",
      "properties": {
        "id": "train_092_BND_017",
        "parcel_id": "train_092_P_005",
        "boundary_type": "VISIBLE",
        "confidence": 0.848,
        "length_m": 72.85,
        "evidence_sources": [
          "Drone_RGB_Edge",
          "DSM_Breakline"
        ]
      },
      "geometry": {
        "type": "LineString",
        "coordinates": [
          [
            77.6289483,
            13.0103382
          ],
          [
            77.6296194,
            13.0103311
          ]
        ]
      }
    },
    {
      "type": "Feature",
      "properties": {
        "id": "train_092_BND_018",
        "parcel_id": "train_092_P_005",
        "boundary_type": "VISIBLE",
        "confidence": 0.957,
        "length_m": 68.85,
        "evidence_sources": [
          "Drone_RGB_Edge",
          "DSM_Breakline"
        ]
      },
      "geometry": {
        "type": "LineString",
        "coordinates": [
          [
            77.6296194,
            13.0103311
          ],
          [
            77.6296115,
            13.0097092
          ]
        ]
      }
    },
    {
      "type": "Feature",
      "properties": {
        "id": "train_092_BND_019",
        "parcel_id": "train_092_P_005",
        "boundary_type": "VISIBLE",
        "confidence": 0.896,
        "length_m": 71.48,
        "evidence_sources": [
          "Drone_RGB_Edge",
          "DSM_Breakline"
        ]
      },
      "geometry": {
        "type": "LineString",
        "coordinates": [
          [
            77.6296115,
            13.0097092
          ],
          [
            77.628953,
            13.0097098
          ]
        ]
      }
    },
    {
      "type": "Feature",
      "properties": {
        "id": "train_092_BND_020",
        "parcel_id": "train_092_P_005",
        "boundary_type": "VISIBLE",
        "confidence": 0.902,
        "length_m": 69.56,
        "evidence_sources": [
          "Drone_RGB_Edge",
          "DSM_Breakline"
        ]
      },
      "geometry": {
        "type": "LineString",
        "coordinates": [
          [
            77.628953,
            13.0097098
          ],
          [
            77.6289483,
            13.0103382
          ]
        ]
      }
    },
    {
      "type": "Feature",
      "properties": {
        "id": "train_092_BND_021",
        "parcel_id": "train_092_P_006",
        "boundary_type": "VISIBLE",
        "confidence": 0.888,
        "length_m": 73.03,
        "evidence_sources": [
          "Drone_RGB_Edge",
          "DSM_Breakline"
        ]
      },
      "geometry": {
        "type": "LineString",
        "coordinates": [
          [
            77.628948,
            13.0096811
          ],
          [
            77.6296208,
            13.0096803
          ]
        ]
      }
    },
    {
      "type": "Feature",
      "properties": {
        "id": "train_092_BND_022",
        "parcel_id": "train_092_P_006",
        "boundary_type": "VISIBLE",
        "confidence": 0.883,
        "length_m": 69.14,
        "evidence_sources": [
          "Drone_RGB_Edge",
          "DSM_Breakline"
        ]
      },
      "geometry": {
        "type": "LineString",
        "coordinates": [
          [
            77.6296208,
            13.0096803
          ],
          [
            77.629629,
            13.0090558
          ]
        ]
      }
    },
    {
      "type": "Feature",
      "properties": {
        "id": "train_092_BND_023",
        "parcel_id": "train_092_P_006",
        "boundary_type": "INFERRED",
        "confidence": 0.694,
        "length_m": 73.06,
        "evidence_sources": [
          "Road_Corridor_Offset",
          "Adjacent_Parcel_Topology"
        ]
      },
      "geometry": {
        "type": "LineString",
        "coordinates": [
          [
            77.629629,
            13.0090558
          ],
          [
            77.628956,
            13.0090661
          ]
        ]
      }
    },
    {
      "type": "Feature",
      "properties": {
        "id": "train_092_BND_024",
        "parcel_id": "train_092_P_006",
        "boundary_type": "VISIBLE",
        "confidence": 0.879,
        "length_m": 68.08,
        "evidence_sources": [
          "Drone_RGB_Edge",
          "DSM_Breakline"
        ]
      },
      "geometry": {
        "type": "LineString",
        "coordinates": [
          [
            77.628956,
            13.0090661
          ],
          [
            77.628948,
            13.0096811
          ]
        ]
      }
    },
    {
      "type": "Feature",
      "properties": {
        "id": "train_092_BND_025",
        "parcel_id": "train_092_P_007",
        "boundary_type": "VISIBLE",
        "confidence": 0.908,
        "length_m": 74.18,
        "evidence_sources": [
          "Drone_RGB_Edge",
          "DSM_Breakline"
        ]
      },
      "geometry": {
        "type": "LineString",
        "coordinates": [
          [
            77.6296387,
            13.0103364
          ],
          [
            77.6303221,
            13.0103418
          ]
        ]
      }
    },
    {
      "type": "Feature",
      "properties": {
        "id": "train_092_BND_026",
        "parcel_id": "train_092_P_007",
        "boundary_type": "VISIBLE",
        "confidence": 0.899,
        "length_m": 70.66,
        "evidence_sources": [
          "Drone_RGB_Edge",
          "DSM_Breakline"
        ]
      },
      "geometry": {
        "type": "LineString",
        "coordinates": [
          [
            77.6303221,
            13.0103418
          ],
          [
            77.6303036,
            13.0097037
          ]
        ]
      }
    },
    {
      "type": "Feature",
      "properties": {
        "id": "train_092_BND_027",
        "parcel_id": "train_092_P_007",
        "boundary_type": "VISIBLE",
        "confidence": 0.837,
        "length_m": 72.98,
        "evidence_sources": [
          "Drone_RGB_Edge",
          "DSM_Breakline"
        ]
      },
      "geometry": {
        "type": "LineString",
        "coordinates": [
          [
            77.6303036,
            13.0097037
          ],
          [
            77.6296314,
            13.0097155
          ]
        ]
      }
    },
    {
      "type": "Feature",
      "properties": {
        "id": "train_092_BND_028",
        "parcel_id": "train_092_P_007",
        "boundary_type": "INFERRED",
        "confidence": 0.65,
        "length_m": 68.74,
        "evidence_sources": [
          "Road_Corridor_Offset",
          "Adjacent_Parcel_Topology"
        ]
      },
      "geometry": {
        "type": "LineString",
        "coordinates": [
          [
            77.6296314,
            13.0097155
          ],
          [
            77.6296387,
            13.0103364
          ]
        ]
      }
    },
    {
      "type": "Feature",
      "properties": {
        "id": "train_092_BND_029",
        "parcel_id": "train_092_P_008",
        "boundary_type": "VISIBLE",
        "confidence": 0.905,
        "length_m": 72.09,
        "evidence_sources": [
          "Drone_RGB_Edge",
          "DSM_Breakline"
        ]
      },
      "geometry": {
        "type": "LineString",
        "coordinates": [
          [
            77.6296391,
            13.0096849
          ],
          [
            77.6303032,
            13.0096836
          ]
        ]
      }
    },
    {
      "type": "Feature",
      "properties": {
        "id": "train_092_BND_030",
        "parcel_id": "train_092_P_008",
        "boundary_type": "VISIBLE",
        "confidence": 0.876,
        "length_m": 70.02,
        "evidence_sources": [
          "Drone_RGB_Edge",
          "DSM_Breakline"
        ]
      },
      "geometry": {
        "type": "LineString",
        "coordinates": [
          [
            77.6303032,
            13.0096836
          ],
          [
            77.6303085,
            13.0090511
          ]
        ]
      }
    },
    {
      "type": "Feature",
      "properties": {
        "id": "train_092_BND_031",
        "parcel_id": "train_092_P_008",
        "boundary_type": "INFERRED",
        "confidence": 0.783,
        "length_m": 72.88,
        "evidence_sources": [
          "Road_Corridor_Offset",
          "Adjacent_Parcel_Topology"
        ]
      },
      "geometry": {
        "type": "LineString",
        "coordinates": [
          [
            77.6303085,
            13.0090511
          ],
          [
            77.6296371,
            13.0090528
          ]
        ]
      }
    },
    {
      "type": "Feature",
      "properties": {
        "id": "train_092_BND_032",
        "parcel_id": "train_092_P_008",
        "boundary_type": "VISIBLE",
        "confidence": 0.825,
        "length_m": 69.97,
        "evidence_sources": [
          "Drone_RGB_Edge",
          "DSM_Breakline"
        ]
      },
      "geometry": {
        "type": "LineString",
        "coordinates": [
          [
            77.6296371,
            13.0090528
          ],
          [
            77.6296391,
            13.0096849
          ]
        ]
      }
    },
    {
      "type": "Feature",
      "properties": {
        "id": "train_092_BND_033",
        "parcel_id": "train_092_P_009",
        "boundary_type": "VISIBLE",
        "confidence": 0.88,
        "length_m": 37.29,
        "evidence_sources": [
          "Drone_RGB_Edge",
          "DSM_Breakline"
        ]
      },
      "geometry": {
        "type": "LineString",
        "coordinates": [
          [
            77.6280733,
            13.0087821
          ],
          [
            77.6284168,
            13.0087763
          ]
        ]
      }
    },
    {
      "type": "Feature",
      "properties": {
        "id": "train_092_BND_034",
        "parcel_id": "train_092_P_009",
        "boundary_type": "VISIBLE",
        "confidence": 0.881,
        "length_m": 36.03,
        "evidence_sources": [
          "Drone_RGB_Edge",
          "DSM_Breakline"
        ]
      },
      "geometry": {
        "type": "LineString",
        "coordinates": [
          [
            77.6284168,
            13.0087763
          ],
          [
            77.628401,
            13.0084512
          ]
        ]
      }
    },
    {
      "type": "Feature",
      "properties": {
        "id": "train_092_BND_035",
        "parcel_id": "train_092_P_009",
        "boundary_type": "INFERRED",
        "confidence": 0.671,
        "length_m": 36.4,
        "evidence_sources": [
          "Road_Corridor_Offset",
          "Adjacent_Parcel_Topology"
        ]
      },
      "geometry": {
        "type": "LineString",
        "coordinates": [
          [
            77.628401,
            13.0084512
          ],
          [
            77.6280659,
            13.0084397
          ]
        ]
      }
    },
    {
      "type": "Feature",
      "properties": {
        "id": "train_092_BND_036",
        "parcel_id": "train_092_P_009",
        "boundary_type": "INFERRED",
        "confidence": 0.714,
        "length_m": 37.91,
        "evidence_sources": [
          "Road_Corridor_Offset",
          "Adjacent_Parcel_Topology"
        ]
      },
      "geometry": {
        "type": "LineString",
        "coordinates": [
          [
            77.6280659,
            13.0084397
          ],
          [
            77.6280733,
            13.0087821
          ]
        ]
      }
    },
    {
      "type": "Feature",
      "properties": {
        "id": "train_092_BND_037",
        "parcel_id": "train_092_P_010",
        "boundary_type": "VISIBLE",
        "confidence": 0.827,
        "length_m": 37.91,
        "evidence_sources": [
          "Drone_RGB_Edge",
          "DSM_Breakline"
        ]
      },
      "geometry": {
        "type": "LineString",
        "coordinates": [
          [
            77.6280658,
            13.0084292
          ],
          [
            77.628415,
            13.0084222
          ]
        ]
      }
    },
    {
      "type": "Feature",
      "properties": {
        "id": "train_092_BND_038",
        "parcel_id": "train_092_P_010",
        "boundary_type": "VISIBLE",
        "confidence": 0.934,
        "length_m": 37.23,
        "evidence_sources": [
          "Drone_RGB_Edge",
          "DSM_Breakline"
        ]
      },
      "geometry": {
        "type": "LineString",
        "coordinates": [
          [
            77.628415,
            13.0084222
          ],
          [
            77.6284184,
            13.0080859
          ]
        ]
      }
    },
    {
      "type": "Feature",
      "properties": {
        "id": "train_092_BND_039",
        "parcel_id": "train_092_P_010",
        "boundary_type": "VISIBLE",
        "confidence": 0.9,
        "length_m": 38.62,
        "evidence_sources": [
          "Drone_RGB_Edge",
          "DSM_Breakline"
        ]
      },
      "geometry": {
        "type": "LineString",
        "coordinates": [
          [
            77.6284184,
            13.0080859
          ],
          [
            77.6280628,
            13.0080757
          ]
        ]
      }
    },
    {
      "type": "Feature",
      "properties": {
        "id": "train_092_BND_040",
        "parcel_id": "train_092_P_010",
        "boundary_type": "VISIBLE",
        "confidence": 0.94,
        "length_m": 39.13,
        "evidence_sources": [
          "Drone_RGB_Edge",
          "DSM_Breakline"
        ]
      },
      "geometry": {
        "type": "LineString",
        "coordinates": [
          [
            77.6280628,
            13.0080757
          ],
          [
            77.6280658,
            13.0084292
          ]
        ]
      }
    },
    {
      "type": "Feature",
      "properties": {
        "id": "train_092_BND_041",
        "parcel_id": "train_092_P_011",
        "boundary_type": "VISIBLE",
        "confidence": 0.879,
        "length_m": 38.34,
        "evidence_sources": [
          "Drone_RGB_Edge",
          "DSM_Breakline"
        ]
      },
      "geometry": {
        "type": "LineString",
        "coordinates": [
          [
            77.6284347,
            13.0087683
          ],
          [
            77.6287875,
            13.0087843
          ]
        ]
      }
    },
    {
      "type": "Feature",
      "properties": {
        "id": "train_092_BND_042",
        "parcel_id": "train_092_P_011",
        "boundary_type": "INFERRED",
        "confidence": 0.743,
        "length_m": 37.7,
        "evidence_sources": [
          "Road_Corridor_Offset",
          "Adjacent_Parcel_Topology"
        ]
      },
      "geometry": {
        "type": "LineString",
        "coordinates": [
          [
            77.6287875,
            13.0087843
          ],
          [
            77.6287857,
            13.0084437
          ]
        ]
      }
    },
    {
      "type": "Feature",
      "properties": {
        "id": "train_092_BND_043",
        "parcel_id": "train_092_P_011",
        "boundary_type": "VISIBLE",
        "confidence": 0.821,
        "length_m": 37.73,
        "evidence_sources": [
          "Drone_RGB_Edge",
          "DSM_Breakline"
        ]
      },
      "geometry": {
        "type": "LineString",
        "coordinates": [
          [
            77.6287857,
            13.0084437
          ],
          [
            77.6284381,
            13.0084403
          ]
        ]
      }
    },
    {
      "type": "Feature",
      "properties": {
        "id": "train_092_BND_044",
        "parcel_id": "train_092_P_011",
        "boundary_type": "VISIBLE",
        "confidence": 0.931,
        "length_m": 36.31,
        "evidence_sources": [
          "Drone_RGB_Edge",
          "DSM_Breakline"
        ]
      },
      "geometry": {
        "type": "LineString",
        "coordinates": [
          [
            77.6284381,
            13.0084403
          ],
          [
            77.6284347,
            13.0087683
          ]
        ]
      }
    },
    {
      "type": "Feature",
      "properties": {
        "id": "train_092_BND_045",
        "parcel_id": "train_092_P_012",
        "boundary_type": "VISIBLE",
        "confidence": 0.957,
        "length_m": 37.74,
        "evidence_sources": [
          "Drone_RGB_Edge",
          "DSM_Breakline"
        ]
      },
      "geometry": {
        "type": "LineString",
        "coordinates": [
          [
            77.6284293,
            13.0084121
          ],
          [
            77.628777,
            13.0084129
          ]
        ]
      }
    },
    {
      "type": "Feature",
      "properties": {
        "id": "train_092_BND_046",
        "parcel_id": "train_092_P_012",
        "boundary_type": "VISIBLE",
        "confidence": 0.879,
        "length_m": 35.18,
        "evidence_sources": [
          "Drone_RGB_Edge",
          "DSM_Breakline"
        ]
      },
      "geometry": {
        "type": "LineString",
        "coordinates": [
          [
            77.628777,
            13.0084129
          ],
          [
            77.6287799,
            13.0080951
          ]
        ]
      }
    },
    {
      "type": "Feature",
      "properties": {
        "id": "train_092_BND_047",
        "parcel_id": "train_092_P_012",
        "boundary_type": "VISIBLE",
        "confidence": 0.879,
        "length_m": 36.9,
        "evidence_sources": [
          "Drone_RGB_Edge",
          "DSM_Breakline"
        ]
      },
      "geometry": {
        "type": "LineString",
        "coordinates": [
          [
            77.6287799,
            13.0080951
          ],
          [
            77.6284402,
            13.0080817
          ]
        ]
      }
    },
    {
      "type": "Feature",
      "properties": {
        "id": "train_092_BND_048",
        "parcel_id": "train_092_P_012",
        "boundary_type": "INFERRED",
        "confidence": 0.648,
        "length_m": 36.59,
        "evidence_sources": [
          "Road_Corridor_Offset",
          "Adjacent_Parcel_Topology"
        ]
      },
      "geometry": {
        "type": "LineString",
        "coordinates": [
          [
            77.6284402,
            13.0080817
          ],
          [
            77.6284293,
            13.0084121
          ]
        ]
      }
    },
    {
      "type": "Feature",
      "properties": {
        "id": "train_092_BND_049",
        "parcel_id": "train_092_P_013",
        "boundary_type": "VISIBLE",
        "confidence": 0.836,
        "length_m": 74.77,
        "evidence_sources": [
          "Drone_RGB_Edge",
          "DSM_Breakline"
        ]
      },
      "geometry": {
        "type": "LineString",
        "coordinates": [
          [
            77.6289384,
            13.008784
          ],
          [
            77.6296272,
            13.0087757
          ]
        ]
      }
    },
    {
      "type": "Feature",
      "properties": {
        "id": "train_092_BND_050",
        "parcel_id": "train_092_P_013",
        "boundary_type": "VISIBLE",
        "confidence": 0.892,
        "length_m": 37.51,
        "evidence_sources": [
          "Drone_RGB_Edge",
          "DSM_Breakline"
        ]
      },
      "geometry": {
        "type": "LineString",
        "coordinates": [
          [
            77.6296272,
            13.0087757
          ],
          [
            77.6296198,
            13.0084369
          ]
        ]
      }
    },
    {
      "type": "Feature",
      "properties": {
        "id": "train_092_BND_051",
        "parcel_id": "train_092_P_013",
        "boundary_type": "INFERRED",
        "confidence": 0.735,
        "length_m": 73.4,
        "evidence_sources": [
          "Road_Corridor_Offset",
          "Adjacent_Parcel_Topology"
        ]
      },
      "geometry": {
        "type": "LineString",
        "coordinates": [
          [
            77.6296198,
            13.0084369
          ],
          [
            77.6289436,
            13.0084375
          ]
        ]
      }
    },
    {
      "type": "Feature",
      "properties": {
        "id": "train_092_BND_052",
        "parcel_id": "train_092_P_013",
        "boundary_type": "VISIBLE",
        "confidence": 0.863,
        "length_m": 38.36,
        "evidence_sources": [
          "Drone_RGB_Edge",
          "DSM_Breakline"
        ]
      },
      "geometry": {
        "type": "LineString",
        "coordinates": [
          [
            77.6289436,
            13.0084375
          ],
          [
            77.6289384,
            13.008784
          ]
        ]
      }
    },
    {
      "type": "Feature",
      "properties": {
        "id": "train_092_BND_053",
        "parcel_id": "train_092_P_014",
        "boundary_type": "VISIBLE",
        "confidence": 0.883,
        "length_m": 73.3,
        "evidence_sources": [
          "Drone_RGB_Edge",
          "DSM_Breakline"
        ]
      },
      "geometry": {
        "type": "LineString",
        "coordinates": [
          [
            77.6289496,
            13.0084238
          ],
          [
            77.6296249,
            13.0084244
          ]
        ]
      }
    },
    {
      "type": "Feature",
      "properties": {
        "id": "train_092_BND_054",
        "parcel_id": "train_092_P_014",
        "boundary_type": "VISIBLE",
        "confidence": 0.947,
        "length_m": 37.64,
        "evidence_sources": [
          "Drone_RGB_Edge",
          "DSM_Breakline"
        ]
      },
      "geometry": {
        "type": "LineString",
        "coordinates": [
          [
            77.6296249,
            13.0084244
          ],
          [
            77.6296254,
            13.0080844
          ]
        ]
      }
    },
    {
      "type": "Feature",
      "properties": {
        "id": "train_092_BND_055",
        "parcel_id": "train_092_P_014",
        "boundary_type": "VISIBLE",
        "confidence": 0.834,
        "length_m": 73.71,
        "evidence_sources": [
          "Drone_RGB_Edge",
          "DSM_Breakline"
        ]
      },
      "geometry": {
        "type": "LineString",
        "coordinates": [
          [
            77.6296254,
            13.0080844
          ],
          [
            77.6289463,
            13.0080834
          ]
        ]
      }
    },
    {
      "type": "Feature",
      "properties": {
        "id": "train_092_BND_056",
        "parcel_id": "train_092_P_014",
        "boundary_type": "VISIBLE",
        "confidence": 0.881,
        "length_m": 37.68,
        "evidence_sources": [
          "Drone_RGB_Edge",
          "DSM_Breakline"
        ]
      },
      "geometry": {
        "type": "LineString",
        "coordinates": [
          [
            77.6289463,
            13.0080834
          ],
          [
            77.6289496,
            13.0084238
          ]
        ]
      }
    },
    {
      "type": "Feature",
      "properties": {
        "id": "train_092_BND_057",
        "parcel_id": "train_092_P_015",
        "boundary_type": "INFERRED",
        "confidence": 0.757,
        "length_m": 72.26,
        "evidence_sources": [
          "Road_Corridor_Offset",
          "Adjacent_Parcel_Topology"
        ]
      },
      "geometry": {
        "type": "LineString",
        "coordinates": [
          [
            77.6296402,
            13.0087745
          ],
          [
            77.6303059,
            13.0087749
          ]
        ]
      }
    },
    {
      "type": "Feature",
      "properties": {
        "id": "train_092_BND_058",
        "parcel_id": "train_092_P_015",
        "boundary_type": "VISIBLE",
        "confidence": 0.892,
        "length_m": 37.6,
        "evidence_sources": [
          "Drone_RGB_Edge",
          "DSM_Breakline"
        ]
      },
      "geometry": {
        "type": "LineString",
        "coordinates": [
          [
            77.6303059,
            13.0087749
          ],
          [
            77.6303191,
            13.0084355
          ]
        ]
      }
    },
    {
      "type": "Feature",
      "properties": {
        "id": "train_092_BND_059",
        "parcel_id": "train_092_P_015",
        "boundary_type": "INFERRED",
        "confidence": 0.62,
        "length_m": 73.45,
        "evidence_sources": [
          "Road_Corridor_Offset",
          "Adjacent_Parcel_Topology"
        ]
      },
      "geometry": {
        "type": "LineString",
        "coordinates": [
          [
            77.6303191,
            13.0084355
          ],
          [
            77.6296426,
            13.0084485
          ]
        ]
      }
    },
    {
      "type": "Feature",
      "properties": {
        "id": "train_092_BND_060",
        "parcel_id": "train_092_P_015",
        "boundary_type": "VISIBLE",
        "confidence": 0.849,
        "length_m": 36.09,
        "evidence_sources": [
          "Drone_RGB_Edge",
          "DSM_Breakline"
        ]
      },
      "geometry": {
        "type": "LineString",
        "coordinates": [
          [
            77.6296426,
            13.0084485
          ],
          [
            77.6296402,
            13.0087745
          ]
        ]
      }
    },
    {
      "type": "Feature",
      "properties": {
        "id": "train_092_BND_061",
        "parcel_id": "train_092_P_016",
        "boundary_type": "INFERRED",
        "confidence": 0.679,
        "length_m": 74.38,
        "evidence_sources": [
          "Road_Corridor_Offset",
          "Adjacent_Parcel_Topology"
        ]
      },
      "geometry": {
        "type": "LineString",
        "coordinates": [
          [
            77.6296335,
            13.0084168
          ],
          [
            77.6303187,
            13.0084125
          ]
        ]
      }
    },
    {
      "type": "Feature",
      "properties": {
        "id": "train_092_BND_062",
        "parcel_id": "train_092_P_016",
        "boundary_type": "VISIBLE",
        "confidence": 0.911,
        "length_m": 35.93,
        "evidence_sources": [
          "Drone_RGB_Edge",
          "DSM_Breakline"
        ]
      },
      "geometry": {
        "type": "LineString",
        "coordinates": [
          [
            77.6303187,
            13.0084125
          ],
          [
            77.630315,
            13.0080879
          ]
        ]
      }
    },
    {
      "type": "Feature",
      "properties": {
        "id": "train_092_BND_063",
        "parcel_id": "train_092_P_016",
        "boundary_type": "VISIBLE",
        "confidence": 0.83,
        "length_m": 72.66,
        "evidence_sources": [
          "Drone_RGB_Edge",
          "DSM_Breakline"
        ]
      },
      "geometry": {
        "type": "LineString",
        "coordinates": [
          [
            77.630315,
            13.0080879
          ],
          [
            77.6296457,
            13.0080759
          ]
        ]
      }
    },
    {
      "type": "Feature",
      "properties": {
        "id": "train_092_BND_064",
        "parcel_id": "train_092_P_016",
        "boundary_type": "VISIBLE",
        "confidence": 0.923,
        "length_m": 37.76,
        "evidence_sources": [
          "Drone_RGB_Edge",
          "DSM_Breakline"
        ]
      },
      "geometry": {
        "type": "LineString",
        "coordinates": [
          [
            77.6296457,
            13.0080759
          ],
          [
            77.6296335,
            13.0084168
          ]
        ]
      }
    }
  ]
}