{
  "type": "FeatureCollection",
  "crs": {
    "type": "name",
    "properties": {
      "name": "EPSG:4326"
    }
  },
  "features": [
    {
      "type": "Feature",
      "properties": {
        "id": "train_094_REF_001",
        "parcel_id": "train_094_P_001",
        "parcel_layer": "REFERENCE",
        "boundary_representation": "REFERENCE",
        "land_use_class": "commercial",
        "area_sqm": 3818.87,
        "perimeter_m": 247.37,
        "source": "Synthetic Legacy Cadastral Map (Non-Authoritative Demo)"
      },
      "geometry": {
        "type": "Polygon",
        "coordinates": [
          [
            [
              77.6340657,
              13.010327
            ],
            [
              77.634661,
              13.0103427
            ],
            [
              77.634644,
              13.0097868
            ],
            [
              77.6340667,
              13.0097987
            ],
            [
              77.6340657,
              13.010327
            ]
          ]
        ]
      }
    },
    {
      "type": "Feature",
      "properties": {
        "id": "train_094_REF_002",
        "parcel_id": "train_094_P_002",
        "parcel_layer": "REFERENCE",
        "boundary_representation": "REFERENCE",
        "land_use_class": "mixed_use",
        "area_sqm": 3823.73,
        "perimeter_m": 247.42,
        "source": "Synthetic Legacy Cadastral Map (Non-Authoritative Demo)"
      },
      "geometry": {
        "type": "Polygon",
        "coordinates": [
          [
            [
              77.6340746,
              13.0097797
            ],
            [
              77.6346575,
              13.0097704
            ],
            [
              77.6346422,
              13.0092292
            ],
            [
              77.6340663,
              13.0092225
            ],
            [
              77.6340746,
              13.0097797
            ]
          ]
        ]
      }
    },
    {
      "type": "Feature",
      "properties": {
        "id": "train_094_REF_003",
        "parcel_id": "train_094_P_003",
        "parcel_layer": "REFERENCE",
        "boundary_representation": "REFERENCE",
        "land_use_class": "mixed_use",
        "area_sqm": 3748.26,
        "perimeter_m": 244.97,
        "source": "Synthetic Legacy Cadastral Map (Non-Authoritative Demo)"
      },
      "geometry": {
        "type": "Polygon",
        "coordinates": [
          [
            [
              77.634682,
              13.010338
            ],
            [
              77.6352556,
              13.0103308
            ],
            [
              77.635246,
              13.009791
            ],
            [
              77.6346642,
              13.0097982
            ],
            [
              77.634682,
              13.010338
            ]
          ]
        ]
      }
    },
    {
      "type": "Feature",
      "properties": {
        "id": "train_094_REF_004",
        "parcel_id": "train_094_P_004",
        "parcel_layer": "REFERENCE",
        "boundary_representation": "REFERENCE",
        "land_use_class": "vegetation",
        "area_sqm": 3757.03,
        "perimeter_m": 245.19,
        "source": "Synthetic Legacy Cadastral Map (Non-Authoritative Demo)"
      },
      "geometry": {
        "type": "Polygon",
        "coordinates": [
          [
            [
              77.634714,
              13.0097894
            ],
            [
              77.6352752,
              13.0098016
            ],
            [
              77.6352839,
              13.0092419
            ],
            [
              77.634715,
              13.0092425
            ],
            [
              77.634714,
              13.0097894
            ]
          ]
        ]
      }
    },
    {
      "type": "Feature",
      "properties": {
        "id": "train_094_REF_005",
        "parcel_id": "train_094_P_005",
        "parcel_layer": "REFERENCE",
        "boundary_representation": "REFERENCE",
        "land_use_class": "vacant",
        "area_sqm": 2790.84,
        "perimeter_m": 212.63,
        "source": "Synthetic Legacy Cadastral Map (Non-Authoritative Demo)"
      },
      "geometry": {
        "type": "Polygon",
        "coordinates": [
          [
            [
              77.6354262,
              13.0103397
            ],
            [
              77.635868,
              13.0103249
            ],
            [
              77.6358609,
              13.0097951
            ],
            [
              77.6354305,
              13.0098044
            ],
            [
              77.6354262,
              13.0103397
            ]
          ]
        ]
      }
    },
    {
      "type": "Feature",
      "properties": {
        "id": "train_094_REF_006",
        "parcel_id": "train_094_P_006",
        "parcel_layer": "REFERENCE",
        "boundary_representation": "REFERENCE",
        "land_use_class": "industrial",
        "area_sqm": 2813.49,
        "perimeter_m": 213.78,
        "source": "Synthetic Legacy Cadastral Map (Non-Authoritative Demo)"
      },
      "geometry": {
        "type": "Polygon",
        "coordinates": [
          [
            [
              77.6354217,
              13.0097654
            ],
            [
              77.6358536,
              13.0097737
            ],
            [
              77.6358609,
              13.0092298
            ],
            [
              77.6354288,
              13.0092255
            ],
            [
              77.6354217,
              13.0097654
            ]
          ]
        ]
      }
    },
    {
      "type": "Feature",
      "properties": {
        "id": "train_094_REF_007",
        "parcel_id": "train_094_P_007",
        "parcel_layer": "REFERENCE",
        "boundary_representation": "REFERENCE",
        "land_use_class": "industrial",
        "area_sqm": 2851.47,
        "perimeter_m": 214.57,
        "source": "Synthetic Legacy Cadastral Map (Non-Authoritative Demo)"
      },
      "geometry": {
        "type": "Polygon",
        "coordinates": [
          [
            [
              77.6358756,
              13.0103243
            ],
            [
              77.6363272,
              13.0103274
            ],
            [
              77.6363272,
              13.0098008
            ],
            [
              77.635884,
              13.0097902
            ],
            [
              77.6358756,
              13.0103243
            ]
          ]
        ]
      }
    },
    {
      "type": "Feature",
      "properties": {
        "id": "train_094_REF_008",
        "parcel_id": "train_094_P_008",
        "parcel_layer": "REFERENCE",
        "boundary_representation": "REFERENCE",
        "land_use_class": "residential",
        "area_sqm": 2910.79,
        "perimeter_m": 217.06,
        "source": "Synthetic Legacy Cadastral Map (Non-Authoritative Demo)"
      },
      "geometry": {
        "type": "Polygon",
        "coordinates": [
          [
            [
              77.635917,
              13.0097932
            ],
            [
              77.6363635,
              13.0097982
            ],
            [
              77.6363569,
              13.0092496
            ],
            [
              77.6359102,
              13.009257
            ],
            [
              77.635917,
              13.0097932
            ]
          ]
        ]
      }
    },
    {
      "type": "Feature",
      "properties": {
        "id": "train_094_REF_009",
        "parcel_id": "train_094_P_009",
        "parcel_layer": "REFERENCE",
        "boundary_representation": "REFERENCE",
        "land_use_class": "residential",
        "area_sqm": 3003.14,
        "perimeter_m": 221.53,
        "source": "Synthetic Legacy Cadastral Map (Non-Authoritative Demo)"
      },
      "geometry": {
        "type": "Polygon",
        "coordinates": [
          [
            [
              77.6340833,
              13.0089528
            ],
            [
              77.6346585,
              13.0089525
            ],
            [
              77.6346604,
              13.0085243
            ],
            [
              77.6340688,
              13.0085242
            ],
            [
              77.6340833,
              13.0089528
            ]
          ]
        ]
      }
    },
    {
      "type": "Feature",
      "properties": {
        "id": "train_094_REF_010",
        "parcel_id": "train_094_P_010",
        "parcel_layer": "REFERENCE",
        "boundary_representation": "REFERENCE",
        "land_use_class": "commercial",
        "area_sqm": 2885.57,
        "perimeter_m": 217.15,
        "source": "Synthetic Legacy Cadastral Map (Non-Authoritative Demo)"
      },
      "geometry": {
        "type": "Polygon",
        "coordinates": [
          [
            [
              77.6340627,
              13.0085163
            ],
            [
              77.6346415,
              13.0085047
            ],
            [
              77.6346457,
              13.008089
            ],
            [
              77.6340833,
              13.00809
            ],
            [
              77.6340627,
              13.0085163
            ]
          ]
        ]
      }
    },
    {
      "type": "Feature",
      "properties": {
        "id": "train_094_REF_011",
        "parcel_id": "train_094_P_011",
        "parcel_layer": "REFERENCE",
        "boundary_representation": "REFERENCE",
        "land_use_class": "commercial",
        "area_sqm": 2948.56,
        "perimeter_m": 219.56,
        "source": "Synthetic Legacy Cadastral Map (Non-Authoritative Demo)"
      },
      "geometry": {
        "type": "Polygon",
        "coordinates": [
          [
            [
              77.6346634,
              13.0089538
            ],
            [
              77.6352444,
              13.0089453
            ],
            [
              77.6352475,
              13.0085303
            ],
            [
              77.6346702,
              13.0085214
            ],
            [
              77.6346634,
              13.0089538
            ]
          ]
        ]
      }
    },
    {
      "type": "Feature",
      "properties": {
        "id": "train_094_REF_012",
        "parcel_id": "train_094_P_012",
        "parcel_layer": "REFERENCE",
        "boundary_representation": "REFERENCE",
        "land_use_class": "mixed_use",
        "area_sqm": 2936.69,
        "perimeter_m": 218.79,
        "source": "Synthetic Legacy Cadastral Map (Non-Authoritative Demo)"
      },
      "geometry": {
        "type": "Polygon",
        "coordinates": [
          [
            [
              77.6347118,
              13.0085206
            ],
            [
              77.6352779,
              13.0085309
            ],
            [
              77.635281,
              13.0080999
            ],
            [
              77.6347035,
              13.0080967
            ],
            [
              77.6347118,
              13.0085206
            ]
          ]
        ]
      }
    },
    {
      "type": "Feature",
      "properties": {
        "id": "train_094_REF_013",
        "parcel_id": "train_094_P_013",
        "parcel_layer": "REFERENCE",
        "boundary_representation": "REFERENCE",
        "land_use_class": "vegetation",
        "area_sqm": 2193.91,
        "perimeter_m": 187.37,
        "source": "Synthetic Legacy Cadastral Map (Non-Authoritative Demo)"
      },
      "geometry": {
        "type": "Polygon",
        "coordinates": [
          [
            [
              77.6354234,
              13.0089429
            ],
            [
              77.6358491,
              13.0089502
            ],
            [
              77.6358645,
              13.0085289
            ],
            [
              77.6354251,
              13.0085203
            ],
            [
              77.6354234,
              13.0089429
            ]
          ]
        ]
      }
    },
    {
      "type": "Feature",
      "properties": {
        "id": "train_094_REF_014",
        "parcel_id": "train_094_P_014",
        "parcel_layer": "REFERENCE",
        "boundary_representation": "REFERENCE",
        "land_use_class": "water",
        "area_sqm": 2186.5,
        "perimeter_m": 187.1,
        "source": "Synthetic Legacy Cadastral Map (Non-Authoritative Demo)"
      },
      "geometry": {
        "type": "Polygon",
        "coordinates": [
          [
            [
              77.635432,
              13.008508
            ],
            [
              77.6358524,
              13.0085131
            ],
            [
              77.6358489,
              13.0080845
            ],
            [
              77.6354136,
              13.0080859
            ],
            [
              77.635432,
              13.008508
            ]
          ]
        ]
      }
    },
    {
      "type": "Feature",
      "properties": {
        "id": "train_094_REF_015",
        "parcel_id": "train_094_P_015",
        "parcel_layer": "REFERENCE",
        "boundary_representation": "REFERENCE",
        "land_use_class": "vacant",
        "area_sqm": 2161.15,
        "perimeter_m": 186.03,
        "source": "Synthetic Legacy Cadastral Map (Non-Authoritative Demo)"
      },
      "geometry": {
        "type": "Polygon",
        "coordinates": [
          [
            [
              77.6358929,
              13.0089383
            ],
            [
              77.6363263,
              13.0089492
            ],
            [
              77.6363162,
              13.0085293
            ],
            [
              77.6358876,
              13.0085233
            ],
            [
              77.6358929,
              13.0089383
            ]
          ]
        ]
      }
    },
    {
      "type": "Feature",
      "properties": {
        "id": "train_094_REF_016",
        "parcel_id": "train_094_P_016",
        "parcel_layer": "REFERENCE",
        "boundary_representation": "REFERENCE",
        "land_use_class": "agricultural",
        "area_sqm": 2206.39,
        "perimeter_m": 187.92,
        "source": "Synthetic Legacy Cadastral Map (Non-Authoritative Demo)"
      },
      "geometry": {
        "type": "Polygon",
        "coordinates": [
          [
            [
              77.6359158,
              13.0085241
            ],
            [
              77.6363603,
              13.0085276
            ],
            [
              77.6363582,
              13.0081122
            ],
            [
              77.6359253,
              13.0081025
            ],
            [
              77.6359158,
              13.0085241
            ]
          ]
        ]
      }
    }
  ]
}