{
  "type": "FeatureCollection",
  "crs": {
    "type": "name",
    "properties": {
      "name": "EPSG:4326"
    }
  },
  "features": [
    {
      "type": "Feature",
      "properties": {
        "id": "train_038_BND_001",
        "parcel_id": "train_038_P_001",
        "boundary_type": "VISIBLE",
        "confidence": 0.877,
        "length_m": 48.57,
        "evidence_sources": [
          "Drone_RGB_Edge",
          "DSM_Breakline"
        ]
      },
      "geometry": {
        "type": "LineString",
        "coordinates": [
          [
            77.6010651,
            13.0013351
          ],
          [
            77.6015125,
            13.0013297
          ]
        ]
      }
    },
    {
      "type": "Feature",
      "properties": {
        "id": "train_038_BND_002",
        "parcel_id": "train_038_P_001",
        "boundary_type": "INFERRED",
        "confidence": 0.727,
        "length_m": 50.07,
        "evidence_sources": [
          "Road_Corridor_Offset",
          "Adjacent_Parcel_Topology"
        ]
      },
      "geometry": {
        "type": "LineString",
        "coordinates": [
          [
            77.6015125,
            13.0013297
          ],
          [
            77.6015081,
            13.0008774
          ]
        ]
      }
    },
    {
      "type": "Feature",
      "properties": {
        "id": "train_038_BND_003",
        "parcel_id": "train_038_P_001",
        "boundary_type": "INFERRED",
        "confidence": 0.634,
        "length_m": 46.95,
        "evidence_sources": [
          "Road_Corridor_Offset",
          "Adjacent_Parcel_Topology"
        ]
      },
      "geometry": {
        "type": "LineString",
        "coordinates": [
          [
            77.6015081,
            13.0008774
          ],
          [
            77.6010759,
            13.0008605
          ]
        ]
      }
    },
    {
      "type": "Feature",
      "properties": {
        "id": "train_038_BND_004",
        "parcel_id": "train_038_P_001",
        "boundary_type": "VISIBLE",
        "confidence": 0.867,
        "length_m": 52.55,
        "evidence_sources": [
          "Drone_RGB_Edge",
          "DSM_Breakline"
        ]
      },
      "geometry": {
        "type": "LineString",
        "coordinates": [
          [
            77.6010759,
            13.0008605
          ],
          [
            77.6010651,
            13.0013351
          ]
        ]
      }
    },
    {
      "type": "Feature",
      "properties": {
        "id": "train_038_BND_005",
        "parcel_id": "train_038_P_002",
        "boundary_type": "VISIBLE",
        "confidence": 0.899,
        "length_m": 46.78,
        "evidence_sources": [
          "Drone_RGB_Edge",
          "DSM_Breakline"
        ]
      },
      "geometry": {
        "type": "LineString",
        "coordinates": [
          [
            77.6010746,
            13.0008486
          ],
          [
            77.6015055,
            13.0008546
          ]
        ]
      }
    },
    {
      "type": "Feature",
      "properties": {
        "id": "train_038_BND_006",
        "parcel_id": "train_038_P_002",
        "boundary_type": "VISIBLE",
        "confidence": 0.927,
        "length_m": 51.88,
        "evidence_sources": [
          "Drone_RGB_Edge",
          "DSM_Breakline"
        ]
      },
      "geometry": {
        "type": "LineString",
        "coordinates": [
          [
            77.6015055,
            13.0008546
          ],
          [
            77.6015244,
            13.0003863
          ]
        ]
      }
    },
    {
      "type": "Feature",
      "properties": {
        "id": "train_038_BND_007",
        "parcel_id": "train_038_P_002",
        "boundary_type": "INFERRED",
        "confidence": 0.659,
        "length_m": 48.96,
        "evidence_sources": [
          "Road_Corridor_Offset",
          "Adjacent_Parcel_Topology"
        ]
      },
      "geometry": {
        "type": "LineString",
        "coordinates": [
          [
            77.6015244,
            13.0003863
          ],
          [
            77.6010734,
            13.0003869
          ]
        ]
      }
    },
    {
      "type": "Feature",
      "properties": {
        "id": "train_038_BND_008",
        "parcel_id": "train_038_P_002",
        "boundary_type": "VISIBLE",
        "confidence": 0.886,
        "length_m": 51.11,
        "evidence_sources": [
          "Drone_RGB_Edge",
          "DSM_Breakline"
        ]
      },
      "geometry": {
        "type": "LineString",
        "coordinates": [
          [
            77.6010734,
            13.0003869
          ],
          [
            77.6010746,
            13.0008486
          ]
        ]
      }
    },
    {
      "type": "Feature",
      "properties": {
        "id": "train_038_BND_009",
        "parcel_id": "train_038_P_003",
        "boundary_type": "VISIBLE",
        "confidence": 0.954,
        "length_m": 47.54,
        "evidence_sources": [
          "Drone_RGB_Edge",
          "DSM_Breakline"
        ]
      },
      "geometry": {
        "type": "LineString",
        "coordinates": [
          [
            77.601544,
            13.0013394
          ],
          [
            77.601982,
            13.0013372
          ]
        ]
      }
    },
    {
      "type": "Feature",
      "properties": {
        "id": "train_038_BND_010",
        "parcel_id": "train_038_P_003",
        "boundary_type": "INFERRED",
        "confidence": 0.684,
        "length_m": 52.31,
        "evidence_sources": [
          "Road_Corridor_Offset",
          "Adjacent_Parcel_Topology"
        ]
      },
      "geometry": {
        "type": "LineString",
        "coordinates": [
          [
            77.601982,
            13.0013372
          ],
          [
            77.6019814,
            13.0008646
          ]
        ]
      }
    },
    {
      "type": "Feature",
      "properties": {
        "id": "train_038_BND_011",
        "parcel_id": "train_038_P_003",
        "boundary_type": "INFERRED",
        "confidence": 0.724,
        "length_m": 48.7,
        "evidence_sources": [
          "Road_Corridor_Offset",
          "Adjacent_Parcel_Topology"
        ]
      },
      "geometry": {
        "type": "LineString",
        "coordinates": [
          [
            77.6019814,
            13.0008646
          ],
          [
            77.6015328,
            13.0008566
          ]
        ]
      }
    },
    {
      "type": "Feature",
      "properties": {
        "id": "train_038_BND_012",
        "parcel_id": "train_038_P_003",
        "boundary_type": "VISIBLE",
        "confidence": 0.92,
        "length_m": 53.46,
        "evidence_sources": [
          "Drone_RGB_Edge",
          "DSM_Breakline"
        ]
      },
      "geometry": {
        "type": "LineString",
        "coordinates": [
          [
            77.6015328,
            13.0008566
          ],
          [
            77.601544,
            13.0013394
          ]
        ]
      }
    },
    {
      "type": "Feature",
      "properties": {
        "id": "train_038_BND_013",
        "parcel_id": "train_038_P_004",
        "boundary_type": "VISIBLE",
        "confidence": 0.915,
        "length_m": 47.02,
        "evidence_sources": [
          "Drone_RGB_Edge",
          "DSM_Breakline"
        ]
      },
      "geometry": {
        "type": "LineString",
        "coordinates": [
          [
            77.6015391,
            13.0008417
          ],
          [
            77.6019722,
            13.000848
          ]
        ]
      }
    },
    {
      "type": "Feature",
      "properties": {
        "id": "train_038_BND_014",
        "parcel_id": "train_038_P_004",
        "boundary_type": "VISIBLE",
        "confidence": 0.883,
        "length_m": 50.67,
        "evidence_sources": [
          "Drone_RGB_Edge",
          "DSM_Breakline"
        ]
      },
      "geometry": {
        "type": "LineString",
        "coordinates": [
          [
            77.6019722,
            13.000848
          ],
          [
            77.6019795,
            13.0003903
          ]
        ]
      }
    },
    {
      "type": "Feature",
      "properties": {
        "id": "train_038_BND_015",
        "parcel_id": "train_038_P_004",
        "boundary_type": "VISIBLE",
        "confidence": 0.851,
        "length_m": 47.98,
        "evidence_sources": [
          "Drone_RGB_Edge",
          "DSM_Breakline"
        ]
      },
      "geometry": {
        "type": "LineString",
        "coordinates": [
          [
            77.6019795,
            13.0003903
          ],
          [
            77.601538,
            13.0003689
          ]
        ]
      }
    },
    {
      "type": "Feature",
      "properties": {
        "id": "train_038_BND_016",
        "parcel_id": "train_038_P_004",
        "boundary_type": "INFERRED",
        "confidence": 0.635,
        "length_m": 52.34,
        "evidence_sources": [
          "Road_Corridor_Offset",
          "Adjacent_Parcel_Topology"
        ]
      },
      "geometry": {
        "type": "LineString",
        "coordinates": [
          [
            77.601538,
            13.0003689
          ],
          [
            77.6015391,
            13.0008417
          ]
        ]
      }
    },
    {
      "type": "Feature",
      "properties": {
        "id": "train_038_BND_017",
        "parcel_id": "train_038_P_005",
        "boundary_type": "INFERRED",
        "confidence": 0.711,
        "length_m": 61.29,
        "evidence_sources": [
          "Road_Corridor_Offset",
          "Adjacent_Parcel_Topology"
        ]
      },
      "geometry": {
        "type": "LineString",
        "coordinates": [
          [
            77.6021642,
            13.0013402
          ],
          [
            77.6027285,
            13.0013223
          ]
        ]
      }
    },
    {
      "type": "Feature",
      "properties": {
        "id": "train_038_BND_018",
        "parcel_id": "train_038_P_005",
        "boundary_type": "VISIBLE",
        "confidence": 0.927,
        "length_m": 50.29,
        "evidence_sources": [
          "Drone_RGB_Edge",
          "DSM_Breakline"
        ]
      },
      "geometry": {
        "type": "LineString",
        "coordinates": [
          [
            77.6027285,
            13.0013223
          ],
          [
            77.6027291,
            13.000868
          ]
        ]
      }
    },
    {
      "type": "Feature",
      "properties": {
        "id": "train_038_BND_019",
        "parcel_id": "train_038_P_005",
        "boundary_type": "VISIBLE",
        "confidence": 0.901,
        "length_m": 63.07,
        "evidence_sources": [
          "Drone_RGB_Edge",
          "DSM_Breakline"
        ]
      },
      "geometry": {
        "type": "LineString",
        "coordinates": [
          [
            77.6027291,
            13.000868
          ],
          [
            77.6021481,
            13.0008707
          ]
        ]
      }
    },
    {
      "type": "Feature",
      "properties": {
        "id": "train_038_BND_020",
        "parcel_id": "train_038_P_005",
        "boundary_type": "VISIBLE",
        "confidence": 0.899,
        "length_m": 52.0,
        "evidence_sources": [
          "Drone_RGB_Edge",
          "DSM_Breakline"
        ]
      },
      "geometry": {
        "type": "LineString",
        "coordinates": [
          [
            77.6021481,
            13.0008707
          ],
          [
            77.6021642,
            13.0013402
          ]
        ]
      }
    },
    {
      "type": "Feature",
      "properties": {
        "id": "train_038_BND_021",
        "parcel_id": "train_038_P_006",
        "boundary_type": "VISIBLE",
        "confidence": 0.888,
        "length_m": 60.42,
        "evidence_sources": [
          "Drone_RGB_Edge",
          "DSM_Breakline"
        ]
      },
      "geometry": {
        "type": "LineString",
        "coordinates": [
          [
            77.6021639,
            13.0008521
          ],
          [
            77.6027205,
            13.000849
          ]
        ]
      }
    },
    {
      "type": "Feature",
      "properties": {
        "id": "train_038_BND_022",
        "parcel_id": "train_038_P_006",
        "boundary_type": "INFERRED",
        "confidence": 0.758,
        "length_m": 52.69,
        "evidence_sources": [
          "Road_Corridor_Offset",
          "Adjacent_Parcel_Topology"
        ]
      },
      "geometry": {
        "type": "LineString",
        "coordinates": [
          [
            77.6027205,
            13.000849
          ],
          [
            77.6027263,
            13.000373
          ]
        ]
      }
    },
    {
      "type": "Feature",
      "properties": {
        "id": "train_038_BND_023",
        "parcel_id": "train_038_P_006",
        "boundary_type": "VISIBLE",
        "confidence": 0.959,
        "length_m": 60.92,
        "evidence_sources": [
          "Drone_RGB_Edge",
          "DSM_Breakline"
        ]
      },
      "geometry": {
        "type": "LineString",
        "coordinates": [
          [
            77.6027263,
            13.000373
          ],
          [
            77.6021652,
            13.0003854
          ]
        ]
      }
    },
    {
      "type": "Feature",
      "properties": {
        "id": "train_038_BND_024",
        "parcel_id": "train_038_P_006",
        "boundary_type": "VISIBLE",
        "confidence": 0.896,
        "length_m": 51.66,
        "evidence_sources": [
          "Drone_RGB_Edge",
          "DSM_Breakline"
        ]
      },
      "geometry": {
        "type": "LineString",
        "coordinates": [
          [
            77.6021652,
            13.0003854
          ],
          [
            77.6021639,
            13.0008521
          ]
        ]
      }
    },
    {
      "type": "Feature",
      "properties": {
        "id": "train_038_BND_025",
        "parcel_id": "train_038_P_007",
        "boundary_type": "VISIBLE",
        "confidence": 0.905,
        "length_m": 61.61,
        "evidence_sources": [
          "Drone_RGB_Edge",
          "DSM_Breakline"
        ]
      },
      "geometry": {
        "type": "LineString",
        "coordinates": [
          [
            77.6027387,
            13.0013223
          ],
          [
            77.6033059,
            13.0013434
          ]
        ]
      }
    },
    {
      "type": "Feature",
      "properties": {
        "id": "train_038_BND_026",
        "parcel_id": "train_038_P_007",
        "boundary_type": "VISIBLE",
        "confidence": 0.938,
        "length_m": 53.45,
        "evidence_sources": [
          "Drone_RGB_Edge",
          "DSM_Breakline"
        ]
      },
      "geometry": {
        "type": "LineString",
        "coordinates": [
          [
            77.6033059,
            13.0013434
          ],
          [
            77.6033124,
            13.0008606
          ]
        ]
      }
    },
    {
      "type": "Feature",
      "properties": {
        "id": "train_038_BND_027",
        "parcel_id": "train_038_P_007",
        "boundary_type": "VISIBLE",
        "confidence": 0.95,
        "length_m": 60.82,
        "evidence_sources": [
          "Drone_RGB_Edge",
          "DSM_Breakline"
        ]
      },
      "geometry": {
        "type": "LineString",
        "coordinates": [
          [
            77.6033124,
            13.0008606
          ],
          [
            77.6027521,
            13.0008636
          ]
        ]
      }
    },
    {
      "type": "Feature",
      "properties": {
        "id": "train_038_BND_028",
        "parcel_id": "train_038_P_007",
        "boundary_type": "INFERRED",
        "confidence": 0.676,
        "length_m": 50.8,
        "evidence_sources": [
          "Road_Corridor_Offset",
          "Adjacent_Parcel_Topology"
        ]
      },
      "geometry": {
        "type": "LineString",
        "coordinates": [
          [
            77.6027521,
            13.0008636
          ],
          [
            77.6027387,
            13.0013223
          ]
        ]
      }
    },
    {
      "type": "Feature",
      "properties": {
        "id": "train_038_BND_029",
        "parcel_id": "train_038_P_008",
        "boundary_type": "VISIBLE",
        "confidence": 0.901,
        "length_m": 62.08,
        "evidence_sources": [
          "Drone_RGB_Edge",
          "DSM_Breakline"
        ]
      },
      "geometry": {
        "type": "LineString",
        "coordinates": [
          [
            77.6027368,
            13.0008464
          ],
          [
            77.6033087,
            13.000845
          ]
        ]
      }
    },
    {
      "type": "Feature",
      "properties": {
        "id": "train_038_BND_030",
        "parcel_id": "train_038_P_008",
        "boundary_type": "VISIBLE",
        "confidence": 0.894,
        "length_m": 50.57,
        "evidence_sources": [
          "Drone_RGB_Edge",
          "DSM_Breakline"
        ]
      },
      "geometry": {
        "type": "LineString",
        "coordinates": [
          [
            77.6033087,
            13.000845
          ],
          [
            77.6033084,
            13.0003882
          ]
        ]
      }
    },
    {
      "type": "Feature",
      "properties": {
        "id": "train_038_BND_031",
        "parcel_id": "train_038_P_008",
        "boundary_type": "VISIBLE",
        "confidence": 0.852,
        "length_m": 60.05,
        "evidence_sources": [
          "Drone_RGB_Edge",
          "DSM_Breakline"
        ]
      },
      "geometry": {
        "type": "LineString",
        "coordinates": [
          [
            77.6033084,
            13.0003882
          ],
          [
            77.6027555,
            13.0003693
          ]
        ]
      }
    },
    {
      "type": "Feature",
      "properties": {
        "id": "train_038_BND_032",
        "parcel_id": "train_038_P_008",
        "boundary_type": "VISIBLE",
        "confidence": 0.921,
        "length_m": 52.85,
        "evidence_sources": [
          "Drone_RGB_Edge",
          "DSM_Breakline"
        ]
      },
      "geometry": {
        "type": "LineString",
        "coordinates": [
          [
            77.6027555,
            13.0003693
          ],
          [
            77.6027368,
            13.0008464
          ]
        ]
      }
    },
    {
      "type": "Feature",
      "properties": {
        "id": "train_038_BND_033",
        "parcel_id": "train_038_P_009",
        "boundary_type": "VISIBLE",
        "confidence": 0.85,
        "length_m": 46.62,
        "evidence_sources": [
          "Drone_RGB_Edge",
          "DSM_Breakline"
        ]
      },
      "geometry": {
        "type": "LineString",
        "coordinates": [
          [
            77.6010778,
            13.000126
          ],
          [
            77.6015072,
            13.0001342
          ]
        ]
      }
    },
    {
      "type": "Feature",
      "properties": {
        "id": "train_038_BND_034",
        "parcel_id": "train_038_P_009",
        "boundary_type": "VISIBLE",
        "confidence": 0.889,
        "length_m": 56.54,
        "evidence_sources": [
          "Drone_RGB_Edge",
          "DSM_Breakline"
        ]
      },
      "geometry": {
        "type": "LineString",
        "coordinates": [
          [
            77.6015072,
            13.0001342
          ],
          [
            77.6015085,
            12.9996234
          ]
        ]
      }
    },
    {
      "type": "Feature",
      "properties": {
        "id": "train_038_BND_035",
        "parcel_id": "train_038_P_009",
        "boundary_type": "INFERRED",
        "confidence": 0.623,
        "length_m": 47.75,
        "evidence_sources": [
          "Road_Corridor_Offset",
          "Adjacent_Parcel_Topology"
        ]
      },
      "geometry": {
        "type": "LineString",
        "coordinates": [
          [
            77.6015085,
            12.9996234
          ],
          [
            77.6010686,
            12.9996186
          ]
        ]
      }
    },
    {
      "type": "Feature",
      "properties": {
        "id": "train_038_BND_036",
        "parcel_id": "train_038_P_009",
        "boundary_type": "VISIBLE",
        "confidence": 0.94,
        "length_m": 56.18,
        "evidence_sources": [
          "Drone_RGB_Edge",
          "DSM_Breakline"
        ]
      },
      "geometry": {
        "type": "LineString",
        "coordinates": [
          [
            77.6010686,
            12.9996186
          ],
          [
            77.6010778,
            13.000126
          ]
        ]
      }
    },
    {
      "type": "Feature",
      "properties": {
        "id": "train_038_BND_037",
        "parcel_id": "train_038_P_010",
        "boundary_type": "VISIBLE",
        "confidence": 0.889,
        "length_m": 48.01,
        "evidence_sources": [
          "Drone_RGB_Edge",
          "DSM_Breakline"
        ]
      },
      "geometry": {
        "type": "LineString",
        "coordinates": [
          [
            77.6010609,
            12.9995942
          ],
          [
            77.6015032,
            12.9995957
          ]
        ]
      }
    },
    {
      "type": "Feature",
      "properties": {
        "id": "train_038_BND_038",
        "parcel_id": "train_038_P_010",
        "boundary_type": "INFERRED",
        "confidence": 0.747,
        "length_m": 56.8,
        "evidence_sources": [
          "Road_Corridor_Offset",
          "Adjacent_Parcel_Topology"
        ]
      },
      "geometry": {
        "type": "LineString",
        "coordinates": [
          [
            77.6015032,
            12.9995957
          ],
          [
            77.6015189,
            12.9990828
          ]
        ]
      }
    },
    {
      "type": "Feature",
      "properties": {
        "id": "train_038_BND_039",
        "parcel_id": "train_038_P_010",
        "boundary_type": "VISIBLE",
        "confidence": 0.873,
        "length_m": 49.88,
        "evidence_sources": [
          "Drone_RGB_Edge",
          "DSM_Breakline"
        ]
      },
      "geometry": {
        "type": "LineString",
        "coordinates": [
          [
            77.6015189,
            12.9990828
          ],
          [
            77.6010594,
            12.9990755
          ]
        ]
      }
    },
    {
      "type": "Feature",
      "properties": {
        "id": "train_038_BND_040",
        "parcel_id": "train_038_P_010",
        "boundary_type": "VISIBLE",
        "confidence": 0.916,
        "length_m": 57.42,
        "evidence_sources": [
          "Drone_RGB_Edge",
          "DSM_Breakline"
        ]
      },
      "geometry": {
        "type": "LineString",
        "coordinates": [
          [
            77.6010594,
            12.9990755
          ],
          [
            77.6010609,
            12.9995942
          ]
        ]
      }
    },
    {
      "type": "Feature",
      "properties": {
        "id": "train_038_BND_041",
        "parcel_id": "train_038_P_011",
        "boundary_type": "VISIBLE",
        "confidence": 0.955,
        "length_m": 48.98,
        "evidence_sources": [
          "Drone_RGB_Edge",
          "DSM_Breakline"
        ]
      },
      "geometry": {
        "type": "LineString",
        "coordinates": [
          [
            77.6015366,
            13.0001213
          ],
          [
            77.6019875,
            13.0001376
          ]
        ]
      }
    },
    {
      "type": "Feature",
      "properties": {
        "id": "train_038_BND_042",
        "parcel_id": "train_038_P_011",
        "boundary_type": "INFERRED",
        "confidence": 0.739,
        "length_m": 58.0,
        "evidence_sources": [
          "Road_Corridor_Offset",
          "Adjacent_Parcel_Topology"
        ]
      },
      "geometry": {
        "type": "LineString",
        "coordinates": [
          [
            77.6019875,
            13.0001376
          ],
          [
            77.6019729,
            12.9996138
          ]
        ]
      }
    },
    {
      "type": "Feature",
      "properties": {
        "id": "train_038_BND_043",
        "parcel_id": "train_038_P_011",
        "boundary_type": "INFERRED",
        "confidence": 0.723,
        "length_m": 46.99,
        "evidence_sources": [
          "Road_Corridor_Offset",
          "Adjacent_Parcel_Topology"
        ]
      },
      "geometry": {
        "type": "LineString",
        "coordinates": [
          [
            77.6019729,
            12.9996138
          ],
          [
            77.60154,
            12.9996148
          ]
        ]
      }
    },
    {
      "type": "Feature",
      "properties": {
        "id": "train_038_BND_044",
        "parcel_id": "train_038_P_011",
        "boundary_type": "VISIBLE",
        "confidence": 0.869,
        "length_m": 56.07,
        "evidence_sources": [
          "Drone_RGB_Edge",
          "DSM_Breakline"
        ]
      },
      "geometry": {
        "type": "LineString",
        "coordinates": [
          [
            77.60154,
            12.9996148
          ],
          [
            77.6015366,
            13.0001213
          ]
        ]
      }
    },
    {
      "type": "Feature",
      "properties": {
        "id": "train_038_BND_045",
        "parcel_id": "train_038_P_012",
        "boundary_type": "VISIBLE",
        "confidence": 0.925,
        "length_m": 49.49,
        "evidence_sources": [
          "Drone_RGB_Edge",
          "DSM_Breakline"
        ]
      },
      "geometry": {
        "type": "LineString",
        "coordinates": [
          [
            77.6015362,
            12.9995943
          ],
          [
            77.6019921,
            12.9995872
          ]
        ]
      }
    },
    {
      "type": "Feature",
      "properties": {
        "id": "train_038_BND_046",
        "parcel_id": "train_038_P_012",
        "boundary_type": "VISIBLE",
        "confidence": 0.82,
        "length_m": 54.53,
        "evidence_sources": [
          "Drone_RGB_Edge",
          "DSM_Breakline"
        ]
      },
      "geometry": {
        "type": "LineString",
        "coordinates": [
          [
            77.6019921,
            12.9995872
          ],
          [
            77.601991,
            12.9990946
          ]
        ]
      }
    },
    {
      "type": "Feature",
      "properties": {
        "id": "train_038_BND_047",
        "parcel_id": "train_038_P_012",
        "boundary_type": "VISIBLE",
        "confidence": 0.835,
        "length_m": 49.51,
        "evidence_sources": [
          "Drone_RGB_Edge",
          "DSM_Breakline"
        ]
      },
      "geometry": {
        "type": "LineString",
        "coordinates": [
          [
            77.601991,
            12.9990946
          ],
          [
            77.6015351,
            12.9990797
          ]
        ]
      }
    },
    {
      "type": "Feature",
      "properties": {
        "id": "train_038_BND_048",
        "parcel_id": "train_038_P_012",
        "boundary_type": "VISIBLE",
        "confidence": 0.83,
        "length_m": 56.96,
        "evidence_sources": [
          "Drone_RGB_Edge",
          "DSM_Breakline"
        ]
      },
      "geometry": {
        "type": "LineString",
        "coordinates": [
          [
            77.6015351,
            12.9990797
          ],
          [
            77.6015362,
            12.9995943
          ]
        ]
      }
    },
    {
      "type": "Feature",
      "properties": {
        "id": "train_038_BND_049",
        "parcel_id": "train_038_P_013",
        "boundary_type": "INFERRED",
        "confidence": 0.788,
        "length_m": 62.29,
        "evidence_sources": [
          "Road_Corridor_Offset",
          "Adjacent_Parcel_Topology"
        ]
      },
      "geometry": {
        "type": "LineString",
        "coordinates": [
          [
            77.6021569,
            13.0001302
          ],
          [
            77.6027307,
            13.0001359
          ]
        ]
      }
    },
    {
      "type": "Feature",
      "properties": {
        "id": "train_038_BND_050",
        "parcel_id": "train_038_P_013",
        "boundary_type": "VISIBLE",
        "confidence": 0.825,
        "length_m": 56.11,
        "evidence_sources": [
          "Drone_RGB_Edge",
          "DSM_Breakline"
        ]
      },
      "geometry": {
        "type": "LineString",
        "coordinates": [
          [
            77.6027307,
            13.0001359
          ],
          [
            77.6027229,
            12.9996291
          ]
        ]
      }
    },
    {
      "type": "Feature",
      "properties": {
        "id": "train_038_BND_051",
        "parcel_id": "train_038_P_013",
        "boundary_type": "VISIBLE",
        "confidence": 0.931,
        "length_m": 60.51,
        "evidence_sources": [
          "Drone_RGB_Edge",
          "DSM_Breakline"
        ]
      },
      "geometry": {
        "type": "LineString",
        "coordinates": [
          [
            77.6027229,
            12.9996291
          ],
          [
            77.6021655,
            12.9996226
          ]
        ]
      }
    },
    {
      "type": "Feature",
      "properties": {
        "id": "train_038_BND_052",
        "parcel_id": "train_038_P_013",
        "boundary_type": "INFERRED",
        "confidence": 0.769,
        "length_m": 56.2,
        "evidence_sources": [
          "Road_Corridor_Offset",
          "Adjacent_Parcel_Topology"
        ]
      },
      "geometry": {
        "type": "LineString",
        "coordinates": [
          [
            77.6021655,
            12.9996226
          ],
          [
            77.6021569,
            13.0001302
          ]
        ]
      }
    },
    {
      "type": "Feature",
      "properties": {
        "id": "train_038_BND_053",
        "parcel_id": "train_038_P_014",
        "boundary_type": "VISIBLE",
        "confidence": 0.857,
        "length_m": 60.6,
        "evidence_sources": [
          "Drone_RGB_Edge",
          "DSM_Breakline"
        ]
      },
      "geometry": {
        "type": "LineString",
        "coordinates": [
          [
            77.6021559,
            12.9995919
          ],
          [
            77.6027141,
            12.9996029
          ]
        ]
      }
    },
    {
      "type": "Feature",
      "properties": {
        "id": "train_038_BND_054",
        "parcel_id": "train_038_P_014",
        "boundary_type": "VISIBLE",
        "confidence": 0.853,
        "length_m": 57.62,
        "evidence_sources": [
          "Drone_RGB_Edge",
          "DSM_Breakline"
        ]
      },
      "geometry": {
        "type": "LineString",
        "coordinates": [
          [
            77.6027141,
            12.9996029
          ],
          [
            77.6027209,
            12.9990824
          ]
        ]
      }
    },
    {
      "type": "Feature",
      "properties": {
        "id": "train_038_BND_055",
        "parcel_id": "train_038_P_014",
        "boundary_type": "VISIBLE",
        "confidence": 0.864,
        "length_m": 61.61,
        "evidence_sources": [
          "Drone_RGB_Edge",
          "DSM_Breakline"
        ]
      },
      "geometry": {
        "type": "LineString",
        "coordinates": [
          [
            77.6027209,
            12.9990824
          ],
          [
            77.6021535,
            12.999097
          ]
        ]
      }
    },
    {
      "type": "Feature",
      "properties": {
        "id": "train_038_BND_056",
        "parcel_id": "train_038_P_014",
        "boundary_type": "VISIBLE",
        "confidence": 0.82,
        "length_m": 54.78,
        "evidence_sources": [
          "Drone_RGB_Edge",
          "DSM_Breakline"
        ]
      },
      "geometry": {
        "type": "LineString",
        "coordinates": [
          [
            77.6021535,
            12.999097
          ],
          [
            77.6021559,
            12.9995919
          ]
        ]
      }
    },
    {
      "type": "Feature",
      "properties": {
        "id": "train_038_BND_057",
        "parcel_id": "train_038_P_015",
        "boundary_type": "INFERRED",
        "confidence": 0.666,
        "length_m": 60.68,
        "evidence_sources": [
          "Road_Corridor_Offset",
          "Adjacent_Parcel_Topology"
        ]
      },
      "geometry": {
        "type": "LineString",
        "coordinates": [
          [
            77.6027548,
            13.0001325
          ],
          [
            77.6033138,
            13.0001276
          ]
        ]
      }
    },
    {
      "type": "Feature",
      "properties": {
        "id": "train_038_BND_058",
        "parcel_id": "train_038_P_015",
        "boundary_type": "VISIBLE",
        "confidence": 0.936,
        "length_m": 56.99,
        "evidence_sources": [
          "Drone_RGB_Edge",
          "DSM_Breakline"
        ]
      },
      "geometry": {
        "type": "LineString",
        "coordinates": [
          [
            77.6033138,
            13.0001276
          ],
          [
            77.6033072,
            12.9996128
          ]
        ]
      }
    },
    {
      "type": "Feature",
      "properties": {
        "id": "train_038_BND_059",
        "parcel_id": "train_038_P_015",
        "boundary_type": "VISIBLE",
        "confidence": 0.898,
        "length_m": 59.92,
        "evidence_sources": [
          "Drone_RGB_Edge",
          "DSM_Breakline"
        ]
      },
      "geometry": {
        "type": "LineString",
        "coordinates": [
          [
            77.6033072,
            12.9996128
          ],
          [
            77.6027554,
            12.9996261
          ]
        ]
      }
    },
    {
      "type": "Feature",
      "properties": {
        "id": "train_038_BND_060",
        "parcel_id": "train_038_P_015",
        "boundary_type": "VISIBLE",
        "confidence": 0.945,
        "length_m": 56.06,
        "evidence_sources": [
          "Drone_RGB_Edge",
          "DSM_Breakline"
        ]
      },
      "geometry": {
        "type": "LineString",
        "coordinates": [
          [
            77.6027554,
            12.9996261
          ],
          [
            77.6027548,
            13.0001325
          ]
        ]
      }
    },
    {
      "type": "Feature",
      "properties": {
        "id": "train_038_BND_061",
        "parcel_id": "train_038_P_016",
        "boundary_type": "VISIBLE",
        "confidence": 0.833,
        "length_m": 61.83,
        "evidence_sources": [
          "Drone_RGB_Edge",
          "DSM_Breakline"
        ]
      },
      "geometry": {
        "type": "LineString",
        "coordinates": [
          [
            77.6027521,
            12.9996033
          ],
          [
            77.6033216,
            12.9995949
          ]
        ]
      }
    },
    {
      "type": "Feature",
      "properties": {
        "id": "train_038_BND_062",
        "parcel_id": "train_038_P_016",
        "boundary_type": "VISIBLE",
        "confidence": 0.825,
        "length_m": 56.42,
        "evidence_sources": [
          "Drone_RGB_Edge",
          "DSM_Breakline"
        ]
      },
      "geometry": {
        "type": "LineString",
        "coordinates": [
          [
            77.6033216,
            12.9995949
          ],
          [
            77.6033078,
            12.9990854
          ]
        ]
      }
    },
    {
      "type": "Feature",
      "properties": {
        "id": "train_038_BND_063",
        "parcel_id": "train_038_P_016",
        "boundary_type": "INFERRED",
        "confidence": 0.696,
        "length_m": 60.49,
        "evidence_sources": [
          "Road_Corridor_Offset",
          "Adjacent_Parcel_Topology"
        ]
      },
      "geometry": {
        "type": "LineString",
        "coordinates": [
          [
            77.6033078,
            12.9990854
          ],
          [
            77.6027506,
            12.999078
          ]
        ]
      }
    },
    {
      "type": "Feature",
      "properties": {
        "id": "train_038_BND_064",
        "parcel_id": "train_038_P_016",
        "boundary_type": "VISIBLE",
        "confidence": 0.821,
        "length_m": 58.15,
        "evidence_sources": [
          "Drone_RGB_Edge",
          "DSM_Breakline"
        ]
      },
      "geometry": {
        "type": "LineString",
        "coordinates": [
          [
            77.6027506,
            12.999078
          ],
          [
            77.6027521,
            12.9996033
          ]
        ]
      }
    }
  ]
}