{
  "type": "FeatureCollection",
  "crs": {
    "type": "name",
    "properties": {
      "name": "EPSG:4326"
    }
  },
  "features": [
    {
      "type": "Feature",
      "properties": {
        "id": "train_038_REF_001",
        "parcel_id": "train_038_P_001",
        "parcel_layer": "REFERENCE",
        "boundary_representation": "REFERENCE",
        "land_use_class": "commercial",
        "area_sqm": 2449.87,
        "perimeter_m": 198.16,
        "source": "Synthetic Legacy Cadastral Map (Non-Authoritative Demo)"
      },
      "geometry": {
        "type": "Polygon",
        "coordinates": [
          [
            [
              77.6010707,
              13.001338
            ],
            [
              77.6015181,
              13.0013325
            ],
            [
              77.6015138,
              13.0008802
            ],
            [
              77.6010815,
              13.0008633
            ],
            [
              77.6010707,
              13.001338
            ]
          ]
        ]
      }
    },
    {
      "type": "Feature",
      "properties": {
        "id": "train_038_REF_002",
        "parcel_id": "train_038_P_002",
        "parcel_layer": "REFERENCE",
        "boundary_representation": "REFERENCE",
        "land_use_class": "mixed_use",
        "area_sqm": 2463.76,
        "perimeter_m": 198.71,
        "source": "Synthetic Legacy Cadastral Map (Non-Authoritative Demo)"
      },
      "geometry": {
        "type": "Polygon",
        "coordinates": [
          [
            [
              77.6010802,
              13.0008514
            ],
            [
              77.6015112,
              13.0008574
            ],
            [
              77.60153,
              13.0003892
            ],
            [
              77.601079,
              13.0003898
            ],
            [
              77.6010802,
              13.0008514
            ]
          ]
        ]
      }
    },
    {
      "type": "Feature",
      "properties": {
        "id": "train_038_REF_003",
        "parcel_id": "train_038_P_003",
        "parcel_layer": "REFERENCE",
        "boundary_representation": "REFERENCE",
        "land_use_class": "mixed_use",
        "area_sqm": 2544.01,
        "perimeter_m": 202.01,
        "source": "Synthetic Legacy Cadastral Map (Non-Authoritative Demo)"
      },
      "geometry": {
        "type": "Polygon",
        "coordinates": [
          [
            [
              77.6015497,
              13.0013422
            ],
            [
              77.6019876,
              13.00134
            ],
            [
              77.601987,
              13.0008674
            ],
            [
              77.6015384,
              13.0008594
            ],
            [
              77.6015497,
              13.0013422
            ]
          ]
        ]
      }
    },
    {
      "type": "Feature",
      "properties": {
        "id": "train_038_REF_004",
        "parcel_id": "train_038_P_004",
        "parcel_layer": "REFERENCE",
        "boundary_representation": "REFERENCE",
        "land_use_class": "vegetation",
        "area_sqm": 2445.45,
        "perimeter_m": 198.02,
        "source": "Synthetic Legacy Cadastral Map (Non-Authoritative Demo)"
      },
      "geometry": {
        "type": "Polygon",
        "coordinates": [
          [
            [
              77.6015803,
              13.0008624
            ],
            [
              77.6020135,
              13.0008686
            ],
            [
              77.6020208,
              13.0004109
            ],
            [
              77.6015793,
              13.0003896
            ],
            [
              77.6015803,
              13.0008624
            ]
          ]
        ]
      }
    },
    {
      "type": "Feature",
      "properties": {
        "id": "train_038_REF_005",
        "parcel_id": "train_038_P_005",
        "parcel_layer": "REFERENCE",
        "boundary_representation": "REFERENCE",
        "land_use_class": "mixed_use",
        "area_sqm": 3178.58,
        "perimeter_m": 226.62,
        "source": "Synthetic Legacy Cadastral Map (Non-Authoritative Demo)"
      },
      "geometry": {
        "type": "Polygon",
        "coordinates": [
          [
            [
              77.6021698,
              13.001343
            ],
            [
              77.6027341,
              13.0013251
            ],
            [
              77.6027347,
              13.0008708
            ],
            [
              77.6021538,
              13.0008736
            ],
            [
              77.6021698,
              13.001343
            ]
          ]
        ]
      }
    },
    {
      "type": "Feature",
      "properties": {
        "id": "train_038_REF_006",
        "parcel_id": "train_038_P_006",
        "parcel_layer": "REFERENCE",
        "boundary_representation": "REFERENCE",
        "land_use_class": "industrial",
        "area_sqm": 3165.07,
        "perimeter_m": 225.71,
        "source": "Synthetic Legacy Cadastral Map (Non-Authoritative Demo)"
      },
      "geometry": {
        "type": "Polygon",
        "coordinates": [
          [
            [
              77.6021695,
              13.0008549
            ],
            [
              77.6027261,
              13.0008518
            ],
            [
              77.602732,
              13.0003758
            ],
            [
              77.6021708,
              13.0003882
            ],
            [
              77.6021695,
              13.0008549
            ]
          ]
        ]
      }
    },
    {
      "type": "Feature",
      "properties": {
        "id": "train_038_REF_007",
        "parcel_id": "train_038_P_007",
        "parcel_layer": "REFERENCE",
        "boundary_representation": "REFERENCE",
        "land_use_class": "commercial",
        "area_sqm": 3189.89,
        "perimeter_m": 226.68,
        "source": "Synthetic Legacy Cadastral Map (Non-Authoritative Demo)"
      },
      "geometry": {
        "type": "Polygon",
        "coordinates": [
          [
            [
              77.6027443,
              13.0013251
            ],
            [
              77.6033115,
              13.0013462
            ],
            [
              77.603318,
              13.0008634
            ],
            [
              77.6027577,
              13.0008664
            ],
            [
              77.6027443,
              13.0013251
            ]
          ]
        ]
      }
    },
    {
      "type": "Feature",
      "properties": {
        "id": "train_038_REF_008",
        "parcel_id": "train_038_P_008",
        "parcel_layer": "REFERENCE",
        "boundary_representation": "REFERENCE",
        "land_use_class": "residential",
        "area_sqm": 3155.84,
        "perimeter_m": 225.53,
        "source": "Synthetic Legacy Cadastral Map (Non-Authoritative Demo)"
      },
      "geometry": {
        "type": "Polygon",
        "coordinates": [
          [
            [
              77.6027781,
              13.000867
            ],
            [
              77.60335,
              13.0008656
            ],
            [
              77.6033496,
              13.0004089
            ],
            [
              77.6027968,
              13.0003899
            ],
            [
              77.6027781,
              13.000867
            ]
          ]
        ]
      }
    },
    {
      "type": "Feature",
      "properties": {
        "id": "train_038_REF_009",
        "parcel_id": "train_038_P_009",
        "parcel_layer": "REFERENCE",
        "boundary_representation": "REFERENCE",
        "land_use_class": "commercial",
        "area_sqm": 2658.86,
        "perimeter_m": 207.1,
        "source": "Synthetic Legacy Cadastral Map (Non-Authoritative Demo)"
      },
      "geometry": {
        "type": "Polygon",
        "coordinates": [
          [
            [
              77.6010834,
              13.0001288
            ],
            [
              77.6015128,
              13.000137
            ],
            [
              77.6015142,
              12.9996262
            ],
            [
              77.6010742,
              12.9996214
            ],
            [
              77.6010834,
              13.0001288
            ]
          ]
        ]
      }
    },
    {
      "type": "Feature",
      "properties": {
        "id": "train_038_REF_010",
        "parcel_id": "train_038_P_010",
        "parcel_layer": "REFERENCE",
        "boundary_representation": "REFERENCE",
        "land_use_class": "commercial",
        "area_sqm": 2794.95,
        "perimeter_m": 212.12,
        "source": "Synthetic Legacy Cadastral Map (Non-Authoritative Demo)"
      },
      "geometry": {
        "type": "Polygon",
        "coordinates": [
          [
            [
              77.6010665,
              12.999597
            ],
            [
              77.6015088,
              12.9995985
            ],
            [
              77.6015246,
              12.9990856
            ],
            [
              77.6010651,
              12.9990783
            ],
            [
              77.6010665,
              12.999597
            ]
          ]
        ]
      }
    },
    {
      "type": "Feature",
      "properties": {
        "id": "train_038_REF_011",
        "parcel_id": "train_038_P_011",
        "parcel_layer": "REFERENCE",
        "boundary_representation": "REFERENCE",
        "land_use_class": "mixed_use",
        "area_sqm": 2734.82,
        "perimeter_m": 210.04,
        "source": "Synthetic Legacy Cadastral Map (Non-Authoritative Demo)"
      },
      "geometry": {
        "type": "Polygon",
        "coordinates": [
          [
            [
              77.6015422,
              13.0001241
            ],
            [
              77.6019931,
              13.0001404
            ],
            [
              77.6019785,
              12.9996166
            ],
            [
              77.6015456,
              12.9996176
            ],
            [
              77.6015422,
              13.0001241
            ]
          ]
        ]
      }
    },
    {
      "type": "Feature",
      "properties": {
        "id": "train_038_REF_012",
        "parcel_id": "train_038_P_012",
        "parcel_layer": "REFERENCE",
        "boundary_representation": "REFERENCE",
        "land_use_class": "mixed_use",
        "area_sqm": 2758.67,
        "perimeter_m": 210.5,
        "source": "Synthetic Legacy Cadastral Map (Non-Authoritative Demo)"
      },
      "geometry": {
        "type": "Polygon",
        "coordinates": [
          [
            [
              77.6015775,
              12.9996149
            ],
            [
              77.6020334,
              12.9996078
            ],
            [
              77.6020323,
              12.9991152
            ],
            [
              77.6015764,
              12.9991003
            ],
            [
              77.6015775,
              12.9996149
            ]
          ]
        ]
      }
    },
    {
      "type": "Feature",
      "properties": {
        "id": "train_038_REF_013",
        "parcel_id": "train_038_P_013",
        "parcel_layer": "REFERENCE",
        "boundary_representation": "REFERENCE",
        "land_use_class": "mixed_use",
        "area_sqm": 3447.03,
        "perimeter_m": 235.1,
        "source": "Synthetic Legacy Cadastral Map (Non-Authoritative Demo)"
      },
      "geometry": {
        "type": "Polygon",
        "coordinates": [
          [
            [
              77.6021625,
              13.000133
            ],
            [
              77.6027363,
              13.0001387
            ],
            [
              77.6027285,
              12.9996319
            ],
            [
              77.6021711,
              12.9996254
            ],
            [
              77.6021625,
              13.000133
            ]
          ]
        ]
      }
    },
    {
      "type": "Feature",
      "properties": {
        "id": "train_038_REF_014",
        "parcel_id": "train_038_P_014",
        "parcel_layer": "REFERENCE",
        "boundary_representation": "REFERENCE",
        "land_use_class": "vacant",
        "area_sqm": 3433.28,
        "perimeter_m": 234.62,
        "source": "Synthetic Legacy Cadastral Map (Non-Authoritative Demo)"
      },
      "geometry": {
        "type": "Polygon",
        "coordinates": [
          [
            [
              77.6021615,
              12.9995947
            ],
            [
              77.6027197,
              12.9996057
            ],
            [
              77.6027265,
              12.9990852
            ],
            [
              77.6021591,
              12.9990998
            ],
            [
              77.6021615,
              12.9995947
            ]
          ]
        ]
      }
    },
    {
      "type": "Feature",
      "properties": {
        "id": "train_038_REF_015",
        "parcel_id": "train_038_P_015",
        "parcel_layer": "REFERENCE",
        "boundary_representation": "REFERENCE",
        "land_use_class": "commercial",
        "area_sqm": 3407.85,
        "perimeter_m": 233.64,
        "source": "Synthetic Legacy Cadastral Map (Non-Authoritative Demo)"
      },
      "geometry": {
        "type": "Polygon",
        "coordinates": [
          [
            [
              77.6027604,
              13.0001353
            ],
            [
              77.6033194,
              13.0001304
            ],
            [
              77.6033129,
              12.9996156
            ],
            [
              77.6027611,
              12.9996289
            ],
            [
              77.6027604,
              13.0001353
            ]
          ]
        ]
      }
    },
    {
      "type": "Feature",
      "properties": {
        "id": "train_038_REF_016",
        "parcel_id": "train_038_P_016",
        "parcel_layer": "REFERENCE",
        "boundary_representation": "REFERENCE",
        "land_use_class": "industrial",
        "area_sqm": 3502.07,
        "perimeter_m": 236.87,
        "source": "Synthetic Legacy Cadastral Map (Non-Authoritative Demo)"
      },
      "geometry": {
        "type": "Polygon",
        "coordinates": [
          [
            [
              77.6027934,
              12.9996239
            ],
            [
              77.6033629,
              12.9996156
            ],
            [
              77.603349,
              12.9991061
            ],
            [
              77.6027919,
              12.9990986
            ],
            [
              77.6027934,
              12.9996239
            ]
          ]
        ]
      }
    }
  ]
}