{
  "type": "FeatureCollection",
  "crs": {
    "type": "name",
    "properties": {
      "name": "EPSG:4326"
    }
  },
  "features": [
    {
      "type": "Feature",
      "properties": {
        "id": "train_031_BND_001",
        "parcel_id": "train_031_P_001",
        "boundary_type": "INFERRED",
        "confidence": 0.638,
        "length_m": 56.97,
        "evidence_sources": [
          "Road_Corridor_Offset",
          "Adjacent_Parcel_Topology"
        ]
      },
      "geometry": {
        "type": "LineString",
        "coordinates": [
          [
            77.6250997,
            12.9982992
          ],
          [
            77.6256245,
            12.9982972
          ]
        ]
      }
    },
    {
      "type": "Feature",
      "properties": {
        "id": "train_031_BND_002",
        "parcel_id": "train_031_P_001",
        "boundary_type": "VISIBLE",
        "confidence": 0.951,
        "length_m": 64.33,
        "evidence_sources": [
          "Drone_RGB_Edge",
          "DSM_Breakline"
        ]
      },
      "geometry": {
        "type": "LineString",
        "coordinates": [
          [
            77.6256245,
            12.9982972
          ],
          [
            77.6256339,
            12.9977161
          ]
        ]
      }
    },
    {
      "type": "Feature",
      "properties": {
        "id": "train_031_BND_003",
        "parcel_id": "train_031_P_001",
        "boundary_type": "INFERRED",
        "confidence": 0.678,
        "length_m": 56.67,
        "evidence_sources": [
          "Road_Corridor_Offset",
          "Adjacent_Parcel_Topology"
        ]
      },
      "geometry": {
        "type": "LineString",
        "coordinates": [
          [
            77.6256339,
            12.9977161
          ],
          [
            77.6251122,
            12.9976975
          ]
        ]
      }
    },
    {
      "type": "Feature",
      "properties": {
        "id": "train_031_BND_004",
        "parcel_id": "train_031_P_001",
        "boundary_type": "VISIBLE",
        "confidence": 0.848,
        "length_m": 66.62,
        "evidence_sources": [
          "Drone_RGB_Edge",
          "DSM_Breakline"
        ]
      },
      "geometry": {
        "type": "LineString",
        "coordinates": [
          [
            77.6251122,
            12.9976975
          ],
          [
            77.6250997,
            12.9982992
          ]
        ]
      }
    },
    {
      "type": "Feature",
      "properties": {
        "id": "train_031_BND_005",
        "parcel_id": "train_031_P_002",
        "boundary_type": "VISIBLE",
        "confidence": 0.873,
        "length_m": 57.29,
        "evidence_sources": [
          "Drone_RGB_Edge",
          "DSM_Breakline"
        ]
      },
      "geometry": {
        "type": "LineString",
        "coordinates": [
          [
            77.625086,
            12.9976492
          ],
          [
            77.6256134,
            12.9976683
          ]
        ]
      }
    },
    {
      "type": "Feature",
      "properties": {
        "id": "train_031_BND_006",
        "parcel_id": "train_031_P_002",
        "boundary_type": "INFERRED",
        "confidence": 0.721,
        "length_m": 63.36,
        "evidence_sources": [
          "Road_Corridor_Offset",
          "Adjacent_Parcel_Topology"
        ]
      },
      "geometry": {
        "type": "LineString",
        "coordinates": [
          [
            77.6256134,
            12.9976683
          ],
          [
            77.6255807,
            12.9970968
          ]
        ]
      }
    },
    {
      "type": "Feature",
      "properties": {
        "id": "train_031_BND_007",
        "parcel_id": "train_031_P_002",
        "boundary_type": "INFERRED",
        "confidence": 0.74,
        "length_m": 51.2,
        "evidence_sources": [
          "Road_Corridor_Offset",
          "Adjacent_Parcel_Topology"
        ]
      },
      "geometry": {
        "type": "LineString",
        "coordinates": [
          [
            77.6255807,
            12.9970968
          ],
          [
            77.6251098,
            12.9970701
          ]
        ]
      }
    },
    {
      "type": "Feature",
      "properties": {
        "id": "train_031_BND_008",
        "parcel_id": "train_031_P_002",
        "boundary_type": "VISIBLE",
        "confidence": 0.854,
        "length_m": 64.16,
        "evidence_sources": [
          "Drone_RGB_Edge",
          "DSM_Breakline"
        ]
      },
      "geometry": {
        "type": "LineString",
        "coordinates": [
          [
            77.6251098,
            12.9970701
          ],
          [
            77.625086,
            12.9976492
          ]
        ]
      }
    },
    {
      "type": "Feature",
      "properties": {
        "id": "train_031_BND_009",
        "parcel_id": "train_031_P_003",
        "boundary_type": "VISIBLE",
        "confidence": 0.863,
        "length_m": 57.35,
        "evidence_sources": [
          "Drone_RGB_Edge",
          "DSM_Breakline"
        ]
      },
      "geometry": {
        "type": "LineString",
        "coordinates": [
          [
            77.6256766,
            12.9983168
          ],
          [
            77.6262039,
            12.9982839
          ]
        ]
      }
    },
    {
      "type": "Feature",
      "properties": {
        "id": "train_031_BND_010",
        "parcel_id": "train_031_P_003",
        "boundary_type": "VISIBLE",
        "confidence": 0.834,
        "length_m": 63.53,
        "evidence_sources": [
          "Drone_RGB_Edge",
          "DSM_Breakline"
        ]
      },
      "geometry": {
        "type": "LineString",
        "coordinates": [
          [
            77.6262039,
            12.9982839
          ],
          [
            77.6261635,
            12.9977114
          ]
        ]
      }
    },
    {
      "type": "Feature",
      "properties": {
        "id": "train_031_BND_011",
        "parcel_id": "train_031_P_003",
        "boundary_type": "VISIBLE",
        "confidence": 0.913,
        "length_m": 54.08,
        "evidence_sources": [
          "Drone_RGB_Edge",
          "DSM_Breakline"
        ]
      },
      "geometry": {
        "type": "LineString",
        "coordinates": [
          [
            77.6261635,
            12.9977114
          ],
          [
            77.625666,
            12.9977372
          ]
        ]
      }
    },
    {
      "type": "Feature",
      "properties": {
        "id": "train_031_BND_012",
        "parcel_id": "train_031_P_003",
        "boundary_type": "VISIBLE",
        "confidence": 0.824,
        "length_m": 64.17,
        "evidence_sources": [
          "Drone_RGB_Edge",
          "DSM_Breakline"
        ]
      },
      "geometry": {
        "type": "LineString",
        "coordinates": [
          [
            77.625666,
            12.9977372
          ],
          [
            77.6256766,
            12.9983168
          ]
        ]
      }
    },
    {
      "type": "Feature",
      "properties": {
        "id": "train_031_BND_013",
        "parcel_id": "train_031_P_004",
        "boundary_type": "INFERRED",
        "confidence": 0.666,
        "length_m": 55.25,
        "evidence_sources": [
          "Road_Corridor_Offset",
          "Adjacent_Parcel_Topology"
        ]
      },
      "geometry": {
        "type": "LineString",
        "coordinates": [
          [
            77.6256626,
            12.9976964
          ],
          [
            77.6261715,
            12.99769
          ]
        ]
      }
    },
    {
      "type": "Feature",
      "properties": {
        "id": "train_031_BND_014",
        "parcel_id": "train_031_P_004",
        "boundary_type": "VISIBLE",
        "confidence": 0.865,
        "length_m": 66.59,
        "evidence_sources": [
          "Drone_RGB_Edge",
          "DSM_Breakline"
        ]
      },
      "geometry": {
        "type": "LineString",
        "coordinates": [
          [
            77.6261715,
            12.99769
          ],
          [
            77.6261926,
            12.9970888
          ]
        ]
      }
    },
    {
      "type": "Feature",
      "properties": {
        "id": "train_031_BND_015",
        "parcel_id": "train_031_P_004",
        "boundary_type": "VISIBLE",
        "confidence": 0.916,
        "length_m": 56.4,
        "evidence_sources": [
          "Drone_RGB_Edge",
          "DSM_Breakline"
        ]
      },
      "geometry": {
        "type": "LineString",
        "coordinates": [
          [
            77.6261926,
            12.9970888
          ],
          [
            77.6256732,
            12.997077
          ]
        ]
      }
    },
    {
      "type": "Feature",
      "properties": {
        "id": "train_031_BND_016",
        "parcel_id": "train_031_P_004",
        "boundary_type": "INFERRED",
        "confidence": 0.676,
        "length_m": 68.58,
        "evidence_sources": [
          "Road_Corridor_Offset",
          "Adjacent_Parcel_Topology"
        ]
      },
      "geometry": {
        "type": "LineString",
        "coordinates": [
          [
            77.6256732,
            12.997077
          ],
          [
            77.6256626,
            12.9976964
          ]
        ]
      }
    },
    {
      "type": "Feature",
      "properties": {
        "id": "train_031_BND_017",
        "parcel_id": "train_031_P_005",
        "boundary_type": "VISIBLE",
        "confidence": 0.891,
        "length_m": 37.84,
        "evidence_sources": [
          "Drone_RGB_Edge",
          "DSM_Breakline"
        ]
      },
      "geometry": {
        "type": "LineString",
        "coordinates": [
          [
            77.6264717,
            12.9983074
          ],
          [
            77.6268201,
            12.9982951
          ]
        ]
      }
    },
    {
      "type": "Feature",
      "properties": {
        "id": "train_031_BND_018",
        "parcel_id": "train_031_P_005",
        "boundary_type": "VISIBLE",
        "confidence": 0.955,
        "length_m": 64.26,
        "evidence_sources": [
          "Drone_RGB_Edge",
          "DSM_Breakline"
        ]
      },
      "geometry": {
        "type": "LineString",
        "coordinates": [
          [
            77.6268201,
            12.9982951
          ],
          [
            77.6268178,
            12.9977146
          ]
        ]
      }
    },
    {
      "type": "Feature",
      "properties": {
        "id": "train_031_BND_019",
        "parcel_id": "train_031_P_005",
        "boundary_type": "INFERRED",
        "confidence": 0.645,
        "length_m": 43.5,
        "evidence_sources": [
          "Road_Corridor_Offset",
          "Adjacent_Parcel_Topology"
        ]
      },
      "geometry": {
        "type": "LineString",
        "coordinates": [
          [
            77.6268178,
            12.9977146
          ],
          [
            77.6264183,
            12.9977455
          ]
        ]
      }
    },
    {
      "type": "Feature",
      "properties": {
        "id": "train_031_BND_020",
        "parcel_id": "train_031_P_005",
        "boundary_type": "VISIBLE",
        "confidence": 0.944,
        "length_m": 62.47,
        "evidence_sources": [
          "Drone_RGB_Edge",
          "DSM_Breakline"
        ]
      },
      "geometry": {
        "type": "LineString",
        "coordinates": [
          [
            77.6264183,
            12.9977455
          ],
          [
            77.6264717,
            12.9983074
          ]
        ]
      }
    },
    {
      "type": "Feature",
      "properties": {
        "id": "train_031_BND_021",
        "parcel_id": "train_031_P_006",
        "boundary_type": "VISIBLE",
        "confidence": 0.941,
        "length_m": 45.64,
        "evidence_sources": [
          "Drone_RGB_Edge",
          "DSM_Breakline"
        ]
      },
      "geometry": {
        "type": "LineString",
        "coordinates": [
          [
            77.6264345,
            12.9976935
          ],
          [
            77.6268542,
            12.9976695
          ]
        ]
      }
    },
    {
      "type": "Feature",
      "properties": {
        "id": "train_031_BND_022",
        "parcel_id": "train_031_P_006",
        "boundary_type": "VISIBLE",
        "confidence": 0.927,
        "length_m": 67.86,
        "evidence_sources": [
          "Drone_RGB_Edge",
          "DSM_Breakline"
        ]
      },
      "geometry": {
        "type": "LineString",
        "coordinates": [
          [
            77.6268542,
            12.9976695
          ],
          [
            77.6268257,
            12.9970571
          ]
        ]
      }
    },
    {
      "type": "Feature",
      "properties": {
        "id": "train_031_BND_023",
        "parcel_id": "train_031_P_006",
        "boundary_type": "VISIBLE",
        "confidence": 0.86,
        "length_m": 42.47,
        "evidence_sources": [
          "Drone_RGB_Edge",
          "DSM_Breakline"
        ]
      },
      "geometry": {
        "type": "LineString",
        "coordinates": [
          [
            77.6268257,
            12.9970571
          ],
          [
            77.6264345,
            12.9970637
          ]
        ]
      }
    },
    {
      "type": "Feature",
      "properties": {
        "id": "train_031_BND_024",
        "parcel_id": "train_031_P_006",
        "boundary_type": "VISIBLE",
        "confidence": 0.906,
        "length_m": 69.72,
        "evidence_sources": [
          "Drone_RGB_Edge",
          "DSM_Breakline"
        ]
      },
      "geometry": {
        "type": "LineString",
        "coordinates": [
          [
            77.6264345,
            12.9970637
          ],
          [
            77.6264345,
            12.9976935
          ]
        ]
      }
    },
    {
      "type": "Feature",
      "properties": {
        "id": "train_031_BND_025",
        "parcel_id": "train_031_P_007",
        "boundary_type": "VISIBLE",
        "confidence": 0.908,
        "length_m": 43.67,
        "evidence_sources": [
          "Drone_RGB_Edge",
          "DSM_Breakline"
        ]
      },
      "geometry": {
        "type": "LineString",
        "coordinates": [
          [
            77.6268773,
            12.9982982
          ],
          [
            77.6272794,
            12.9982859
          ]
        ]
      }
    },
    {
      "type": "Feature",
      "properties": {
        "id": "train_031_BND_026",
        "parcel_id": "train_031_P_007",
        "boundary_type": "VISIBLE",
        "confidence": 0.88,
        "length_m": 59.38,
        "evidence_sources": [
          "Drone_RGB_Edge",
          "DSM_Breakline"
        ]
      },
      "geometry": {
        "type": "LineString",
        "coordinates": [
          [
            77.6272794,
            12.9982859
          ],
          [
            77.6272769,
            12.9977495
          ]
        ]
      }
    },
    {
      "type": "Feature",
      "properties": {
        "id": "train_031_BND_027",
        "parcel_id": "train_031_P_007",
        "boundary_type": "VISIBLE",
        "confidence": 0.96,
        "length_m": 42.73,
        "evidence_sources": [
          "Drone_RGB_Edge",
          "DSM_Breakline"
        ]
      },
      "geometry": {
        "type": "LineString",
        "coordinates": [
          [
            77.6272769,
            12.9977495
          ],
          [
            77.6268861,
            12.9977029
          ]
        ]
      }
    },
    {
      "type": "Feature",
      "properties": {
        "id": "train_031_BND_028",
        "parcel_id": "train_031_P_007",
        "boundary_type": "VISIBLE",
        "confidence": 0.92,
        "length_m": 65.91,
        "evidence_sources": [
          "Drone_RGB_Edge",
          "DSM_Breakline"
        ]
      },
      "geometry": {
        "type": "LineString",
        "coordinates": [
          [
            77.6268861,
            12.9977029
          ],
          [
            77.6268773,
            12.9982982
          ]
        ]
      }
    },
    {
      "type": "Feature",
      "properties": {
        "id": "train_031_BND_029",
        "parcel_id": "train_031_P_008",
        "boundary_type": "VISIBLE",
        "confidence": 0.938,
        "length_m": 47.26,
        "evidence_sources": [
          "Drone_RGB_Edge",
          "DSM_Breakline"
        ]
      },
      "geometry": {
        "type": "LineString",
        "coordinates": [
          [
            77.6268689,
            12.9976629
          ],
          [
            77.6273042,
            12.9976545
          ]
        ]
      }
    },
    {
      "type": "Feature",
      "properties": {
        "id": "train_031_BND_030",
        "parcel_id": "train_031_P_008",
        "boundary_type": "VISIBLE",
        "confidence": 0.913,
        "length_m": 65.17,
        "evidence_sources": [
          "Drone_RGB_Edge",
          "DSM_Breakline"
        ]
      },
      "geometry": {
        "type": "LineString",
        "coordinates": [
          [
            77.6273042,
            12.9976545
          ],
          [
            77.6272913,
            12.9970659
          ]
        ]
      }
    },
    {
      "type": "Feature",
      "properties": {
        "id": "train_031_BND_031",
        "parcel_id": "train_031_P_008",
        "boundary_type": "VISIBLE",
        "confidence": 0.918,
        "length_m": 45.57,
        "evidence_sources": [
          "Drone_RGB_Edge",
          "DSM_Breakline"
        ]
      },
      "geometry": {
        "type": "LineString",
        "coordinates": [
          [
            77.6272913,
            12.9970659
          ],
          [
            77.6268718,
            12.9970807
          ]
        ]
      }
    },
    {
      "type": "Feature",
      "properties": {
        "id": "train_031_BND_032",
        "parcel_id": "train_031_P_008",
        "boundary_type": "VISIBLE",
        "confidence": 0.825,
        "length_m": 64.45,
        "evidence_sources": [
          "Drone_RGB_Edge",
          "DSM_Breakline"
        ]
      },
      "geometry": {
        "type": "LineString",
        "coordinates": [
          [
            77.6268718,
            12.9970807
          ],
          [
            77.6268689,
            12.9976629
          ]
        ]
      }
    },
    {
      "type": "Feature",
      "properties": {
        "id": "train_031_BND_033",
        "parcel_id": "train_031_P_009",
        "boundary_type": "VISIBLE",
        "confidence": 0.902,
        "length_m": 55.17,
        "evidence_sources": [
          "Drone_RGB_Edge",
          "DSM_Breakline"
        ]
      },
      "geometry": {
        "type": "LineString",
        "coordinates": [
          [
            77.6250929,
            12.9968359
          ],
          [
            77.6256011,
            12.9968442
          ]
        ]
      }
    },
    {
      "type": "Feature",
      "properties": {
        "id": "train_031_BND_034",
        "parcel_id": "train_031_P_009",
        "boundary_type": "VISIBLE",
        "confidence": 0.832,
        "length_m": 37.53,
        "evidence_sources": [
          "Drone_RGB_Edge",
          "DSM_Breakline"
        ]
      },
      "geometry": {
        "type": "LineString",
        "coordinates": [
          [
            77.6256011,
            12.9968442
          ],
          [
            77.6255954,
            12.9965052
          ]
        ]
      }
    },
    {
      "type": "Feature",
      "properties": {
        "id": "train_031_BND_035",
        "parcel_id": "train_031_P_009",
        "boundary_type": "VISIBLE",
        "confidence": 0.876,
        "length_m": 57.52,
        "evidence_sources": [
          "Drone_RGB_Edge",
          "DSM_Breakline"
        ]
      },
      "geometry": {
        "type": "LineString",
        "coordinates": [
          [
            77.6255954,
            12.9965052
          ],
          [
            77.6250656,
            12.9965167
          ]
        ]
      }
    },
    {
      "type": "Feature",
      "properties": {
        "id": "train_031_BND_036",
        "parcel_id": "train_031_P_009",
        "boundary_type": "VISIBLE",
        "confidence": 0.901,
        "length_m": 35.46,
        "evidence_sources": [
          "Drone_RGB_Edge",
          "DSM_Breakline"
        ]
      },
      "geometry": {
        "type": "LineString",
        "coordinates": [
          [
            77.6250656,
            12.9965167
          ],
          [
            77.6250929,
            12.9968359
          ]
        ]
      }
    },
    {
      "type": "Feature",
      "properties": {
        "id": "train_031_BND_037",
        "parcel_id": "train_031_P_010",
        "boundary_type": "VISIBLE",
        "confidence": 0.861,
        "length_m": 57.64,
        "evidence_sources": [
          "Drone_RGB_Edge",
          "DSM_Breakline"
        ]
      },
      "geometry": {
        "type": "LineString",
        "coordinates": [
          [
            77.6250625,
            12.9964389
          ],
          [
            77.6255928,
            12.9964651
          ]
        ]
      }
    },
    {
      "type": "Feature",
      "properties": {
        "id": "train_031_BND_038",
        "parcel_id": "train_031_P_010",
        "boundary_type": "VISIBLE",
        "confidence": 0.831,
        "length_m": 38.27,
        "evidence_sources": [
          "Drone_RGB_Edge",
          "DSM_Breakline"
        ]
      },
      "geometry": {
        "type": "LineString",
        "coordinates": [
          [
            77.6255928,
            12.9964651
          ],
          [
            77.6255912,
            12.9961194
          ]
        ]
      }
    },
    {
      "type": "Feature",
      "properties": {
        "id": "train_031_BND_039",
        "parcel_id": "train_031_P_010",
        "boundary_type": "INFERRED",
        "confidence": 0.777,
        "length_m": 52.42,
        "evidence_sources": [
          "Road_Corridor_Offset",
          "Adjacent_Parcel_Topology"
        ]
      },
      "geometry": {
        "type": "LineString",
        "coordinates": [
          [
            77.6255912,
            12.9961194
          ],
          [
            77.6251086,
            12.9961032
          ]
        ]
      }
    },
    {
      "type": "Feature",
      "properties": {
        "id": "train_031_BND_040",
        "parcel_id": "train_031_P_010",
        "boundary_type": "INFERRED",
        "confidence": 0.753,
        "length_m": 37.5,
        "evidence_sources": [
          "Road_Corridor_Offset",
          "Adjacent_Parcel_Topology"
        ]
      },
      "geometry": {
        "type": "LineString",
        "coordinates": [
          [
            77.6251086,
            12.9961032
          ],
          [
            77.6250625,
            12.9964389
          ]
        ]
      }
    },
    {
      "type": "Feature",
      "properties": {
        "id": "train_031_BND_041",
        "parcel_id": "train_031_P_011",
        "boundary_type": "VISIBLE",
        "confidence": 0.85,
        "length_m": 58.45,
        "evidence_sources": [
          "Drone_RGB_Edge",
          "DSM_Breakline"
        ]
      },
      "geometry": {
        "type": "LineString",
        "coordinates": [
          [
            77.625638,
            12.9968344
          ],
          [
            77.6261763,
            12.9968201
          ]
        ]
      }
    },
    {
      "type": "Feature",
      "properties": {
        "id": "train_031_BND_042",
        "parcel_id": "train_031_P_011",
        "boundary_type": "VISIBLE",
        "confidence": 0.93,
        "length_m": 34.72,
        "evidence_sources": [
          "Drone_RGB_Edge",
          "DSM_Breakline"
        ]
      },
      "geometry": {
        "type": "LineString",
        "coordinates": [
          [
            77.6261763,
            12.9968201
          ],
          [
            77.6261962,
            12.9965071
          ]
        ]
      }
    },
    {
      "type": "Feature",
      "properties": {
        "id": "train_031_BND_043",
        "parcel_id": "train_031_P_011",
        "boundary_type": "VISIBLE",
        "confidence": 0.947,
        "length_m": 56.47,
        "evidence_sources": [
          "Drone_RGB_Edge",
          "DSM_Breakline"
        ]
      },
      "geometry": {
        "type": "LineString",
        "coordinates": [
          [
            77.6261962,
            12.9965071
          ],
          [
            77.6256765,
            12.996484
          ]
        ]
      }
    },
    {
      "type": "Feature",
      "properties": {
        "id": "train_031_BND_044",
        "parcel_id": "train_031_P_011",
        "boundary_type": "INFERRED",
        "confidence": 0.624,
        "length_m": 39.01,
        "evidence_sources": [
          "Road_Corridor_Offset",
          "Adjacent_Parcel_Topology"
        ]
      },
      "geometry": {
        "type": "LineString",
        "coordinates": [
          [
            77.6256765,
            12.996484
          ],
          [
            77.625638,
            12.9968344
          ]
        ]
      }
    },
    {
      "type": "Feature",
      "properties": {
        "id": "train_031_BND_045",
        "parcel_id": "train_031_P_012",
        "boundary_type": "VISIBLE",
        "confidence": 0.945,
        "length_m": 57.25,
        "evidence_sources": [
          "Drone_RGB_Edge",
          "DSM_Breakline"
        ]
      },
      "geometry": {
        "type": "LineString",
        "coordinates": [
          [
            77.6256845,
            12.996419
          ],
          [
            77.6262098,
            12.9964651
          ]
        ]
      }
    },
    {
      "type": "Feature",
      "properties": {
        "id": "train_031_BND_046",
        "parcel_id": "train_031_P_012",
        "boundary_type": "VISIBLE",
        "confidence": 0.921,
        "length_m": 41.75,
        "evidence_sources": [
          "Drone_RGB_Edge",
          "DSM_Breakline"
        ]
      },
      "geometry": {
        "type": "LineString",
        "coordinates": [
          [
            77.6262098,
            12.9964651
          ],
          [
            77.6261907,
            12.9960884
          ]
        ]
      }
    },
    {
      "type": "Feature",
      "properties": {
        "id": "train_031_BND_047",
        "parcel_id": "train_031_P_012",
        "boundary_type": "VISIBLE",
        "confidence": 0.822,
        "length_m": 57.33,
        "evidence_sources": [
          "Drone_RGB_Edge",
          "DSM_Breakline"
        ]
      },
      "geometry": {
        "type": "LineString",
        "coordinates": [
          [
            77.6261907,
            12.9960884
          ],
          [
            77.6256632,
            12.9961133
          ]
        ]
      }
    },
    {
      "type": "Feature",
      "properties": {
        "id": "train_031_BND_048",
        "parcel_id": "train_031_P_012",
        "boundary_type": "INFERRED",
        "confidence": 0.739,
        "length_m": 33.92,
        "evidence_sources": [
          "Road_Corridor_Offset",
          "Adjacent_Parcel_Topology"
        ]
      },
      "geometry": {
        "type": "LineString",
        "coordinates": [
          [
            77.6256632,
            12.9961133
          ],
          [
            77.6256845,
            12.996419
          ]
        ]
      }
    },
    {
      "type": "Feature",
      "properties": {
        "id": "train_031_BND_049",
        "parcel_id": "train_031_P_013",
        "boundary_type": "VISIBLE",
        "confidence": 0.856,
        "length_m": 43.96,
        "evidence_sources": [
          "Drone_RGB_Edge",
          "DSM_Breakline"
        ]
      },
      "geometry": {
        "type": "LineString",
        "coordinates": [
          [
            77.6264167,
            12.9968517
          ],
          [
            77.6268217,
            12.996849
          ]
        ]
      }
    },
    {
      "type": "Feature",
      "properties": {
        "id": "train_031_BND_050",
        "parcel_id": "train_031_P_013",
        "boundary_type": "VISIBLE",
        "confidence": 0.844,
        "length_m": 41.35,
        "evidence_sources": [
          "Drone_RGB_Edge",
          "DSM_Breakline"
        ]
      },
      "geometry": {
        "type": "LineString",
        "coordinates": [
          [
            77.6268217,
            12.996849
          ],
          [
            77.6268424,
            12.996476
          ]
        ]
      }
    },
    {
      "type": "Feature",
      "properties": {
        "id": "train_031_BND_051",
        "parcel_id": "train_031_P_013",
        "boundary_type": "VISIBLE",
        "confidence": 0.82,
        "length_m": 41.33,
        "evidence_sources": [
          "Drone_RGB_Edge",
          "DSM_Breakline"
        ]
      },
      "geometry": {
        "type": "LineString",
        "coordinates": [
          [
            77.6268424,
            12.996476
          ],
          [
            77.6264617,
            12.996475
          ]
        ]
      }
    },
    {
      "type": "Feature",
      "properties": {
        "id": "train_031_BND_052",
        "parcel_id": "train_031_P_013",
        "boundary_type": "VISIBLE",
        "confidence": 0.904,
        "length_m": 41.98,
        "evidence_sources": [
          "Drone_RGB_Edge",
          "DSM_Breakline"
        ]
      },
      "geometry": {
        "type": "LineString",
        "coordinates": [
          [
            77.6264617,
            12.996475
          ],
          [
            77.6264167,
            12.9968517
          ]
        ]
      }
    },
    {
      "type": "Feature",
      "properties": {
        "id": "train_031_BND_053",
        "parcel_id": "train_031_P_014",
        "boundary_type": "VISIBLE",
        "confidence": 0.897,
        "length_m": 43.27,
        "evidence_sources": [
          "Drone_RGB_Edge",
          "DSM_Breakline"
        ]
      },
      "geometry": {
        "type": "LineString",
        "coordinates": [
          [
            77.6264214,
            12.9964416
          ],
          [
            77.6268189,
            12.9964128
          ]
        ]
      }
    },
    {
      "type": "Feature",
      "properties": {
        "id": "train_031_BND_054",
        "parcel_id": "train_031_P_014",
        "boundary_type": "VISIBLE",
        "confidence": 0.933,
        "length_m": 33.32,
        "evidence_sources": [
          "Drone_RGB_Edge",
          "DSM_Breakline"
        ]
      },
      "geometry": {
        "type": "LineString",
        "coordinates": [
          [
            77.6268189,
            12.9964128
          ],
          [
            77.6268419,
            12.9961126
          ]
        ]
      }
    },
    {
      "type": "Feature",
      "properties": {
        "id": "train_031_BND_055",
        "parcel_id": "train_031_P_014",
        "boundary_type": "INFERRED",
        "confidence": 0.647,
        "length_m": 46.86,
        "evidence_sources": [
          "Road_Corridor_Offset",
          "Adjacent_Parcel_Topology"
        ]
      },
      "geometry": {
        "type": "LineString",
        "coordinates": [
          [
            77.6268419,
            12.9961126
          ],
          [
            77.6264108,
            12.9961353
          ]
        ]
      }
    },
    {
      "type": "Feature",
      "properties": {
        "id": "train_031_BND_056",
        "parcel_id": "train_031_P_014",
        "boundary_type": "VISIBLE",
        "confidence": 0.927,
        "length_m": 33.93,
        "evidence_sources": [
          "Drone_RGB_Edge",
          "DSM_Breakline"
        ]
      },
      "geometry": {
        "type": "LineString",
        "coordinates": [
          [
            77.6264108,
            12.9961353
          ],
          [
            77.6264214,
            12.9964416
          ]
        ]
      }
    },
    {
      "type": "Feature",
      "properties": {
        "id": "train_031_BND_057",
        "parcel_id": "train_031_P_015",
        "boundary_type": "VISIBLE",
        "confidence": 0.822,
        "length_m": 44.96,
        "evidence_sources": [
          "Drone_RGB_Edge",
          "DSM_Breakline"
        ]
      },
      "geometry": {
        "type": "LineString",
        "coordinates": [
          [
            77.6268686,
            12.9968112
          ],
          [
            77.6272825,
            12.9967974
          ]
        ]
      }
    },
    {
      "type": "Feature",
      "properties": {
        "id": "train_031_BND_058",
        "parcel_id": "train_031_P_015",
        "boundary_type": "VISIBLE",
        "confidence": 0.942,
        "length_m": 33.25,
        "evidence_sources": [
          "Drone_RGB_Edge",
          "DSM_Breakline"
        ]
      },
      "geometry": {
        "type": "LineString",
        "coordinates": [
          [
            77.6272825,
            12.9967974
          ],
          [
            77.6272866,
            12.9964971
          ]
        ]
      }
    },
    {
      "type": "Feature",
      "properties": {
        "id": "train_031_BND_059",
        "parcel_id": "train_031_P_015",
        "boundary_type": "INFERRED",
        "confidence": 0.676,
        "length_m": 45.2,
        "evidence_sources": [
          "Road_Corridor_Offset",
          "Adjacent_Parcel_Topology"
        ]
      },
      "geometry": {
        "type": "LineString",
        "coordinates": [
          [
            77.6272866,
            12.9964971
          ],
          [
            77.6268702,
            12.9964988
          ]
        ]
      }
    },
    {
      "type": "Feature",
      "properties": {
        "id": "train_031_BND_060",
        "parcel_id": "train_031_P_015",
        "boundary_type": "INFERRED",
        "confidence": 0.646,
        "length_m": 34.58,
        "evidence_sources": [
          "Road_Corridor_Offset",
          "Adjacent_Parcel_Topology"
        ]
      },
      "geometry": {
        "type": "LineString",
        "coordinates": [
          [
            77.6268702,
            12.9964988
          ],
          [
            77.6268686,
            12.9968112
          ]
        ]
      }
    },
    {
      "type": "Feature",
      "properties": {
        "id": "train_031_BND_061",
        "parcel_id": "train_031_P_016",
        "boundary_type": "VISIBLE",
        "confidence": 0.827,
        "length_m": 43.52,
        "evidence_sources": [
          "Drone_RGB_Edge",
          "DSM_Breakline"
        ]
      },
      "geometry": {
        "type": "LineString",
        "coordinates": [
          [
            77.6269141,
            12.9964438
          ],
          [
            77.627315,
            12.9964465
          ]
        ]
      }
    },
    {
      "type": "Feature",
      "properties": {
        "id": "train_031_BND_062",
        "parcel_id": "train_031_P_016",
        "boundary_type": "VISIBLE",
        "confidence": 0.925,
        "length_m": 40.4,
        "evidence_sources": [
          "Drone_RGB_Edge",
          "DSM_Breakline"
        ]
      },
      "geometry": {
        "type": "LineString",
        "coordinates": [
          [
            77.627315,
            12.9964465
          ],
          [
            77.6272632,
            12.9960851
          ]
        ]
      }
    },
    {
      "type": "Feature",
      "properties": {
        "id": "train_031_BND_063",
        "parcel_id": "train_031_P_016",
        "boundary_type": "VISIBLE",
        "confidence": 0.861,
        "length_m": 42.65,
        "evidence_sources": [
          "Drone_RGB_Edge",
          "DSM_Breakline"
        ]
      },
      "geometry": {
        "type": "LineString",
        "coordinates": [
          [
            77.6272632,
            12.9960851
          ],
          [
            77.6268703,
            12.9960795
          ]
        ]
      }
    },
    {
      "type": "Feature",
      "properties": {
        "id": "train_031_BND_064",
        "parcel_id": "train_031_P_016",
        "boundary_type": "VISIBLE",
        "confidence": 0.919,
        "length_m": 40.61,
        "evidence_sources": [
          "Drone_RGB_Edge",
          "DSM_Breakline"
        ]
      },
      "geometry": {
        "type": "LineString",
        "coordinates": [
          [
            77.6268703,
            12.9960795
          ],
          [
            77.6269141,
            12.9964438
          ]
        ]
      }
    }
  ]
}