{
  "type": "FeatureCollection",
  "crs": {
    "type": "name",
    "properties": {
      "name": "EPSG:4326"
    }
  },
  "features": [
    {
      "type": "Feature",
      "properties": {
        "id": "train_056_BND_001",
        "parcel_id": "train_056_P_001",
        "boundary_type": "VISIBLE",
        "confidence": 0.894,
        "length_m": 63.67,
        "evidence_sources": [
          "Drone_RGB_Edge",
          "DSM_Breakline"
        ]
      },
      "geometry": {
        "type": "LineString",
        "coordinates": [
          [
            77.6100865,
            13.0043054
          ],
          [
            77.6106729,
            13.004292
          ]
        ]
      }
    },
    {
      "type": "Feature",
      "properties": {
        "id": "train_056_BND_002",
        "parcel_id": "train_056_P_001",
        "boundary_type": "INFERRED",
        "confidence": 0.655,
        "length_m": 56.36,
        "evidence_sources": [
          "Road_Corridor_Offset",
          "Adjacent_Parcel_Topology"
        ]
      },
      "geometry": {
        "type": "LineString",
        "coordinates": [
          [
            77.6106729,
            13.004292
          ],
          [
            77.6107033,
            13.0037837
          ]
        ]
      }
    },
    {
      "type": "Feature",
      "properties": {
        "id": "train_056_BND_003",
        "parcel_id": "train_056_P_001",
        "boundary_type": "VISIBLE",
        "confidence": 0.832,
        "length_m": 66.08,
        "evidence_sources": [
          "Drone_RGB_Edge",
          "DSM_Breakline"
        ]
      },
      "geometry": {
        "type": "LineString",
        "coordinates": [
          [
            77.6107033,
            13.0037837
          ],
          [
            77.6100947,
            13.0037958
          ]
        ]
      }
    },
    {
      "type": "Feature",
      "properties": {
        "id": "train_056_BND_004",
        "parcel_id": "train_056_P_001",
        "boundary_type": "VISIBLE",
        "confidence": 0.902,
        "length_m": 56.42,
        "evidence_sources": [
          "Drone_RGB_Edge",
          "DSM_Breakline"
        ]
      },
      "geometry": {
        "type": "LineString",
        "coordinates": [
          [
            77.6100947,
            13.0037958
          ],
          [
            77.6100865,
            13.0043054
          ]
        ]
      }
    },
    {
      "type": "Feature",
      "properties": {
        "id": "train_056_BND_005",
        "parcel_id": "train_056_P_002",
        "boundary_type": "INFERRED",
        "confidence": 0.781,
        "length_m": 61.53,
        "evidence_sources": [
          "Road_Corridor_Offset",
          "Adjacent_Parcel_Topology"
        ]
      },
      "geometry": {
        "type": "LineString",
        "coordinates": [
          [
            77.6101033,
            13.0037016
          ],
          [
            77.61067,
            13.0037134
          ]
        ]
      }
    },
    {
      "type": "Feature",
      "properties": {
        "id": "train_056_BND_006",
        "parcel_id": "train_056_P_002",
        "boundary_type": "INFERRED",
        "confidence": 0.716,
        "length_m": 58.8,
        "evidence_sources": [
          "Road_Corridor_Offset",
          "Adjacent_Parcel_Topology"
        ]
      },
      "geometry": {
        "type": "LineString",
        "coordinates": [
          [
            77.61067,
            13.0037134
          ],
          [
            77.6106956,
            13.0031828
          ]
        ]
      }
    },
    {
      "type": "Feature",
      "properties": {
        "id": "train_056_BND_007",
        "parcel_id": "train_056_P_002",
        "boundary_type": "VISIBLE",
        "confidence": 0.84,
        "length_m": 68.96,
        "evidence_sources": [
          "Drone_RGB_Edge",
          "DSM_Breakline"
        ]
      },
      "geometry": {
        "type": "LineString",
        "coordinates": [
          [
            77.6106956,
            13.0031828
          ],
          [
            77.6100603,
            13.0031895
          ]
        ]
      }
    },
    {
      "type": "Feature",
      "properties": {
        "id": "train_056_BND_008",
        "parcel_id": "train_056_P_002",
        "boundary_type": "VISIBLE",
        "confidence": 0.856,
        "length_m": 56.88,
        "evidence_sources": [
          "Drone_RGB_Edge",
          "DSM_Breakline"
        ]
      },
      "geometry": {
        "type": "LineString",
        "coordinates": [
          [
            77.6100603,
            13.0031895
          ],
          [
            77.6101033,
            13.0037016
          ]
        ]
      }
    },
    {
      "type": "Feature",
      "properties": {
        "id": "train_056_BND_009",
        "parcel_id": "train_056_P_003",
        "boundary_type": "VISIBLE",
        "confidence": 0.835,
        "length_m": 68.96,
        "evidence_sources": [
          "Drone_RGB_Edge",
          "DSM_Breakline"
        ]
      },
      "geometry": {
        "type": "LineString",
        "coordinates": [
          [
            77.6107455,
            13.0043371
          ],
          [
            77.6113797,
            13.0043011
          ]
        ]
      }
    },
    {
      "type": "Feature",
      "properties": {
        "id": "train_056_BND_010",
        "parcel_id": "train_056_P_003",
        "boundary_type": "INFERRED",
        "confidence": 0.626,
        "length_m": 54.45,
        "evidence_sources": [
          "Road_Corridor_Offset",
          "Adjacent_Parcel_Topology"
        ]
      },
      "geometry": {
        "type": "LineString",
        "coordinates": [
          [
            77.6113797,
            13.0043011
          ],
          [
            77.6113599,
            13.0038096
          ]
        ]
      }
    },
    {
      "type": "Feature",
      "properties": {
        "id": "train_056_BND_011",
        "parcel_id": "train_056_P_003",
        "boundary_type": "VISIBLE",
        "confidence": 0.837,
        "length_m": 69.35,
        "evidence_sources": [
          "Drone_RGB_Edge",
          "DSM_Breakline"
        ]
      },
      "geometry": {
        "type": "LineString",
        "coordinates": [
          [
            77.6113599,
            13.0038096
          ],
          [
            77.610722,
            13.0037742
          ]
        ]
      }
    },
    {
      "type": "Feature",
      "properties": {
        "id": "train_056_BND_012",
        "parcel_id": "train_056_P_003",
        "boundary_type": "VISIBLE",
        "confidence": 0.871,
        "length_m": 62.36,
        "evidence_sources": [
          "Drone_RGB_Edge",
          "DSM_Breakline"
        ]
      },
      "geometry": {
        "type": "LineString",
        "coordinates": [
          [
            77.610722,
            13.0037742
          ],
          [
            77.6107455,
            13.0043371
          ]
        ]
      }
    },
    {
      "type": "Feature",
      "properties": {
        "id": "train_056_BND_013",
        "parcel_id": "train_056_P_004",
        "boundary_type": "VISIBLE",
        "confidence": 0.865,
        "length_m": 68.57,
        "evidence_sources": [
          "Drone_RGB_Edge",
          "DSM_Breakline"
        ]
      },
      "geometry": {
        "type": "LineString",
        "coordinates": [
          [
            77.6107273,
            13.0037115
          ],
          [
            77.6113569,
            13.0037623
          ]
        ]
      }
    },
    {
      "type": "Feature",
      "properties": {
        "id": "train_056_BND_014",
        "parcel_id": "train_056_P_004",
        "boundary_type": "VISIBLE",
        "confidence": 0.849,
        "length_m": 61.01,
        "evidence_sources": [
          "Drone_RGB_Edge",
          "DSM_Breakline"
        ]
      },
      "geometry": {
        "type": "LineString",
        "coordinates": [
          [
            77.6113569,
            13.0037623
          ],
          [
            77.6113306,
            13.0032118
          ]
        ]
      }
    },
    {
      "type": "Feature",
      "properties": {
        "id": "train_056_BND_015",
        "parcel_id": "train_056_P_004",
        "boundary_type": "VISIBLE",
        "confidence": 0.889,
        "length_m": 61.94,
        "evidence_sources": [
          "Drone_RGB_Edge",
          "DSM_Breakline"
        ]
      },
      "geometry": {
        "type": "LineString",
        "coordinates": [
          [
            77.6113306,
            13.0032118
          ],
          [
            77.6107605,
            13.0031879
          ]
        ]
      }
    },
    {
      "type": "Feature",
      "properties": {
        "id": "train_056_BND_016",
        "parcel_id": "train_056_P_004",
        "boundary_type": "VISIBLE",
        "confidence": 0.832,
        "length_m": 58.07,
        "evidence_sources": [
          "Drone_RGB_Edge",
          "DSM_Breakline"
        ]
      },
      "geometry": {
        "type": "LineString",
        "coordinates": [
          [
            77.6107605,
            13.0031879
          ],
          [
            77.6107273,
            13.0037115
          ]
        ]
      }
    },
    {
      "type": "Feature",
      "properties": {
        "id": "train_056_BND_017",
        "parcel_id": "train_056_P_005",
        "boundary_type": "VISIBLE",
        "confidence": 0.956,
        "length_m": 35.25,
        "evidence_sources": [
          "Drone_RGB_Edge",
          "DSM_Breakline"
        ]
      },
      "geometry": {
        "type": "LineString",
        "coordinates": [
          [
            77.6115484,
            13.0043191
          ],
          [
            77.6118731,
            13.0043213
          ]
        ]
      }
    },
    {
      "type": "Feature",
      "properties": {
        "id": "train_056_BND_018",
        "parcel_id": "train_056_P_005",
        "boundary_type": "VISIBLE",
        "confidence": 0.941,
        "length_m": 55.85,
        "evidence_sources": [
          "Drone_RGB_Edge",
          "DSM_Breakline"
        ]
      },
      "geometry": {
        "type": "LineString",
        "coordinates": [
          [
            77.6118731,
            13.0043213
          ],
          [
            77.6119285,
            13.0038197
          ]
        ]
      }
    },
    {
      "type": "Feature",
      "properties": {
        "id": "train_056_BND_019",
        "parcel_id": "train_056_P_005",
        "boundary_type": "VISIBLE",
        "confidence": 0.84,
        "length_m": 36.16,
        "evidence_sources": [
          "Drone_RGB_Edge",
          "DSM_Breakline"
        ]
      },
      "geometry": {
        "type": "LineString",
        "coordinates": [
          [
            77.6119285,
            13.0038197
          ],
          [
            77.6115979,
            13.0037795
          ]
        ]
      }
    },
    {
      "type": "Feature",
      "properties": {
        "id": "train_056_BND_020",
        "parcel_id": "train_056_P_005",
        "boundary_type": "VISIBLE",
        "confidence": 0.953,
        "length_m": 59.97,
        "evidence_sources": [
          "Drone_RGB_Edge",
          "DSM_Breakline"
        ]
      },
      "geometry": {
        "type": "LineString",
        "coordinates": [
          [
            77.6115979,
            13.0037795
          ],
          [
            77.6115484,
            13.0043191
          ]
        ]
      }
    },
    {
      "type": "Feature",
      "properties": {
        "id": "train_056_BND_021",
        "parcel_id": "train_056_P_006",
        "boundary_type": "VISIBLE",
        "confidence": 0.948,
        "length_m": 37.27,
        "evidence_sources": [
          "Drone_RGB_Edge",
          "DSM_Breakline"
        ]
      },
      "geometry": {
        "type": "LineString",
        "coordinates": [
          [
            77.6115812,
            13.0037071
          ],
          [
            77.6119241,
            13.0037248
          ]
        ]
      }
    },
    {
      "type": "Feature",
      "properties": {
        "id": "train_056_BND_022",
        "parcel_id": "train_056_P_006",
        "boundary_type": "INFERRED",
        "confidence": 0.622,
        "length_m": 58.3,
        "evidence_sources": [
          "Road_Corridor_Offset",
          "Adjacent_Parcel_Topology"
        ]
      },
      "geometry": {
        "type": "LineString",
        "coordinates": [
          [
            77.6119241,
            13.0037248
          ],
          [
            77.6118859,
            13.0031995
          ]
        ]
      }
    },
    {
      "type": "Feature",
      "properties": {
        "id": "train_056_BND_023",
        "parcel_id": "train_056_P_006",
        "boundary_type": "VISIBLE",
        "confidence": 0.925,
        "length_m": 36.61,
        "evidence_sources": [
          "Drone_RGB_Edge",
          "DSM_Breakline"
        ]
      },
      "geometry": {
        "type": "LineString",
        "coordinates": [
          [
            77.6118859,
            13.0031995
          ],
          [
            77.6115489,
            13.0032118
          ]
        ]
      }
    },
    {
      "type": "Feature",
      "properties": {
        "id": "train_056_BND_024",
        "parcel_id": "train_056_P_006",
        "boundary_type": "INFERRED",
        "confidence": 0.735,
        "length_m": 54.94,
        "evidence_sources": [
          "Road_Corridor_Offset",
          "Adjacent_Parcel_Topology"
        ]
      },
      "geometry": {
        "type": "LineString",
        "coordinates": [
          [
            77.6115489,
            13.0032118
          ],
          [
            77.6115812,
            13.0037071
          ]
        ]
      }
    },
    {
      "type": "Feature",
      "properties": {
        "id": "train_056_BND_025",
        "parcel_id": "train_056_P_007",
        "boundary_type": "INFERRED",
        "confidence": 0.737,
        "length_m": 36.93,
        "evidence_sources": [
          "Road_Corridor_Offset",
          "Adjacent_Parcel_Topology"
        ]
      },
      "geometry": {
        "type": "LineString",
        "coordinates": [
          [
            77.6119395,
            13.0043191
          ],
          [
            77.6122797,
            13.0043215
          ]
        ]
      }
    },
    {
      "type": "Feature",
      "properties": {
        "id": "train_056_BND_026",
        "parcel_id": "train_056_P_007",
        "boundary_type": "VISIBLE",
        "confidence": 0.821,
        "length_m": 55.02,
        "evidence_sources": [
          "Drone_RGB_Edge",
          "DSM_Breakline"
        ]
      },
      "geometry": {
        "type": "LineString",
        "coordinates": [
          [
            77.6122797,
            13.0043215
          ],
          [
            77.6122788,
            13.0038245
          ]
        ]
      }
    },
    {
      "type": "Feature",
      "properties": {
        "id": "train_056_BND_027",
        "parcel_id": "train_056_P_007",
        "boundary_type": "INFERRED",
        "confidence": 0.634,
        "length_m": 32.8,
        "evidence_sources": [
          "Road_Corridor_Offset",
          "Adjacent_Parcel_Topology"
        ]
      },
      "geometry": {
        "type": "LineString",
        "coordinates": [
          [
            77.6122788,
            13.0038245
          ],
          [
            77.6119782,
            13.0037945
          ]
        ]
      }
    },
    {
      "type": "Feature",
      "properties": {
        "id": "train_056_BND_028",
        "parcel_id": "train_056_P_007",
        "boundary_type": "VISIBLE",
        "confidence": 0.86,
        "length_m": 58.22,
        "evidence_sources": [
          "Drone_RGB_Edge",
          "DSM_Breakline"
        ]
      },
      "geometry": {
        "type": "LineString",
        "coordinates": [
          [
            77.6119782,
            13.0037945
          ],
          [
            77.6119395,
            13.0043191
          ]
        ]
      }
    },
    {
      "type": "Feature",
      "properties": {
        "id": "train_056_BND_029",
        "parcel_id": "train_056_P_008",
        "boundary_type": "VISIBLE",
        "confidence": 0.884,
        "length_m": 36.02,
        "evidence_sources": [
          "Drone_RGB_Edge",
          "DSM_Breakline"
        ]
      },
      "geometry": {
        "type": "LineString",
        "coordinates": [
          [
            77.6119729,
            13.0037171
          ],
          [
            77.6123021,
            13.003758
          ]
        ]
      }
    },
    {
      "type": "Feature",
      "properties": {
        "id": "train_056_BND_030",
        "parcel_id": "train_056_P_008",
        "boundary_type": "VISIBLE",
        "confidence": 0.91,
        "length_m": 61.6,
        "evidence_sources": [
          "Drone_RGB_Edge",
          "DSM_Breakline"
        ]
      },
      "geometry": {
        "type": "LineString",
        "coordinates": [
          [
            77.6123021,
            13.003758
          ],
          [
            77.6122655,
            13.0032027
          ]
        ]
      }
    },
    {
      "type": "Feature",
      "properties": {
        "id": "train_056_BND_031",
        "parcel_id": "train_056_P_008",
        "boundary_type": "VISIBLE",
        "confidence": 0.918,
        "length_m": 34.2,
        "evidence_sources": [
          "Drone_RGB_Edge",
          "DSM_Breakline"
        ]
      },
      "geometry": {
        "type": "LineString",
        "coordinates": [
          [
            77.6122655,
            13.0032027
          ],
          [
            77.611952,
            13.0032333
          ]
        ]
      }
    },
    {
      "type": "Feature",
      "properties": {
        "id": "train_056_BND_032",
        "parcel_id": "train_056_P_008",
        "boundary_type": "VISIBLE",
        "confidence": 0.916,
        "length_m": 53.6,
        "evidence_sources": [
          "Drone_RGB_Edge",
          "DSM_Breakline"
        ]
      },
      "geometry": {
        "type": "LineString",
        "coordinates": [
          [
            77.611952,
            13.0032333
          ],
          [
            77.6119729,
            13.0037171
          ]
        ]
      }
    },
    {
      "type": "Feature",
      "properties": {
        "id": "train_056_BND_033",
        "parcel_id": "train_056_P_009",
        "boundary_type": "VISIBLE",
        "confidence": 0.872,
        "length_m": 65.73,
        "evidence_sources": [
          "Drone_RGB_Edge",
          "DSM_Breakline"
        ]
      },
      "geometry": {
        "type": "LineString",
        "coordinates": [
          [
            77.6100845,
            13.0030107
          ],
          [
            77.6106898,
            13.0030284
          ]
        ]
      }
    },
    {
      "type": "Feature",
      "properties": {
        "id": "train_056_BND_034",
        "parcel_id": "train_056_P_009",
        "boundary_type": "INFERRED",
        "confidence": 0.717,
        "length_m": 47.14,
        "evidence_sources": [
          "Road_Corridor_Offset",
          "Adjacent_Parcel_Topology"
        ]
      },
      "geometry": {
        "type": "LineString",
        "coordinates": [
          [
            77.6106898,
            13.0030284
          ],
          [
            77.610696,
            13.0026026
          ]
        ]
      }
    },
    {
      "type": "Feature",
      "properties": {
        "id": "train_056_BND_035",
        "parcel_id": "train_056_P_009",
        "boundary_type": "INFERRED",
        "confidence": 0.618,
        "length_m": 65.9,
        "evidence_sources": [
          "Road_Corridor_Offset",
          "Adjacent_Parcel_Topology"
        ]
      },
      "geometry": {
        "type": "LineString",
        "coordinates": [
          [
            77.610696,
            13.0026026
          ],
          [
            77.6100899,
            13.0025682
          ]
        ]
      }
    },
    {
      "type": "Feature",
      "properties": {
        "id": "train_056_BND_036",
        "parcel_id": "train_056_P_009",
        "boundary_type": "INFERRED",
        "confidence": 0.758,
        "length_m": 48.99,
        "evidence_sources": [
          "Road_Corridor_Offset",
          "Adjacent_Parcel_Topology"
        ]
      },
      "geometry": {
        "type": "LineString",
        "coordinates": [
          [
            77.6100899,
            13.0025682
          ],
          [
            77.6100845,
            13.0030107
          ]
        ]
      }
    },
    {
      "type": "Feature",
      "properties": {
        "id": "train_056_BND_037",
        "parcel_id": "train_056_P_010",
        "boundary_type": "INFERRED",
        "confidence": 0.786,
        "length_m": 67.12,
        "evidence_sources": [
          "Road_Corridor_Offset",
          "Adjacent_Parcel_Topology"
        ]
      },
      "geometry": {
        "type": "LineString",
        "coordinates": [
          [
            77.6100816,
            13.0024878
          ],
          [
            77.6106972,
            13.0025453
          ]
        ]
      }
    },
    {
      "type": "Feature",
      "properties": {
        "id": "train_056_BND_038",
        "parcel_id": "train_056_P_010",
        "boundary_type": "INFERRED",
        "confidence": 0.686,
        "length_m": 47.4,
        "evidence_sources": [
          "Road_Corridor_Offset",
          "Adjacent_Parcel_Topology"
        ]
      },
      "geometry": {
        "type": "LineString",
        "coordinates": [
          [
            77.6106972,
            13.0025453
          ],
          [
            77.6106763,
            13.0021176
          ]
        ]
      }
    },
    {
      "type": "Feature",
      "properties": {
        "id": "train_056_BND_039",
        "parcel_id": "train_056_P_010",
        "boundary_type": "VISIBLE",
        "confidence": 0.824,
        "length_m": 66.89,
        "evidence_sources": [
          "Drone_RGB_Edge",
          "DSM_Breakline"
        ]
      },
      "geometry": {
        "type": "LineString",
        "coordinates": [
          [
            77.6106763,
            13.0021176
          ],
          [
            77.6100604,
            13.0020975
          ]
        ]
      }
    },
    {
      "type": "Feature",
      "properties": {
        "id": "train_056_BND_040",
        "parcel_id": "train_056_P_010",
        "boundary_type": "INFERRED",
        "confidence": 0.704,
        "length_m": 43.27,
        "evidence_sources": [
          "Road_Corridor_Offset",
          "Adjacent_Parcel_Topology"
        ]
      },
      "geometry": {
        "type": "LineString",
        "coordinates": [
          [
            77.6100604,
            13.0020975
          ],
          [
            77.6100816,
            13.0024878
          ]
        ]
      }
    },
    {
      "type": "Feature",
      "properties": {
        "id": "train_056_BND_041",
        "parcel_id": "train_056_P_011",
        "boundary_type": "INFERRED",
        "confidence": 0.708,
        "length_m": 62.51,
        "evidence_sources": [
          "Road_Corridor_Offset",
          "Adjacent_Parcel_Topology"
        ]
      },
      "geometry": {
        "type": "LineString",
        "coordinates": [
          [
            77.6107485,
            13.0030011
          ],
          [
            77.6113237,
            13.0029729
          ]
        ]
      }
    },
    {
      "type": "Feature",
      "properties": {
        "id": "train_056_BND_042",
        "parcel_id": "train_056_P_011",
        "boundary_type": "VISIBLE",
        "confidence": 0.826,
        "length_m": 40.08,
        "evidence_sources": [
          "Drone_RGB_Edge",
          "DSM_Breakline"
        ]
      },
      "geometry": {
        "type": "LineString",
        "coordinates": [
          [
            77.6113237,
            13.0029729
          ],
          [
            77.6113874,
            13.0026163
          ]
        ]
      }
    },
    {
      "type": "Feature",
      "properties": {
        "id": "train_056_BND_043",
        "parcel_id": "train_056_P_011",
        "boundary_type": "VISIBLE",
        "confidence": 0.845,
        "length_m": 67.06,
        "evidence_sources": [
          "Drone_RGB_Edge",
          "DSM_Breakline"
        ]
      },
      "geometry": {
        "type": "LineString",
        "coordinates": [
          [
            77.6113874,
            13.0026163
          ],
          [
            77.6107711,
            13.002574
          ]
        ]
      }
    },
    {
      "type": "Feature",
      "properties": {
        "id": "train_056_BND_044",
        "parcel_id": "train_056_P_011",
        "boundary_type": "INFERRED",
        "confidence": 0.72,
        "length_m": 47.34,
        "evidence_sources": [
          "Road_Corridor_Offset",
          "Adjacent_Parcel_Topology"
        ]
      },
      "geometry": {
        "type": "LineString",
        "coordinates": [
          [
            77.6107711,
            13.002574
          ],
          [
            77.6107485,
            13.0030011
          ]
        ]
      }
    },
    {
      "type": "Feature",
      "properties": {
        "id": "train_056_BND_045",
        "parcel_id": "train_056_P_012",
        "boundary_type": "VISIBLE",
        "confidence": 0.877,
        "length_m": 61.98,
        "evidence_sources": [
          "Drone_RGB_Edge",
          "DSM_Breakline"
        ]
      },
      "geometry": {
        "type": "LineString",
        "coordinates": [
          [
            77.6107658,
            13.0024982
          ],
          [
            77.6113346,
            13.0025475
          ]
        ]
      }
    },
    {
      "type": "Feature",
      "properties": {
        "id": "train_056_BND_046",
        "parcel_id": "train_056_P_012",
        "boundary_type": "VISIBLE",
        "confidence": 0.88,
        "length_m": 51.07,
        "evidence_sources": [
          "Drone_RGB_Edge",
          "DSM_Breakline"
        ]
      },
      "geometry": {
        "type": "LineString",
        "coordinates": [
          [
            77.6113346,
            13.0025475
          ],
          [
            77.6113675,
            13.0020873
          ]
        ]
      }
    },
    {
      "type": "Feature",
      "properties": {
        "id": "train_056_BND_047",
        "parcel_id": "train_056_P_012",
        "boundary_type": "VISIBLE",
        "confidence": 0.844,
        "length_m": 64.4,
        "evidence_sources": [
          "Drone_RGB_Edge",
          "DSM_Breakline"
        ]
      },
      "geometry": {
        "type": "LineString",
        "coordinates": [
          [
            77.6113675,
            13.0020873
          ],
          [
            77.6107747,
            13.0021101
          ]
        ]
      }
    },
    {
      "type": "Feature",
      "properties": {
        "id": "train_056_BND_048",
        "parcel_id": "train_056_P_012",
        "boundary_type": "INFERRED",
        "confidence": 0.624,
        "length_m": 42.97,
        "evidence_sources": [
          "Road_Corridor_Offset",
          "Adjacent_Parcel_Topology"
        ]
      },
      "geometry": {
        "type": "LineString",
        "coordinates": [
          [
            77.6107747,
            13.0021101
          ],
          [
            77.6107658,
            13.0024982
          ]
        ]
      }
    },
    {
      "type": "Feature",
      "properties": {
        "id": "train_056_BND_049",
        "parcel_id": "train_056_P_013",
        "boundary_type": "INFERRED",
        "confidence": 0.704,
        "length_m": 35.29,
        "evidence_sources": [
          "Road_Corridor_Offset",
          "Adjacent_Parcel_Topology"
        ]
      },
      "geometry": {
        "type": "LineString",
        "coordinates": [
          [
            77.6115832,
            13.0030088
          ],
          [
            77.6119079,
            13.0030245
          ]
        ]
      }
    },
    {
      "type": "Feature",
      "properties": {
        "id": "train_056_BND_050",
        "parcel_id": "train_056_P_013",
        "boundary_type": "VISIBLE",
        "confidence": 0.894,
        "length_m": 50.7,
        "evidence_sources": [
          "Drone_RGB_Edge",
          "DSM_Breakline"
        ]
      },
      "geometry": {
        "type": "LineString",
        "coordinates": [
          [
            77.6119079,
            13.0030245
          ],
          [
            77.6119133,
            13.0025665
          ]
        ]
      }
    },
    {
      "type": "Feature",
      "properties": {
        "id": "train_056_BND_051",
        "parcel_id": "train_056_P_013",
        "boundary_type": "VISIBLE",
        "confidence": 0.836,
        "length_m": 39.66,
        "evidence_sources": [
          "Drone_RGB_Edge",
          "DSM_Breakline"
        ]
      },
      "geometry": {
        "type": "LineString",
        "coordinates": [
          [
            77.6119133,
            13.0025665
          ],
          [
            77.6115511,
            13.0026139
          ]
        ]
      }
    },
    {
      "type": "Feature",
      "properties": {
        "id": "train_056_BND_052",
        "parcel_id": "train_056_P_013",
        "boundary_type": "VISIBLE",
        "confidence": 0.884,
        "length_m": 43.85,
        "evidence_sources": [
          "Drone_RGB_Edge",
          "DSM_Breakline"
        ]
      },
      "geometry": {
        "type": "LineString",
        "coordinates": [
          [
            77.6115511,
            13.0026139
          ],
          [
            77.6115832,
            13.0030088
          ]
        ]
      }
    },
    {
      "type": "Feature",
      "properties": {
        "id": "train_056_BND_053",
        "parcel_id": "train_056_P_014",
        "boundary_type": "VISIBLE",
        "confidence": 0.954,
        "length_m": 33.37,
        "evidence_sources": [
          "Drone_RGB_Edge",
          "DSM_Breakline"
        ]
      },
      "geometry": {
        "type": "LineString",
        "coordinates": [
          [
            77.6115722,
            13.0025276
          ],
          [
            77.6118796,
            13.002529
          ]
        ]
      }
    },
    {
      "type": "Feature",
      "properties": {
        "id": "train_056_BND_054",
        "parcel_id": "train_056_P_014",
        "boundary_type": "VISIBLE",
        "confidence": 0.868,
        "length_m": 46.79,
        "evidence_sources": [
          "Drone_RGB_Edge",
          "DSM_Breakline"
        ]
      },
      "geometry": {
        "type": "LineString",
        "coordinates": [
          [
            77.6118796,
            13.002529
          ],
          [
            77.6118804,
            13.0021063
          ]
        ]
      }
    },
    {
      "type": "Feature",
      "properties": {
        "id": "train_056_BND_055",
        "parcel_id": "train_056_P_014",
        "boundary_type": "VISIBLE",
        "confidence": 0.888,
        "length_m": 30.29,
        "evidence_sources": [
          "Drone_RGB_Edge",
          "DSM_Breakline"
        ]
      },
      "geometry": {
        "type": "LineString",
        "coordinates": [
          [
            77.6118804,
            13.0021063
          ],
          [
            77.6116014,
            13.0021082
          ]
        ]
      }
    },
    {
      "type": "Feature",
      "properties": {
        "id": "train_056_BND_056",
        "parcel_id": "train_056_P_014",
        "boundary_type": "VISIBLE",
        "confidence": 0.823,
        "length_m": 46.53,
        "evidence_sources": [
          "Drone_RGB_Edge",
          "DSM_Breakline"
        ]
      },
      "geometry": {
        "type": "LineString",
        "coordinates": [
          [
            77.6116014,
            13.0021082
          ],
          [
            77.6115722,
            13.0025276
          ]
        ]
      }
    },
    {
      "type": "Feature",
      "properties": {
        "id": "train_056_BND_057",
        "parcel_id": "train_056_P_015",
        "boundary_type": "VISIBLE",
        "confidence": 0.857,
        "length_m": 33.34,
        "evidence_sources": [
          "Drone_RGB_Edge",
          "DSM_Breakline"
        ]
      },
      "geometry": {
        "type": "LineString",
        "coordinates": [
          [
            77.6119727,
            13.0029757
          ],
          [
            77.612278,
            13.0030089
          ]
        ]
      }
    },
    {
      "type": "Feature",
      "properties": {
        "id": "train_056_BND_058",
        "parcel_id": "train_056_P_015",
        "boundary_type": "INFERRED",
        "confidence": 0.757,
        "length_m": 46.66,
        "evidence_sources": [
          "Road_Corridor_Offset",
          "Adjacent_Parcel_Topology"
        ]
      },
      "geometry": {
        "type": "LineString",
        "coordinates": [
          [
            77.612278,
            13.0030089
          ],
          [
            77.6122788,
            13.0025874
          ]
        ]
      }
    },
    {
      "type": "Feature",
      "properties": {
        "id": "train_056_BND_059",
        "parcel_id": "train_056_P_015",
        "boundary_type": "VISIBLE",
        "confidence": 0.87,
        "length_m": 37.67,
        "evidence_sources": [
          "Drone_RGB_Edge",
          "DSM_Breakline"
        ]
      },
      "geometry": {
        "type": "LineString",
        "coordinates": [
          [
            77.6122788,
            13.0025874
          ],
          [
            77.6119322,
            13.002605
          ]
        ]
      }
    },
    {
      "type": "Feature",
      "properties": {
        "id": "train_056_BND_060",
        "parcel_id": "train_056_P_015",
        "boundary_type": "INFERRED",
        "confidence": 0.616,
        "length_m": 41.27,
        "evidence_sources": [
          "Road_Corridor_Offset",
          "Adjacent_Parcel_Topology"
        ]
      },
      "geometry": {
        "type": "LineString",
        "coordinates": [
          [
            77.6119322,
            13.002605
          ],
          [
            77.6119727,
            13.0029757
          ]
        ]
      }
    },
    {
      "type": "Feature",
      "properties": {
        "id": "train_056_BND_061",
        "parcel_id": "train_056_P_016",
        "boundary_type": "VISIBLE",
        "confidence": 0.929,
        "length_m": 36.54,
        "evidence_sources": [
          "Drone_RGB_Edge",
          "DSM_Breakline"
        ]
      },
      "geometry": {
        "type": "LineString",
        "coordinates": [
          [
            77.61194,
            13.0025272
          ],
          [
            77.6122765,
            13.0025368
          ]
        ]
      }
    },
    {
      "type": "Feature",
      "properties": {
        "id": "train_056_BND_062",
        "parcel_id": "train_056_P_016",
        "boundary_type": "INFERRED",
        "confidence": 0.742,
        "length_m": 50.62,
        "evidence_sources": [
          "Road_Corridor_Offset",
          "Adjacent_Parcel_Topology"
        ]
      },
      "geometry": {
        "type": "LineString",
        "coordinates": [
          [
            77.6122765,
            13.0025368
          ],
          [
            77.6123164,
            13.0020812
          ]
        ]
      }
    },
    {
      "type": "Feature",
      "properties": {
        "id": "train_056_BND_063",
        "parcel_id": "train_056_P_016",
        "boundary_type": "VISIBLE",
        "confidence": 0.941,
        "length_m": 37.02,
        "evidence_sources": [
          "Drone_RGB_Edge",
          "DSM_Breakline"
        ]
      },
      "geometry": {
        "type": "LineString",
        "coordinates": [
          [
            77.6123164,
            13.0020812
          ],
          [
            77.6119807,
            13.0021401
          ]
        ]
      }
    },
    {
      "type": "Feature",
      "properties": {
        "id": "train_056_BND_064",
        "parcel_id": "train_056_P_016",
        "boundary_type": "VISIBLE",
        "confidence": 0.907,
        "length_m": 43.08,
        "evidence_sources": [
          "Drone_RGB_Edge",
          "DSM_Breakline"
        ]
      },
      "geometry": {
        "type": "LineString",
        "coordinates": [
          [
            77.6119807,
            13.0021401
          ],
          [
            77.61194,
            13.0025272
          ]
        ]
      }
    }
  ]
}