{
  "type": "FeatureCollection",
  "crs": {
    "type": "name",
    "properties": {
      "name": "EPSG:4326"
    }
  },
  "features": [
    {
      "type": "Feature",
      "properties": {
        "id": "train_021_BND_001",
        "parcel_id": "train_021_P_001",
        "boundary_type": "VISIBLE",
        "confidence": 0.828,
        "length_m": 45.03,
        "evidence_sources": [
          "Drone_RGB_Edge",
          "DSM_Breakline"
        ]
      },
      "geometry": {
        "type": "LineString",
        "coordinates": [
          [
            77.5951213,
            12.9983363
          ],
          [
            77.5955323,
            12.9982812
          ]
        ]
      }
    },
    {
      "type": "Feature",
      "properties": {
        "id": "train_021_BND_002",
        "parcel_id": "train_021_P_001",
        "boundary_type": "VISIBLE",
        "confidence": 0.954,
        "length_m": 34.76,
        "evidence_sources": [
          "Drone_RGB_Edge",
          "DSM_Breakline"
        ]
      },
      "geometry": {
        "type": "LineString",
        "coordinates": [
          [
            77.5955323,
            12.9982812
          ],
          [
            77.5954976,
            12.997969
          ]
        ]
      }
    },
    {
      "type": "Feature",
      "properties": {
        "id": "train_021_BND_003",
        "parcel_id": "train_021_P_001",
        "boundary_type": "VISIBLE",
        "confidence": 0.859,
        "length_m": 44.82,
        "evidence_sources": [
          "Drone_RGB_Edge",
          "DSM_Breakline"
        ]
      },
      "geometry": {
        "type": "LineString",
        "coordinates": [
          [
            77.5954976,
            12.997969
          ],
          [
            77.5950848,
            12.9979797
          ]
        ]
      }
    },
    {
      "type": "Feature",
      "properties": {
        "id": "train_021_BND_004",
        "parcel_id": "train_021_P_001",
        "boundary_type": "VISIBLE",
        "confidence": 0.923,
        "length_m": 39.67,
        "evidence_sources": [
          "Drone_RGB_Edge",
          "DSM_Breakline"
        ]
      },
      "geometry": {
        "type": "LineString",
        "coordinates": [
          [
            77.5950848,
            12.9979797
          ],
          [
            77.5951213,
            12.9983363
          ]
        ]
      }
    },
    {
      "type": "Feature",
      "properties": {
        "id": "train_021_BND_005",
        "parcel_id": "train_021_P_002",
        "boundary_type": "INFERRED",
        "confidence": 0.64,
        "length_m": 50.53,
        "evidence_sources": [
          "Road_Corridor_Offset",
          "Adjacent_Parcel_Topology"
        ]
      },
      "geometry": {
        "type": "LineString",
        "coordinates": [
          [
            77.5950636,
            12.9978829
          ],
          [
            77.5955291,
            12.9978799
          ]
        ]
      }
    },
    {
      "type": "Feature",
      "properties": {
        "id": "train_021_BND_006",
        "parcel_id": "train_021_P_002",
        "boundary_type": "INFERRED",
        "confidence": 0.786,
        "length_m": 37.32,
        "evidence_sources": [
          "Road_Corridor_Offset",
          "Adjacent_Parcel_Topology"
        ]
      },
      "geometry": {
        "type": "LineString",
        "coordinates": [
          [
            77.5955291,
            12.9978799
          ],
          [
            77.5955172,
            12.997543
          ]
        ]
      }
    },
    {
      "type": "Feature",
      "properties": {
        "id": "train_021_BND_007",
        "parcel_id": "train_021_P_002",
        "boundary_type": "VISIBLE",
        "confidence": 0.872,
        "length_m": 46.88,
        "evidence_sources": [
          "Drone_RGB_Edge",
          "DSM_Breakline"
        ]
      },
      "geometry": {
        "type": "LineString",
        "coordinates": [
          [
            77.5955172,
            12.997543
          ],
          [
            77.5950853,
            12.9975439
          ]
        ]
      }
    },
    {
      "type": "Feature",
      "properties": {
        "id": "train_021_BND_008",
        "parcel_id": "train_021_P_002",
        "boundary_type": "INFERRED",
        "confidence": 0.679,
        "length_m": 37.6,
        "evidence_sources": [
          "Road_Corridor_Offset",
          "Adjacent_Parcel_Topology"
        ]
      },
      "geometry": {
        "type": "LineString",
        "coordinates": [
          [
            77.5950853,
            12.9975439
          ],
          [
            77.5950636,
            12.9978829
          ]
        ]
      }
    },
    {
      "type": "Feature",
      "properties": {
        "id": "train_021_BND_009",
        "parcel_id": "train_021_P_003",
        "boundary_type": "INFERRED",
        "confidence": 0.702,
        "length_m": 42.53,
        "evidence_sources": [
          "Road_Corridor_Offset",
          "Adjacent_Parcel_Topology"
        ]
      },
      "geometry": {
        "type": "LineString",
        "coordinates": [
          [
            77.595601,
            12.9983383
          ],
          [
            77.5959913,
            12.9983048
          ]
        ]
      }
    },
    {
      "type": "Feature",
      "properties": {
        "id": "train_021_BND_010",
        "parcel_id": "train_021_P_003",
        "boundary_type": "INFERRED",
        "confidence": 0.776,
        "length_m": 35.57,
        "evidence_sources": [
          "Road_Corridor_Offset",
          "Adjacent_Parcel_Topology"
        ]
      },
      "geometry": {
        "type": "LineString",
        "coordinates": [
          [
            77.5959913,
            12.9983048
          ],
          [
            77.5959815,
            12.9979836
          ]
        ]
      }
    },
    {
      "type": "Feature",
      "properties": {
        "id": "train_021_BND_011",
        "parcel_id": "train_021_P_003",
        "boundary_type": "VISIBLE",
        "confidence": 0.843,
        "length_m": 40.96,
        "evidence_sources": [
          "Drone_RGB_Edge",
          "DSM_Breakline"
        ]
      },
      "geometry": {
        "type": "LineString",
        "coordinates": [
          [
            77.5959815,
            12.9979836
          ],
          [
            77.5956042,
            12.9979908
          ]
        ]
      }
    },
    {
      "type": "Feature",
      "properties": {
        "id": "train_021_BND_012",
        "parcel_id": "train_021_P_003",
        "boundary_type": "VISIBLE",
        "confidence": 0.846,
        "length_m": 38.47,
        "evidence_sources": [
          "Drone_RGB_Edge",
          "DSM_Breakline"
        ]
      },
      "geometry": {
        "type": "LineString",
        "coordinates": [
          [
            77.5956042,
            12.9979908
          ],
          [
            77.595601,
            12.9983383
          ]
        ]
      }
    },
    {
      "type": "Feature",
      "properties": {
        "id": "train_021_BND_013",
        "parcel_id": "train_021_P_004",
        "boundary_type": "VISIBLE",
        "confidence": 0.928,
        "length_m": 46.86,
        "evidence_sources": [
          "Drone_RGB_Edge",
          "DSM_Breakline"
        ]
      },
      "geometry": {
        "type": "LineString",
        "coordinates": [
          [
            77.5955665,
            12.9979304
          ],
          [
            77.5959967,
            12.997895
          ]
        ]
      }
    },
    {
      "type": "Feature",
      "properties": {
        "id": "train_021_BND_014",
        "parcel_id": "train_021_P_004",
        "boundary_type": "VISIBLE",
        "confidence": 0.904,
        "length_m": 38.54,
        "evidence_sources": [
          "Drone_RGB_Edge",
          "DSM_Breakline"
        ]
      },
      "geometry": {
        "type": "LineString",
        "coordinates": [
          [
            77.5959967,
            12.997895
          ],
          [
            77.5959754,
            12.9975475
          ]
        ]
      }
    },
    {
      "type": "Feature",
      "properties": {
        "id": "train_021_BND_015",
        "parcel_id": "train_021_P_004",
        "boundary_type": "INFERRED",
        "confidence": 0.639,
        "length_m": 44.25,
        "evidence_sources": [
          "Road_Corridor_Offset",
          "Adjacent_Parcel_Topology"
        ]
      },
      "geometry": {
        "type": "LineString",
        "coordinates": [
          [
            77.5959754,
            12.9975475
          ],
          [
            77.5955678,
            12.9975507
          ]
        ]
      }
    },
    {
      "type": "Feature",
      "properties": {
        "id": "train_021_BND_016",
        "parcel_id": "train_021_P_004",
        "boundary_type": "VISIBLE",
        "confidence": 0.93,
        "length_m": 42.03,
        "evidence_sources": [
          "Drone_RGB_Edge",
          "DSM_Breakline"
        ]
      },
      "geometry": {
        "type": "LineString",
        "coordinates": [
          [
            77.5955678,
            12.9975507
          ],
          [
            77.5955665,
            12.9979304
          ]
        ]
      }
    },
    {
      "type": "Feature",
      "properties": {
        "id": "train_021_BND_017",
        "parcel_id": "train_021_P_005",
        "boundary_type": "VISIBLE",
        "confidence": 0.954,
        "length_m": 51.05,
        "evidence_sources": [
          "Drone_RGB_Edge",
          "DSM_Breakline"
        ]
      },
      "geometry": {
        "type": "LineString",
        "coordinates": [
          [
            77.5962362,
            12.9983173
          ],
          [
            77.5967064,
            12.9983283
          ]
        ]
      }
    },
    {
      "type": "Feature",
      "properties": {
        "id": "train_021_BND_018",
        "parcel_id": "train_021_P_005",
        "boundary_type": "VISIBLE",
        "confidence": 0.864,
        "length_m": 38.66,
        "evidence_sources": [
          "Drone_RGB_Edge",
          "DSM_Breakline"
        ]
      },
      "geometry": {
        "type": "LineString",
        "coordinates": [
          [
            77.5967064,
            12.9983283
          ],
          [
            77.596735,
            12.9979802
          ]
        ]
      }
    },
    {
      "type": "Feature",
      "properties": {
        "id": "train_021_BND_019",
        "parcel_id": "train_021_P_005",
        "boundary_type": "VISIBLE",
        "confidence": 0.919,
        "length_m": 57.96,
        "evidence_sources": [
          "Drone_RGB_Edge",
          "DSM_Breakline"
        ]
      },
      "geometry": {
        "type": "LineString",
        "coordinates": [
          [
            77.596735,
            12.9979802
          ],
          [
            77.5962013,
            12.9979961
          ]
        ]
      }
    },
    {
      "type": "Feature",
      "properties": {
        "id": "train_021_BND_020",
        "parcel_id": "train_021_P_005",
        "boundary_type": "VISIBLE",
        "confidence": 0.954,
        "length_m": 35.76,
        "evidence_sources": [
          "Drone_RGB_Edge",
          "DSM_Breakline"
        ]
      },
      "geometry": {
        "type": "LineString",
        "coordinates": [
          [
            77.5962013,
            12.9979961
          ],
          [
            77.5962362,
            12.9983173
          ]
        ]
      }
    },
    {
      "type": "Feature",
      "properties": {
        "id": "train_021_BND_021",
        "parcel_id": "train_021_P_006",
        "boundary_type": "VISIBLE",
        "confidence": 0.864,
        "length_m": 53.41,
        "evidence_sources": [
          "Drone_RGB_Edge",
          "DSM_Breakline"
        ]
      },
      "geometry": {
        "type": "LineString",
        "coordinates": [
          [
            77.5962408,
            12.9979074
          ],
          [
            77.5967327,
            12.9979191
          ]
        ]
      }
    },
    {
      "type": "Feature",
      "properties": {
        "id": "train_021_BND_022",
        "parcel_id": "train_021_P_006",
        "boundary_type": "INFERRED",
        "confidence": 0.73,
        "length_m": 37.31,
        "evidence_sources": [
          "Road_Corridor_Offset",
          "Adjacent_Parcel_Topology"
        ]
      },
      "geometry": {
        "type": "LineString",
        "coordinates": [
          [
            77.5967327,
            12.9979191
          ],
          [
            77.5967001,
            12.9975836
          ]
        ]
      }
    },
    {
      "type": "Feature",
      "properties": {
        "id": "train_021_BND_023",
        "parcel_id": "train_021_P_006",
        "boundary_type": "VISIBLE",
        "confidence": 0.874,
        "length_m": 49.93,
        "evidence_sources": [
          "Drone_RGB_Edge",
          "DSM_Breakline"
        ]
      },
      "geometry": {
        "type": "LineString",
        "coordinates": [
          [
            77.5967001,
            12.9975836
          ],
          [
            77.5962421,
            12.997542
          ]
        ]
      }
    },
    {
      "type": "Feature",
      "properties": {
        "id": "train_021_BND_024",
        "parcel_id": "train_021_P_006",
        "boundary_type": "VISIBLE",
        "confidence": 0.833,
        "length_m": 40.45,
        "evidence_sources": [
          "Drone_RGB_Edge",
          "DSM_Breakline"
        ]
      },
      "geometry": {
        "type": "LineString",
        "coordinates": [
          [
            77.5962421,
            12.997542
          ],
          [
            77.5962408,
            12.9979074
          ]
        ]
      }
    },
    {
      "type": "Feature",
      "properties": {
        "id": "train_021_BND_025",
        "parcel_id": "train_021_P_007",
        "boundary_type": "INFERRED",
        "confidence": 0.618,
        "length_m": 53.61,
        "evidence_sources": [
          "Road_Corridor_Offset",
          "Adjacent_Parcel_Topology"
        ]
      },
      "geometry": {
        "type": "LineString",
        "coordinates": [
          [
            77.5967976,
            12.9983356
          ],
          [
            77.5972915,
            12.9983338
          ]
        ]
      }
    },
    {
      "type": "Feature",
      "properties": {
        "id": "train_021_BND_026",
        "parcel_id": "train_021_P_007",
        "boundary_type": "INFERRED",
        "confidence": 0.758,
        "length_m": 42.05,
        "evidence_sources": [
          "Road_Corridor_Offset",
          "Adjacent_Parcel_Topology"
        ]
      },
      "geometry": {
        "type": "LineString",
        "coordinates": [
          [
            77.5972915,
            12.9983338
          ],
          [
            77.5972914,
            12.9979539
          ]
        ]
      }
    },
    {
      "type": "Feature",
      "properties": {
        "id": "train_021_BND_027",
        "parcel_id": "train_021_P_007",
        "boundary_type": "VISIBLE",
        "confidence": 0.9,
        "length_m": 53.07,
        "evidence_sources": [
          "Drone_RGB_Edge",
          "DSM_Breakline"
        ]
      },
      "geometry": {
        "type": "LineString",
        "coordinates": [
          [
            77.5972914,
            12.9979539
          ],
          [
            77.5968026,
            12.9979646
          ]
        ]
      }
    },
    {
      "type": "Feature",
      "properties": {
        "id": "train_021_BND_028",
        "parcel_id": "train_021_P_007",
        "boundary_type": "VISIBLE",
        "confidence": 0.867,
        "length_m": 41.07,
        "evidence_sources": [
          "Drone_RGB_Edge",
          "DSM_Breakline"
        ]
      },
      "geometry": {
        "type": "LineString",
        "coordinates": [
          [
            77.5968026,
            12.9979646
          ],
          [
            77.5967976,
            12.9983356
          ]
        ]
      }
    },
    {
      "type": "Feature",
      "properties": {
        "id": "train_021_BND_029",
        "parcel_id": "train_021_P_008",
        "boundary_type": "INFERRED",
        "confidence": 0.761,
        "length_m": 55.83,
        "evidence_sources": [
          "Road_Corridor_Offset",
          "Adjacent_Parcel_Topology"
        ]
      },
      "geometry": {
        "type": "LineString",
        "coordinates": [
          [
            77.5967639,
            12.9979273
          ],
          [
            77.5972757,
            12.9978777
          ]
        ]
      }
    },
    {
      "type": "Feature",
      "properties": {
        "id": "train_021_BND_030",
        "parcel_id": "train_021_P_008",
        "boundary_type": "VISIBLE",
        "confidence": 0.956,
        "length_m": 32.85,
        "evidence_sources": [
          "Drone_RGB_Edge",
          "DSM_Breakline"
        ]
      },
      "geometry": {
        "type": "LineString",
        "coordinates": [
          [
            77.5972757,
            12.9978777
          ],
          [
            77.5973185,
            12.9975839
          ]
        ]
      }
    },
    {
      "type": "Feature",
      "properties": {
        "id": "train_021_BND_031",
        "parcel_id": "train_021_P_008",
        "boundary_type": "VISIBLE",
        "confidence": 0.906,
        "length_m": 55.55,
        "evidence_sources": [
          "Drone_RGB_Edge",
          "DSM_Breakline"
        ]
      },
      "geometry": {
        "type": "LineString",
        "coordinates": [
          [
            77.5973185,
            12.9975839
          ],
          [
            77.596807,
            12.9975673
          ]
        ]
      }
    },
    {
      "type": "Feature",
      "properties": {
        "id": "train_021_BND_032",
        "parcel_id": "train_021_P_008",
        "boundary_type": "INFERRED",
        "confidence": 0.658,
        "length_m": 40.12,
        "evidence_sources": [
          "Road_Corridor_Offset",
          "Adjacent_Parcel_Topology"
        ]
      },
      "geometry": {
        "type": "LineString",
        "coordinates": [
          [
            77.596807,
            12.9975673
          ],
          [
            77.5967639,
            12.9979273
          ]
        ]
      }
    },
    {
      "type": "Feature",
      "properties": {
        "id": "train_021_BND_033",
        "parcel_id": "train_021_P_009",
        "boundary_type": "VISIBLE",
        "confidence": 0.935,
        "length_m": 46.75,
        "evidence_sources": [
          "Drone_RGB_Edge",
          "DSM_Breakline"
        ]
      },
      "geometry": {
        "type": "LineString",
        "coordinates": [
          [
            77.5950997,
            12.9973175
          ],
          [
            77.5955291,
            12.997285
          ]
        ]
      }
    },
    {
      "type": "Feature",
      "properties": {
        "id": "train_021_BND_034",
        "parcel_id": "train_021_P_009",
        "boundary_type": "VISIBLE",
        "confidence": 0.885,
        "length_m": 57.56,
        "evidence_sources": [
          "Drone_RGB_Edge",
          "DSM_Breakline"
        ]
      },
      "geometry": {
        "type": "LineString",
        "coordinates": [
          [
            77.5955291,
            12.997285
          ],
          [
            77.5955051,
            12.9967655
          ]
        ]
      }
    },
    {
      "type": "Feature",
      "properties": {
        "id": "train_021_BND_035",
        "parcel_id": "train_021_P_009",
        "boundary_type": "VISIBLE",
        "confidence": 0.883,
        "length_m": 44.65,
        "evidence_sources": [
          "Drone_RGB_Edge",
          "DSM_Breakline"
        ]
      },
      "geometry": {
        "type": "LineString",
        "coordinates": [
          [
            77.5955051,
            12.9967655
          ],
          [
            77.5950938,
            12.99676
          ]
        ]
      }
    },
    {
      "type": "Feature",
      "properties": {
        "id": "train_021_BND_036",
        "parcel_id": "train_021_P_009",
        "boundary_type": "VISIBLE",
        "confidence": 0.959,
        "length_m": 61.72,
        "evidence_sources": [
          "Drone_RGB_Edge",
          "DSM_Breakline"
        ]
      },
      "geometry": {
        "type": "LineString",
        "coordinates": [
          [
            77.5950938,
            12.99676
          ],
          [
            77.5950997,
            12.9973175
          ]
        ]
      }
    },
    {
      "type": "Feature",
      "properties": {
        "id": "train_021_BND_037",
        "parcel_id": "train_021_P_010",
        "boundary_type": "INFERRED",
        "confidence": 0.651,
        "length_m": 47.43,
        "evidence_sources": [
          "Road_Corridor_Offset",
          "Adjacent_Parcel_Topology"
        ]
      },
      "geometry": {
        "type": "LineString",
        "coordinates": [
          [
            77.5951004,
            12.99668
          ],
          [
            77.5955372,
            12.9966925
          ]
        ]
      }
    },
    {
      "type": "Feature",
      "properties": {
        "id": "train_021_BND_038",
        "parcel_id": "train_021_P_010",
        "boundary_type": "VISIBLE",
        "confidence": 0.954,
        "length_m": 66.46,
        "evidence_sources": [
          "Drone_RGB_Edge",
          "DSM_Breakline"
        ]
      },
      "geometry": {
        "type": "LineString",
        "coordinates": [
          [
            77.5955372,
            12.9966925
          ],
          [
            77.5955351,
            12.9960921
          ]
        ]
      }
    },
    {
      "type": "Feature",
      "properties": {
        "id": "train_021_BND_039",
        "parcel_id": "train_021_P_010",
        "boundary_type": "VISIBLE",
        "confidence": 0.881,
        "length_m": 47.33,
        "evidence_sources": [
          "Drone_RGB_Edge",
          "DSM_Breakline"
        ]
      },
      "geometry": {
        "type": "LineString",
        "coordinates": [
          [
            77.5955351,
            12.9960921
          ],
          [
            77.5950991,
            12.9960861
          ]
        ]
      }
    },
    {
      "type": "Feature",
      "properties": {
        "id": "train_021_BND_040",
        "parcel_id": "train_021_P_010",
        "boundary_type": "VISIBLE",
        "confidence": 0.942,
        "length_m": 65.74,
        "evidence_sources": [
          "Drone_RGB_Edge",
          "DSM_Breakline"
        ]
      },
      "geometry": {
        "type": "LineString",
        "coordinates": [
          [
            77.5950991,
            12.9960861
          ],
          [
            77.5951004,
            12.99668
          ]
        ]
      }
    },
    {
      "type": "Feature",
      "properties": {
        "id": "train_021_BND_041",
        "parcel_id": "train_021_P_011",
        "boundary_type": "VISIBLE",
        "confidence": 0.924,
        "length_m": 49.52,
        "evidence_sources": [
          "Drone_RGB_Edge",
          "DSM_Breakline"
        ]
      },
      "geometry": {
        "type": "LineString",
        "coordinates": [
          [
            77.5955573,
            12.9972968
          ],
          [
            77.5960131,
            12.9973149
          ]
        ]
      }
    },
    {
      "type": "Feature",
      "properties": {
        "id": "train_021_BND_042",
        "parcel_id": "train_021_P_011",
        "boundary_type": "VISIBLE",
        "confidence": 0.868,
        "length_m": 66.1,
        "evidence_sources": [
          "Drone_RGB_Edge",
          "DSM_Breakline"
        ]
      },
      "geometry": {
        "type": "LineString",
        "coordinates": [
          [
            77.5960131,
            12.9973149
          ],
          [
            77.5959758,
            12.9967189
          ]
        ]
      }
    },
    {
      "type": "Feature",
      "properties": {
        "id": "train_021_BND_043",
        "parcel_id": "train_021_P_011",
        "boundary_type": "VISIBLE",
        "confidence": 0.932,
        "length_m": 45.65,
        "evidence_sources": [
          "Drone_RGB_Edge",
          "DSM_Breakline"
        ]
      },
      "geometry": {
        "type": "LineString",
        "coordinates": [
          [
            77.5959758,
            12.9967189
          ],
          [
            77.595557,
            12.9967566
          ]
        ]
      }
    },
    {
      "type": "Feature",
      "properties": {
        "id": "train_021_BND_044",
        "parcel_id": "train_021_P_011",
        "boundary_type": "INFERRED",
        "confidence": 0.749,
        "length_m": 59.8,
        "evidence_sources": [
          "Road_Corridor_Offset",
          "Adjacent_Parcel_Topology"
        ]
      },
      "geometry": {
        "type": "LineString",
        "coordinates": [
          [
            77.595557,
            12.9967566
          ],
          [
            77.5955573,
            12.9972968
          ]
        ]
      }
    },
    {
      "type": "Feature",
      "properties": {
        "id": "train_021_BND_045",
        "parcel_id": "train_021_P_012",
        "boundary_type": "INFERRED",
        "confidence": 0.76,
        "length_m": 45.33,
        "evidence_sources": [
          "Road_Corridor_Offset",
          "Adjacent_Parcel_Topology"
        ]
      },
      "geometry": {
        "type": "LineString",
        "coordinates": [
          [
            77.5955511,
            12.9966701
          ],
          [
            77.5959682,
            12.9966494
          ]
        ]
      }
    },
    {
      "type": "Feature",
      "properties": {
        "id": "train_021_BND_046",
        "parcel_id": "train_021_P_012",
        "boundary_type": "INFERRED",
        "confidence": 0.684,
        "length_m": 62.47,
        "evidence_sources": [
          "Road_Corridor_Offset",
          "Adjacent_Parcel_Topology"
        ]
      },
      "geometry": {
        "type": "LineString",
        "coordinates": [
          [
            77.5959682,
            12.9966494
          ],
          [
            77.5960304,
            12.9960884
          ]
        ]
      }
    },
    {
      "type": "Feature",
      "properties": {
        "id": "train_021_BND_047",
        "parcel_id": "train_021_P_012",
        "boundary_type": "VISIBLE",
        "confidence": 0.831,
        "length_m": 49.34,
        "evidence_sources": [
          "Drone_RGB_Edge",
          "DSM_Breakline"
        ]
      },
      "geometry": {
        "type": "LineString",
        "coordinates": [
          [
            77.5960304,
            12.9960884
          ],
          [
            77.5955771,
            12.9961213
          ]
        ]
      }
    },
    {
      "type": "Feature",
      "properties": {
        "id": "train_021_BND_048",
        "parcel_id": "train_021_P_012",
        "boundary_type": "VISIBLE",
        "confidence": 0.946,
        "length_m": 60.81,
        "evidence_sources": [
          "Drone_RGB_Edge",
          "DSM_Breakline"
        ]
      },
      "geometry": {
        "type": "LineString",
        "coordinates": [
          [
            77.5955771,
            12.9961213
          ],
          [
            77.5955511,
            12.9966701
          ]
        ]
      }
    },
    {
      "type": "Feature",
      "properties": {
        "id": "train_021_BND_049",
        "parcel_id": "train_021_P_013",
        "boundary_type": "VISIBLE",
        "confidence": 0.946,
        "length_m": 55.42,
        "evidence_sources": [
          "Drone_RGB_Edge",
          "DSM_Breakline"
        ]
      },
      "geometry": {
        "type": "LineString",
        "coordinates": [
          [
            77.5961826,
            12.9972889
          ],
          [
            77.5966928,
            12.9973073
          ]
        ]
      }
    },
    {
      "type": "Feature",
      "properties": {
        "id": "train_021_BND_050",
        "parcel_id": "train_021_P_013",
        "boundary_type": "VISIBLE",
        "confidence": 0.922,
        "length_m": 66.11,
        "evidence_sources": [
          "Drone_RGB_Edge",
          "DSM_Breakline"
        ]
      },
      "geometry": {
        "type": "LineString",
        "coordinates": [
          [
            77.5966928,
            12.9973073
          ],
          [
            77.5967478,
            12.9967125
          ]
        ]
      }
    },
    {
      "type": "Feature",
      "properties": {
        "id": "train_021_BND_051",
        "parcel_id": "train_021_P_013",
        "boundary_type": "VISIBLE",
        "confidence": 0.928,
        "length_m": 61.02,
        "evidence_sources": [
          "Drone_RGB_Edge",
          "DSM_Breakline"
        ]
      },
      "geometry": {
        "type": "LineString",
        "coordinates": [
          [
            77.5967478,
            12.9967125
          ],
          [
            77.5961863,
            12.996739
          ]
        ]
      }
    },
    {
      "type": "Feature",
      "properties": {
        "id": "train_021_BND_052",
        "parcel_id": "train_021_P_013",
        "boundary_type": "VISIBLE",
        "confidence": 0.843,
        "length_m": 60.87,
        "evidence_sources": [
          "Drone_RGB_Edge",
          "DSM_Breakline"
        ]
      },
      "geometry": {
        "type": "LineString",
        "coordinates": [
          [
            77.5961863,
            12.996739
          ],
          [
            77.5961826,
            12.9972889
          ]
        ]
      }
    },
    {
      "type": "Feature",
      "properties": {
        "id": "train_021_BND_053",
        "parcel_id": "train_021_P_014",
        "boundary_type": "VISIBLE",
        "confidence": 0.848,
        "length_m": 58.04,
        "evidence_sources": [
          "Drone_RGB_Edge",
          "DSM_Breakline"
        ]
      },
      "geometry": {
        "type": "LineString",
        "coordinates": [
          [
            77.5962199,
            12.9966405
          ],
          [
            77.5967528,
            12.9966835
          ]
        ]
      }
    },
    {
      "type": "Feature",
      "properties": {
        "id": "train_021_BND_054",
        "parcel_id": "train_021_P_014",
        "boundary_type": "VISIBLE",
        "confidence": 0.922,
        "length_m": 62.78,
        "evidence_sources": [
          "Drone_RGB_Edge",
          "DSM_Breakline"
        ]
      },
      "geometry": {
        "type": "LineString",
        "coordinates": [
          [
            77.5967528,
            12.9966835
          ],
          [
            77.5966875,
            12.99612
          ]
        ]
      }
    },
    {
      "type": "Feature",
      "properties": {
        "id": "train_021_BND_055",
        "parcel_id": "train_021_P_014",
        "boundary_type": "VISIBLE",
        "confidence": 0.853,
        "length_m": 54.72,
        "evidence_sources": [
          "Drone_RGB_Edge",
          "DSM_Breakline"
        ]
      },
      "geometry": {
        "type": "LineString",
        "coordinates": [
          [
            77.5966875,
            12.99612
          ],
          [
            77.5961836,
            12.9961352
          ]
        ]
      }
    },
    {
      "type": "Feature",
      "properties": {
        "id": "train_021_BND_056",
        "parcel_id": "train_021_P_014",
        "boundary_type": "VISIBLE",
        "confidence": 0.888,
        "length_m": 56.07,
        "evidence_sources": [
          "Drone_RGB_Edge",
          "DSM_Breakline"
        ]
      },
      "geometry": {
        "type": "LineString",
        "coordinates": [
          [
            77.5961836,
            12.9961352
          ],
          [
            77.5962199,
            12.9966405
          ]
        ]
      }
    },
    {
      "type": "Feature",
      "properties": {
        "id": "train_021_BND_057",
        "parcel_id": "train_021_P_015",
        "boundary_type": "VISIBLE",
        "confidence": 0.941,
        "length_m": 54.65,
        "evidence_sources": [
          "Drone_RGB_Edge",
          "DSM_Breakline"
        ]
      },
      "geometry": {
        "type": "LineString",
        "coordinates": [
          [
            77.5967725,
            12.9972895
          ],
          [
            77.5972758,
            12.9973014
          ]
        ]
      }
    },
    {
      "type": "Feature",
      "properties": {
        "id": "train_021_BND_058",
        "parcel_id": "train_021_P_015",
        "boundary_type": "VISIBLE",
        "confidence": 0.867,
        "length_m": 65.71,
        "evidence_sources": [
          "Drone_RGB_Edge",
          "DSM_Breakline"
        ]
      },
      "geometry": {
        "type": "LineString",
        "coordinates": [
          [
            77.5972758,
            12.9973014
          ],
          [
            77.5973107,
            12.9967088
          ]
        ]
      }
    },
    {
      "type": "Feature",
      "properties": {
        "id": "train_021_BND_059",
        "parcel_id": "train_021_P_015",
        "boundary_type": "VISIBLE",
        "confidence": 0.867,
        "length_m": 55.11,
        "evidence_sources": [
          "Drone_RGB_Edge",
          "DSM_Breakline"
        ]
      },
      "geometry": {
        "type": "LineString",
        "coordinates": [
          [
            77.5973107,
            12.9967088
          ],
          [
            77.5968037,
            12.9967353
          ]
        ]
      }
    },
    {
      "type": "Feature",
      "properties": {
        "id": "train_021_BND_060",
        "parcel_id": "train_021_P_015",
        "boundary_type": "VISIBLE",
        "confidence": 0.89,
        "length_m": 61.44,
        "evidence_sources": [
          "Drone_RGB_Edge",
          "DSM_Breakline"
        ]
      },
      "geometry": {
        "type": "LineString",
        "coordinates": [
          [
            77.5968037,
            12.9967353
          ],
          [
            77.5967725,
            12.9972895
          ]
        ]
      }
    },
    {
      "type": "Feature",
      "properties": {
        "id": "train_021_BND_061",
        "parcel_id": "train_021_P_016",
        "boundary_type": "VISIBLE",
        "confidence": 0.914,
        "length_m": 58.29,
        "evidence_sources": [
          "Drone_RGB_Edge",
          "DSM_Breakline"
        ]
      },
      "geometry": {
        "type": "LineString",
        "coordinates": [
          [
            77.5967601,
            12.9966844
          ],
          [
            77.5972969,
            12.9966714
          ]
        ]
      }
    },
    {
      "type": "Feature",
      "properties": {
        "id": "train_021_BND_062",
        "parcel_id": "train_021_P_016",
        "boundary_type": "VISIBLE",
        "confidence": 0.882,
        "length_m": 62.65,
        "evidence_sources": [
          "Drone_RGB_Edge",
          "DSM_Breakline"
        ]
      },
      "geometry": {
        "type": "LineString",
        "coordinates": [
          [
            77.5972969,
            12.9966714
          ],
          [
            77.597318,
            12.9961058
          ]
        ]
      }
    },
    {
      "type": "Feature",
      "properties": {
        "id": "train_021_BND_063",
        "parcel_id": "train_021_P_016",
        "boundary_type": "VISIBLE",
        "confidence": 0.918,
        "length_m": 56.55,
        "evidence_sources": [
          "Drone_RGB_Edge",
          "DSM_Breakline"
        ]
      },
      "geometry": {
        "type": "LineString",
        "coordinates": [
          [
            77.597318,
            12.9961058
          ],
          [
            77.5967976,
            12.9961302
          ]
        ]
      }
    },
    {
      "type": "Feature",
      "properties": {
        "id": "train_021_BND_064",
        "parcel_id": "train_021_P_016",
        "boundary_type": "VISIBLE",
        "confidence": 0.947,
        "length_m": 61.48,
        "evidence_sources": [
          "Drone_RGB_Edge",
          "DSM_Breakline"
        ]
      },
      "geometry": {
        "type": "LineString",
        "coordinates": [
          [
            77.5967976,
            12.9961302
          ],
          [
            77.5967601,
            12.9966844
          ]
        ]
      }
    }
  ]
}