{
  "type": "FeatureCollection",
  "crs": {
    "type": "name",
    "properties": {
      "name": "EPSG:4326"
    }
  },
  "features": [
    {
      "type": "Feature",
      "properties": {
        "id": "train_066_REF_001",
        "parcel_id": "train_066_P_001",
        "parcel_layer": "REFERENCE",
        "boundary_representation": "REFERENCE",
        "land_use_class": "commercial",
        "area_sqm": 3015.36,
        "perimeter_m": 222.26,
        "source": "Synthetic Legacy Cadastral Map (Non-Authoritative Demo)"
      },
      "geometry": {
        "type": "Polygon",
        "coordinates": [
          [
            [
              77.5950636,
              13.0073227
            ],
            [
              77.5955067,
              13.0072998
            ],
            [
              77.5955276,
              13.006732
            ],
            [
              77.5950917,
              13.0067464
            ],
            [
              77.5950636,
              13.0073227
            ]
          ]
        ]
      }
    },
    {
      "type": "Feature",
      "properties": {
        "id": "train_066_REF_002",
        "parcel_id": "train_066_P_002",
        "parcel_layer": "REFERENCE",
        "boundary_representation": "REFERENCE",
        "land_use_class": "mixed_use",
        "area_sqm": 3122.34,
        "perimeter_m": 227.39,
        "source": "Synthetic Legacy Cadastral Map (Non-Authoritative Demo)"
      },
      "geometry": {
        "type": "Polygon",
        "coordinates": [
          [
            [
              77.5950924,
              13.0066708
            ],
            [
              77.5955056,
              13.0066491
            ],
            [
              77.5955445,
              13.006078
            ],
            [
              77.5950963,
              13.0060362
            ],
            [
              77.5950924,
              13.0066708
            ]
          ]
        ]
      }
    },
    {
      "type": "Feature",
      "properties": {
        "id": "train_066_REF_003",
        "parcel_id": "train_066_P_003",
        "parcel_layer": "REFERENCE",
        "boundary_representation": "REFERENCE",
        "land_use_class": "mixed_use",
        "area_sqm": 2873.22,
        "perimeter_m": 217.86,
        "source": "Synthetic Legacy Cadastral Map (Non-Authoritative Demo)"
      },
      "geometry": {
        "type": "Polygon",
        "coordinates": [
          [
            [
              77.5956243,
              13.0073068
            ],
            [
              77.5960524,
              13.0072865
            ],
            [
              77.5960163,
              13.0067156
            ],
            [
              77.595618,
              13.0067216
            ],
            [
              77.5956243,
              13.0073068
            ]
          ]
        ]
      }
    },
    {
      "type": "Feature",
      "properties": {
        "id": "train_066_REF_004",
        "parcel_id": "train_066_P_004",
        "parcel_layer": "REFERENCE",
        "boundary_representation": "REFERENCE",
        "land_use_class": "vegetation",
        "area_sqm": 3093.97,
        "perimeter_m": 227.32,
        "source": "Synthetic Legacy Cadastral Map (Non-Authoritative Demo)"
      },
      "geometry": {
        "type": "Polygon",
        "coordinates": [
          [
            [
              77.5956443,
              13.0066943
            ],
            [
              77.5960423,
              13.006662
            ],
            [
              77.5960475,
              13.0060408
            ],
            [
              77.595609,
              13.006087
            ],
            [
              77.5956443,
              13.0066943
            ]
          ]
        ]
      }
    },
    {
      "type": "Feature",
      "properties": {
        "id": "train_066_REF_005",
        "parcel_id": "train_066_P_005",
        "parcel_layer": "REFERENCE",
        "boundary_representation": "REFERENCE",
        "land_use_class": "vacant",
        "area_sqm": 3754.3,
        "perimeter_m": 246.24,
        "source": "Synthetic Legacy Cadastral Map (Non-Authoritative Demo)"
      },
      "geometry": {
        "type": "Polygon",
        "coordinates": [
          [
            [
              77.5962384,
              13.0073455
            ],
            [
              77.5967352,
              13.007346
            ],
            [
              77.5967663,
              13.0067337
            ],
            [
              77.5962326,
              13.0067447
            ],
            [
              77.5962384,
              13.0073455
            ]
          ]
        ]
      }
    },
    {
      "type": "Feature",
      "properties": {
        "id": "train_066_REF_006",
        "parcel_id": "train_066_P_006",
        "parcel_layer": "REFERENCE",
        "boundary_representation": "REFERENCE",
        "land_use_class": "industrial",
        "area_sqm": 3523.1,
        "perimeter_m": 238.23,
        "source": "Synthetic Legacy Cadastral Map (Non-Authoritative Demo)"
      },
      "geometry": {
        "type": "Polygon",
        "coordinates": [
          [
            [
              77.5962339,
              13.0066351
            ],
            [
              77.5967585,
              13.0066276
            ],
            [
              77.5967233,
              13.0060559
            ],
            [
              77.5962344,
              13.0060496
            ],
            [
              77.5962339,
              13.0066351
            ]
          ]
        ]
      }
    },
    {
      "type": "Feature",
      "properties": {
        "id": "train_066_REF_007",
        "parcel_id": "train_066_P_007",
        "parcel_layer": "REFERENCE",
        "boundary_representation": "REFERENCE",
        "land_use_class": "industrial",
        "area_sqm": 3705.73,
        "perimeter_m": 244.7,
        "source": "Synthetic Legacy Cadastral Map (Non-Authoritative Demo)"
      },
      "geometry": {
        "type": "Polygon",
        "coordinates": [
          [
            [
              77.5967767,
              13.0072886
            ],
            [
              77.5973175,
              13.0073184
            ],
            [
              77.5973007,
              13.0066822
            ],
            [
              77.5967963,
              13.0067444
            ],
            [
              77.5967767,
              13.0072886
            ]
          ]
        ]
      }
    },
    {
      "type": "Feature",
      "properties": {
        "id": "train_066_REF_008",
        "parcel_id": "train_066_P_008",
        "parcel_layer": "REFERENCE",
        "boundary_representation": "REFERENCE",
        "land_use_class": "residential",
        "area_sqm": 3402.84,
        "perimeter_m": 236.36,
        "source": "Synthetic Legacy Cadastral Map (Non-Authoritative Demo)"
      },
      "geometry": {
        "type": "Polygon",
        "coordinates": [
          [
            [
              77.5968518,
              13.0066957
            ],
            [
              77.5973301,
              13.0066455
            ],
            [
              77.5973214,
              13.0060976
            ],
            [
              77.5968632,
              13.006034
            ],
            [
              77.5968518,
              13.0066957
            ]
          ]
        ]
      }
    },
    {
      "type": "Feature",
      "properties": {
        "id": "train_066_REF_009",
        "parcel_id": "train_066_P_009",
        "parcel_layer": "REFERENCE",
        "boundary_representation": "REFERENCE",
        "land_use_class": "residential",
        "area_sqm": 1731.15,
        "perimeter_m": 167.58,
        "source": "Synthetic Legacy Cadastral Map (Non-Authoritative Demo)"
      },
      "geometry": {
        "type": "Polygon",
        "coordinates": [
          [
            [
              77.5951218,
              13.0058259
            ],
            [
              77.5955347,
              13.0058219
            ],
            [
              77.5955059,
              13.0054584
            ],
            [
              77.5950721,
              13.0055143
            ],
            [
              77.5951218,
              13.0058259
            ]
          ]
        ]
      }
    },
    {
      "type": "Feature",
      "properties": {
        "id": "train_066_REF_010",
        "parcel_id": "train_066_P_010",
        "parcel_layer": "REFERENCE",
        "boundary_representation": "REFERENCE",
        "land_use_class": "commercial",
        "area_sqm": 1612.08,
        "perimeter_m": 162.94,
        "source": "Synthetic Legacy Cadastral Map (Non-Authoritative Demo)"
      },
      "geometry": {
        "type": "Polygon",
        "coordinates": [
          [
            [
              77.5950926,
              13.0054097
            ],
            [
              77.5955327,
              13.0054354
            ],
            [
              77.5955366,
              13.0051193
            ],
            [
              77.5951013,
              13.0051132
            ],
            [
              77.5950926,
              13.0054097
            ]
          ]
        ]
      }
    },
    {
      "type": "Feature",
      "properties": {
        "id": "train_066_REF_011",
        "parcel_id": "train_066_P_011",
        "parcel_layer": "REFERENCE",
        "boundary_representation": "REFERENCE",
        "land_use_class": "commercial",
        "area_sqm": 1432.24,
        "perimeter_m": 153.12,
        "source": "Synthetic Legacy Cadastral Map (Non-Authoritative Demo)"
      },
      "geometry": {
        "type": "Polygon",
        "coordinates": [
          [
            [
              77.5956204,
              13.0058121
            ],
            [
              77.5960065,
              13.0057788
            ],
            [
              77.5960201,
              13.005468
            ],
            [
              77.5956201,
              13.005515
            ],
            [
              77.5956204,
              13.0058121
            ]
          ]
        ]
      }
    },
    {
      "type": "Feature",
      "properties": {
        "id": "train_066_REF_012",
        "parcel_id": "train_066_P_012",
        "parcel_layer": "REFERENCE",
        "boundary_representation": "REFERENCE",
        "land_use_class": "mixed_use",
        "area_sqm": 1486.77,
        "perimeter_m": 157.9,
        "source": "Synthetic Legacy Cadastral Map (Non-Authoritative Demo)"
      },
      "geometry": {
        "type": "Polygon",
        "coordinates": [
          [
            [
              77.5956356,
              13.0054578
            ],
            [
              77.5960629,
              13.0054122
            ],
            [
              77.5960521,
              13.0051493
            ],
            [
              77.5956016,
              13.0051597
            ],
            [
              77.5956356,
              13.0054578
            ]
          ]
        ]
      }
    },
    {
      "type": "Feature",
      "properties": {
        "id": "train_066_REF_013",
        "parcel_id": "train_066_P_013",
        "parcel_layer": "REFERENCE",
        "boundary_representation": "REFERENCE",
        "land_use_class": "vegetation",
        "area_sqm": 1838.08,
        "perimeter_m": 177.71,
        "source": "Synthetic Legacy Cadastral Map (Non-Authoritative Demo)"
      },
      "geometry": {
        "type": "Polygon",
        "coordinates": [
          [
            [
              77.5962259,
              13.0057721
            ],
            [
              77.5967307,
              13.0057727
            ],
            [
              77.5967469,
              13.0054825
            ],
            [
              77.5962197,
              13.0054695
            ],
            [
              77.5962259,
              13.0057721
            ]
          ]
        ]
      }
    },
    {
      "type": "Feature",
      "properties": {
        "id": "train_066_REF_014",
        "parcel_id": "train_066_P_014",
        "parcel_layer": "REFERENCE",
        "boundary_representation": "REFERENCE",
        "land_use_class": "vacant",
        "area_sqm": 1761.4,
        "perimeter_m": 173.73,
        "source": "Synthetic Legacy Cadastral Map (Non-Authoritative Demo)"
      },
      "geometry": {
        "type": "Polygon",
        "coordinates": [
          [
            [
              77.5962587,
              13.0053991
            ],
            [
              77.5967086,
              13.005402
            ],
            [
              77.5967594,
              13.0051119
            ],
            [
              77.59622,
              13.0050967
            ],
            [
              77.5962587,
              13.0053991
            ]
          ]
        ]
      }
    },
    {
      "type": "Feature",
      "properties": {
        "id": "train_066_REF_015",
        "parcel_id": "train_066_P_015",
        "parcel_layer": "REFERENCE",
        "boundary_representation": "REFERENCE",
        "land_use_class": "vacant",
        "area_sqm": 1841.29,
        "perimeter_m": 179.76,
        "source": "Synthetic Legacy Cadastral Map (Non-Authoritative Demo)"
      },
      "geometry": {
        "type": "Polygon",
        "coordinates": [
          [
            [
              77.5967705,
              13.0057971
            ],
            [
              77.597325,
              13.0057769
            ],
            [
              77.5972924,
              13.0054873
            ],
            [
              77.5967769,
              13.005515
            ],
            [
              77.5967705,
              13.0057971
            ]
          ]
        ]
      }
    },
    {
      "type": "Feature",
      "properties": {
        "id": "train_066_REF_016",
        "parcel_id": "train_066_P_016",
        "parcel_layer": "REFERENCE",
        "boundary_representation": "REFERENCE",
        "land_use_class": "industrial",
        "area_sqm": 1920.71,
        "perimeter_m": 178.64,
        "source": "Synthetic Legacy Cadastral Map (Non-Authoritative Demo)"
      },
      "geometry": {
        "type": "Polygon",
        "coordinates": [
          [
            [
              77.596863,
              13.0054697
            ],
            [
              77.5973372,
              13.0054688
            ],
            [
              77.597302,
              13.0051436
            ],
            [
              77.5968164,
              13.0051274
            ],
            [
              77.596863,
              13.0054697
            ]
          ]
        ]
      }
    }
  ]
}