{
  "type": "FeatureCollection",
  "crs": {
    "type": "name",
    "properties": {
      "name": "EPSG:4326"
    }
  },
  "features": [
    {
      "type": "Feature",
      "properties": {
        "id": "train_059_BLDG_001",
        "parcel_id": "train_059_P_001",
        "area_sqm": 1248.87,
        "perimeter_m": 142.11,
        "centroid_lon": 77.6192942,
        "centroid_lat": 13.0040672,
        "height_m": 8.82,
        "confidence": 0.822,
        "temporal_epoch": "T1"
      },
      "geometry": {
        "type": "Polygon",
        "coordinates": [
          [
            [
              77.6191474,
              13.0042442
            ],
            [
              77.619441,
              13.0042442
            ],
            [
              77.619441,
              13.0038902
            ],
            [
              77.6191474,
              13.0038902
            ],
            [
              77.6191474,
              13.0042442
            ]
          ]
        ]
      }
    },
    {
      "type": "Feature",
      "properties": {
        "id": "train_059_BLDG_002",
        "parcel_id": "train_059_P_002",
        "area_sqm": 1248.87,
        "perimeter_m": 142.11,
        "centroid_lon": 77.6192942,
        "centroid_lat": 13.0035141,
        "height_m": 10.68,
        "confidence": 0.912,
        "temporal_epoch": "T1"
      },
      "geometry": {
        "type": "Polygon",
        "coordinates": [
          [
            [
              77.6191474,
              13.0036911
            ],
            [
              77.619441,
              13.0036911
            ],
            [
              77.619441,
              13.0033371
            ],
            [
              77.6191474,
              13.0033371
            ],
            [
              77.6191474,
              13.0036911
            ]
          ]
        ]
      }
    },
    {
      "type": "Feature",
      "properties": {
        "id": "train_059_BLDG_003",
        "parcel_id": "train_059_P_003",
        "area_sqm": 1965.18,
        "perimeter_m": 178.67,
        "centroid_lon": 77.6198846,
        "centroid_lat": 13.0040672,
        "height_m": 5.08,
        "confidence": 0.898,
        "temporal_epoch": "T1"
      },
      "geometry": {
        "type": "Polygon",
        "coordinates": [
          [
            [
              77.6196536,
              13.0042442
            ],
            [
              77.6201156,
              13.0042442
            ],
            [
              77.6201156,
              13.0038902
            ],
            [
              77.6196536,
              13.0038902
            ],
            [
              77.6196536,
              13.0042442
            ]
          ]
        ]
      }
    },
    {
      "type": "Feature",
      "properties": {
        "id": "train_059_BLDG_004",
        "parcel_id": "train_059_P_006",
        "area_sqm": 1364.57,
        "perimeter_m": 148.02,
        "centroid_lon": 77.6204787,
        "centroid_lat": 13.0035141,
        "height_m": 6.03,
        "confidence": 0.935,
        "temporal_epoch": "T1"
      },
      "geometry": {
        "type": "Polygon",
        "coordinates": [
          [
            [
              77.6203183,
              13.0036911
            ],
            [
              77.6206391,
              13.0036911
            ],
            [
              77.6206391,
              13.0033371
            ],
            [
              77.6203183,
              13.0033371
            ],
            [
              77.6203183,
              13.0036911
            ]
          ]
        ]
      }
    },
    {
      "type": "Feature",
      "properties": {
        "id": "train_059_BLDG_005",
        "parcel_id": "train_059_P_007",
        "area_sqm": 1364.57,
        "perimeter_m": 148.02,
        "centroid_lon": 77.6210318,
        "centroid_lat": 13.0040672,
        "height_m": 10.33,
        "confidence": 0.942,
        "temporal_epoch": "T1"
      },
      "geometry": {
        "type": "Polygon",
        "coordinates": [
          [
            [
              77.6208714,
              13.0042442
            ],
            [
              77.6211922,
              13.0042442
            ],
            [
              77.6211922,
              13.0038902
            ],
            [
              77.6208714,
              13.0038902
            ],
            [
              77.6208714,
              13.0042442
            ]
          ]
        ]
      }
    },
    {
      "type": "Feature",
      "properties": {
        "id": "train_059_BLDG_006",
        "parcel_id": "train_059_P_008",
        "area_sqm": 1364.57,
        "perimeter_m": 148.02,
        "centroid_lon": 77.6210318,
        "centroid_lat": 13.0035141,
        "height_m": 7.31,
        "confidence": 0.905,
        "temporal_epoch": "T1"
      },
      "geometry": {
        "type": "Polygon",
        "coordinates": [
          [
            [
              77.6208714,
              13.0036911
            ],
            [
              77.6211922,
              13.0036911
            ],
            [
              77.6211922,
              13.0033371
            ],
            [
              77.6208714,
              13.0033371
            ],
            [
              77.6208714,
              13.0036911
            ]
          ]
        ]
      }
    },
    {
      "type": "Feature",
      "properties": {
        "id": "train_059_BLDG_007",
        "parcel_id": "train_059_P_009",
        "area_sqm": 1058.37,
        "perimeter_m": 130.16,
        "centroid_lon": 77.6192942,
        "centroid_lat": 13.0027781,
        "height_m": 8.81,
        "confidence": 0.892,
        "temporal_epoch": "T1"
      },
      "geometry": {
        "type": "Polygon",
        "coordinates": [
          [
            [
              77.6191474,
              13.0029281
            ],
            [
              77.619441,
              13.0029281
            ],
            [
              77.619441,
              13.0026281
            ],
            [
              77.6191474,
              13.0026281
            ],
            [
              77.6191474,
              13.0029281
            ]
          ]
        ]
      }
    },
    {
      "type": "Feature",
      "properties": {
        "id": "train_059_BLDG_008",
        "parcel_id": "train_059_P_010",
        "area_sqm": 1058.37,
        "perimeter_m": 130.16,
        "centroid_lon": 77.6192942,
        "centroid_lat": 13.0023094,
        "height_m": 9.19,
        "confidence": 0.856,
        "temporal_epoch": "T1"
      },
      "geometry": {
        "type": "Polygon",
        "coordinates": [
          [
            [
              77.6191474,
              13.0024594
            ],
            [
              77.619441,
              13.0024594
            ],
            [
              77.619441,
              13.0021594
            ],
            [
              77.6191474,
              13.0021594
            ],
            [
              77.6191474,
              13.0024594
            ]
          ]
        ]
      }
    },
    {
      "type": "Feature",
      "properties": {
        "id": "train_059_BLDG_009",
        "parcel_id": "train_059_P_011",
        "area_sqm": 1058.37,
        "perimeter_m": 130.16,
        "centroid_lon": 77.6198004,
        "centroid_lat": 13.0027781,
        "height_m": 7.23,
        "confidence": 0.824,
        "temporal_epoch": "T1"
      },
      "geometry": {
        "type": "Polygon",
        "coordinates": [
          [
            [
              77.6196536,
              13.0029281
            ],
            [
              77.6199472,
              13.0029281
            ],
            [
              77.6199472,
              13.0026281
            ],
            [
              77.6196536,
              13.0026281
            ],
            [
              77.6196536,
              13.0029281
            ]
          ]
        ]
      }
    },
    {
      "type": "Feature",
      "properties": {
        "id": "train_059_BLDG_010",
        "parcel_id": "train_059_P_012",
        "area_sqm": 1058.37,
        "perimeter_m": 130.16,
        "centroid_lon": 77.6198004,
        "centroid_lat": 13.0023094,
        "height_m": 10.14,
        "confidence": 0.902,
        "temporal_epoch": "T1"
      },
      "geometry": {
        "type": "Polygon",
        "coordinates": [
          [
            [
              77.6196536,
              13.0024594
            ],
            [
              77.6199472,
              13.0024594
            ],
            [
              77.6199472,
              13.0021594
            ],
            [
              77.6196536,
              13.0021594
            ],
            [
              77.6196536,
              13.0024594
            ]
          ]
        ]
      }
    }
  ]
}