{
  "type": "FeatureCollection",
  "crs": {
    "type": "name",
    "properties": {
      "name": "EPSG:4326"
    }
  },
  "features": [
    {
      "type": "Feature",
      "properties": {
        "id": "train_052_BND_001",
        "parcel_id": "train_052_P_001",
        "boundary_type": "VISIBLE",
        "confidence": 0.879,
        "length_m": 45.7,
        "evidence_sources": [
          "Drone_RGB_Edge",
          "DSM_Breakline"
        ]
      },
      "geometry": {
        "type": "LineString",
        "coordinates": [
          [
            77.5980656,
            13.0043227
          ],
          [
            77.5984862,
            13.0043403
          ]
        ]
      }
    },
    {
      "type": "Feature",
      "properties": {
        "id": "train_052_BND_002",
        "parcel_id": "train_052_P_001",
        "boundary_type": "INFERRED",
        "confidence": 0.77,
        "length_m": 60.85,
        "evidence_sources": [
          "Road_Corridor_Offset",
          "Adjacent_Parcel_Topology"
        ]
      },
      "geometry": {
        "type": "LineString",
        "coordinates": [
          [
            77.5984862,
            13.0043403
          ],
          [
            77.5984948,
            13.0037907
          ]
        ]
      }
    },
    {
      "type": "Feature",
      "properties": {
        "id": "train_052_BND_003",
        "parcel_id": "train_052_P_001",
        "boundary_type": "INFERRED",
        "confidence": 0.618,
        "length_m": 47.17,
        "evidence_sources": [
          "Road_Corridor_Offset",
          "Adjacent_Parcel_Topology"
        ]
      },
      "geometry": {
        "type": "LineString",
        "coordinates": [
          [
            77.5984948,
            13.0037907
          ],
          [
            77.5980603,
            13.0037962
          ]
        ]
      }
    },
    {
      "type": "Feature",
      "properties": {
        "id": "train_052_BND_004",
        "parcel_id": "train_052_P_001",
        "boundary_type": "VISIBLE",
        "confidence": 0.892,
        "length_m": 58.28,
        "evidence_sources": [
          "Drone_RGB_Edge",
          "DSM_Breakline"
        ]
      },
      "geometry": {
        "type": "LineString",
        "coordinates": [
          [
            77.5980603,
            13.0037962
          ],
          [
            77.5980656,
            13.0043227
          ]
        ]
      }
    },
    {
      "type": "Feature",
      "properties": {
        "id": "train_052_BND_005",
        "parcel_id": "train_052_P_002",
        "boundary_type": "INFERRED",
        "confidence": 0.671,
        "length_m": 46.69,
        "evidence_sources": [
          "Road_Corridor_Offset",
          "Adjacent_Parcel_Topology"
        ]
      },
      "geometry": {
        "type": "LineString",
        "coordinates": [
          [
            77.5980722,
            13.0037826
          ],
          [
            77.5985023,
            13.0037829
          ]
        ]
      }
    },
    {
      "type": "Feature",
      "properties": {
        "id": "train_052_BND_006",
        "parcel_id": "train_052_P_002",
        "boundary_type": "VISIBLE",
        "confidence": 0.897,
        "length_m": 58.98,
        "evidence_sources": [
          "Drone_RGB_Edge",
          "DSM_Breakline"
        ]
      },
      "geometry": {
        "type": "LineString",
        "coordinates": [
          [
            77.5985023,
            13.0037829
          ],
          [
            77.5985032,
            13.0032501
          ]
        ]
      }
    },
    {
      "type": "Feature",
      "properties": {
        "id": "train_052_BND_007",
        "parcel_id": "train_052_P_002",
        "boundary_type": "VISIBLE",
        "confidence": 0.911,
        "length_m": 47.24,
        "evidence_sources": [
          "Drone_RGB_Edge",
          "DSM_Breakline"
        ]
      },
      "geometry": {
        "type": "LineString",
        "coordinates": [
          [
            77.5985032,
            13.0032501
          ],
          [
            77.598068,
            13.003253
          ]
        ]
      }
    },
    {
      "type": "Feature",
      "properties": {
        "id": "train_052_BND_008",
        "parcel_id": "train_052_P_002",
        "boundary_type": "VISIBLE",
        "confidence": 0.926,
        "length_m": 58.63,
        "evidence_sources": [
          "Drone_RGB_Edge",
          "DSM_Breakline"
        ]
      },
      "geometry": {
        "type": "LineString",
        "coordinates": [
          [
            77.598068,
            13.003253
          ],
          [
            77.5980722,
            13.0037826
          ]
        ]
      }
    },
    {
      "type": "Feature",
      "properties": {
        "id": "train_052_BND_009",
        "parcel_id": "train_052_P_003",
        "boundary_type": "VISIBLE",
        "confidence": 0.952,
        "length_m": 44.39,
        "evidence_sources": [
          "Drone_RGB_Edge",
          "DSM_Breakline"
        ]
      },
      "geometry": {
        "type": "LineString",
        "coordinates": [
          [
            77.5985275,
            13.0043418
          ],
          [
            77.5989364,
            13.0043334
          ]
        ]
      }
    },
    {
      "type": "Feature",
      "properties": {
        "id": "train_052_BND_010",
        "parcel_id": "train_052_P_003",
        "boundary_type": "VISIBLE",
        "confidence": 0.916,
        "length_m": 58.49,
        "evidence_sources": [
          "Drone_RGB_Edge",
          "DSM_Breakline"
        ]
      },
      "geometry": {
        "type": "LineString",
        "coordinates": [
          [
            77.5989364,
            13.0043334
          ],
          [
            77.5989517,
            13.0038052
          ]
        ]
      }
    },
    {
      "type": "Feature",
      "properties": {
        "id": "train_052_BND_011",
        "parcel_id": "train_052_P_003",
        "boundary_type": "VISIBLE",
        "confidence": 0.953,
        "length_m": 45.96,
        "evidence_sources": [
          "Drone_RGB_Edge",
          "DSM_Breakline"
        ]
      },
      "geometry": {
        "type": "LineString",
        "coordinates": [
          [
            77.5989517,
            13.0038052
          ],
          [
            77.5985283,
            13.0038019
          ]
        ]
      }
    },
    {
      "type": "Feature",
      "properties": {
        "id": "train_052_BND_012",
        "parcel_id": "train_052_P_003",
        "boundary_type": "VISIBLE",
        "confidence": 0.85,
        "length_m": 59.76,
        "evidence_sources": [
          "Drone_RGB_Edge",
          "DSM_Breakline"
        ]
      },
      "geometry": {
        "type": "LineString",
        "coordinates": [
          [
            77.5985283,
            13.0038019
          ],
          [
            77.5985275,
            13.0043418
          ]
        ]
      }
    },
    {
      "type": "Feature",
      "properties": {
        "id": "train_052_BND_013",
        "parcel_id": "train_052_P_004",
        "boundary_type": "VISIBLE",
        "confidence": 0.937,
        "length_m": 47.02,
        "evidence_sources": [
          "Drone_RGB_Edge",
          "DSM_Breakline"
        ]
      },
      "geometry": {
        "type": "LineString",
        "coordinates": [
          [
            77.5985165,
            13.0037724
          ],
          [
            77.5989497,
            13.0037739
          ]
        ]
      }
    },
    {
      "type": "Feature",
      "properties": {
        "id": "train_052_BND_014",
        "parcel_id": "train_052_P_004",
        "boundary_type": "VISIBLE",
        "confidence": 0.914,
        "length_m": 58.89,
        "evidence_sources": [
          "Drone_RGB_Edge",
          "DSM_Breakline"
        ]
      },
      "geometry": {
        "type": "LineString",
        "coordinates": [
          [
            77.5989497,
            13.0037739
          ],
          [
            77.5989382,
            13.003242
          ]
        ]
      }
    },
    {
      "type": "Feature",
      "properties": {
        "id": "train_052_BND_015",
        "parcel_id": "train_052_P_004",
        "boundary_type": "VISIBLE",
        "confidence": 0.837,
        "length_m": 46.6,
        "evidence_sources": [
          "Drone_RGB_Edge",
          "DSM_Breakline"
        ]
      },
      "geometry": {
        "type": "LineString",
        "coordinates": [
          [
            77.5989382,
            13.003242
          ],
          [
            77.5985089,
            13.0032448
          ]
        ]
      }
    },
    {
      "type": "Feature",
      "properties": {
        "id": "train_052_BND_016",
        "parcel_id": "train_052_P_004",
        "boundary_type": "VISIBLE",
        "confidence": 0.838,
        "length_m": 58.41,
        "evidence_sources": [
          "Drone_RGB_Edge",
          "DSM_Breakline"
        ]
      },
      "geometry": {
        "type": "LineString",
        "coordinates": [
          [
            77.5985089,
            13.0032448
          ],
          [
            77.5985165,
            13.0037724
          ]
        ]
      }
    },
    {
      "type": "Feature",
      "properties": {
        "id": "train_052_BND_017",
        "parcel_id": "train_052_P_005",
        "boundary_type": "VISIBLE",
        "confidence": 0.931,
        "length_m": 64.41,
        "evidence_sources": [
          "Drone_RGB_Edge",
          "DSM_Breakline"
        ]
      },
      "geometry": {
        "type": "LineString",
        "coordinates": [
          [
            77.599116,
            13.00434
          ],
          [
            77.5997094,
            13.0043362
          ]
        ]
      }
    },
    {
      "type": "Feature",
      "properties": {
        "id": "train_052_BND_018",
        "parcel_id": "train_052_P_005",
        "boundary_type": "VISIBLE",
        "confidence": 0.853,
        "length_m": 58.01,
        "evidence_sources": [
          "Drone_RGB_Edge",
          "DSM_Breakline"
        ]
      },
      "geometry": {
        "type": "LineString",
        "coordinates": [
          [
            77.5997094,
            13.0043362
          ],
          [
            77.5996962,
            13.0038123
          ]
        ]
      }
    },
    {
      "type": "Feature",
      "properties": {
        "id": "train_052_BND_019",
        "parcel_id": "train_052_P_005",
        "boundary_type": "VISIBLE",
        "confidence": 0.9,
        "length_m": 62.91,
        "evidence_sources": [
          "Drone_RGB_Edge",
          "DSM_Breakline"
        ]
      },
      "geometry": {
        "type": "LineString",
        "coordinates": [
          [
            77.5996962,
            13.0038123
          ],
          [
            77.5991166,
            13.0038127
          ]
        ]
      }
    },
    {
      "type": "Feature",
      "properties": {
        "id": "train_052_BND_020",
        "parcel_id": "train_052_P_005",
        "boundary_type": "VISIBLE",
        "confidence": 0.918,
        "length_m": 58.37,
        "evidence_sources": [
          "Drone_RGB_Edge",
          "DSM_Breakline"
        ]
      },
      "geometry": {
        "type": "LineString",
        "coordinates": [
          [
            77.5991166,
            13.0038127
          ],
          [
            77.599116,
            13.00434
          ]
        ]
      }
    },
    {
      "type": "Feature",
      "properties": {
        "id": "train_052_BND_021",
        "parcel_id": "train_052_P_006",
        "boundary_type": "VISIBLE",
        "confidence": 0.942,
        "length_m": 64.39,
        "evidence_sources": [
          "Drone_RGB_Edge",
          "DSM_Breakline"
        ]
      },
      "geometry": {
        "type": "LineString",
        "coordinates": [
          [
            77.5991203,
            13.0037825
          ],
          [
            77.5997135,
            13.0037766
          ]
        ]
      }
    },
    {
      "type": "Feature",
      "properties": {
        "id": "train_052_BND_022",
        "parcel_id": "train_052_P_006",
        "boundary_type": "VISIBLE",
        "confidence": 0.936,
        "length_m": 57.81,
        "evidence_sources": [
          "Drone_RGB_Edge",
          "DSM_Breakline"
        ]
      },
      "geometry": {
        "type": "LineString",
        "coordinates": [
          [
            77.5997135,
            13.0037766
          ],
          [
            77.5997116,
            13.0032544
          ]
        ]
      }
    },
    {
      "type": "Feature",
      "properties": {
        "id": "train_052_BND_023",
        "parcel_id": "train_052_P_006",
        "boundary_type": "VISIBLE",
        "confidence": 0.866,
        "length_m": 65.29,
        "evidence_sources": [
          "Drone_RGB_Edge",
          "DSM_Breakline"
        ]
      },
      "geometry": {
        "type": "LineString",
        "coordinates": [
          [
            77.5997116,
            13.0032544
          ],
          [
            77.5991103,
            13.0032383
          ]
        ]
      }
    },
    {
      "type": "Feature",
      "properties": {
        "id": "train_052_BND_024",
        "parcel_id": "train_052_P_006",
        "boundary_type": "VISIBLE",
        "confidence": 0.895,
        "length_m": 60.25,
        "evidence_sources": [
          "Drone_RGB_Edge",
          "DSM_Breakline"
        ]
      },
      "geometry": {
        "type": "LineString",
        "coordinates": [
          [
            77.5991103,
            13.0032383
          ],
          [
            77.5991203,
            13.0037825
          ]
        ]
      }
    },
    {
      "type": "Feature",
      "properties": {
        "id": "train_052_BND_025",
        "parcel_id": "train_052_P_007",
        "boundary_type": "VISIBLE",
        "confidence": 0.956,
        "length_m": 62.51,
        "evidence_sources": [
          "Drone_RGB_Edge",
          "DSM_Breakline"
        ]
      },
      "geometry": {
        "type": "LineString",
        "coordinates": [
          [
            77.5997357,
            13.0043366
          ],
          [
            77.6003115,
            13.0043263
          ]
        ]
      }
    },
    {
      "type": "Feature",
      "properties": {
        "id": "train_052_BND_026",
        "parcel_id": "train_052_P_007",
        "boundary_type": "INFERRED",
        "confidence": 0.652,
        "length_m": 57.77,
        "evidence_sources": [
          "Road_Corridor_Offset",
          "Adjacent_Parcel_Topology"
        ]
      },
      "geometry": {
        "type": "LineString",
        "coordinates": [
          [
            77.6003115,
            13.0043263
          ],
          [
            77.600322,
            13.0038045
          ]
        ]
      }
    },
    {
      "type": "Feature",
      "properties": {
        "id": "train_052_BND_027",
        "parcel_id": "train_052_P_007",
        "boundary_type": "INFERRED",
        "confidence": 0.684,
        "length_m": 64.59,
        "evidence_sources": [
          "Road_Corridor_Offset",
          "Adjacent_Parcel_Topology"
        ]
      },
      "geometry": {
        "type": "LineString",
        "coordinates": [
          [
            77.600322,
            13.0038045
          ],
          [
            77.5997271,
            13.003791
          ]
        ]
      }
    },
    {
      "type": "Feature",
      "properties": {
        "id": "train_052_BND_028",
        "parcel_id": "train_052_P_007",
        "boundary_type": "VISIBLE",
        "confidence": 0.854,
        "length_m": 60.4,
        "evidence_sources": [
          "Drone_RGB_Edge",
          "DSM_Breakline"
        ]
      },
      "geometry": {
        "type": "LineString",
        "coordinates": [
          [
            77.5997271,
            13.003791
          ],
          [
            77.5997357,
            13.0043366
          ]
        ]
      }
    },
    {
      "type": "Feature",
      "properties": {
        "id": "train_052_BND_029",
        "parcel_id": "train_052_P_008",
        "boundary_type": "VISIBLE",
        "confidence": 0.856,
        "length_m": 62.64,
        "evidence_sources": [
          "Drone_RGB_Edge",
          "DSM_Breakline"
        ]
      },
      "geometry": {
        "type": "LineString",
        "coordinates": [
          [
            77.5997338,
            13.0037748
          ],
          [
            77.6003108,
            13.003782
          ]
        ]
      }
    },
    {
      "type": "Feature",
      "properties": {
        "id": "train_052_BND_030",
        "parcel_id": "train_052_P_008",
        "boundary_type": "INFERRED",
        "confidence": 0.689,
        "length_m": 58.87,
        "evidence_sources": [
          "Road_Corridor_Offset",
          "Adjacent_Parcel_Topology"
        ]
      },
      "geometry": {
        "type": "LineString",
        "coordinates": [
          [
            77.6003108,
            13.003782
          ],
          [
            77.6003178,
            13.0032502
          ]
        ]
      }
    },
    {
      "type": "Feature",
      "properties": {
        "id": "train_052_BND_031",
        "parcel_id": "train_052_P_008",
        "boundary_type": "INFERRED",
        "confidence": 0.734,
        "length_m": 64.19,
        "evidence_sources": [
          "Road_Corridor_Offset",
          "Adjacent_Parcel_Topology"
        ]
      },
      "geometry": {
        "type": "LineString",
        "coordinates": [
          [
            77.6003178,
            13.0032502
          ],
          [
            77.5997264,
            13.0032483
          ]
        ]
      }
    },
    {
      "type": "Feature",
      "properties": {
        "id": "train_052_BND_032",
        "parcel_id": "train_052_P_008",
        "boundary_type": "VISIBLE",
        "confidence": 0.934,
        "length_m": 58.29,
        "evidence_sources": [
          "Drone_RGB_Edge",
          "DSM_Breakline"
        ]
      },
      "geometry": {
        "type": "LineString",
        "coordinates": [
          [
            77.5997264,
            13.0032483
          ],
          [
            77.5997338,
            13.0037748
          ]
        ]
      }
    },
    {
      "type": "Feature",
      "properties": {
        "id": "train_052_BND_033",
        "parcel_id": "train_052_P_009",
        "boundary_type": "VISIBLE",
        "confidence": 0.85,
        "length_m": 47.11,
        "evidence_sources": [
          "Drone_RGB_Edge",
          "DSM_Breakline"
        ]
      },
      "geometry": {
        "type": "LineString",
        "coordinates": [
          [
            77.5980657,
            13.0029929
          ],
          [
            77.5984996,
            13.0030015
          ]
        ]
      }
    },
    {
      "type": "Feature",
      "properties": {
        "id": "train_052_BND_034",
        "parcel_id": "train_052_P_009",
        "boundary_type": "INFERRED",
        "confidence": 0.789,
        "length_m": 49.81,
        "evidence_sources": [
          "Road_Corridor_Offset",
          "Adjacent_Parcel_Topology"
        ]
      },
      "geometry": {
        "type": "LineString",
        "coordinates": [
          [
            77.5984996,
            13.0030015
          ],
          [
            77.5984994,
            13.0025515
          ]
        ]
      }
    },
    {
      "type": "Feature",
      "properties": {
        "id": "train_052_BND_035",
        "parcel_id": "train_052_P_009",
        "boundary_type": "VISIBLE",
        "confidence": 0.934,
        "length_m": 46.16,
        "evidence_sources": [
          "Drone_RGB_Edge",
          "DSM_Breakline"
        ]
      },
      "geometry": {
        "type": "LineString",
        "coordinates": [
          [
            77.5984994,
            13.0025515
          ],
          [
            77.5980743,
            13.0025623
          ]
        ]
      }
    },
    {
      "type": "Feature",
      "properties": {
        "id": "train_052_BND_036",
        "parcel_id": "train_052_P_009",
        "boundary_type": "VISIBLE",
        "confidence": 0.926,
        "length_m": 47.67,
        "evidence_sources": [
          "Drone_RGB_Edge",
          "DSM_Breakline"
        ]
      },
      "geometry": {
        "type": "LineString",
        "coordinates": [
          [
            77.5980743,
            13.0025623
          ],
          [
            77.5980657,
            13.0029929
          ]
        ]
      }
    },
    {
      "type": "Feature",
      "properties": {
        "id": "train_052_BND_037",
        "parcel_id": "train_052_P_010",
        "boundary_type": "VISIBLE",
        "confidence": 0.857,
        "length_m": 45.98,
        "evidence_sources": [
          "Drone_RGB_Edge",
          "DSM_Breakline"
        ]
      },
      "geometry": {
        "type": "LineString",
        "coordinates": [
          [
            77.5980656,
            13.0025365
          ],
          [
            77.5984892,
            13.0025351
          ]
        ]
      }
    },
    {
      "type": "Feature",
      "properties": {
        "id": "train_052_BND_038",
        "parcel_id": "train_052_P_010",
        "boundary_type": "VISIBLE",
        "confidence": 0.946,
        "length_m": 49.18,
        "evidence_sources": [
          "Drone_RGB_Edge",
          "DSM_Breakline"
        ]
      },
      "geometry": {
        "type": "LineString",
        "coordinates": [
          [
            77.5984892,
            13.0025351
          ],
          [
            77.5984981,
            13.0020909
          ]
        ]
      }
    },
    {
      "type": "Feature",
      "properties": {
        "id": "train_052_BND_039",
        "parcel_id": "train_052_P_010",
        "boundary_type": "INFERRED",
        "confidence": 0.724,
        "length_m": 46.2,
        "evidence_sources": [
          "Road_Corridor_Offset",
          "Adjacent_Parcel_Topology"
        ]
      },
      "geometry": {
        "type": "LineString",
        "coordinates": [
          [
            77.5984981,
            13.0020909
          ],
          [
            77.5980727,
            13.0020786
          ]
        ]
      }
    },
    {
      "type": "Feature",
      "properties": {
        "id": "train_052_BND_040",
        "parcel_id": "train_052_P_010",
        "boundary_type": "INFERRED",
        "confidence": 0.735,
        "length_m": 50.69,
        "evidence_sources": [
          "Road_Corridor_Offset",
          "Adjacent_Parcel_Topology"
        ]
      },
      "geometry": {
        "type": "LineString",
        "coordinates": [
          [
            77.5980727,
            13.0020786
          ],
          [
            77.5980656,
            13.0025365
          ]
        ]
      }
    },
    {
      "type": "Feature",
      "properties": {
        "id": "train_052_BND_041",
        "parcel_id": "train_052_P_011",
        "boundary_type": "INFERRED",
        "confidence": 0.649,
        "length_m": 46.79,
        "evidence_sources": [
          "Road_Corridor_Offset",
          "Adjacent_Parcel_Topology"
        ]
      },
      "geometry": {
        "type": "LineString",
        "coordinates": [
          [
            77.598515,
            13.0029957
          ],
          [
            77.5989459,
            13.003007
          ]
        ]
      }
    },
    {
      "type": "Feature",
      "properties": {
        "id": "train_052_BND_042",
        "parcel_id": "train_052_P_011",
        "boundary_type": "VISIBLE",
        "confidence": 0.847,
        "length_m": 49.12,
        "evidence_sources": [
          "Drone_RGB_Edge",
          "DSM_Breakline"
        ]
      },
      "geometry": {
        "type": "LineString",
        "coordinates": [
          [
            77.5989459,
            13.003007
          ],
          [
            77.5989475,
            13.0025633
          ]
        ]
      }
    },
    {
      "type": "Feature",
      "properties": {
        "id": "train_052_BND_043",
        "parcel_id": "train_052_P_011",
        "boundary_type": "VISIBLE",
        "confidence": 0.96,
        "length_m": 46.95,
        "evidence_sources": [
          "Drone_RGB_Edge",
          "DSM_Breakline"
        ]
      },
      "geometry": {
        "type": "LineString",
        "coordinates": [
          [
            77.5989475,
            13.0025633
          ],
          [
            77.598515,
            13.002561
          ]
        ]
      }
    },
    {
      "type": "Feature",
      "properties": {
        "id": "train_052_BND_044",
        "parcel_id": "train_052_P_011",
        "boundary_type": "INFERRED",
        "confidence": 0.695,
        "length_m": 48.12,
        "evidence_sources": [
          "Road_Corridor_Offset",
          "Adjacent_Parcel_Topology"
        ]
      },
      "geometry": {
        "type": "LineString",
        "coordinates": [
          [
            77.598515,
            13.002561
          ],
          [
            77.598515,
            13.0029957
          ]
        ]
      }
    },
    {
      "type": "Feature",
      "properties": {
        "id": "train_052_BND_045",
        "parcel_id": "train_052_P_012",
        "boundary_type": "VISIBLE",
        "confidence": 0.952,
        "length_m": 47.34,
        "evidence_sources": [
          "Drone_RGB_Edge",
          "DSM_Breakline"
        ]
      },
      "geometry": {
        "type": "LineString",
        "coordinates": [
          [
            77.5985065,
            13.002532
          ],
          [
            77.5989426,
            13.0025392
          ]
        ]
      }
    },
    {
      "type": "Feature",
      "properties": {
        "id": "train_052_BND_046",
        "parcel_id": "train_052_P_012",
        "boundary_type": "VISIBLE",
        "confidence": 0.825,
        "length_m": 50.64,
        "evidence_sources": [
          "Drone_RGB_Edge",
          "DSM_Breakline"
        ]
      },
      "geometry": {
        "type": "LineString",
        "coordinates": [
          [
            77.5989426,
            13.0025392
          ],
          [
            77.5989428,
            13.0020817
          ]
        ]
      }
    },
    {
      "type": "Feature",
      "properties": {
        "id": "train_052_BND_047",
        "parcel_id": "train_052_P_012",
        "boundary_type": "VISIBLE",
        "confidence": 0.911,
        "length_m": 47.14,
        "evidence_sources": [
          "Drone_RGB_Edge",
          "DSM_Breakline"
        ]
      },
      "geometry": {
        "type": "LineString",
        "coordinates": [
          [
            77.5989428,
            13.0020817
          ],
          [
            77.5985085,
            13.0020792
          ]
        ]
      }
    },
    {
      "type": "Feature",
      "properties": {
        "id": "train_052_BND_048",
        "parcel_id": "train_052_P_012",
        "boundary_type": "VISIBLE",
        "confidence": 0.959,
        "length_m": 50.12,
        "evidence_sources": [
          "Drone_RGB_Edge",
          "DSM_Breakline"
        ]
      },
      "geometry": {
        "type": "LineString",
        "coordinates": [
          [
            77.5985085,
            13.0020792
          ],
          [
            77.5985065,
            13.002532
          ]
        ]
      }
    },
    {
      "type": "Feature",
      "properties": {
        "id": "train_052_BND_049",
        "parcel_id": "train_052_P_013",
        "boundary_type": "VISIBLE",
        "confidence": 0.959,
        "length_m": 64.61,
        "evidence_sources": [
          "Drone_RGB_Edge",
          "DSM_Breakline"
        ]
      },
      "geometry": {
        "type": "LineString",
        "coordinates": [
          [
            77.5991143,
            13.0030066
          ],
          [
            77.5997095,
            13.0030072
          ]
        ]
      }
    },
    {
      "type": "Feature",
      "properties": {
        "id": "train_052_BND_050",
        "parcel_id": "train_052_P_013",
        "boundary_type": "INFERRED",
        "confidence": 0.748,
        "length_m": 49.17,
        "evidence_sources": [
          "Road_Corridor_Offset",
          "Adjacent_Parcel_Topology"
        ]
      },
      "geometry": {
        "type": "LineString",
        "coordinates": [
          [
            77.5997095,
            13.0030072
          ],
          [
            77.5996966,
            13.0025632
          ]
        ]
      }
    },
    {
      "type": "Feature",
      "properties": {
        "id": "train_052_BND_051",
        "parcel_id": "train_052_P_013",
        "boundary_type": "VISIBLE",
        "confidence": 0.834,
        "length_m": 63.11,
        "evidence_sources": [
          "Drone_RGB_Edge",
          "DSM_Breakline"
        ]
      },
      "geometry": {
        "type": "LineString",
        "coordinates": [
          [
            77.5996966,
            13.0025632
          ],
          [
            77.5991152,
            13.0025646
          ]
        ]
      }
    },
    {
      "type": "Feature",
      "properties": {
        "id": "train_052_BND_052",
        "parcel_id": "train_052_P_013",
        "boundary_type": "VISIBLE",
        "confidence": 0.902,
        "length_m": 48.93,
        "evidence_sources": [
          "Drone_RGB_Edge",
          "DSM_Breakline"
        ]
      },
      "geometry": {
        "type": "LineString",
        "coordinates": [
          [
            77.5991152,
            13.0025646
          ],
          [
            77.5991143,
            13.0030066
          ]
        ]
      }
    },
    {
      "type": "Feature",
      "properties": {
        "id": "train_052_BND_053",
        "parcel_id": "train_052_P_014",
        "boundary_type": "VISIBLE",
        "confidence": 0.946,
        "length_m": 64.32,
        "evidence_sources": [
          "Drone_RGB_Edge",
          "DSM_Breakline"
        ]
      },
      "geometry": {
        "type": "LineString",
        "coordinates": [
          [
            77.5991096,
            13.0025237
          ],
          [
            77.5997022,
            13.0025235
          ]
        ]
      }
    },
    {
      "type": "Feature",
      "properties": {
        "id": "train_052_BND_054",
        "parcel_id": "train_052_P_014",
        "boundary_type": "INFERRED",
        "confidence": 0.643,
        "length_m": 48.29,
        "evidence_sources": [
          "Road_Corridor_Offset",
          "Adjacent_Parcel_Topology"
        ]
      },
      "geometry": {
        "type": "LineString",
        "coordinates": [
          [
            77.5997022,
            13.0025235
          ],
          [
            77.5996969,
            13.0020873
          ]
        ]
      }
    },
    {
      "type": "Feature",
      "properties": {
        "id": "train_052_BND_055",
        "parcel_id": "train_052_P_014",
        "boundary_type": "VISIBLE",
        "confidence": 0.933,
        "length_m": 63.27,
        "evidence_sources": [
          "Drone_RGB_Edge",
          "DSM_Breakline"
        ]
      },
      "geometry": {
        "type": "LineString",
        "coordinates": [
          [
            77.5996969,
            13.0020873
          ],
          [
            77.599114,
            13.0020865
          ]
        ]
      }
    },
    {
      "type": "Feature",
      "properties": {
        "id": "train_052_BND_056",
        "parcel_id": "train_052_P_014",
        "boundary_type": "VISIBLE",
        "confidence": 0.849,
        "length_m": 48.4,
        "evidence_sources": [
          "Drone_RGB_Edge",
          "DSM_Breakline"
        ]
      },
      "geometry": {
        "type": "LineString",
        "coordinates": [
          [
            77.599114,
            13.0020865
          ],
          [
            77.5991096,
            13.0025237
          ]
        ]
      }
    },
    {
      "type": "Feature",
      "properties": {
        "id": "train_052_BND_057",
        "parcel_id": "train_052_P_015",
        "boundary_type": "INFERRED",
        "confidence": 0.612,
        "length_m": 64.31,
        "evidence_sources": [
          "Road_Corridor_Offset",
          "Adjacent_Parcel_Topology"
        ]
      },
      "geometry": {
        "type": "LineString",
        "coordinates": [
          [
            77.5997264,
            13.0029951
          ],
          [
            77.6003188,
            13.0030002
          ]
        ]
      }
    },
    {
      "type": "Feature",
      "properties": {
        "id": "train_052_BND_058",
        "parcel_id": "train_052_P_015",
        "boundary_type": "VISIBLE",
        "confidence": 0.957,
        "length_m": 49.0,
        "evidence_sources": [
          "Drone_RGB_Edge",
          "DSM_Breakline"
        ]
      },
      "geometry": {
        "type": "LineString",
        "coordinates": [
          [
            77.6003188,
            13.0030002
          ],
          [
            77.6003232,
            13.0025576
          ]
        ]
      }
    },
    {
      "type": "Feature",
      "properties": {
        "id": "train_052_BND_059",
        "parcel_id": "train_052_P_015",
        "boundary_type": "VISIBLE",
        "confidence": 0.873,
        "length_m": 64.86,
        "evidence_sources": [
          "Drone_RGB_Edge",
          "DSM_Breakline"
        ]
      },
      "geometry": {
        "type": "LineString",
        "coordinates": [
          [
            77.6003232,
            13.0025576
          ],
          [
            77.5997257,
            13.0025554
          ]
        ]
      }
    },
    {
      "type": "Feature",
      "properties": {
        "id": "train_052_BND_060",
        "parcel_id": "train_052_P_015",
        "boundary_type": "VISIBLE",
        "confidence": 0.9,
        "length_m": 48.67,
        "evidence_sources": [
          "Drone_RGB_Edge",
          "DSM_Breakline"
        ]
      },
      "geometry": {
        "type": "LineString",
        "coordinates": [
          [
            77.5997257,
            13.0025554
          ],
          [
            77.5997264,
            13.0029951
          ]
        ]
      }
    },
    {
      "type": "Feature",
      "properties": {
        "id": "train_052_BND_061",
        "parcel_id": "train_052_P_016",
        "boundary_type": "VISIBLE",
        "confidence": 0.897,
        "length_m": 63.98,
        "evidence_sources": [
          "Drone_RGB_Edge",
          "DSM_Breakline"
        ]
      },
      "geometry": {
        "type": "LineString",
        "coordinates": [
          [
            77.5997285,
            13.0025257
          ],
          [
            77.6003179,
            13.0025252
          ]
        ]
      }
    },
    {
      "type": "Feature",
      "properties": {
        "id": "train_052_BND_062",
        "parcel_id": "train_052_P_016",
        "boundary_type": "VISIBLE",
        "confidence": 0.929,
        "length_m": 48.67,
        "evidence_sources": [
          "Drone_RGB_Edge",
          "DSM_Breakline"
        ]
      },
      "geometry": {
        "type": "LineString",
        "coordinates": [
          [
            77.6003179,
            13.0025252
          ],
          [
            77.6003154,
            13.0020855
          ]
        ]
      }
    },
    {
      "type": "Feature",
      "properties": {
        "id": "train_052_BND_063",
        "parcel_id": "train_052_P_016",
        "boundary_type": "VISIBLE",
        "confidence": 0.833,
        "length_m": 63.76,
        "evidence_sources": [
          "Drone_RGB_Edge",
          "DSM_Breakline"
        ]
      },
      "geometry": {
        "type": "LineString",
        "coordinates": [
          [
            77.6003154,
            13.0020855
          ],
          [
            77.5997281,
            13.0020946
          ]
        ]
      }
    },
    {
      "type": "Feature",
      "properties": {
        "id": "train_052_BND_064",
        "parcel_id": "train_052_P_016",
        "boundary_type": "VISIBLE",
        "confidence": 0.9,
        "length_m": 47.72,
        "evidence_sources": [
          "Drone_RGB_Edge",
          "DSM_Breakline"
        ]
      },
      "geometry": {
        "type": "LineString",
        "coordinates": [
          [
            77.5997281,
            13.0020946
          ],
          [
            77.5997285,
            13.0025257
          ]
        ]
      }
    }
  ]
}