{
  "type": "FeatureCollection",
  "crs": {
    "type": "name",
    "properties": {
      "name": "EPSG:4326"
    }
  },
  "features": [
    {
      "type": "Feature",
      "properties": {
        "id": "train_052_BLDG_001",
        "parcel_id": "train_052_P_002",
        "area_sqm": 1110.59,
        "perimeter_m": 135.06,
        "centroid_lon": 77.5982677,
        "centroid_lat": 13.0035141,
        "height_m": 8.67,
        "confidence": 0.867,
        "temporal_epoch": "T1"
      },
      "geometry": {
        "type": "Polygon",
        "coordinates": [
          [
            [
              77.5981372,
              13.0036911
            ],
            [
              77.5983983,
              13.0036911
            ],
            [
              77.5983983,
              13.0033371
            ],
            [
              77.5981372,
              13.0033371
            ],
            [
              77.5981372,
              13.0036911
            ]
          ]
        ]
      }
    },
    {
      "type": "Feature",
      "properties": {
        "id": "train_052_BLDG_002",
        "parcel_id": "train_052_P_003",
        "area_sqm": 1769.03,
        "perimeter_m": 168.66,
        "centroid_lon": 77.5987952,
        "centroid_lat": 13.0040672,
        "height_m": 8.94,
        "confidence": 0.923,
        "temporal_epoch": "T1"
      },
      "geometry": {
        "type": "Polygon",
        "coordinates": [
          [
            [
              77.5985872,
              13.0042442
            ],
            [
              77.5990031,
              13.0042442
            ],
            [
              77.5990031,
              13.0038902
            ],
            [
              77.5985872,
              13.0038902
            ],
            [
              77.5985872,
              13.0042442
            ]
          ]
        ]
      }
    },
    {
      "type": "Feature",
      "properties": {
        "id": "train_052_BLDG_003",
        "parcel_id": "train_052_P_006",
        "area_sqm": 1503.62,
        "perimeter_m": 155.11,
        "centroid_lon": 77.5993926,
        "centroid_lat": 13.0035141,
        "height_m": 9.7,
        "confidence": 0.855,
        "temporal_epoch": "T1"
      },
      "geometry": {
        "type": "Polygon",
        "coordinates": [
          [
            [
              77.5992159,
              13.0036911
            ],
            [
              77.5995694,
              13.0036911
            ],
            [
              77.5995694,
              13.0033371
            ],
            [
              77.5992159,
              13.0033371
            ],
            [
              77.5992159,
              13.0036911
            ]
          ]
        ]
      }
    },
    {
      "type": "Feature",
      "properties": {
        "id": "train_052_BLDG_004",
        "parcel_id": "train_052_P_007",
        "area_sqm": 1503.19,
        "perimeter_m": 155.09,
        "centroid_lon": 77.600002,
        "centroid_lat": 13.0040672,
        "height_m": 4.67,
        "confidence": 0.851,
        "temporal_epoch": "T1"
      },
      "geometry": {
        "type": "Polygon",
        "coordinates": [
          [
            [
              77.5998253,
              13.0042442
            ],
            [
              77.6001787,
              13.0042442
            ],
            [
              77.6001787,
              13.0038902
            ],
            [
              77.5998253,
              13.0038902
            ],
            [
              77.5998253,
              13.0042442
            ]
          ]
        ]
      }
    },
    {
      "type": "Feature",
      "properties": {
        "id": "train_052_BLDG_005",
        "parcel_id": "train_052_P_009",
        "area_sqm": 941.18,
        "perimeter_m": 123.1,
        "centroid_lon": 77.5982677,
        "centroid_lat": 13.0027781,
        "height_m": 11.24,
        "confidence": 0.902,
        "temporal_epoch": "T1"
      },
      "geometry": {
        "type": "Polygon",
        "coordinates": [
          [
            [
              77.5981372,
              13.0029281
            ],
            [
              77.5983983,
              13.0029281
            ],
            [
              77.5983983,
              13.0026281
            ],
            [
              77.5981372,
              13.0026281
            ],
            [
              77.5981372,
              13.0029281
            ]
          ]
        ]
      }
    },
    {
      "type": "Feature",
      "properties": {
        "id": "train_052_BLDG_006",
        "parcel_id": "train_052_P_012",
        "area_sqm": 941.18,
        "perimeter_m": 123.1,
        "centroid_lon": 77.5987177,
        "centroid_lat": 13.0023094,
        "height_m": 5.03,
        "confidence": 0.821,
        "temporal_epoch": "T1"
      },
      "geometry": {
        "type": "Polygon",
        "coordinates": [
          [
            [
              77.5985872,
              13.0024594
            ],
            [
              77.5988483,
              13.0024594
            ],
            [
              77.5988483,
              13.0021594
            ],
            [
              77.5985872,
              13.0021594
            ],
            [
              77.5985872,
              13.0024594
            ]
          ]
        ]
      }
    },
    {
      "type": "Feature",
      "properties": {
        "id": "train_052_BLDG_007",
        "parcel_id": "train_052_P_016",
        "area_sqm": 1273.9,
        "perimeter_m": 143.14,
        "centroid_lon": 77.600002,
        "centroid_lat": 13.0023094,
        "height_m": 8.42,
        "confidence": 0.882,
        "temporal_epoch": "T1"
      },
      "geometry": {
        "type": "Polygon",
        "coordinates": [
          [
            [
              77.5998253,
              13.0024594
            ],
            [
              77.6001787,
              13.0024594
            ],
            [
              77.6001787,
              13.0021594
            ],
            [
              77.5998253,
              13.0021594
            ],
            [
              77.5998253,
              13.0024594
            ]
          ]
        ]
      }
    }
  ]
}