{
  "type": "FeatureCollection",
  "crs": {
    "type": "name",
    "properties": {
      "name": "EPSG:4326"
    }
  },
  "features": [
    {
      "type": "Feature",
      "properties": {
        "id": "train_061_REF_001",
        "parcel_id": "train_061_P_001",
        "parcel_layer": "REFERENCE",
        "boundary_representation": "REFERENCE",
        "land_use_class": "vegetation",
        "area_sqm": 4141.98,
        "perimeter_m": 259.08,
        "source": "Synthetic Legacy Cadastral Map (Non-Authoritative Demo)"
      },
      "geometry": {
        "type": "Polygon",
        "coordinates": [
          [
            [
              77.6250814,
              13.0043302
            ],
            [
              77.6256123,
              13.004311
            ],
            [
              77.6255978,
              13.0036759
            ],
            [
              77.6250677,
              13.003666
            ],
            [
              77.6250814,
              13.0043302
            ]
          ]
        ]
      }
    },
    {
      "type": "Feature",
      "properties": {
        "id": "train_061_REF_002",
        "parcel_id": "train_061_P_002",
        "parcel_layer": "REFERENCE",
        "boundary_representation": "REFERENCE",
        "land_use_class": "vacant",
        "area_sqm": 4058.17,
        "perimeter_m": 256.81,
        "source": "Synthetic Legacy Cadastral Map (Non-Authoritative Demo)"
      },
      "geometry": {
        "type": "Polygon",
        "coordinates": [
          [
            [
              77.625097,
              13.0036349
            ],
            [
              77.6256069,
              13.0036427
            ],
            [
              77.6256024,
              13.0029784
            ],
            [
              77.6250748,
              13.0029974
            ],
            [
              77.625097,
              13.0036349
            ]
          ]
        ]
      }
    },
    {
      "type": "Feature",
      "properties": {
        "id": "train_061_REF_003",
        "parcel_id": "train_061_P_003",
        "parcel_layer": "REFERENCE",
        "boundary_representation": "REFERENCE",
        "land_use_class": "vacant",
        "area_sqm": 3856.54,
        "perimeter_m": 250.73,
        "source": "Synthetic Legacy Cadastral Map (Non-Authoritative Demo)"
      },
      "geometry": {
        "type": "Polygon",
        "coordinates": [
          [
            [
              77.6256728,
              13.0043081
            ],
            [
              77.6261845,
              13.0043257
            ],
            [
              77.6261416,
              13.0036871
            ],
            [
              77.6256395,
              13.0036784
            ],
            [
              77.6256728,
              13.0043081
            ]
          ]
        ]
      }
    },
    {
      "type": "Feature",
      "properties": {
        "id": "train_061_REF_004",
        "parcel_id": "train_061_P_004",
        "parcel_layer": "REFERENCE",
        "boundary_representation": "REFERENCE",
        "land_use_class": "industrial",
        "area_sqm": 3556.88,
        "perimeter_m": 242.33,
        "source": "Synthetic Legacy Cadastral Map (Non-Authoritative Demo)"
      },
      "geometry": {
        "type": "Polygon",
        "coordinates": [
          [
            [
              77.6257094,
              13.0036707
            ],
            [
              77.6261971,
              13.0036759
            ],
            [
              77.6261572,
              13.0030114
            ],
            [
              77.6257191,
              13.0030576
            ],
            [
              77.6257094,
              13.0036707
            ]
          ]
        ]
      }
    },
    {
      "type": "Feature",
      "properties": {
        "id": "train_061_REF_005",
        "parcel_id": "train_061_P_005",
        "parcel_layer": "REFERENCE",
        "boundary_representation": "REFERENCE",
        "land_use_class": "residential",
        "area_sqm": 3299.36,
        "perimeter_m": 232.52,
        "source": "Synthetic Legacy Cadastral Map (Non-Authoritative Demo)"
      },
      "geometry": {
        "type": "Polygon",
        "coordinates": [
          [
            [
              77.6263503,
              13.0043218
            ],
            [
              77.6268121,
              13.0043256
            ],
            [
              77.6268009,
              13.0037214
            ],
            [
              77.6263554,
              13.0037154
            ],
            [
              77.6263503,
              13.0043218
            ]
          ]
        ]
      }
    },
    {
      "type": "Feature",
      "properties": {
        "id": "train_061_REF_006",
        "parcel_id": "train_061_P_006",
        "parcel_layer": "REFERENCE",
        "boundary_representation": "REFERENCE",
        "land_use_class": "residential",
        "area_sqm": 3224.23,
        "perimeter_m": 233.6,
        "source": "Synthetic Legacy Cadastral Map (Non-Authoritative Demo)"
      },
      "geometry": {
        "type": "Polygon",
        "coordinates": [
          [
            [
              77.6263832,
              13.0036284
            ],
            [
              77.6267813,
              13.0036616
            ],
            [
              77.6268004,
              13.003007
            ],
            [
              77.6263708,
              13.0029867
            ],
            [
              77.6263832,
              13.0036284
            ]
          ]
        ]
      }
    },
    {
      "type": "Feature",
      "properties": {
        "id": "train_061_REF_007",
        "parcel_id": "train_061_P_007",
        "parcel_layer": "REFERENCE",
        "boundary_representation": "REFERENCE",
        "land_use_class": "residential",
        "area_sqm": 3190.71,
        "perimeter_m": 231.99,
        "source": "Synthetic Legacy Cadastral Map (Non-Authoritative Demo)"
      },
      "geometry": {
        "type": "Polygon",
        "coordinates": [
          [
            [
              77.6268813,
              13.0043442
            ],
            [
              77.6272929,
              13.0043052
            ],
            [
              77.6272706,
              13.0036736
            ],
            [
              77.6268563,
              13.0036931
            ],
            [
              77.6268813,
              13.0043442
            ]
          ]
        ]
      }
    },
    {
      "type": "Feature",
      "properties": {
        "id": "train_061_REF_008",
        "parcel_id": "train_061_P_008",
        "parcel_layer": "REFERENCE",
        "boundary_representation": "REFERENCE",
        "land_use_class": "commercial",
        "area_sqm": 3124.02,
        "perimeter_m": 228.07,
        "source": "Synthetic Legacy Cadastral Map (Non-Authoritative Demo)"
      },
      "geometry": {
        "type": "Polygon",
        "coordinates": [
          [
            [
              77.6269178,
              13.0036543
            ],
            [
              77.627325,
              13.0036199
            ],
            [
              77.627363,
              13.0030597
            ],
            [
              77.6269148,
              13.0029998
            ],
            [
              77.6269178,
              13.0036543
            ]
          ]
        ]
      }
    },
    {
      "type": "Feature",
      "properties": {
        "id": "train_061_REF_009",
        "parcel_id": "train_061_P_009",
        "parcel_layer": "REFERENCE",
        "boundary_representation": "REFERENCE",
        "land_use_class": "mixed_use",
        "area_sqm": 1789.84,
        "perimeter_m": 172.48,
        "source": "Synthetic Legacy Cadastral Map (Non-Authoritative Demo)"
      },
      "geometry": {
        "type": "Polygon",
        "coordinates": [
          [
            [
              77.6251045,
              13.0028226
            ],
            [
              77.6255862,
              13.0028121
            ],
            [
              77.6255768,
              13.0025097
            ],
            [
              77.6251123,
              13.0024953
            ],
            [
              77.6251045,
              13.0028226
            ]
          ]
        ]
      }
    },
    {
      "type": "Feature",
      "properties": {
        "id": "train_061_REF_010",
        "parcel_id": "train_061_P_010",
        "parcel_layer": "REFERENCE",
        "boundary_representation": "REFERENCE",
        "land_use_class": "vegetation",
        "area_sqm": 1925.08,
        "perimeter_m": 180.28,
        "source": "Synthetic Legacy Cadastral Map (Non-Authoritative Demo)"
      },
      "geometry": {
        "type": "Polygon",
        "coordinates": [
          [
            [
              77.6250745,
              13.0024486
            ],
            [
              77.6256078,
              13.0024188
            ],
            [
              77.6255614,
              13.0021203
            ],
            [
              77.6250846,
              13.0021135
            ],
            [
              77.6250745,
              13.0024486
            ]
          ]
        ]
      }
    },
    {
      "type": "Feature",
      "properties": {
        "id": "train_061_REF_011",
        "parcel_id": "train_061_P_011",
        "parcel_layer": "REFERENCE",
        "boundary_representation": "REFERENCE",
        "land_use_class": "vegetation",
        "area_sqm": 1823.1,
        "perimeter_m": 174.51,
        "source": "Synthetic Legacy Cadastral Map (Non-Authoritative Demo)"
      },
      "geometry": {
        "type": "Polygon",
        "coordinates": [
          [
            [
              77.6256848,
              13.0028055
            ],
            [
              77.6261622,
              13.0027936
            ],
            [
              77.6261344,
              13.0024862
            ],
            [
              77.6256509,
              13.0024818
            ],
            [
              77.6256848,
              13.0028055
            ]
          ]
        ]
      }
    },
    {
      "type": "Feature",
      "properties": {
        "id": "train_061_REF_012",
        "parcel_id": "train_061_P_012",
        "parcel_layer": "REFERENCE",
        "boundary_representation": "REFERENCE",
        "land_use_class": "vacant",
        "area_sqm": 1875.36,
        "perimeter_m": 176.07,
        "source": "Synthetic Legacy Cadastral Map (Non-Authoritative Demo)"
      },
      "geometry": {
        "type": "Polygon",
        "coordinates": [
          [
            [
              77.6257071,
              13.0024406
            ],
            [
              77.6261698,
              13.0024569
            ],
            [
              77.626163,
              13.0021234
            ],
            [
              77.6256783,
              13.0021142
            ],
            [
              77.6257071,
              13.0024406
            ]
          ]
        ]
      }
    },
    {
      "type": "Feature",
      "properties": {
        "id": "train_061_REF_013",
        "parcel_id": "train_061_P_013",
        "parcel_layer": "REFERENCE",
        "boundary_representation": "REFERENCE",
        "land_use_class": "industrial",
        "area_sqm": 1460.62,
        "perimeter_m": 155.29,
        "source": "Synthetic Legacy Cadastral Map (Non-Authoritative Demo)"
      },
      "geometry": {
        "type": "Polygon",
        "coordinates": [
          [
            [
              77.6263801,
              13.0028046
            ],
            [
              77.626796,
              13.0027652
            ],
            [
              77.6267775,
              13.0024849
            ],
            [
              77.6263554,
              13.0025079
            ],
            [
              77.6263801,
              13.0028046
            ]
          ]
        ]
      }
    },
    {
      "type": "Feature",
      "properties": {
        "id": "train_061_REF_014",
        "parcel_id": "train_061_P_014",
        "parcel_layer": "REFERENCE",
        "boundary_representation": "REFERENCE",
        "land_use_class": "residential",
        "area_sqm": 1546.5,
        "perimeter_m": 158.17,
        "source": "Synthetic Legacy Cadastral Map (Non-Authoritative Demo)"
      },
      "geometry": {
        "type": "Polygon",
        "coordinates": [
          [
            [
              77.6263863,
              13.0024345
            ],
            [
              77.6267766,
              13.0024183
            ],
            [
              77.6267762,
              13.0021193
            ],
            [
              77.6263772,
              13.002081
            ],
            [
              77.6263863,
              13.0024345
            ]
          ]
        ]
      }
    },
    {
      "type": "Feature",
      "properties": {
        "id": "train_061_REF_015",
        "parcel_id": "train_061_P_015",
        "parcel_layer": "REFERENCE",
        "boundary_representation": "REFERENCE",
        "land_use_class": "residential",
        "area_sqm": 1645.43,
        "perimeter_m": 164.42,
        "source": "Synthetic Legacy Cadastral Map (Non-Authoritative Demo)"
      },
      "geometry": {
        "type": "Polygon",
        "coordinates": [
          [
            [
              77.6268573,
              13.0028245
            ],
            [
              77.6272914,
              13.0027986
            ],
            [
              77.6273074,
              13.0025011
            ],
            [
              77.6268696,
              13.0024932
            ],
            [
              77.6268573,
              13.0028245
            ]
          ]
        ]
      }
    },
    {
      "type": "Feature",
      "properties": {
        "id": "train_061_REF_016",
        "parcel_id": "train_061_P_016",
        "parcel_layer": "REFERENCE",
        "boundary_representation": "REFERENCE",
        "land_use_class": "residential",
        "area_sqm": 1612.87,
        "perimeter_m": 162.56,
        "source": "Synthetic Legacy Cadastral Map (Non-Authoritative Demo)"
      },
      "geometry": {
        "type": "Polygon",
        "coordinates": [
          [
            [
              77.6269239,
              13.0024541
            ],
            [
              77.6273566,
              13.0024634
            ],
            [
              77.627338,
              13.0021353
            ],
            [
              77.6269111,
              13.0021581
            ],
            [
              77.6269239,
              13.0024541
            ]
          ]
        ]
      }
    }
  ]
}