{
  "type": "FeatureCollection",
  "crs": {
    "type": "name",
    "properties": {
      "name": "EPSG:4326"
    }
  },
  "features": [
    {
      "type": "Feature",
      "properties": {
        "id": "train_070_BLDG_001",
        "parcel_id": "train_070_P_001",
        "area_sqm": 705.65,
        "perimeter_m": 106.26,
        "centroid_lon": 77.6072546,
        "centroid_lat": 13.0071562,
        "height_m": 4.66,
        "confidence": 0.785,
        "temporal_epoch": "T1"
      },
      "geometry": {
        "type": "Polygon",
        "coordinates": [
          [
            [
              77.6071322,
              13.0072762
            ],
            [
              77.6073769,
              13.0072762
            ],
            [
              77.6073769,
              13.0070362
            ],
            [
              77.6071322,
              13.0070362
            ],
            [
              77.6071322,
              13.0072762
            ]
          ]
        ]
      }
    },
    {
      "type": "Feature",
      "properties": {
        "id": "train_070_BLDG_002",
        "parcel_id": "train_070_P_002",
        "area_sqm": 705.65,
        "perimeter_m": 106.26,
        "centroid_lon": 77.6072546,
        "centroid_lat": 13.0067812,
        "height_m": 10.31,
        "confidence": 0.794,
        "temporal_epoch": "T1"
      },
      "geometry": {
        "type": "Polygon",
        "coordinates": [
          [
            [
              77.6071322,
              13.0069012
            ],
            [
              77.6073769,
              13.0069012
            ],
            [
              77.6073769,
              13.0066612
            ],
            [
              77.6071322,
              13.0066612
            ],
            [
              77.6071322,
              13.0069012
            ]
          ]
        ]
      }
    },
    {
      "type": "Feature",
      "properties": {
        "id": "train_070_BLDG_003",
        "parcel_id": "train_070_P_003",
        "area_sqm": 1132.73,
        "perimeter_m": 138.41,
        "centroid_lon": 77.6077505,
        "centroid_lat": 13.0071562,
        "height_m": 9.63,
        "confidence": 0.959,
        "temporal_epoch": "T1"
      },
      "geometry": {
        "type": "Polygon",
        "coordinates": [
          [
            [
              77.6075541,
              13.0072762
            ],
            [
              77.6079469,
              13.0072762
            ],
            [
              77.6079469,
              13.0070362
            ],
            [
              77.6075541,
              13.0070362
            ],
            [
              77.6075541,
              13.0072762
            ]
          ]
        ]
      }
    },
    {
      "type": "Feature",
      "properties": {
        "id": "train_070_BLDG_004",
        "parcel_id": "train_070_P_004",
        "area_sqm": 705.65,
        "perimeter_m": 106.26,
        "centroid_lon": 77.6076764,
        "centroid_lat": 13.0067812,
        "height_m": 7.57,
        "confidence": 0.81,
        "temporal_epoch": "T1"
      },
      "geometry": {
        "type": "Polygon",
        "coordinates": [
          [
            [
              77.6075541,
              13.0069012
            ],
            [
              77.6077988,
              13.0069012
            ],
            [
              77.6077988,
              13.0066612
            ],
            [
              77.6075541,
              13.0066612
            ],
            [
              77.6075541,
              13.0069012
            ]
          ]
        ]
      }
    },
    {
      "type": "Feature",
      "properties": {
        "id": "train_070_BLDG_005",
        "parcel_id": "train_070_P_005",
        "area_sqm": 1034.97,
        "perimeter_m": 131.05,
        "centroid_lon": 77.6083783,
        "centroid_lat": 13.0071562,
        "height_m": 7.49,
        "confidence": 0.821,
        "temporal_epoch": "T1"
      },
      "geometry": {
        "type": "Polygon",
        "coordinates": [
          [
            [
              77.6081989,
              13.0072762
            ],
            [
              77.6085578,
              13.0072762
            ],
            [
              77.6085578,
              13.0070362
            ],
            [
              77.6081989,
              13.0070362
            ],
            [
              77.6081989,
              13.0072762
            ]
          ]
        ]
      }
    },
    {
      "type": "Feature",
      "properties": {
        "id": "train_070_BLDG_006",
        "parcel_id": "train_070_P_006",
        "area_sqm": 1034.97,
        "perimeter_m": 131.05,
        "centroid_lon": 77.6083783,
        "centroid_lat": 13.0067812,
        "height_m": 7.58,
        "confidence": 0.865,
        "temporal_epoch": "T1"
      },
      "geometry": {
        "type": "Polygon",
        "coordinates": [
          [
            [
              77.6081989,
              13.0069012
            ],
            [
              77.6085578,
              13.0069012
            ],
            [
              77.6085578,
              13.0066612
            ],
            [
              77.6081989,
              13.0066612
            ],
            [
              77.6081989,
              13.0069012
            ]
          ]
        ]
      }
    },
    {
      "type": "Feature",
      "properties": {
        "id": "train_070_BLDG_007",
        "parcel_id": "train_070_P_007",
        "area_sqm": 1034.97,
        "perimeter_m": 131.05,
        "centroid_lon": 77.608997,
        "centroid_lat": 13.0071562,
        "height_m": 6.23,
        "confidence": 0.856,
        "temporal_epoch": "T1"
      },
      "geometry": {
        "type": "Polygon",
        "coordinates": [
          [
            [
              77.6088176,
              13.0072762
            ],
            [
              77.6091765,
              13.0072762
            ],
            [
              77.6091765,
              13.0070362
            ],
            [
              77.6088176,
              13.0070362
            ],
            [
              77.6088176,
              13.0072762
            ]
          ]
        ]
      }
    },
    {
      "type": "Feature",
      "properties": {
        "id": "train_070_BLDG_008",
        "parcel_id": "train_070_P_010",
        "area_sqm": 1181.97,
        "perimeter_m": 142.12,
        "centroid_lon": 77.6072545,
        "centroid_lat": 13.0053891,
        "height_m": 10.63,
        "confidence": 0.893,
        "temporal_epoch": "T1"
      },
      "geometry": {
        "type": "Polygon",
        "coordinates": [
          [
            [
              77.6071322,
              13.0055901
            ],
            [
              77.6073769,
              13.0055901
            ],
            [
              77.6073769,
              13.0051881
            ],
            [
              77.6071322,
              13.0051881
            ],
            [
              77.6071322,
              13.0055901
            ]
          ]
        ]
      }
    },
    {
      "type": "Feature",
      "properties": {
        "id": "train_070_BLDG_009",
        "parcel_id": "train_070_P_011",
        "area_sqm": 1181.97,
        "perimeter_m": 142.12,
        "centroid_lon": 77.6076764,
        "centroid_lat": 13.0060172,
        "height_m": 5.86,
        "confidence": 0.853,
        "temporal_epoch": "T1"
      },
      "geometry": {
        "type": "Polygon",
        "coordinates": [
          [
            [
              77.6075541,
              13.0062182
            ],
            [
              77.6077988,
              13.0062182
            ],
            [
              77.6077988,
              13.0058162
            ],
            [
              77.6075541,
              13.0058162
            ],
            [
              77.6075541,
              13.0062182
            ]
          ]
        ]
      }
    },
    {
      "type": "Feature",
      "properties": {
        "id": "train_070_BLDG_010",
        "parcel_id": "train_070_P_012",
        "area_sqm": 1181.97,
        "perimeter_m": 142.12,
        "centroid_lon": 77.6076764,
        "centroid_lat": 13.0053891,
        "height_m": 8.05,
        "confidence": 0.858,
        "temporal_epoch": "T1"
      },
      "geometry": {
        "type": "Polygon",
        "coordinates": [
          [
            [
              77.6075541,
              13.0055901
            ],
            [
              77.6077988,
              13.0055901
            ],
            [
              77.6077988,
              13.0051881
            ],
            [
              77.6075541,
              13.0051881
            ],
            [
              77.6075541,
              13.0055901
            ]
          ]
        ]
      }
    },
    {
      "type": "Feature",
      "properties": {
        "id": "train_070_BLDG_011",
        "parcel_id": "train_070_P_013",
        "area_sqm": 1135.6,
        "perimeter_m": 140.04,
        "centroid_lon": 77.6083165,
        "centroid_lat": 13.0060172,
        "height_m": 9.19,
        "confidence": 0.871,
        "temporal_epoch": "T1"
      },
      "geometry": {
        "type": "Polygon",
        "coordinates": [
          [
            [
              77.6081989,
              13.0062182
            ],
            [
              77.608434,
              13.0062182
            ],
            [
              77.608434,
              13.0058162
            ],
            [
              77.6081989,
              13.0058162
            ],
            [
              77.6081989,
              13.0062182
            ]
          ]
        ]
      }
    },
    {
      "type": "Feature",
      "properties": {
        "id": "train_070_BLDG_012",
        "parcel_id": "train_070_P_013",
        "area_sqm": 867.03,
        "perimeter_m": 127.97,
        "centroid_lon": 77.6085051,
        "centroid_lat": 13.0060172,
        "height_m": 8.15,
        "confidence": 0.929,
        "temporal_epoch": "T1"
      },
      "geometry": {
        "type": "Polygon",
        "coordinates": [
          [
            [
              77.6084154,
              13.0062182
            ],
            [
              77.6085949,
              13.0062182
            ],
            [
              77.6085949,
              13.0058162
            ],
            [
              77.6084154,
              13.0058162
            ],
            [
              77.6084154,
              13.0062182
            ]
          ]
        ]
      }
    },
    {
      "type": "Feature",
      "properties": {
        "id": "train_070_BLDG_013",
        "parcel_id": "train_070_P_014",
        "area_sqm": 1135.6,
        "perimeter_m": 140.04,
        "centroid_lon": 77.6083165,
        "centroid_lat": 13.0053891,
        "height_m": 7.73,
        "confidence": 0.873,
        "temporal_epoch": "T1"
      },
      "geometry": {
        "type": "Polygon",
        "coordinates": [
          [
            [
              77.6081989,
              13.0055901
            ],
            [
              77.608434,
              13.0055901
            ],
            [
              77.608434,
              13.0051881
            ],
            [
              77.6081989,
              13.0051881
            ],
            [
              77.6081989,
              13.0055901
            ]
          ]
        ]
      }
    },
    {
      "type": "Feature",
      "properties": {
        "id": "train_070_BLDG_014",
        "parcel_id": "train_070_P_014",
        "area_sqm": 867.04,
        "perimeter_m": 127.97,
        "centroid_lon": 77.6085051,
        "centroid_lat": 13.0053891,
        "height_m": 6.49,
        "confidence": 0.936,
        "temporal_epoch": "T1"
      },
      "geometry": {
        "type": "Polygon",
        "coordinates": [
          [
            [
              77.6084154,
              13.0055901
            ],
            [
              77.6085949,
              13.0055901
            ],
            [
              77.6085949,
              13.0051881
            ],
            [
              77.6084154,
              13.0051881
            ],
            [
              77.6084154,
              13.0055901
            ]
          ]
        ]
      }
    },
    {
      "type": "Feature",
      "properties": {
        "id": "train_070_BLDG_015",
        "parcel_id": "train_070_P_015",
        "area_sqm": 1136.08,
        "perimeter_m": 140.06,
        "centroid_lon": 77.6089352,
        "centroid_lat": 13.0060172,
        "height_m": 8.86,
        "confidence": 0.834,
        "temporal_epoch": "T1"
      },
      "geometry": {
        "type": "Polygon",
        "coordinates": [
          [
            [
              77.6088176,
              13.0062182
            ],
            [
              77.6090528,
              13.0062182
            ],
            [
              77.6090528,
              13.0058162
            ],
            [
              77.6088176,
              13.0058162
            ],
            [
              77.6088176,
              13.0062182
            ]
          ]
        ]
      }
    },
    {
      "type": "Feature",
      "properties": {
        "id": "train_070_BLDG_016",
        "parcel_id": "train_070_P_015",
        "area_sqm": 866.55,
        "perimeter_m": 127.95,
        "centroid_lon": 77.6091239,
        "centroid_lat": 13.0060172,
        "height_m": 8.84,
        "confidence": 0.817,
        "temporal_epoch": "T1"
      },
      "geometry": {
        "type": "Polygon",
        "coordinates": [
          [
            [
              77.6090342,
              13.0062182
            ],
            [
              77.6092136,
              13.0062182
            ],
            [
              77.6092136,
              13.0058162
            ],
            [
              77.6090342,
              13.0058162
            ],
            [
              77.6090342,
              13.0062182
            ]
          ]
        ]
      }
    },
    {
      "type": "Feature",
      "properties": {
        "id": "train_070_BLDG_017",
        "parcel_id": "train_070_P_016",
        "area_sqm": 1136.08,
        "perimeter_m": 140.06,
        "centroid_lon": 77.6089352,
        "centroid_lat": 13.0053891,
        "height_m": 9.02,
        "confidence": 0.902,
        "temporal_epoch": "T1"
      },
      "geometry": {
        "type": "Polygon",
        "coordinates": [
          [
            [
              77.6088176,
              13.0055901
            ],
            [
              77.6090528,
              13.0055901
            ],
            [
              77.6090528,
              13.0051881
            ],
            [
              77.6088176,
              13.0051881
            ],
            [
              77.6088176,
              13.0055901
            ]
          ]
        ]
      }
    },
    {
      "type": "Feature",
      "properties": {
        "id": "train_070_BLDG_018",
        "parcel_id": "train_070_P_016",
        "area_sqm": 866.55,
        "perimeter_m": 127.95,
        "centroid_lon": 77.6091239,
        "centroid_lat": 13.0053891,
        "height_m": 9.39,
        "confidence": 0.78,
        "temporal_epoch": "T1"
      },
      "geometry": {
        "type": "Polygon",
        "coordinates": [
          [
            [
              77.6090342,
              13.0055901
            ],
            [
              77.6092136,
              13.0055901
            ],
            [
              77.6092136,
              13.0051881
            ],
            [
              77.6090342,
              13.0051881
            ],
            [
              77.6090342,
              13.0055901
            ]
          ]
        ]
      }
    }
  ]
}