{
  "type": "FeatureCollection",
  "crs": {
    "type": "name",
    "properties": {
      "name": "EPSG:4326"
    }
  },
  "features": [
    {
      "type": "Feature",
      "properties": {
        "id": "train_053_BND_001",
        "parcel_id": "train_053_P_001",
        "boundary_type": "VISIBLE",
        "confidence": 0.956,
        "length_m": 65.22,
        "evidence_sources": [
          "Drone_RGB_Edge",
          "DSM_Breakline"
        ]
      },
      "geometry": {
        "type": "LineString",
        "coordinates": [
          [
            77.6010749,
            13.0043406
          ],
          [
            77.6016757,
            13.0043362
          ]
        ]
      }
    },
    {
      "type": "Feature",
      "properties": {
        "id": "train_053_BND_002",
        "parcel_id": "train_053_P_001",
        "boundary_type": "VISIBLE",
        "confidence": 0.898,
        "length_m": 46.18,
        "evidence_sources": [
          "Drone_RGB_Edge",
          "DSM_Breakline"
        ]
      },
      "geometry": {
        "type": "LineString",
        "coordinates": [
          [
            77.6016757,
            13.0043362
          ],
          [
            77.6016799,
            13.003919
          ]
        ]
      }
    },
    {
      "type": "Feature",
      "properties": {
        "id": "train_053_BND_003",
        "parcel_id": "train_053_P_001",
        "boundary_type": "VISIBLE",
        "confidence": 0.823,
        "length_m": 65.45,
        "evidence_sources": [
          "Drone_RGB_Edge",
          "DSM_Breakline"
        ]
      },
      "geometry": {
        "type": "LineString",
        "coordinates": [
          [
            77.6016799,
            13.003919
          ],
          [
            77.6010771,
            13.0039066
          ]
        ]
      }
    },
    {
      "type": "Feature",
      "properties": {
        "id": "train_053_BND_004",
        "parcel_id": "train_053_P_001",
        "boundary_type": "VISIBLE",
        "confidence": 0.877,
        "length_m": 48.04,
        "evidence_sources": [
          "Drone_RGB_Edge",
          "DSM_Breakline"
        ]
      },
      "geometry": {
        "type": "LineString",
        "coordinates": [
          [
            77.6010771,
            13.0039066
          ],
          [
            77.6010749,
            13.0043406
          ]
        ]
      }
    },
    {
      "type": "Feature",
      "properties": {
        "id": "train_053_BND_005",
        "parcel_id": "train_053_P_002",
        "boundary_type": "VISIBLE",
        "confidence": 0.836,
        "length_m": 66.94,
        "evidence_sources": [
          "Drone_RGB_Edge",
          "DSM_Breakline"
        ]
      },
      "geometry": {
        "type": "LineString",
        "coordinates": [
          [
            77.6010748,
            13.003902
          ],
          [
            77.6016915,
            13.0039004
          ]
        ]
      }
    },
    {
      "type": "Feature",
      "properties": {
        "id": "train_053_BND_006",
        "parcel_id": "train_053_P_002",
        "boundary_type": "VISIBLE",
        "confidence": 0.887,
        "length_m": 47.52,
        "evidence_sources": [
          "Drone_RGB_Edge",
          "DSM_Breakline"
        ]
      },
      "geometry": {
        "type": "LineString",
        "coordinates": [
          [
            77.6016915,
            13.0039004
          ],
          [
            77.6016912,
            13.0034711
          ]
        ]
      }
    },
    {
      "type": "Feature",
      "properties": {
        "id": "train_053_BND_007",
        "parcel_id": "train_053_P_002",
        "boundary_type": "INFERRED",
        "confidence": 0.759,
        "length_m": 68.85,
        "evidence_sources": [
          "Road_Corridor_Offset",
          "Adjacent_Parcel_Topology"
        ]
      },
      "geometry": {
        "type": "LineString",
        "coordinates": [
          [
            77.6016912,
            13.0034711
          ],
          [
            77.601057,
            13.0034829
          ]
        ]
      }
    },
    {
      "type": "Feature",
      "properties": {
        "id": "train_053_BND_008",
        "parcel_id": "train_053_P_002",
        "boundary_type": "VISIBLE",
        "confidence": 0.878,
        "length_m": 46.43,
        "evidence_sources": [
          "Drone_RGB_Edge",
          "DSM_Breakline"
        ]
      },
      "geometry": {
        "type": "LineString",
        "coordinates": [
          [
            77.601057,
            13.0034829
          ],
          [
            77.6010748,
            13.003902
          ]
        ]
      }
    },
    {
      "type": "Feature",
      "properties": {
        "id": "train_053_BND_009",
        "parcel_id": "train_053_P_003",
        "boundary_type": "INFERRED",
        "confidence": 0.708,
        "length_m": 65.55,
        "evidence_sources": [
          "Road_Corridor_Offset",
          "Adjacent_Parcel_Topology"
        ]
      },
      "geometry": {
        "type": "LineString",
        "coordinates": [
          [
            77.6017058,
            13.0043297
          ],
          [
            77.6023097,
            13.0043333
          ]
        ]
      }
    },
    {
      "type": "Feature",
      "properties": {
        "id": "train_053_BND_010",
        "parcel_id": "train_053_P_003",
        "boundary_type": "INFERRED",
        "confidence": 0.779,
        "length_m": 47.4,
        "evidence_sources": [
          "Road_Corridor_Offset",
          "Adjacent_Parcel_Topology"
        ]
      },
      "geometry": {
        "type": "LineString",
        "coordinates": [
          [
            77.6023097,
            13.0043333
          ],
          [
            77.6023201,
            13.0039052
          ]
        ]
      }
    },
    {
      "type": "Feature",
      "properties": {
        "id": "train_053_BND_011",
        "parcel_id": "train_053_P_003",
        "boundary_type": "INFERRED",
        "confidence": 0.75,
        "length_m": 67.12,
        "evidence_sources": [
          "Road_Corridor_Offset",
          "Adjacent_Parcel_Topology"
        ]
      },
      "geometry": {
        "type": "LineString",
        "coordinates": [
          [
            77.6023201,
            13.0039052
          ],
          [
            77.6017018,
            13.0039133
          ]
        ]
      }
    },
    {
      "type": "Feature",
      "properties": {
        "id": "train_053_BND_012",
        "parcel_id": "train_053_P_003",
        "boundary_type": "INFERRED",
        "confidence": 0.75,
        "length_m": 46.1,
        "evidence_sources": [
          "Road_Corridor_Offset",
          "Adjacent_Parcel_Topology"
        ]
      },
      "geometry": {
        "type": "LineString",
        "coordinates": [
          [
            77.6017018,
            13.0039133
          ],
          [
            77.6017058,
            13.0043297
          ]
        ]
      }
    },
    {
      "type": "Feature",
      "properties": {
        "id": "train_053_BND_013",
        "parcel_id": "train_053_P_004",
        "boundary_type": "VISIBLE",
        "confidence": 0.886,
        "length_m": 65.75,
        "evidence_sources": [
          "Drone_RGB_Edge",
          "DSM_Breakline"
        ]
      },
      "geometry": {
        "type": "LineString",
        "coordinates": [
          [
            77.6017049,
            13.0039008
          ],
          [
            77.6023105,
            13.0038873
          ]
        ]
      }
    },
    {
      "type": "Feature",
      "properties": {
        "id": "train_053_BND_014",
        "parcel_id": "train_053_P_004",
        "boundary_type": "VISIBLE",
        "confidence": 0.88,
        "length_m": 45.16,
        "evidence_sources": [
          "Drone_RGB_Edge",
          "DSM_Breakline"
        ]
      },
      "geometry": {
        "type": "LineString",
        "coordinates": [
          [
            77.6023105,
            13.0038873
          ],
          [
            77.6023152,
            13.0034794
          ]
        ]
      }
    },
    {
      "type": "Feature",
      "properties": {
        "id": "train_053_BND_015",
        "parcel_id": "train_053_P_004",
        "boundary_type": "VISIBLE",
        "confidence": 0.958,
        "length_m": 65.93,
        "evidence_sources": [
          "Drone_RGB_Edge",
          "DSM_Breakline"
        ]
      },
      "geometry": {
        "type": "LineString",
        "coordinates": [
          [
            77.6023152,
            13.0034794
          ],
          [
            77.601708,
            13.0034663
          ]
        ]
      }
    },
    {
      "type": "Feature",
      "properties": {
        "id": "train_053_BND_016",
        "parcel_id": "train_053_P_004",
        "boundary_type": "VISIBLE",
        "confidence": 0.947,
        "length_m": 48.1,
        "evidence_sources": [
          "Drone_RGB_Edge",
          "DSM_Breakline"
        ]
      },
      "geometry": {
        "type": "LineString",
        "coordinates": [
          [
            77.601708,
            13.0034663
          ],
          [
            77.6017049,
            13.0039008
          ]
        ]
      }
    },
    {
      "type": "Feature",
      "properties": {
        "id": "train_053_BND_017",
        "parcel_id": "train_053_P_005",
        "boundary_type": "VISIBLE",
        "confidence": 0.9,
        "length_m": 43.23,
        "evidence_sources": [
          "Drone_RGB_Edge",
          "DSM_Breakline"
        ]
      },
      "geometry": {
        "type": "LineString",
        "coordinates": [
          [
            77.6025027,
            13.0043407
          ],
          [
            77.602901,
            13.0043425
          ]
        ]
      }
    },
    {
      "type": "Feature",
      "properties": {
        "id": "train_053_BND_018",
        "parcel_id": "train_053_P_005",
        "boundary_type": "VISIBLE",
        "confidence": 0.893,
        "length_m": 46.47,
        "evidence_sources": [
          "Drone_RGB_Edge",
          "DSM_Breakline"
        ]
      },
      "geometry": {
        "type": "LineString",
        "coordinates": [
          [
            77.602901,
            13.0043425
          ],
          [
            77.6028807,
            13.0039232
          ]
        ]
      }
    },
    {
      "type": "Feature",
      "properties": {
        "id": "train_053_BND_019",
        "parcel_id": "train_053_P_005",
        "boundary_type": "VISIBLE",
        "confidence": 0.96,
        "length_m": 42.62,
        "evidence_sources": [
          "Drone_RGB_Edge",
          "DSM_Breakline"
        ]
      },
      "geometry": {
        "type": "LineString",
        "coordinates": [
          [
            77.6028807,
            13.0039232
          ],
          [
            77.6024881,
            13.0039192
          ]
        ]
      }
    },
    {
      "type": "Feature",
      "properties": {
        "id": "train_053_BND_020",
        "parcel_id": "train_053_P_005",
        "boundary_type": "VISIBLE",
        "confidence": 0.936,
        "length_m": 46.68,
        "evidence_sources": [
          "Drone_RGB_Edge",
          "DSM_Breakline"
        ]
      },
      "geometry": {
        "type": "LineString",
        "coordinates": [
          [
            77.6024881,
            13.0039192
          ],
          [
            77.6025027,
            13.0043407
          ]
        ]
      }
    },
    {
      "type": "Feature",
      "properties": {
        "id": "train_053_BND_021",
        "parcel_id": "train_053_P_006",
        "boundary_type": "VISIBLE",
        "confidence": 0.86,
        "length_m": 43.73,
        "evidence_sources": [
          "Drone_RGB_Edge",
          "DSM_Breakline"
        ]
      },
      "geometry": {
        "type": "LineString",
        "coordinates": [
          [
            77.6024977,
            13.0038967
          ],
          [
            77.6029004,
            13.0038868
          ]
        ]
      }
    },
    {
      "type": "Feature",
      "properties": {
        "id": "train_053_BND_022",
        "parcel_id": "train_053_P_006",
        "boundary_type": "VISIBLE",
        "confidence": 0.905,
        "length_m": 46.65,
        "evidence_sources": [
          "Drone_RGB_Edge",
          "DSM_Breakline"
        ]
      },
      "geometry": {
        "type": "LineString",
        "coordinates": [
          [
            77.6029004,
            13.0038868
          ],
          [
            77.6028969,
            13.0034654
          ]
        ]
      }
    },
    {
      "type": "Feature",
      "properties": {
        "id": "train_053_BND_023",
        "parcel_id": "train_053_P_006",
        "boundary_type": "VISIBLE",
        "confidence": 0.85,
        "length_m": 45.05,
        "evidence_sources": [
          "Drone_RGB_Edge",
          "DSM_Breakline"
        ]
      },
      "geometry": {
        "type": "LineString",
        "coordinates": [
          [
            77.6028969,
            13.0034654
          ],
          [
            77.6024823,
            13.003483
          ]
        ]
      }
    },
    {
      "type": "Feature",
      "properties": {
        "id": "train_053_BND_024",
        "parcel_id": "train_053_P_006",
        "boundary_type": "VISIBLE",
        "confidence": 0.845,
        "length_m": 45.83,
        "evidence_sources": [
          "Drone_RGB_Edge",
          "DSM_Breakline"
        ]
      },
      "geometry": {
        "type": "LineString",
        "coordinates": [
          [
            77.6024823,
            13.003483
          ],
          [
            77.6024977,
            13.0038967
          ]
        ]
      }
    },
    {
      "type": "Feature",
      "properties": {
        "id": "train_053_BND_025",
        "parcel_id": "train_053_P_007",
        "boundary_type": "VISIBLE",
        "confidence": 0.912,
        "length_m": 44.05,
        "evidence_sources": [
          "Drone_RGB_Edge",
          "DSM_Breakline"
        ]
      },
      "geometry": {
        "type": "LineString",
        "coordinates": [
          [
            77.6029132,
            13.0043421
          ],
          [
            77.603319,
            13.0043396
          ]
        ]
      }
    },
    {
      "type": "Feature",
      "properties": {
        "id": "train_053_BND_026",
        "parcel_id": "train_053_P_007",
        "boundary_type": "INFERRED",
        "confidence": 0.695,
        "length_m": 46.08,
        "evidence_sources": [
          "Road_Corridor_Offset",
          "Adjacent_Parcel_Topology"
        ]
      },
      "geometry": {
        "type": "LineString",
        "coordinates": [
          [
            77.603319,
            13.0043396
          ],
          [
            77.6033173,
            13.0039233
          ]
        ]
      }
    },
    {
      "type": "Feature",
      "properties": {
        "id": "train_053_BND_027",
        "parcel_id": "train_053_P_007",
        "boundary_type": "INFERRED",
        "confidence": 0.678,
        "length_m": 44.4,
        "evidence_sources": [
          "Road_Corridor_Offset",
          "Adjacent_Parcel_Topology"
        ]
      },
      "geometry": {
        "type": "LineString",
        "coordinates": [
          [
            77.6033173,
            13.0039233
          ],
          [
            77.6029084,
            13.0039129
          ]
        ]
      }
    },
    {
      "type": "Feature",
      "properties": {
        "id": "train_053_BND_028",
        "parcel_id": "train_053_P_007",
        "boundary_type": "VISIBLE",
        "confidence": 0.87,
        "length_m": 47.51,
        "evidence_sources": [
          "Drone_RGB_Edge",
          "DSM_Breakline"
        ]
      },
      "geometry": {
        "type": "LineString",
        "coordinates": [
          [
            77.6029084,
            13.0039129
          ],
          [
            77.6029132,
            13.0043421
          ]
        ]
      }
    },
    {
      "type": "Feature",
      "properties": {
        "id": "train_053_BND_029",
        "parcel_id": "train_053_P_008",
        "boundary_type": "VISIBLE",
        "confidence": 0.916,
        "length_m": 41.21,
        "evidence_sources": [
          "Drone_RGB_Edge",
          "DSM_Breakline"
        ]
      },
      "geometry": {
        "type": "LineString",
        "coordinates": [
          [
            77.6029242,
            13.0039023
          ],
          [
            77.6033035,
            13.0038858
          ]
        ]
      }
    },
    {
      "type": "Feature",
      "properties": {
        "id": "train_053_BND_030",
        "parcel_id": "train_053_P_008",
        "boundary_type": "VISIBLE",
        "confidence": 0.847,
        "length_m": 46.28,
        "evidence_sources": [
          "Drone_RGB_Edge",
          "DSM_Breakline"
        ]
      },
      "geometry": {
        "type": "LineString",
        "coordinates": [
          [
            77.6033035,
            13.0038858
          ],
          [
            77.6033117,
            13.0034678
          ]
        ]
      }
    },
    {
      "type": "Feature",
      "properties": {
        "id": "train_053_BND_031",
        "parcel_id": "train_053_P_008",
        "boundary_type": "INFERRED",
        "confidence": 0.707,
        "length_m": 44.01,
        "evidence_sources": [
          "Road_Corridor_Offset",
          "Adjacent_Parcel_Topology"
        ]
      },
      "geometry": {
        "type": "LineString",
        "coordinates": [
          [
            77.6033117,
            13.0034678
          ],
          [
            77.6029064,
            13.00348
          ]
        ]
      }
    },
    {
      "type": "Feature",
      "properties": {
        "id": "train_053_BND_032",
        "parcel_id": "train_053_P_008",
        "boundary_type": "INFERRED",
        "confidence": 0.717,
        "length_m": 46.79,
        "evidence_sources": [
          "Road_Corridor_Offset",
          "Adjacent_Parcel_Topology"
        ]
      },
      "geometry": {
        "type": "LineString",
        "coordinates": [
          [
            77.6029064,
            13.00348
          ],
          [
            77.6029242,
            13.0039023
          ]
        ]
      }
    },
    {
      "type": "Feature",
      "properties": {
        "id": "train_053_BND_033",
        "parcel_id": "train_053_P_009",
        "boundary_type": "VISIBLE",
        "confidence": 0.826,
        "length_m": 66.43,
        "evidence_sources": [
          "Drone_RGB_Edge",
          "DSM_Breakline"
        ]
      },
      "geometry": {
        "type": "LineString",
        "coordinates": [
          [
            77.6010699,
            13.0032302
          ],
          [
            77.6016819,
            13.0032255
          ]
        ]
      }
    },
    {
      "type": "Feature",
      "properties": {
        "id": "train_053_BND_034",
        "parcel_id": "train_053_P_009",
        "boundary_type": "VISIBLE",
        "confidence": 0.893,
        "length_m": 60.85,
        "evidence_sources": [
          "Drone_RGB_Edge",
          "DSM_Breakline"
        ]
      },
      "geometry": {
        "type": "LineString",
        "coordinates": [
          [
            77.6016819,
            13.0032255
          ],
          [
            77.6016748,
            13.0026758
          ]
        ]
      }
    },
    {
      "type": "Feature",
      "properties": {
        "id": "train_053_BND_035",
        "parcel_id": "train_053_P_009",
        "boundary_type": "VISIBLE",
        "confidence": 0.832,
        "length_m": 66.14,
        "evidence_sources": [
          "Drone_RGB_Edge",
          "DSM_Breakline"
        ]
      },
      "geometry": {
        "type": "LineString",
        "coordinates": [
          [
            77.6016748,
            13.0026758
          ],
          [
            77.6010656,
            13.0026649
          ]
        ]
      }
    },
    {
      "type": "Feature",
      "properties": {
        "id": "train_053_BND_036",
        "parcel_id": "train_053_P_009",
        "boundary_type": "VISIBLE",
        "confidence": 0.852,
        "length_m": 62.58,
        "evidence_sources": [
          "Drone_RGB_Edge",
          "DSM_Breakline"
        ]
      },
      "geometry": {
        "type": "LineString",
        "coordinates": [
          [
            77.6010656,
            13.0026649
          ],
          [
            77.6010699,
            13.0032302
          ]
        ]
      }
    },
    {
      "type": "Feature",
      "properties": {
        "id": "train_053_BND_037",
        "parcel_id": "train_053_P_010",
        "boundary_type": "VISIBLE",
        "confidence": 0.83,
        "length_m": 68.71,
        "evidence_sources": [
          "Drone_RGB_Edge",
          "DSM_Breakline"
        ]
      },
      "geometry": {
        "type": "LineString",
        "coordinates": [
          [
            77.60106,
            13.0026474
          ],
          [
            77.601693,
            13.0026511
          ]
        ]
      }
    },
    {
      "type": "Feature",
      "properties": {
        "id": "train_053_BND_038",
        "parcel_id": "train_053_P_010",
        "boundary_type": "VISIBLE",
        "confidence": 0.855,
        "length_m": 63.27,
        "evidence_sources": [
          "Drone_RGB_Edge",
          "DSM_Breakline"
        ]
      },
      "geometry": {
        "type": "LineString",
        "coordinates": [
          [
            77.601693,
            13.0026511
          ],
          [
            77.6016927,
            13.0020795
          ]
        ]
      }
    },
    {
      "type": "Feature",
      "properties": {
        "id": "train_053_BND_039",
        "parcel_id": "train_053_P_010",
        "boundary_type": "VISIBLE",
        "confidence": 0.891,
        "length_m": 68.74,
        "evidence_sources": [
          "Drone_RGB_Edge",
          "DSM_Breakline"
        ]
      },
      "geometry": {
        "type": "LineString",
        "coordinates": [
          [
            77.6016927,
            13.0020795
          ],
          [
            77.6010594,
            13.0020838
          ]
        ]
      }
    },
    {
      "type": "Feature",
      "properties": {
        "id": "train_053_BND_040",
        "parcel_id": "train_053_P_010",
        "boundary_type": "VISIBLE",
        "confidence": 0.941,
        "length_m": 62.39,
        "evidence_sources": [
          "Drone_RGB_Edge",
          "DSM_Breakline"
        ]
      },
      "geometry": {
        "type": "LineString",
        "coordinates": [
          [
            77.6010594,
            13.0020838
          ],
          [
            77.60106,
            13.0026474
          ]
        ]
      }
    },
    {
      "type": "Feature",
      "properties": {
        "id": "train_053_BND_041",
        "parcel_id": "train_053_P_011",
        "boundary_type": "VISIBLE",
        "confidence": 0.868,
        "length_m": 65.16,
        "evidence_sources": [
          "Drone_RGB_Edge",
          "DSM_Breakline"
        ]
      },
      "geometry": {
        "type": "LineString",
        "coordinates": [
          [
            77.6017118,
            13.0032228
          ],
          [
            77.6023121,
            13.0032172
          ]
        ]
      }
    },
    {
      "type": "Feature",
      "properties": {
        "id": "train_053_BND_042",
        "parcel_id": "train_053_P_011",
        "boundary_type": "VISIBLE",
        "confidence": 0.932,
        "length_m": 60.02,
        "evidence_sources": [
          "Drone_RGB_Edge",
          "DSM_Breakline"
        ]
      },
      "geometry": {
        "type": "LineString",
        "coordinates": [
          [
            77.6023121,
            13.0032172
          ],
          [
            77.6023297,
            13.0026753
          ]
        ]
      }
    },
    {
      "type": "Feature",
      "properties": {
        "id": "train_053_BND_043",
        "parcel_id": "train_053_P_011",
        "boundary_type": "INFERRED",
        "confidence": 0.672,
        "length_m": 67.85,
        "evidence_sources": [
          "Road_Corridor_Offset",
          "Adjacent_Parcel_Topology"
        ]
      },
      "geometry": {
        "type": "LineString",
        "coordinates": [
          [
            77.6023297,
            13.0026753
          ],
          [
            77.6017048,
            13.002662
          ]
        ]
      }
    },
    {
      "type": "Feature",
      "properties": {
        "id": "train_053_BND_044",
        "parcel_id": "train_053_P_011",
        "boundary_type": "VISIBLE",
        "confidence": 0.864,
        "length_m": 62.08,
        "evidence_sources": [
          "Drone_RGB_Edge",
          "DSM_Breakline"
        ]
      },
      "geometry": {
        "type": "LineString",
        "coordinates": [
          [
            77.6017048,
            13.002662
          ],
          [
            77.6017118,
            13.0032228
          ]
        ]
      }
    },
    {
      "type": "Feature",
      "properties": {
        "id": "train_053_BND_045",
        "parcel_id": "train_053_P_012",
        "boundary_type": "VISIBLE",
        "confidence": 0.884,
        "length_m": 66.7,
        "evidence_sources": [
          "Drone_RGB_Edge",
          "DSM_Breakline"
        ]
      },
      "geometry": {
        "type": "LineString",
        "coordinates": [
          [
            77.6017107,
            13.0026384
          ],
          [
            77.6023252,
            13.0026356
          ]
        ]
      }
    },
    {
      "type": "Feature",
      "properties": {
        "id": "train_053_BND_046",
        "parcel_id": "train_053_P_012",
        "boundary_type": "INFERRED",
        "confidence": 0.649,
        "length_m": 59.59,
        "evidence_sources": [
          "Road_Corridor_Offset",
          "Adjacent_Parcel_Topology"
        ]
      },
      "geometry": {
        "type": "LineString",
        "coordinates": [
          [
            77.6023252,
            13.0026356
          ],
          [
            77.60233,
            13.0020973
          ]
        ]
      }
    },
    {
      "type": "Feature",
      "properties": {
        "id": "train_053_BND_047",
        "parcel_id": "train_053_P_012",
        "boundary_type": "VISIBLE",
        "confidence": 0.92,
        "length_m": 68.83,
        "evidence_sources": [
          "Drone_RGB_Edge",
          "DSM_Breakline"
        ]
      },
      "geometry": {
        "type": "LineString",
        "coordinates": [
          [
            77.60233,
            13.0020973
          ],
          [
            77.6016962,
            13.0020773
          ]
        ]
      }
    },
    {
      "type": "Feature",
      "properties": {
        "id": "train_053_BND_048",
        "parcel_id": "train_053_P_012",
        "boundary_type": "VISIBLE",
        "confidence": 0.873,
        "length_m": 62.13,
        "evidence_sources": [
          "Drone_RGB_Edge",
          "DSM_Breakline"
        ]
      },
      "geometry": {
        "type": "LineString",
        "coordinates": [
          [
            77.6016962,
            13.0020773
          ],
          [
            77.6017107,
            13.0026384
          ]
        ]
      }
    },
    {
      "type": "Feature",
      "properties": {
        "id": "train_053_BND_049",
        "parcel_id": "train_053_P_013",
        "boundary_type": "INFERRED",
        "confidence": 0.757,
        "length_m": 44.24,
        "evidence_sources": [
          "Road_Corridor_Offset",
          "Adjacent_Parcel_Topology"
        ]
      },
      "geometry": {
        "type": "LineString",
        "coordinates": [
          [
            77.6024917,
            13.0032151
          ],
          [
            77.6028988,
            13.0032335
          ]
        ]
      }
    },
    {
      "type": "Feature",
      "properties": {
        "id": "train_053_BND_050",
        "parcel_id": "train_053_P_013",
        "boundary_type": "VISIBLE",
        "confidence": 0.92,
        "length_m": 61.43,
        "evidence_sources": [
          "Drone_RGB_Edge",
          "DSM_Breakline"
        ]
      },
      "geometry": {
        "type": "LineString",
        "coordinates": [
          [
            77.6028988,
            13.0032335
          ],
          [
            77.6028871,
            13.0026787
          ]
        ]
      }
    },
    {
      "type": "Feature",
      "properties": {
        "id": "train_053_BND_051",
        "parcel_id": "train_053_P_013",
        "boundary_type": "VISIBLE",
        "confidence": 0.939,
        "length_m": 42.21,
        "evidence_sources": [
          "Drone_RGB_Edge",
          "DSM_Breakline"
        ]
      },
      "geometry": {
        "type": "LineString",
        "coordinates": [
          [
            77.6028871,
            13.0026787
          ],
          [
            77.6024988,
            13.0026582
          ]
        ]
      }
    },
    {
      "type": "Feature",
      "properties": {
        "id": "train_053_BND_052",
        "parcel_id": "train_053_P_013",
        "boundary_type": "VISIBLE",
        "confidence": 0.955,
        "length_m": 61.65,
        "evidence_sources": [
          "Drone_RGB_Edge",
          "DSM_Breakline"
        ]
      },
      "geometry": {
        "type": "LineString",
        "coordinates": [
          [
            77.6024988,
            13.0026582
          ],
          [
            77.6024917,
            13.0032151
          ]
        ]
      }
    },
    {
      "type": "Feature",
      "properties": {
        "id": "train_053_BND_053",
        "parcel_id": "train_053_P_014",
        "boundary_type": "VISIBLE",
        "confidence": 0.872,
        "length_m": 45.02,
        "evidence_sources": [
          "Drone_RGB_Edge",
          "DSM_Breakline"
        ]
      },
      "geometry": {
        "type": "LineString",
        "coordinates": [
          [
            77.6024845,
            13.0026437
          ],
          [
            77.6028992,
            13.002649
          ]
        ]
      }
    },
    {
      "type": "Feature",
      "properties": {
        "id": "train_053_BND_054",
        "parcel_id": "train_053_P_014",
        "boundary_type": "INFERRED",
        "confidence": 0.718,
        "length_m": 61.51,
        "evidence_sources": [
          "Road_Corridor_Offset",
          "Adjacent_Parcel_Topology"
        ]
      },
      "geometry": {
        "type": "LineString",
        "coordinates": [
          [
            77.6028992,
            13.002649
          ],
          [
            77.6029021,
            13.0020933
          ]
        ]
      }
    },
    {
      "type": "Feature",
      "properties": {
        "id": "train_053_BND_055",
        "parcel_id": "train_053_P_014",
        "boundary_type": "VISIBLE",
        "confidence": 0.887,
        "length_m": 44.27,
        "evidence_sources": [
          "Drone_RGB_Edge",
          "DSM_Breakline"
        ]
      },
      "geometry": {
        "type": "LineString",
        "coordinates": [
          [
            77.6029021,
            13.0020933
          ],
          [
            77.6024944,
            13.0020821
          ]
        ]
      }
    },
    {
      "type": "Feature",
      "properties": {
        "id": "train_053_BND_056",
        "parcel_id": "train_053_P_014",
        "boundary_type": "VISIBLE",
        "confidence": 0.929,
        "length_m": 62.18,
        "evidence_sources": [
          "Drone_RGB_Edge",
          "DSM_Breakline"
        ]
      },
      "geometry": {
        "type": "LineString",
        "coordinates": [
          [
            77.6024944,
            13.0020821
          ],
          [
            77.6024845,
            13.0026437
          ]
        ]
      }
    },
    {
      "type": "Feature",
      "properties": {
        "id": "train_053_BND_057",
        "parcel_id": "train_053_P_015",
        "boundary_type": "VISIBLE",
        "confidence": 0.946,
        "length_m": 43.72,
        "evidence_sources": [
          "Drone_RGB_Edge",
          "DSM_Breakline"
        ]
      },
      "geometry": {
        "type": "LineString",
        "coordinates": [
          [
            77.6029145,
            13.0032252
          ],
          [
            77.6033171,
            13.0032355
          ]
        ]
      }
    },
    {
      "type": "Feature",
      "properties": {
        "id": "train_053_BND_058",
        "parcel_id": "train_053_P_015",
        "boundary_type": "VISIBLE",
        "confidence": 0.898,
        "length_m": 61.92,
        "evidence_sources": [
          "Drone_RGB_Edge",
          "DSM_Breakline"
        ]
      },
      "geometry": {
        "type": "LineString",
        "coordinates": [
          [
            77.6033171,
            13.0032355
          ],
          [
            77.6033142,
            13.0026761
          ]
        ]
      }
    },
    {
      "type": "Feature",
      "properties": {
        "id": "train_053_BND_059",
        "parcel_id": "train_053_P_015",
        "boundary_type": "VISIBLE",
        "confidence": 0.919,
        "length_m": 43.22,
        "evidence_sources": [
          "Drone_RGB_Edge",
          "DSM_Breakline"
        ]
      },
      "geometry": {
        "type": "LineString",
        "coordinates": [
          [
            77.6033142,
            13.0026761
          ],
          [
            77.6029162,
            13.0026645
          ]
        ]
      }
    },
    {
      "type": "Feature",
      "properties": {
        "id": "train_053_BND_060",
        "parcel_id": "train_053_P_015",
        "boundary_type": "VISIBLE",
        "confidence": 0.874,
        "length_m": 62.07,
        "evidence_sources": [
          "Drone_RGB_Edge",
          "DSM_Breakline"
        ]
      },
      "geometry": {
        "type": "LineString",
        "coordinates": [
          [
            77.6029162,
            13.0026645
          ],
          [
            77.6029145,
            13.0032252
          ]
        ]
      }
    },
    {
      "type": "Feature",
      "properties": {
        "id": "train_053_BND_061",
        "parcel_id": "train_053_P_016",
        "boundary_type": "VISIBLE",
        "confidence": 0.882,
        "length_m": 45.32,
        "evidence_sources": [
          "Drone_RGB_Edge",
          "DSM_Breakline"
        ]
      },
      "geometry": {
        "type": "LineString",
        "coordinates": [
          [
            77.6029048,
            13.0026474
          ],
          [
            77.6033223,
            13.0026474
          ]
        ]
      }
    },
    {
      "type": "Feature",
      "properties": {
        "id": "train_053_BND_062",
        "parcel_id": "train_053_P_016",
        "boundary_type": "VISIBLE",
        "confidence": 0.901,
        "length_m": 61.76,
        "evidence_sources": [
          "Drone_RGB_Edge",
          "DSM_Breakline"
        ]
      },
      "geometry": {
        "type": "LineString",
        "coordinates": [
          [
            77.6033223,
            13.0026474
          ],
          [
            77.6033183,
            13.0020895
          ]
        ]
      }
    },
    {
      "type": "Feature",
      "properties": {
        "id": "train_053_BND_063",
        "parcel_id": "train_053_P_016",
        "boundary_type": "VISIBLE",
        "confidence": 0.86,
        "length_m": 44.07,
        "evidence_sources": [
          "Drone_RGB_Edge",
          "DSM_Breakline"
        ]
      },
      "geometry": {
        "type": "LineString",
        "coordinates": [
          [
            77.6033183,
            13.0020895
          ],
          [
            77.6029123,
            13.002092
          ]
        ]
      }
    },
    {
      "type": "Feature",
      "properties": {
        "id": "train_053_BND_064",
        "parcel_id": "train_053_P_016",
        "boundary_type": "VISIBLE",
        "confidence": 0.893,
        "length_m": 61.49,
        "evidence_sources": [
          "Drone_RGB_Edge",
          "DSM_Breakline"
        ]
      },
      "geometry": {
        "type": "LineString",
        "coordinates": [
          [
            77.6029123,
            13.002092
          ],
          [
            77.6029048,
            13.0026474
          ]
        ]
      }
    }
  ]
}