{
  "type": "FeatureCollection",
  "crs": {
    "type": "name",
    "properties": {
      "name": "EPSG:4326"
    }
  },
  "features": [
    {
      "type": "Feature",
      "properties": {
        "id": "train_087_RD_001",
        "road_class": "MAIN_ROAD",
        "width_m": 4.0,
        "length_m": 258.47,
        "confidence": 0.94
      },
      "geometry": {
        "type": "LineString",
        "coordinates": [
          [
            77.613,
            13.0092187
          ],
          [
            77.6153812,
            13.0092187
          ]
        ]
      }
    },
    {
      "type": "Feature",
      "properties": {
        "id": "train_087_RD_002",
        "road_class": "NARROW_LANE",
        "width_m": 2.0,
        "length_m": 263.6,
        "confidence": 0.89
      },
      "geometry": {
        "type": "LineString",
        "coordinates": [
          [
            77.6141625,
            13.0104
          ],
          [
            77.6141625,
            13.0080187
          ]
        ]
      }
    }
  ]
}