{
  "type": "FeatureCollection",
  "crs": {
    "type": "name",
    "properties": {
      "name": "EPSG:4326"
    }
  },
  "features": [
    {
      "type": "Feature",
      "properties": {
        "id": "train_016_BND_001",
        "parcel_id": "train_016_P_001",
        "boundary_type": "VISIBLE",
        "confidence": 0.822,
        "length_m": 41.34,
        "evidence_sources": [
          "Drone_RGB_Edge",
          "DSM_Breakline"
        ]
      },
      "geometry": {
        "type": "LineString",
        "coordinates": [
          [
            77.6250795,
            12.9953057
          ],
          [
            77.6254603,
            12.995312
          ]
        ]
      }
    },
    {
      "type": "Feature",
      "properties": {
        "id": "train_016_BND_002",
        "parcel_id": "train_016_P_001",
        "boundary_type": "VISIBLE",
        "confidence": 0.9,
        "length_m": 54.68,
        "evidence_sources": [
          "Drone_RGB_Edge",
          "DSM_Breakline"
        ]
      },
      "geometry": {
        "type": "LineString",
        "coordinates": [
          [
            77.6254603,
            12.995312
          ],
          [
            77.625426,
            12.9948192
          ]
        ]
      }
    },
    {
      "type": "Feature",
      "properties": {
        "id": "train_016_BND_003",
        "parcel_id": "train_016_P_001",
        "boundary_type": "VISIBLE",
        "confidence": 0.945,
        "length_m": 35.17,
        "evidence_sources": [
          "Drone_RGB_Edge",
          "DSM_Breakline"
        ]
      },
      "geometry": {
        "type": "LineString",
        "coordinates": [
          [
            77.625426,
            12.9948192
          ],
          [
            77.6251022,
            12.9948289
          ]
        ]
      }
    },
    {
      "type": "Feature",
      "properties": {
        "id": "train_016_BND_004",
        "parcel_id": "train_016_P_001",
        "boundary_type": "VISIBLE",
        "confidence": 0.923,
        "length_m": 52.84,
        "evidence_sources": [
          "Drone_RGB_Edge",
          "DSM_Breakline"
        ]
      },
      "geometry": {
        "type": "LineString",
        "coordinates": [
          [
            77.6251022,
            12.9948289
          ],
          [
            77.6250795,
            12.9953057
          ]
        ]
      }
    },
    {
      "type": "Feature",
      "properties": {
        "id": "train_016_BND_005",
        "parcel_id": "train_016_P_002",
        "boundary_type": "INFERRED",
        "confidence": 0.626,
        "length_m": 45.89,
        "evidence_sources": [
          "Road_Corridor_Offset",
          "Adjacent_Parcel_Topology"
        ]
      },
      "geometry": {
        "type": "LineString",
        "coordinates": [
          [
            77.62506,
            12.9947655
          ],
          [
            77.6254827,
            12.994757
          ]
        ]
      }
    },
    {
      "type": "Feature",
      "properties": {
        "id": "train_016_BND_006",
        "parcel_id": "train_016_P_002",
        "boundary_type": "VISIBLE",
        "confidence": 0.919,
        "length_m": 52.69,
        "evidence_sources": [
          "Drone_RGB_Edge",
          "DSM_Breakline"
        ]
      },
      "geometry": {
        "type": "LineString",
        "coordinates": [
          [
            77.6254827,
            12.994757
          ],
          [
            77.6254333,
            12.9942835
          ]
        ]
      }
    },
    {
      "type": "Feature",
      "properties": {
        "id": "train_016_BND_007",
        "parcel_id": "train_016_P_002",
        "boundary_type": "VISIBLE",
        "confidence": 0.947,
        "length_m": 37.31,
        "evidence_sources": [
          "Drone_RGB_Edge",
          "DSM_Breakline"
        ]
      },
      "geometry": {
        "type": "LineString",
        "coordinates": [
          [
            77.6254333,
            12.9942835
          ],
          [
            77.6250929,
            12.9942366
          ]
        ]
      }
    },
    {
      "type": "Feature",
      "properties": {
        "id": "train_016_BND_008",
        "parcel_id": "train_016_P_002",
        "boundary_type": "VISIBLE",
        "confidence": 0.869,
        "length_m": 58.66,
        "evidence_sources": [
          "Drone_RGB_Edge",
          "DSM_Breakline"
        ]
      },
      "geometry": {
        "type": "LineString",
        "coordinates": [
          [
            77.6250929,
            12.9942366
          ],
          [
            77.62506,
            12.9947655
          ]
        ]
      }
    },
    {
      "type": "Feature",
      "properties": {
        "id": "train_016_BND_009",
        "parcel_id": "train_016_P_003",
        "boundary_type": "VISIBLE",
        "confidence": 0.921,
        "length_m": 33.75,
        "evidence_sources": [
          "Drone_RGB_Edge",
          "DSM_Breakline"
        ]
      },
      "geometry": {
        "type": "LineString",
        "coordinates": [
          [
            77.6255489,
            12.9952833
          ],
          [
            77.6258562,
            12.9953297
          ]
        ]
      }
    },
    {
      "type": "Feature",
      "properties": {
        "id": "train_016_BND_010",
        "parcel_id": "train_016_P_003",
        "boundary_type": "INFERRED",
        "confidence": 0.737,
        "length_m": 56.38,
        "evidence_sources": [
          "Road_Corridor_Offset",
          "Adjacent_Parcel_Topology"
        ]
      },
      "geometry": {
        "type": "LineString",
        "coordinates": [
          [
            77.6258562,
            12.9953297
          ],
          [
            77.6259054,
            12.9948227
          ]
        ]
      }
    },
    {
      "type": "Feature",
      "properties": {
        "id": "train_016_BND_011",
        "parcel_id": "train_016_P_003",
        "boundary_type": "VISIBLE",
        "confidence": 0.868,
        "length_m": 42.58,
        "evidence_sources": [
          "Drone_RGB_Edge",
          "DSM_Breakline"
        ]
      },
      "geometry": {
        "type": "LineString",
        "coordinates": [
          [
            77.6259054,
            12.9948227
          ],
          [
            77.6255132,
            12.9948266
          ]
        ]
      }
    },
    {
      "type": "Feature",
      "properties": {
        "id": "train_016_BND_012",
        "parcel_id": "train_016_P_003",
        "boundary_type": "VISIBLE",
        "confidence": 0.864,
        "length_m": 50.7,
        "evidence_sources": [
          "Drone_RGB_Edge",
          "DSM_Breakline"
        ]
      },
      "geometry": {
        "type": "LineString",
        "coordinates": [
          [
            77.6255132,
            12.9948266
          ],
          [
            77.6255489,
            12.9952833
          ]
        ]
      }
    },
    {
      "type": "Feature",
      "properties": {
        "id": "train_016_BND_013",
        "parcel_id": "train_016_P_004",
        "boundary_type": "VISIBLE",
        "confidence": 0.854,
        "length_m": 37.16,
        "evidence_sources": [
          "Drone_RGB_Edge",
          "DSM_Breakline"
        ]
      },
      "geometry": {
        "type": "LineString",
        "coordinates": [
          [
            77.6255212,
            12.9947672
          ],
          [
            77.625862,
            12.9947355
          ]
        ]
      }
    },
    {
      "type": "Feature",
      "properties": {
        "id": "train_016_BND_014",
        "parcel_id": "train_016_P_004",
        "boundary_type": "VISIBLE",
        "confidence": 0.837,
        "length_m": 50.26,
        "evidence_sources": [
          "Drone_RGB_Edge",
          "DSM_Breakline"
        ]
      },
      "geometry": {
        "type": "LineString",
        "coordinates": [
          [
            77.625862,
            12.9947355
          ],
          [
            77.6258841,
            12.994282
          ]
        ]
      }
    },
    {
      "type": "Feature",
      "properties": {
        "id": "train_016_BND_015",
        "parcel_id": "train_016_P_004",
        "boundary_type": "INFERRED",
        "confidence": 0.759,
        "length_m": 36.18,
        "evidence_sources": [
          "Road_Corridor_Offset",
          "Adjacent_Parcel_Topology"
        ]
      },
      "geometry": {
        "type": "LineString",
        "coordinates": [
          [
            77.6258841,
            12.994282
          ],
          [
            77.6255509,
            12.9942743
          ]
        ]
      }
    },
    {
      "type": "Feature",
      "properties": {
        "id": "train_016_BND_016",
        "parcel_id": "train_016_P_004",
        "boundary_type": "VISIBLE",
        "confidence": 0.927,
        "length_m": 54.66,
        "evidence_sources": [
          "Drone_RGB_Edge",
          "DSM_Breakline"
        ]
      },
      "geometry": {
        "type": "LineString",
        "coordinates": [
          [
            77.6255509,
            12.9942743
          ],
          [
            77.6255212,
            12.9947672
          ]
        ]
      }
    },
    {
      "type": "Feature",
      "properties": {
        "id": "train_016_BND_017",
        "parcel_id": "train_016_P_005",
        "boundary_type": "VISIBLE",
        "confidence": 0.919,
        "length_m": 64.86,
        "evidence_sources": [
          "Drone_RGB_Edge",
          "DSM_Breakline"
        ]
      },
      "geometry": {
        "type": "LineString",
        "coordinates": [
          [
            77.6260959,
            12.9953192
          ],
          [
            77.626693,
            12.9952971
          ]
        ]
      }
    },
    {
      "type": "Feature",
      "properties": {
        "id": "train_016_BND_018",
        "parcel_id": "train_016_P_005",
        "boundary_type": "VISIBLE",
        "confidence": 0.833,
        "length_m": 56.03,
        "evidence_sources": [
          "Drone_RGB_Edge",
          "DSM_Breakline"
        ]
      },
      "geometry": {
        "type": "LineString",
        "coordinates": [
          [
            77.626693,
            12.9952971
          ],
          [
            77.6266643,
            12.9947917
          ]
        ]
      }
    },
    {
      "type": "Feature",
      "properties": {
        "id": "train_016_BND_019",
        "parcel_id": "train_016_P_005",
        "boundary_type": "INFERRED",
        "confidence": 0.782,
        "length_m": 63.39,
        "evidence_sources": [
          "Road_Corridor_Offset",
          "Adjacent_Parcel_Topology"
        ]
      },
      "geometry": {
        "type": "LineString",
        "coordinates": [
          [
            77.6266643,
            12.9947917
          ],
          [
            77.6260814,
            12.9948256
          ]
        ]
      }
    },
    {
      "type": "Feature",
      "properties": {
        "id": "train_016_BND_020",
        "parcel_id": "train_016_P_005",
        "boundary_type": "INFERRED",
        "confidence": 0.752,
        "length_m": 54.66,
        "evidence_sources": [
          "Road_Corridor_Offset",
          "Adjacent_Parcel_Topology"
        ]
      },
      "geometry": {
        "type": "LineString",
        "coordinates": [
          [
            77.6260814,
            12.9948256
          ],
          [
            77.6260959,
            12.9953192
          ]
        ]
      }
    },
    {
      "type": "Feature",
      "properties": {
        "id": "train_016_BND_021",
        "parcel_id": "train_016_P_006",
        "boundary_type": "VISIBLE",
        "confidence": 0.881,
        "length_m": 62.6,
        "evidence_sources": [
          "Drone_RGB_Edge",
          "DSM_Breakline"
        ]
      },
      "geometry": {
        "type": "LineString",
        "coordinates": [
          [
            77.6260893,
            12.9947797
          ],
          [
            77.626666,
            12.9947759
          ]
        ]
      }
    },
    {
      "type": "Feature",
      "properties": {
        "id": "train_016_BND_022",
        "parcel_id": "train_016_P_006",
        "boundary_type": "VISIBLE",
        "confidence": 0.868,
        "length_m": 59.68,
        "evidence_sources": [
          "Drone_RGB_Edge",
          "DSM_Breakline"
        ]
      },
      "geometry": {
        "type": "LineString",
        "coordinates": [
          [
            77.626666,
            12.9947759
          ],
          [
            77.6266533,
            12.9942369
          ]
        ]
      }
    },
    {
      "type": "Feature",
      "properties": {
        "id": "train_016_BND_023",
        "parcel_id": "train_016_P_006",
        "boundary_type": "VISIBLE",
        "confidence": 0.856,
        "length_m": 58.88,
        "evidence_sources": [
          "Drone_RGB_Edge",
          "DSM_Breakline"
        ]
      },
      "geometry": {
        "type": "LineString",
        "coordinates": [
          [
            77.6266533,
            12.9942369
          ],
          [
            77.626111,
            12.9942277
          ]
        ]
      }
    },
    {
      "type": "Feature",
      "properties": {
        "id": "train_016_BND_024",
        "parcel_id": "train_016_P_006",
        "boundary_type": "VISIBLE",
        "confidence": 0.831,
        "length_m": 61.15,
        "evidence_sources": [
          "Drone_RGB_Edge",
          "DSM_Breakline"
        ]
      },
      "geometry": {
        "type": "LineString",
        "coordinates": [
          [
            77.626111,
            12.9942277
          ],
          [
            77.6260893,
            12.9947797
          ]
        ]
      }
    },
    {
      "type": "Feature",
      "properties": {
        "id": "train_016_BND_025",
        "parcel_id": "train_016_P_007",
        "boundary_type": "VISIBLE",
        "confidence": 0.943,
        "length_m": 62.87,
        "evidence_sources": [
          "Drone_RGB_Edge",
          "DSM_Breakline"
        ]
      },
      "geometry": {
        "type": "LineString",
        "coordinates": [
          [
            77.6267143,
            12.9952809
          ],
          [
            77.627292,
            12.9953213
          ]
        ]
      }
    },
    {
      "type": "Feature",
      "properties": {
        "id": "train_016_BND_026",
        "parcel_id": "train_016_P_007",
        "boundary_type": "INFERRED",
        "confidence": 0.633,
        "length_m": 53.89,
        "evidence_sources": [
          "Road_Corridor_Offset",
          "Adjacent_Parcel_Topology"
        ]
      },
      "geometry": {
        "type": "LineString",
        "coordinates": [
          [
            77.627292,
            12.9953213
          ],
          [
            77.6272942,
            12.9948345
          ]
        ]
      }
    },
    {
      "type": "Feature",
      "properties": {
        "id": "train_016_BND_027",
        "parcel_id": "train_016_P_007",
        "boundary_type": "VISIBLE",
        "confidence": 0.892,
        "length_m": 58.75,
        "evidence_sources": [
          "Drone_RGB_Edge",
          "DSM_Breakline"
        ]
      },
      "geometry": {
        "type": "LineString",
        "coordinates": [
          [
            77.6272942,
            12.9948345
          ],
          [
            77.626753,
            12.9948287
          ]
        ]
      }
    },
    {
      "type": "Feature",
      "properties": {
        "id": "train_016_BND_028",
        "parcel_id": "train_016_P_007",
        "boundary_type": "VISIBLE",
        "confidence": 0.955,
        "length_m": 50.23,
        "evidence_sources": [
          "Drone_RGB_Edge",
          "DSM_Breakline"
        ]
      },
      "geometry": {
        "type": "LineString",
        "coordinates": [
          [
            77.626753,
            12.9948287
          ],
          [
            77.6267143,
            12.9952809
          ]
        ]
      }
    },
    {
      "type": "Feature",
      "properties": {
        "id": "train_016_BND_029",
        "parcel_id": "train_016_P_008",
        "boundary_type": "INFERRED",
        "confidence": 0.678,
        "length_m": 62.14,
        "evidence_sources": [
          "Road_Corridor_Offset",
          "Adjacent_Parcel_Topology"
        ]
      },
      "geometry": {
        "type": "LineString",
        "coordinates": [
          [
            77.6267283,
            12.9947381
          ],
          [
            77.6273006,
            12.9947497
          ]
        ]
      }
    },
    {
      "type": "Feature",
      "properties": {
        "id": "train_016_BND_030",
        "parcel_id": "train_016_P_008",
        "boundary_type": "INFERRED",
        "confidence": 0.776,
        "length_m": 51.97,
        "evidence_sources": [
          "Road_Corridor_Offset",
          "Adjacent_Parcel_Topology"
        ]
      },
      "geometry": {
        "type": "LineString",
        "coordinates": [
          [
            77.6273006,
            12.9947497
          ],
          [
            77.627317,
            12.9942805
          ]
        ]
      }
    },
    {
      "type": "Feature",
      "properties": {
        "id": "train_016_BND_031",
        "parcel_id": "train_016_P_008",
        "boundary_type": "VISIBLE",
        "confidence": 0.885,
        "length_m": 65.68,
        "evidence_sources": [
          "Drone_RGB_Edge",
          "DSM_Breakline"
        ]
      },
      "geometry": {
        "type": "LineString",
        "coordinates": [
          [
            77.627317,
            12.9942805
          ],
          [
            77.626713,
            12.9942459
          ]
        ]
      }
    },
    {
      "type": "Feature",
      "properties": {
        "id": "train_016_BND_032",
        "parcel_id": "train_016_P_008",
        "boundary_type": "INFERRED",
        "confidence": 0.736,
        "length_m": 54.51,
        "evidence_sources": [
          "Road_Corridor_Offset",
          "Adjacent_Parcel_Topology"
        ]
      },
      "geometry": {
        "type": "LineString",
        "coordinates": [
          [
            77.626713,
            12.9942459
          ],
          [
            77.6267283,
            12.9947381
          ]
        ]
      }
    },
    {
      "type": "Feature",
      "properties": {
        "id": "train_016_BND_033",
        "parcel_id": "train_016_P_009",
        "boundary_type": "VISIBLE",
        "confidence": 0.901,
        "length_m": 43.03,
        "evidence_sources": [
          "Drone_RGB_Edge",
          "DSM_Breakline"
        ]
      },
      "geometry": {
        "type": "LineString",
        "coordinates": [
          [
            77.6250608,
            12.9940241
          ],
          [
            77.6254571,
            12.9940158
          ]
        ]
      }
    },
    {
      "type": "Feature",
      "properties": {
        "id": "train_016_BND_034",
        "parcel_id": "train_016_P_009",
        "boundary_type": "VISIBLE",
        "confidence": 0.9,
        "length_m": 50.96,
        "evidence_sources": [
          "Drone_RGB_Edge",
          "DSM_Breakline"
        ]
      },
      "geometry": {
        "type": "LineString",
        "coordinates": [
          [
            77.6254571,
            12.9940158
          ],
          [
            77.6254572,
            12.9935554
          ]
        ]
      }
    },
    {
      "type": "Feature",
      "properties": {
        "id": "train_016_BND_035",
        "parcel_id": "train_016_P_009",
        "boundary_type": "VISIBLE",
        "confidence": 0.828,
        "length_m": 37.66,
        "evidence_sources": [
          "Drone_RGB_Edge",
          "DSM_Breakline"
        ]
      },
      "geometry": {
        "type": "LineString",
        "coordinates": [
          [
            77.6254572,
            12.9935554
          ],
          [
            77.6251103,
            12.9935576
          ]
        ]
      }
    },
    {
      "type": "Feature",
      "properties": {
        "id": "train_016_BND_036",
        "parcel_id": "train_016_P_009",
        "boundary_type": "VISIBLE",
        "confidence": 0.821,
        "length_m": 51.92,
        "evidence_sources": [
          "Drone_RGB_Edge",
          "DSM_Breakline"
        ]
      },
      "geometry": {
        "type": "LineString",
        "coordinates": [
          [
            77.6251103,
            12.9935576
          ],
          [
            77.6250608,
            12.9940241
          ]
        ]
      }
    },
    {
      "type": "Feature",
      "properties": {
        "id": "train_016_BND_037",
        "parcel_id": "train_016_P_010",
        "boundary_type": "VISIBLE",
        "confidence": 0.867,
        "length_m": 36.06,
        "evidence_sources": [
          "Drone_RGB_Edge",
          "DSM_Breakline"
        ]
      },
      "geometry": {
        "type": "LineString",
        "coordinates": [
          [
            77.6251213,
            12.9935014
          ],
          [
            77.6254532,
            12.993516
          ]
        ]
      }
    },
    {
      "type": "Feature",
      "properties": {
        "id": "train_016_BND_038",
        "parcel_id": "train_016_P_010",
        "boundary_type": "VISIBLE",
        "confidence": 0.957,
        "length_m": 47.61,
        "evidence_sources": [
          "Drone_RGB_Edge",
          "DSM_Breakline"
        ]
      },
      "geometry": {
        "type": "LineString",
        "coordinates": [
          [
            77.6254532,
            12.993516
          ],
          [
            77.6254874,
            12.9930872
          ]
        ]
      }
    },
    {
      "type": "Feature",
      "properties": {
        "id": "train_016_BND_039",
        "parcel_id": "train_016_P_010",
        "boundary_type": "VISIBLE",
        "confidence": 0.84,
        "length_m": 44.83,
        "evidence_sources": [
          "Drone_RGB_Edge",
          "DSM_Breakline"
        ]
      },
      "geometry": {
        "type": "LineString",
        "coordinates": [
          [
            77.6254874,
            12.9930872
          ],
          [
            77.6250745,
            12.9930934
          ]
        ]
      }
    },
    {
      "type": "Feature",
      "properties": {
        "id": "train_016_BND_040",
        "parcel_id": "train_016_P_010",
        "boundary_type": "VISIBLE",
        "confidence": 0.854,
        "length_m": 45.45,
        "evidence_sources": [
          "Drone_RGB_Edge",
          "DSM_Breakline"
        ]
      },
      "geometry": {
        "type": "LineString",
        "coordinates": [
          [
            77.6250745,
            12.9930934
          ],
          [
            77.6251213,
            12.9935014
          ]
        ]
      }
    },
    {
      "type": "Feature",
      "properties": {
        "id": "train_016_BND_041",
        "parcel_id": "train_016_P_011",
        "boundary_type": "INFERRED",
        "confidence": 0.684,
        "length_m": 40.61,
        "evidence_sources": [
          "Road_Corridor_Offset",
          "Adjacent_Parcel_Topology"
        ]
      },
      "geometry": {
        "type": "LineString",
        "coordinates": [
          [
            77.6255363,
            12.9940182
          ],
          [
            77.6259098,
            12.9939977
          ]
        ]
      }
    },
    {
      "type": "Feature",
      "properties": {
        "id": "train_016_BND_042",
        "parcel_id": "train_016_P_011",
        "boundary_type": "VISIBLE",
        "confidence": 0.829,
        "length_m": 47.21,
        "evidence_sources": [
          "Drone_RGB_Edge",
          "DSM_Breakline"
        ]
      },
      "geometry": {
        "type": "LineString",
        "coordinates": [
          [
            77.6259098,
            12.9939977
          ],
          [
            77.6259103,
            12.9935712
          ]
        ]
      }
    },
    {
      "type": "Feature",
      "properties": {
        "id": "train_016_BND_043",
        "parcel_id": "train_016_P_011",
        "boundary_type": "INFERRED",
        "confidence": 0.717,
        "length_m": 40.59,
        "evidence_sources": [
          "Road_Corridor_Offset",
          "Adjacent_Parcel_Topology"
        ]
      },
      "geometry": {
        "type": "LineString",
        "coordinates": [
          [
            77.6259103,
            12.9935712
          ],
          [
            77.6255378,
            12.9936036
          ]
        ]
      }
    },
    {
      "type": "Feature",
      "properties": {
        "id": "train_016_BND_044",
        "parcel_id": "train_016_P_011",
        "boundary_type": "VISIBLE",
        "confidence": 0.933,
        "length_m": 45.9,
        "evidence_sources": [
          "Drone_RGB_Edge",
          "DSM_Breakline"
        ]
      },
      "geometry": {
        "type": "LineString",
        "coordinates": [
          [
            77.6255378,
            12.9936036
          ],
          [
            77.6255363,
            12.9940182
          ]
        ]
      }
    },
    {
      "type": "Feature",
      "properties": {
        "id": "train_016_BND_045",
        "parcel_id": "train_016_P_012",
        "boundary_type": "VISIBLE",
        "confidence": 0.834,
        "length_m": 35.95,
        "evidence_sources": [
          "Drone_RGB_Edge",
          "DSM_Breakline"
        ]
      },
      "geometry": {
        "type": "LineString",
        "coordinates": [
          [
            77.6255365,
            12.9935419
          ],
          [
            77.6258676,
            12.9935491
          ]
        ]
      }
    },
    {
      "type": "Feature",
      "properties": {
        "id": "train_016_BND_046",
        "parcel_id": "train_016_P_012",
        "boundary_type": "VISIBLE",
        "confidence": 0.887,
        "length_m": 51.18,
        "evidence_sources": [
          "Drone_RGB_Edge",
          "DSM_Breakline"
        ]
      },
      "geometry": {
        "type": "LineString",
        "coordinates": [
          [
            77.6258676,
            12.9935491
          ],
          [
            77.6258663,
            12.9930868
          ]
        ]
      }
    },
    {
      "type": "Feature",
      "properties": {
        "id": "train_016_BND_047",
        "parcel_id": "train_016_P_012",
        "boundary_type": "INFERRED",
        "confidence": 0.771,
        "length_m": 35.79,
        "evidence_sources": [
          "Road_Corridor_Offset",
          "Adjacent_Parcel_Topology"
        ]
      },
      "geometry": {
        "type": "LineString",
        "coordinates": [
          [
            77.6258663,
            12.9930868
          ],
          [
            77.6255366,
            12.9930896
          ]
        ]
      }
    },
    {
      "type": "Feature",
      "properties": {
        "id": "train_016_BND_048",
        "parcel_id": "train_016_P_012",
        "boundary_type": "VISIBLE",
        "confidence": 0.86,
        "length_m": 50.07,
        "evidence_sources": [
          "Drone_RGB_Edge",
          "DSM_Breakline"
        ]
      },
      "geometry": {
        "type": "LineString",
        "coordinates": [
          [
            77.6255366,
            12.9930896
          ],
          [
            77.6255365,
            12.9935419
          ]
        ]
      }
    },
    {
      "type": "Feature",
      "properties": {
        "id": "train_016_BND_049",
        "parcel_id": "train_016_P_013",
        "boundary_type": "VISIBLE",
        "confidence": 0.894,
        "length_m": 60.68,
        "evidence_sources": [
          "Drone_RGB_Edge",
          "DSM_Breakline"
        ]
      },
      "geometry": {
        "type": "LineString",
        "coordinates": [
          [
            77.6261204,
            12.993966
          ],
          [
            77.6266772,
            12.9940149
          ]
        ]
      }
    },
    {
      "type": "Feature",
      "properties": {
        "id": "train_016_BND_050",
        "parcel_id": "train_016_P_013",
        "boundary_type": "VISIBLE",
        "confidence": 0.826,
        "length_m": 48.37,
        "evidence_sources": [
          "Drone_RGB_Edge",
          "DSM_Breakline"
        ]
      },
      "geometry": {
        "type": "LineString",
        "coordinates": [
          [
            77.6266772,
            12.9940149
          ],
          [
            77.6266547,
            12.9935785
          ]
        ]
      }
    },
    {
      "type": "Feature",
      "properties": {
        "id": "train_016_BND_051",
        "parcel_id": "train_016_P_013",
        "boundary_type": "VISIBLE",
        "confidence": 0.934,
        "length_m": 58.46,
        "evidence_sources": [
          "Drone_RGB_Edge",
          "DSM_Breakline"
        ]
      },
      "geometry": {
        "type": "LineString",
        "coordinates": [
          [
            77.6266547,
            12.9935785
          ],
          [
            77.6261167,
            12.993554
          ]
        ]
      }
    },
    {
      "type": "Feature",
      "properties": {
        "id": "train_016_BND_052",
        "parcel_id": "train_016_P_013",
        "boundary_type": "VISIBLE",
        "confidence": 0.924,
        "length_m": 45.61,
        "evidence_sources": [
          "Drone_RGB_Edge",
          "DSM_Breakline"
        ]
      },
      "geometry": {
        "type": "LineString",
        "coordinates": [
          [
            77.6261167,
            12.993554
          ],
          [
            77.6261204,
            12.993966
          ]
        ]
      }
    },
    {
      "type": "Feature",
      "properties": {
        "id": "train_016_BND_053",
        "parcel_id": "train_016_P_014",
        "boundary_type": "VISIBLE",
        "confidence": 0.905,
        "length_m": 63.1,
        "evidence_sources": [
          "Drone_RGB_Edge",
          "DSM_Breakline"
        ]
      },
      "geometry": {
        "type": "LineString",
        "coordinates": [
          [
            77.6261093,
            12.9935503
          ],
          [
            77.6266906,
            12.9935466
          ]
        ]
      }
    },
    {
      "type": "Feature",
      "properties": {
        "id": "train_016_BND_054",
        "parcel_id": "train_016_P_014",
        "boundary_type": "INFERRED",
        "confidence": 0.695,
        "length_m": 45.66,
        "evidence_sources": [
          "Road_Corridor_Offset",
          "Adjacent_Parcel_Topology"
        ]
      },
      "geometry": {
        "type": "LineString",
        "coordinates": [
          [
            77.6266906,
            12.9935466
          ],
          [
            77.6266896,
            12.9931341
          ]
        ]
      }
    },
    {
      "type": "Feature",
      "properties": {
        "id": "train_016_BND_055",
        "parcel_id": "train_016_P_014",
        "boundary_type": "VISIBLE",
        "confidence": 0.895,
        "length_m": 61.63,
        "evidence_sources": [
          "Drone_RGB_Edge",
          "DSM_Breakline"
        ]
      },
      "geometry": {
        "type": "LineString",
        "coordinates": [
          [
            77.6266896,
            12.9931341
          ],
          [
            77.6261222,
            12.9931146
          ]
        ]
      }
    },
    {
      "type": "Feature",
      "properties": {
        "id": "train_016_BND_056",
        "parcel_id": "train_016_P_014",
        "boundary_type": "INFERRED",
        "confidence": 0.631,
        "length_m": 48.25,
        "evidence_sources": [
          "Road_Corridor_Offset",
          "Adjacent_Parcel_Topology"
        ]
      },
      "geometry": {
        "type": "LineString",
        "coordinates": [
          [
            77.6261222,
            12.9931146
          ],
          [
            77.6261093,
            12.9935503
          ]
        ]
      }
    },
    {
      "type": "Feature",
      "properties": {
        "id": "train_016_BND_057",
        "parcel_id": "train_016_P_015",
        "boundary_type": "VISIBLE",
        "confidence": 0.911,
        "length_m": 61.33,
        "evidence_sources": [
          "Drone_RGB_Edge",
          "DSM_Breakline"
        ]
      },
      "geometry": {
        "type": "LineString",
        "coordinates": [
          [
            77.6267525,
            12.9940056
          ],
          [
            77.6273174,
            12.9939955
          ]
        ]
      }
    },
    {
      "type": "Feature",
      "properties": {
        "id": "train_016_BND_058",
        "parcel_id": "train_016_P_015",
        "boundary_type": "VISIBLE",
        "confidence": 0.823,
        "length_m": 42.47,
        "evidence_sources": [
          "Drone_RGB_Edge",
          "DSM_Breakline"
        ]
      },
      "geometry": {
        "type": "LineString",
        "coordinates": [
          [
            77.6273174,
            12.9939955
          ],
          [
            77.6272765,
            12.9936139
          ]
        ]
      }
    },
    {
      "type": "Feature",
      "properties": {
        "id": "train_016_BND_059",
        "parcel_id": "train_016_P_015",
        "boundary_type": "VISIBLE",
        "confidence": 0.89,
        "length_m": 60.43,
        "evidence_sources": [
          "Drone_RGB_Edge",
          "DSM_Breakline"
        ]
      },
      "geometry": {
        "type": "LineString",
        "coordinates": [
          [
            77.6272765,
            12.9936139
          ],
          [
            77.6267204,
            12.9935891
          ]
        ]
      }
    },
    {
      "type": "Feature",
      "properties": {
        "id": "train_016_BND_060",
        "parcel_id": "train_016_P_015",
        "boundary_type": "VISIBLE",
        "confidence": 0.945,
        "length_m": 46.24,
        "evidence_sources": [
          "Drone_RGB_Edge",
          "DSM_Breakline"
        ]
      },
      "geometry": {
        "type": "LineString",
        "coordinates": [
          [
            77.6267204,
            12.9935891
          ],
          [
            77.6267525,
            12.9940056
          ]
        ]
      }
    },
    {
      "type": "Feature",
      "properties": {
        "id": "train_016_BND_061",
        "parcel_id": "train_016_P_016",
        "boundary_type": "VISIBLE",
        "confidence": 0.919,
        "length_m": 60.14,
        "evidence_sources": [
          "Drone_RGB_Edge",
          "DSM_Breakline"
        ]
      },
      "geometry": {
        "type": "LineString",
        "coordinates": [
          [
            77.6267252,
            12.9935472
          ],
          [
            77.6272762,
            12.9934909
          ]
        ]
      }
    },
    {
      "type": "Feature",
      "properties": {
        "id": "train_016_BND_062",
        "parcel_id": "train_016_P_016",
        "boundary_type": "VISIBLE",
        "confidence": 0.929,
        "length_m": 38.89,
        "evidence_sources": [
          "Drone_RGB_Edge",
          "DSM_Breakline"
        ]
      },
      "geometry": {
        "type": "LineString",
        "coordinates": [
          [
            77.6272762,
            12.9934909
          ],
          [
            77.6272724,
            12.9931396
          ]
        ]
      }
    },
    {
      "type": "Feature",
      "properties": {
        "id": "train_016_BND_063",
        "parcel_id": "train_016_P_016",
        "boundary_type": "VISIBLE",
        "confidence": 0.869,
        "length_m": 60.59,
        "evidence_sources": [
          "Drone_RGB_Edge",
          "DSM_Breakline"
        ]
      },
      "geometry": {
        "type": "LineString",
        "coordinates": [
          [
            77.6272724,
            12.9931396
          ],
          [
            77.6267146,
            12.9931189
          ]
        ]
      }
    },
    {
      "type": "Feature",
      "properties": {
        "id": "train_016_BND_064",
        "parcel_id": "train_016_P_016",
        "boundary_type": "VISIBLE",
        "confidence": 0.841,
        "length_m": 47.43,
        "evidence_sources": [
          "Drone_RGB_Edge",
          "DSM_Breakline"
        ]
      },
      "geometry": {
        "type": "LineString",
        "coordinates": [
          [
            77.6267146,
            12.9931189
          ],
          [
            77.6267252,
            12.9935472
          ]
        ]
      }
    }
  ]
}