{
  "type": "FeatureCollection",
  "crs": {
    "type": "name",
    "properties": {
      "name": "EPSG:4326"
    }
  },
  "features": [
    {
      "type": "Feature",
      "properties": {
        "id": "train_033_BND_001",
        "parcel_id": "train_033_P_001",
        "boundary_type": "VISIBLE",
        "confidence": 0.9,
        "length_m": 63.56,
        "evidence_sources": [
          "Drone_RGB_Edge",
          "DSM_Breakline"
        ]
      },
      "geometry": {
        "type": "LineString",
        "coordinates": [
          [
            77.631077,
            12.9983297
          ],
          [
            77.6316625,
            12.9983238
          ]
        ]
      }
    },
    {
      "type": "Feature",
      "properties": {
        "id": "train_033_BND_002",
        "parcel_id": "train_033_P_001",
        "boundary_type": "INFERRED",
        "confidence": 0.678,
        "length_m": 56.22,
        "evidence_sources": [
          "Road_Corridor_Offset",
          "Adjacent_Parcel_Topology"
        ]
      },
      "geometry": {
        "type": "LineString",
        "coordinates": [
          [
            77.6316625,
            12.9983238
          ],
          [
            77.6316614,
            12.9978159
          ]
        ]
      }
    },
    {
      "type": "Feature",
      "properties": {
        "id": "train_033_BND_003",
        "parcel_id": "train_033_P_001",
        "boundary_type": "INFERRED",
        "confidence": 0.709,
        "length_m": 64.72,
        "evidence_sources": [
          "Road_Corridor_Offset",
          "Adjacent_Parcel_Topology"
        ]
      },
      "geometry": {
        "type": "LineString",
        "coordinates": [
          [
            77.6316614,
            12.9978159
          ],
          [
            77.6310652,
            12.9978142
          ]
        ]
      }
    },
    {
      "type": "Feature",
      "properties": {
        "id": "train_033_BND_004",
        "parcel_id": "train_033_P_001",
        "boundary_type": "INFERRED",
        "confidence": 0.781,
        "length_m": 57.08,
        "evidence_sources": [
          "Road_Corridor_Offset",
          "Adjacent_Parcel_Topology"
        ]
      },
      "geometry": {
        "type": "LineString",
        "coordinates": [
          [
            77.6310652,
            12.9978142
          ],
          [
            77.631077,
            12.9983297
          ]
        ]
      }
    },
    {
      "type": "Feature",
      "properties": {
        "id": "train_033_BND_005",
        "parcel_id": "train_033_P_002",
        "boundary_type": "VISIBLE",
        "confidence": 0.836,
        "length_m": 63.58,
        "evidence_sources": [
          "Drone_RGB_Edge",
          "DSM_Breakline"
        ]
      },
      "geometry": {
        "type": "LineString",
        "coordinates": [
          [
            77.6310749,
            12.9977941
          ],
          [
            77.6316606,
            12.9977925
          ]
        ]
      }
    },
    {
      "type": "Feature",
      "properties": {
        "id": "train_033_BND_006",
        "parcel_id": "train_033_P_002",
        "boundary_type": "VISIBLE",
        "confidence": 0.942,
        "length_m": 56.53,
        "evidence_sources": [
          "Drone_RGB_Edge",
          "DSM_Breakline"
        ]
      },
      "geometry": {
        "type": "LineString",
        "coordinates": [
          [
            77.6316606,
            12.9977925
          ],
          [
            77.6316685,
            12.9972819
          ]
        ]
      }
    },
    {
      "type": "Feature",
      "properties": {
        "id": "train_033_BND_007",
        "parcel_id": "train_033_P_002",
        "boundary_type": "VISIBLE",
        "confidence": 0.826,
        "length_m": 64.46,
        "evidence_sources": [
          "Drone_RGB_Edge",
          "DSM_Breakline"
        ]
      },
      "geometry": {
        "type": "LineString",
        "coordinates": [
          [
            77.6316685,
            12.9972819
          ],
          [
            77.6310747,
            12.9972764
          ]
        ]
      }
    },
    {
      "type": "Feature",
      "properties": {
        "id": "train_033_BND_008",
        "parcel_id": "train_033_P_002",
        "boundary_type": "VISIBLE",
        "confidence": 0.909,
        "length_m": 57.31,
        "evidence_sources": [
          "Drone_RGB_Edge",
          "DSM_Breakline"
        ]
      },
      "geometry": {
        "type": "LineString",
        "coordinates": [
          [
            77.6310747,
            12.9972764
          ],
          [
            77.6310749,
            12.9977941
          ]
        ]
      }
    },
    {
      "type": "Feature",
      "properties": {
        "id": "train_033_BND_009",
        "parcel_id": "train_033_P_003",
        "boundary_type": "VISIBLE",
        "confidence": 0.867,
        "length_m": 64.6,
        "evidence_sources": [
          "Drone_RGB_Edge",
          "DSM_Breakline"
        ]
      },
      "geometry": {
        "type": "LineString",
        "coordinates": [
          [
            77.6316971,
            12.9983416
          ],
          [
            77.6322921,
            12.9983309
          ]
        ]
      }
    },
    {
      "type": "Feature",
      "properties": {
        "id": "train_033_BND_010",
        "parcel_id": "train_033_P_003",
        "boundary_type": "VISIBLE",
        "confidence": 0.936,
        "length_m": 56.09,
        "evidence_sources": [
          "Drone_RGB_Edge",
          "DSM_Breakline"
        ]
      },
      "geometry": {
        "type": "LineString",
        "coordinates": [
          [
            77.6322921,
            12.9983309
          ],
          [
            77.6322932,
            12.9978242
          ]
        ]
      }
    },
    {
      "type": "Feature",
      "properties": {
        "id": "train_033_BND_011",
        "parcel_id": "train_033_P_003",
        "boundary_type": "VISIBLE",
        "confidence": 0.911,
        "length_m": 66.51,
        "evidence_sources": [
          "Drone_RGB_Edge",
          "DSM_Breakline"
        ]
      },
      "geometry": {
        "type": "LineString",
        "coordinates": [
          [
            77.6322932,
            12.9978242
          ],
          [
            77.6316805,
            12.997822
          ]
        ]
      }
    },
    {
      "type": "Feature",
      "properties": {
        "id": "train_033_BND_012",
        "parcel_id": "train_033_P_003",
        "boundary_type": "INFERRED",
        "confidence": 0.673,
        "length_m": 57.55,
        "evidence_sources": [
          "Road_Corridor_Offset",
          "Adjacent_Parcel_Topology"
        ]
      },
      "geometry": {
        "type": "LineString",
        "coordinates": [
          [
            77.6316805,
            12.997822
          ],
          [
            77.6316971,
            12.9983416
          ]
        ]
      }
    },
    {
      "type": "Feature",
      "properties": {
        "id": "train_033_BND_013",
        "parcel_id": "train_033_P_004",
        "boundary_type": "VISIBLE",
        "confidence": 0.86,
        "length_m": 62.68,
        "evidence_sources": [
          "Drone_RGB_Edge",
          "DSM_Breakline"
        ]
      },
      "geometry": {
        "type": "LineString",
        "coordinates": [
          [
            77.6316973,
            12.9978046
          ],
          [
            77.6322746,
            12.9977911
          ]
        ]
      }
    },
    {
      "type": "Feature",
      "properties": {
        "id": "train_033_BND_014",
        "parcel_id": "train_033_P_004",
        "boundary_type": "INFERRED",
        "confidence": 0.61,
        "length_m": 56.53,
        "evidence_sources": [
          "Road_Corridor_Offset",
          "Adjacent_Parcel_Topology"
        ]
      },
      "geometry": {
        "type": "LineString",
        "coordinates": [
          [
            77.6322746,
            12.9977911
          ],
          [
            77.6322842,
            12.9972805
          ]
        ]
      }
    },
    {
      "type": "Feature",
      "properties": {
        "id": "train_033_BND_015",
        "parcel_id": "train_033_P_004",
        "boundary_type": "INFERRED",
        "confidence": 0.781,
        "length_m": 65.39,
        "evidence_sources": [
          "Road_Corridor_Offset",
          "Adjacent_Parcel_Topology"
        ]
      },
      "geometry": {
        "type": "LineString",
        "coordinates": [
          [
            77.6322842,
            12.9972805
          ],
          [
            77.6316818,
            12.9972799
          ]
        ]
      }
    },
    {
      "type": "Feature",
      "properties": {
        "id": "train_033_BND_016",
        "parcel_id": "train_033_P_004",
        "boundary_type": "VISIBLE",
        "confidence": 0.899,
        "length_m": 58.11,
        "evidence_sources": [
          "Drone_RGB_Edge",
          "DSM_Breakline"
        ]
      },
      "geometry": {
        "type": "LineString",
        "coordinates": [
          [
            77.6316818,
            12.9972799
          ],
          [
            77.6316973,
            12.9978046
          ]
        ]
      }
    },
    {
      "type": "Feature",
      "properties": {
        "id": "train_033_BND_017",
        "parcel_id": "train_033_P_005",
        "boundary_type": "VISIBLE",
        "confidence": 0.847,
        "length_m": 42.27,
        "evidence_sources": [
          "Drone_RGB_Edge",
          "DSM_Breakline"
        ]
      },
      "geometry": {
        "type": "LineString",
        "coordinates": [
          [
            77.6324923,
            12.9983404
          ],
          [
            77.6328816,
            12.9983314
          ]
        ]
      }
    },
    {
      "type": "Feature",
      "properties": {
        "id": "train_033_BND_018",
        "parcel_id": "train_033_P_005",
        "boundary_type": "VISIBLE",
        "confidence": 0.842,
        "length_m": 55.5,
        "evidence_sources": [
          "Drone_RGB_Edge",
          "DSM_Breakline"
        ]
      },
      "geometry": {
        "type": "LineString",
        "coordinates": [
          [
            77.6328816,
            12.9983314
          ],
          [
            77.6328959,
            12.9978302
          ]
        ]
      }
    },
    {
      "type": "Feature",
      "properties": {
        "id": "train_033_BND_019",
        "parcel_id": "train_033_P_005",
        "boundary_type": "VISIBLE",
        "confidence": 0.87,
        "length_m": 43.43,
        "evidence_sources": [
          "Drone_RGB_Edge",
          "DSM_Breakline"
        ]
      },
      "geometry": {
        "type": "LineString",
        "coordinates": [
          [
            77.6328959,
            12.9978302
          ],
          [
            77.6324963,
            12.9978114
          ]
        ]
      }
    },
    {
      "type": "Feature",
      "properties": {
        "id": "train_033_BND_020",
        "parcel_id": "train_033_P_005",
        "boundary_type": "INFERRED",
        "confidence": 0.705,
        "length_m": 58.56,
        "evidence_sources": [
          "Road_Corridor_Offset",
          "Adjacent_Parcel_Topology"
        ]
      },
      "geometry": {
        "type": "LineString",
        "coordinates": [
          [
            77.6324963,
            12.9978114
          ],
          [
            77.6324923,
            12.9983404
          ]
        ]
      }
    },
    {
      "type": "Feature",
      "properties": {
        "id": "train_033_BND_021",
        "parcel_id": "train_033_P_006",
        "boundary_type": "INFERRED",
        "confidence": 0.772,
        "length_m": 43.51,
        "evidence_sources": [
          "Road_Corridor_Offset",
          "Adjacent_Parcel_Topology"
        ]
      },
      "geometry": {
        "type": "LineString",
        "coordinates": [
          [
            77.6324918,
            12.9978015
          ],
          [
            77.6328926,
            12.9978008
          ]
        ]
      }
    },
    {
      "type": "Feature",
      "properties": {
        "id": "train_033_BND_022",
        "parcel_id": "train_033_P_006",
        "boundary_type": "INFERRED",
        "confidence": 0.74,
        "length_m": 57.97,
        "evidence_sources": [
          "Road_Corridor_Offset",
          "Adjacent_Parcel_Topology"
        ]
      },
      "geometry": {
        "type": "LineString",
        "coordinates": [
          [
            77.6328926,
            12.9978008
          ],
          [
            77.6328941,
            12.9972771
          ]
        ]
      }
    },
    {
      "type": "Feature",
      "properties": {
        "id": "train_033_BND_023",
        "parcel_id": "train_033_P_006",
        "boundary_type": "VISIBLE",
        "confidence": 0.842,
        "length_m": 43.58,
        "evidence_sources": [
          "Drone_RGB_Edge",
          "DSM_Breakline"
        ]
      },
      "geometry": {
        "type": "LineString",
        "coordinates": [
          [
            77.6328941,
            12.9972771
          ],
          [
            77.6324929,
            12.997292
          ]
        ]
      }
    },
    {
      "type": "Feature",
      "properties": {
        "id": "train_033_BND_024",
        "parcel_id": "train_033_P_006",
        "boundary_type": "VISIBLE",
        "confidence": 0.917,
        "length_m": 56.4,
        "evidence_sources": [
          "Drone_RGB_Edge",
          "DSM_Breakline"
        ]
      },
      "geometry": {
        "type": "LineString",
        "coordinates": [
          [
            77.6324929,
            12.997292
          ],
          [
            77.6324918,
            12.9978015
          ]
        ]
      }
    },
    {
      "type": "Feature",
      "properties": {
        "id": "train_033_BND_025",
        "parcel_id": "train_033_P_007",
        "boundary_type": "INFERRED",
        "confidence": 0.626,
        "length_m": 43.25,
        "evidence_sources": [
          "Road_Corridor_Offset",
          "Adjacent_Parcel_Topology"
        ]
      },
      "geometry": {
        "type": "LineString",
        "coordinates": [
          [
            77.632924,
            12.9983223
          ],
          [
            77.6333224,
            12.998327
          ]
        ]
      }
    },
    {
      "type": "Feature",
      "properties": {
        "id": "train_033_BND_026",
        "parcel_id": "train_033_P_007",
        "boundary_type": "VISIBLE",
        "confidence": 0.957,
        "length_m": 55.67,
        "evidence_sources": [
          "Drone_RGB_Edge",
          "DSM_Breakline"
        ]
      },
      "geometry": {
        "type": "LineString",
        "coordinates": [
          [
            77.6333224,
            12.998327
          ],
          [
            77.6333042,
            12.9978244
          ]
        ]
      }
    },
    {
      "type": "Feature",
      "properties": {
        "id": "train_033_BND_027",
        "parcel_id": "train_033_P_007",
        "boundary_type": "VISIBLE",
        "confidence": 0.943,
        "length_m": 42.9,
        "evidence_sources": [
          "Drone_RGB_Edge",
          "DSM_Breakline"
        ]
      },
      "geometry": {
        "type": "LineString",
        "coordinates": [
          [
            77.6333042,
            12.9978244
          ],
          [
            77.632909,
            12.9978304
          ]
        ]
      }
    },
    {
      "type": "Feature",
      "properties": {
        "id": "train_033_BND_028",
        "parcel_id": "train_033_P_007",
        "boundary_type": "VISIBLE",
        "confidence": 0.851,
        "length_m": 54.48,
        "evidence_sources": [
          "Drone_RGB_Edge",
          "DSM_Breakline"
        ]
      },
      "geometry": {
        "type": "LineString",
        "coordinates": [
          [
            77.632909,
            12.9978304
          ],
          [
            77.632924,
            12.9983223
          ]
        ]
      }
    },
    {
      "type": "Feature",
      "properties": {
        "id": "train_033_BND_029",
        "parcel_id": "train_033_P_008",
        "boundary_type": "VISIBLE",
        "confidence": 0.89,
        "length_m": 44.97,
        "evidence_sources": [
          "Drone_RGB_Edge",
          "DSM_Breakline"
        ]
      },
      "geometry": {
        "type": "LineString",
        "coordinates": [
          [
            77.6329093,
            12.9978057
          ],
          [
            77.6333232,
            12.9977884
          ]
        ]
      }
    },
    {
      "type": "Feature",
      "properties": {
        "id": "train_033_BND_030",
        "parcel_id": "train_033_P_008",
        "boundary_type": "VISIBLE",
        "confidence": 0.829,
        "length_m": 55.96,
        "evidence_sources": [
          "Drone_RGB_Edge",
          "DSM_Breakline"
        ]
      },
      "geometry": {
        "type": "LineString",
        "coordinates": [
          [
            77.6333232,
            12.9977884
          ],
          [
            77.6333033,
            12.9972833
          ]
        ]
      }
    },
    {
      "type": "Feature",
      "properties": {
        "id": "train_033_BND_031",
        "parcel_id": "train_033_P_008",
        "boundary_type": "VISIBLE",
        "confidence": 0.933,
        "length_m": 43.22,
        "evidence_sources": [
          "Drone_RGB_Edge",
          "DSM_Breakline"
        ]
      },
      "geometry": {
        "type": "LineString",
        "coordinates": [
          [
            77.6333033,
            12.9972833
          ],
          [
            77.6329052,
            12.9972883
          ]
        ]
      }
    },
    {
      "type": "Feature",
      "properties": {
        "id": "train_033_BND_032",
        "parcel_id": "train_033_P_008",
        "boundary_type": "VISIBLE",
        "confidence": 0.87,
        "length_m": 57.28,
        "evidence_sources": [
          "Drone_RGB_Edge",
          "DSM_Breakline"
        ]
      },
      "geometry": {
        "type": "LineString",
        "coordinates": [
          [
            77.6329052,
            12.9972883
          ],
          [
            77.6329093,
            12.9978057
          ]
        ]
      }
    },
    {
      "type": "Feature",
      "properties": {
        "id": "train_033_BND_033",
        "parcel_id": "train_033_P_009",
        "boundary_type": "VISIBLE",
        "confidence": 0.954,
        "length_m": 65.06,
        "evidence_sources": [
          "Drone_RGB_Edge",
          "DSM_Breakline"
        ]
      },
      "geometry": {
        "type": "LineString",
        "coordinates": [
          [
            77.6310582,
            12.9970474
          ],
          [
            77.6316575,
            12.9970487
          ]
        ]
      }
    },
    {
      "type": "Feature",
      "properties": {
        "id": "train_033_BND_034",
        "parcel_id": "train_033_P_009",
        "boundary_type": "INFERRED",
        "confidence": 0.694,
        "length_m": 52.67,
        "evidence_sources": [
          "Road_Corridor_Offset",
          "Adjacent_Parcel_Topology"
        ]
      },
      "geometry": {
        "type": "LineString",
        "coordinates": [
          [
            77.6316575,
            12.9970487
          ],
          [
            77.6316544,
            12.9965729
          ]
        ]
      }
    },
    {
      "type": "Feature",
      "properties": {
        "id": "train_033_BND_035",
        "parcel_id": "train_033_P_009",
        "boundary_type": "INFERRED",
        "confidence": 0.646,
        "length_m": 63.23,
        "evidence_sources": [
          "Road_Corridor_Offset",
          "Adjacent_Parcel_Topology"
        ]
      },
      "geometry": {
        "type": "LineString",
        "coordinates": [
          [
            77.6316544,
            12.9965729
          ],
          [
            77.6310719,
            12.9965733
          ]
        ]
      }
    },
    {
      "type": "Feature",
      "properties": {
        "id": "train_033_BND_036",
        "parcel_id": "train_033_P_009",
        "boundary_type": "INFERRED",
        "confidence": 0.757,
        "length_m": 52.5,
        "evidence_sources": [
          "Road_Corridor_Offset",
          "Adjacent_Parcel_Topology"
        ]
      },
      "geometry": {
        "type": "LineString",
        "coordinates": [
          [
            77.6310719,
            12.9965733
          ],
          [
            77.6310582,
            12.9970474
          ]
        ]
      }
    },
    {
      "type": "Feature",
      "properties": {
        "id": "train_033_BND_037",
        "parcel_id": "train_033_P_010",
        "boundary_type": "VISIBLE",
        "confidence": 0.91,
        "length_m": 63.59,
        "evidence_sources": [
          "Drone_RGB_Edge",
          "DSM_Breakline"
        ]
      },
      "geometry": {
        "type": "LineString",
        "coordinates": [
          [
            77.6310714,
            12.9965515
          ],
          [
            77.6316572,
            12.9965585
          ]
        ]
      }
    },
    {
      "type": "Feature",
      "properties": {
        "id": "train_033_BND_038",
        "parcel_id": "train_033_P_010",
        "boundary_type": "VISIBLE",
        "confidence": 0.913,
        "length_m": 52.95,
        "evidence_sources": [
          "Drone_RGB_Edge",
          "DSM_Breakline"
        ]
      },
      "geometry": {
        "type": "LineString",
        "coordinates": [
          [
            77.6316572,
            12.9965585
          ],
          [
            77.6316748,
            12.9960805
          ]
        ]
      }
    },
    {
      "type": "Feature",
      "properties": {
        "id": "train_033_BND_039",
        "parcel_id": "train_033_P_010",
        "boundary_type": "INFERRED",
        "confidence": 0.676,
        "length_m": 65.89,
        "evidence_sources": [
          "Road_Corridor_Offset",
          "Adjacent_Parcel_Topology"
        ]
      },
      "geometry": {
        "type": "LineString",
        "coordinates": [
          [
            77.6316748,
            12.9960805
          ],
          [
            77.6310678,
            12.9960786
          ]
        ]
      }
    },
    {
      "type": "Feature",
      "properties": {
        "id": "train_033_BND_040",
        "parcel_id": "train_033_P_010",
        "boundary_type": "INFERRED",
        "confidence": 0.787,
        "length_m": 52.35,
        "evidence_sources": [
          "Road_Corridor_Offset",
          "Adjacent_Parcel_Topology"
        ]
      },
      "geometry": {
        "type": "LineString",
        "coordinates": [
          [
            77.6310678,
            12.9960786
          ],
          [
            77.6310714,
            12.9965515
          ]
        ]
      }
    },
    {
      "type": "Feature",
      "properties": {
        "id": "train_033_BND_041",
        "parcel_id": "train_033_P_011",
        "boundary_type": "VISIBLE",
        "confidence": 0.836,
        "length_m": 64.37,
        "evidence_sources": [
          "Drone_RGB_Edge",
          "DSM_Breakline"
        ]
      },
      "geometry": {
        "type": "LineString",
        "coordinates": [
          [
            77.631697,
            12.9970458
          ],
          [
            77.6322899,
            12.9970357
          ]
        ]
      }
    },
    {
      "type": "Feature",
      "properties": {
        "id": "train_033_BND_042",
        "parcel_id": "train_033_P_011",
        "boundary_type": "VISIBLE",
        "confidence": 0.901,
        "length_m": 50.76,
        "evidence_sources": [
          "Drone_RGB_Edge",
          "DSM_Breakline"
        ]
      },
      "geometry": {
        "type": "LineString",
        "coordinates": [
          [
            77.6322899,
            12.9970357
          ],
          [
            77.6322755,
            12.9965774
          ]
        ]
      }
    },
    {
      "type": "Feature",
      "properties": {
        "id": "train_033_BND_043",
        "parcel_id": "train_033_P_011",
        "boundary_type": "INFERRED",
        "confidence": 0.615,
        "length_m": 64.18,
        "evidence_sources": [
          "Road_Corridor_Offset",
          "Adjacent_Parcel_Topology"
        ]
      },
      "geometry": {
        "type": "LineString",
        "coordinates": [
          [
            77.6322755,
            12.9965774
          ],
          [
            77.6316843,
            12.996582
          ]
        ]
      }
    },
    {
      "type": "Feature",
      "properties": {
        "id": "train_033_BND_044",
        "parcel_id": "train_033_P_011",
        "boundary_type": "VISIBLE",
        "confidence": 0.953,
        "length_m": 51.36,
        "evidence_sources": [
          "Drone_RGB_Edge",
          "DSM_Breakline"
        ]
      },
      "geometry": {
        "type": "LineString",
        "coordinates": [
          [
            77.6316843,
            12.996582
          ],
          [
            77.631697,
            12.9970458
          ]
        ]
      }
    },
    {
      "type": "Feature",
      "properties": {
        "id": "train_033_BND_045",
        "parcel_id": "train_033_P_012",
        "boundary_type": "VISIBLE",
        "confidence": 0.837,
        "length_m": 66.34,
        "evidence_sources": [
          "Drone_RGB_Edge",
          "DSM_Breakline"
        ]
      },
      "geometry": {
        "type": "LineString",
        "coordinates": [
          [
            77.6316806,
            12.9965561
          ],
          [
            77.6322917,
            12.9965614
          ]
        ]
      }
    },
    {
      "type": "Feature",
      "properties": {
        "id": "train_033_BND_046",
        "parcel_id": "train_033_P_012",
        "boundary_type": "INFERRED",
        "confidence": 0.763,
        "length_m": 52.41,
        "evidence_sources": [
          "Road_Corridor_Offset",
          "Adjacent_Parcel_Topology"
        ]
      },
      "geometry": {
        "type": "LineString",
        "coordinates": [
          [
            77.6322917,
            12.9965614
          ],
          [
            77.6322856,
            12.996088
          ]
        ]
      }
    },
    {
      "type": "Feature",
      "properties": {
        "id": "train_033_BND_047",
        "parcel_id": "train_033_P_012",
        "boundary_type": "INFERRED",
        "confidence": 0.697,
        "length_m": 65.41,
        "evidence_sources": [
          "Road_Corridor_Offset",
          "Adjacent_Parcel_Topology"
        ]
      },
      "geometry": {
        "type": "LineString",
        "coordinates": [
          [
            77.6322856,
            12.996088
          ],
          [
            77.6316831,
            12.9960809
          ]
        ]
      }
    },
    {
      "type": "Feature",
      "properties": {
        "id": "train_033_BND_048",
        "parcel_id": "train_033_P_012",
        "boundary_type": "VISIBLE",
        "confidence": 0.858,
        "length_m": 52.6,
        "evidence_sources": [
          "Drone_RGB_Edge",
          "DSM_Breakline"
        ]
      },
      "geometry": {
        "type": "LineString",
        "coordinates": [
          [
            77.6316831,
            12.9960809
          ],
          [
            77.6316806,
            12.9965561
          ]
        ]
      }
    },
    {
      "type": "Feature",
      "properties": {
        "id": "train_033_BND_049",
        "parcel_id": "train_033_P_013",
        "boundary_type": "VISIBLE",
        "confidence": 0.886,
        "length_m": 43.47,
        "evidence_sources": [
          "Drone_RGB_Edge",
          "DSM_Breakline"
        ]
      },
      "geometry": {
        "type": "LineString",
        "coordinates": [
          [
            77.6324829,
            12.9970297
          ],
          [
            77.6328833,
            12.9970373
          ]
        ]
      }
    },
    {
      "type": "Feature",
      "properties": {
        "id": "train_033_BND_050",
        "parcel_id": "train_033_P_013",
        "boundary_type": "INFERRED",
        "confidence": 0.636,
        "length_m": 50.77,
        "evidence_sources": [
          "Road_Corridor_Offset",
          "Adjacent_Parcel_Topology"
        ]
      },
      "geometry": {
        "type": "LineString",
        "coordinates": [
          [
            77.6328833,
            12.9970373
          ],
          [
            77.6328976,
            12.9965789
          ]
        ]
      }
    },
    {
      "type": "Feature",
      "properties": {
        "id": "train_033_BND_051",
        "parcel_id": "train_033_P_013",
        "boundary_type": "VISIBLE",
        "confidence": 0.858,
        "length_m": 45.2,
        "evidence_sources": [
          "Drone_RGB_Edge",
          "DSM_Breakline"
        ]
      },
      "geometry": {
        "type": "LineString",
        "coordinates": [
          [
            77.6328976,
            12.9965789
          ],
          [
            77.6324813,
            12.9965697
          ]
        ]
      }
    },
    {
      "type": "Feature",
      "properties": {
        "id": "train_033_BND_052",
        "parcel_id": "train_033_P_013",
        "boundary_type": "VISIBLE",
        "confidence": 0.903,
        "length_m": 50.92,
        "evidence_sources": [
          "Drone_RGB_Edge",
          "DSM_Breakline"
        ]
      },
      "geometry": {
        "type": "LineString",
        "coordinates": [
          [
            77.6324813,
            12.9965697
          ],
          [
            77.6324829,
            12.9970297
          ]
        ]
      }
    },
    {
      "type": "Feature",
      "properties": {
        "id": "train_033_BND_053",
        "parcel_id": "train_033_P_014",
        "boundary_type": "INFERRED",
        "confidence": 0.659,
        "length_m": 41.74,
        "evidence_sources": [
          "Road_Corridor_Offset",
          "Adjacent_Parcel_Topology"
        ]
      },
      "geometry": {
        "type": "LineString",
        "coordinates": [
          [
            77.6324993,
            12.9965599
          ],
          [
            77.6328837,
            12.996549
          ]
        ]
      }
    },
    {
      "type": "Feature",
      "properties": {
        "id": "train_033_BND_054",
        "parcel_id": "train_033_P_014",
        "boundary_type": "INFERRED",
        "confidence": 0.682,
        "length_m": 50.46,
        "evidence_sources": [
          "Road_Corridor_Offset",
          "Adjacent_Parcel_Topology"
        ]
      },
      "geometry": {
        "type": "LineString",
        "coordinates": [
          [
            77.6328837,
            12.996549
          ],
          [
            77.6328842,
            12.9960932
          ]
        ]
      }
    },
    {
      "type": "Feature",
      "properties": {
        "id": "train_033_BND_055",
        "parcel_id": "train_033_P_014",
        "boundary_type": "VISIBLE",
        "confidence": 0.91,
        "length_m": 43.61,
        "evidence_sources": [
          "Drone_RGB_Edge",
          "DSM_Breakline"
        ]
      },
      "geometry": {
        "type": "LineString",
        "coordinates": [
          [
            77.6328842,
            12.9960932
          ],
          [
            77.6324825,
            12.9960876
          ]
        ]
      }
    },
    {
      "type": "Feature",
      "properties": {
        "id": "train_033_BND_056",
        "parcel_id": "train_033_P_014",
        "boundary_type": "VISIBLE",
        "confidence": 0.841,
        "length_m": 52.31,
        "evidence_sources": [
          "Drone_RGB_Edge",
          "DSM_Breakline"
        ]
      },
      "geometry": {
        "type": "LineString",
        "coordinates": [
          [
            77.6324825,
            12.9960876
          ],
          [
            77.6324993,
            12.9965599
          ]
        ]
      }
    },
    {
      "type": "Feature",
      "properties": {
        "id": "train_033_BND_057",
        "parcel_id": "train_033_P_015",
        "boundary_type": "INFERRED",
        "confidence": 0.646,
        "length_m": 44.35,
        "evidence_sources": [
          "Road_Corridor_Offset",
          "Adjacent_Parcel_Topology"
        ]
      },
      "geometry": {
        "type": "LineString",
        "coordinates": [
          [
            77.6329149,
            12.9970417
          ],
          [
            77.6333234,
            12.997046
          ]
        ]
      }
    },
    {
      "type": "Feature",
      "properties": {
        "id": "train_033_BND_058",
        "parcel_id": "train_033_P_015",
        "boundary_type": "VISIBLE",
        "confidence": 0.838,
        "length_m": 51.24,
        "evidence_sources": [
          "Drone_RGB_Edge",
          "DSM_Breakline"
        ]
      },
      "geometry": {
        "type": "LineString",
        "coordinates": [
          [
            77.6333234,
            12.997046
          ],
          [
            77.6333081,
            12.9965834
          ]
        ]
      }
    },
    {
      "type": "Feature",
      "properties": {
        "id": "train_033_BND_059",
        "parcel_id": "train_033_P_015",
        "boundary_type": "INFERRED",
        "confidence": 0.784,
        "length_m": 41.64,
        "evidence_sources": [
          "Road_Corridor_Offset",
          "Adjacent_Parcel_Topology"
        ]
      },
      "geometry": {
        "type": "LineString",
        "coordinates": [
          [
            77.6333081,
            12.9965834
          ],
          [
            77.6329247,
            12.9965725
          ]
        ]
      }
    },
    {
      "type": "Feature",
      "properties": {
        "id": "train_033_BND_060",
        "parcel_id": "train_033_P_015",
        "boundary_type": "VISIBLE",
        "confidence": 0.955,
        "length_m": 51.95,
        "evidence_sources": [
          "Drone_RGB_Edge",
          "DSM_Breakline"
        ]
      },
      "geometry": {
        "type": "LineString",
        "coordinates": [
          [
            77.6329247,
            12.9965725
          ],
          [
            77.6329149,
            12.9970417
          ]
        ]
      }
    },
    {
      "type": "Feature",
      "properties": {
        "id": "train_033_BND_061",
        "parcel_id": "train_033_P_016",
        "boundary_type": "VISIBLE",
        "confidence": 0.836,
        "length_m": 43.21,
        "evidence_sources": [
          "Drone_RGB_Edge",
          "DSM_Breakline"
        ]
      },
      "geometry": {
        "type": "LineString",
        "coordinates": [
          [
            77.6329234,
            12.9965507
          ],
          [
            77.6333214,
            12.996554
          ]
        ]
      }
    },
    {
      "type": "Feature",
      "properties": {
        "id": "train_033_BND_062",
        "parcel_id": "train_033_P_016",
        "boundary_type": "VISIBLE",
        "confidence": 0.915,
        "length_m": 51.82,
        "evidence_sources": [
          "Drone_RGB_Edge",
          "DSM_Breakline"
        ]
      },
      "geometry": {
        "type": "LineString",
        "coordinates": [
          [
            77.6333214,
            12.996554
          ],
          [
            77.6333092,
            12.996086
          ]
        ]
      }
    },
    {
      "type": "Feature",
      "properties": {
        "id": "train_033_BND_063",
        "parcel_id": "train_033_P_016",
        "boundary_type": "VISIBLE",
        "confidence": 0.923,
        "length_m": 42.85,
        "evidence_sources": [
          "Drone_RGB_Edge",
          "DSM_Breakline"
        ]
      },
      "geometry": {
        "type": "LineString",
        "coordinates": [
          [
            77.6333092,
            12.996086
          ],
          [
            77.6329145,
            12.9960865
          ]
        ]
      }
    },
    {
      "type": "Feature",
      "properties": {
        "id": "train_033_BND_064",
        "parcel_id": "train_033_P_016",
        "boundary_type": "VISIBLE",
        "confidence": 0.932,
        "length_m": 51.4,
        "evidence_sources": [
          "Drone_RGB_Edge",
          "DSM_Breakline"
        ]
      },
      "geometry": {
        "type": "LineString",
        "coordinates": [
          [
            77.6329145,
            12.9960865
          ],
          [
            77.6329234,
            12.9965507
          ]
        ]
      }
    }
  ]
}