{
  "type": "FeatureCollection",
  "crs": {
    "type": "name",
    "properties": {
      "name": "EPSG:4326"
    }
  },
  "features": [
    {
      "type": "Feature",
      "properties": {
        "id": "train_050_BLDG_001",
        "parcel_id": "train_050_P_001",
        "area_sqm": 1053.7,
        "perimeter_m": 129.86,
        "centroid_lon": 77.592303,
        "centroid_lat": 13.0041187,
        "height_m": 6.11,
        "confidence": 0.842,
        "temporal_epoch": "T1"
      },
      "geometry": {
        "type": "Polygon",
        "coordinates": [
          [
            [
              77.5921508,
              13.0042627
            ],
            [
              77.5924553,
              13.0042627
            ],
            [
              77.5924553,
              13.0039747
            ],
            [
              77.5921508,
              13.0039747
            ],
            [
              77.5921508,
              13.0042627
            ]
          ]
        ]
      }
    },
    {
      "type": "Feature",
      "properties": {
        "id": "train_050_BLDG_002",
        "parcel_id": "train_050_P_002",
        "area_sqm": 1053.71,
        "perimeter_m": 129.86,
        "centroid_lon": 77.592303,
        "centroid_lat": 13.0036687,
        "height_m": 10.79,
        "confidence": 0.818,
        "temporal_epoch": "T1"
      },
      "geometry": {
        "type": "Polygon",
        "coordinates": [
          [
            [
              77.5921508,
              13.0038127
            ],
            [
              77.5924553,
              13.0038127
            ],
            [
              77.5924553,
              13.0035247
            ],
            [
              77.5921508,
              13.0035247
            ],
            [
              77.5921508,
              13.0038127
            ]
          ]
        ]
      }
    },
    {
      "type": "Feature",
      "properties": {
        "id": "train_050_BLDG_003",
        "parcel_id": "train_050_P_003",
        "area_sqm": 1652.01,
        "perimeter_m": 167.4,
        "centroid_lon": 77.5929144,
        "centroid_lat": 13.0041187,
        "height_m": 11.1,
        "confidence": 0.865,
        "temporal_epoch": "T1"
      },
      "geometry": {
        "type": "Polygon",
        "coordinates": [
          [
            [
              77.5926757,
              13.0042627
            ],
            [
              77.5931531,
              13.0042627
            ],
            [
              77.5931531,
              13.0039747
            ],
            [
              77.5926757,
              13.0039747
            ],
            [
              77.5926757,
              13.0042627
            ]
          ]
        ]
      }
    },
    {
      "type": "Feature",
      "properties": {
        "id": "train_050_BLDG_004",
        "parcel_id": "train_050_P_004",
        "area_sqm": 1053.71,
        "perimeter_m": 129.86,
        "centroid_lon": 77.592828,
        "centroid_lat": 13.0036687,
        "height_m": 11.43,
        "confidence": 0.822,
        "temporal_epoch": "T1"
      },
      "geometry": {
        "type": "Polygon",
        "coordinates": [
          [
            [
              77.5926757,
              13.0038127
            ],
            [
              77.5929802,
              13.0038127
            ],
            [
              77.5929802,
              13.0035247
            ],
            [
              77.5926757,
              13.0035247
            ],
            [
              77.5926757,
              13.0038127
            ]
          ]
        ]
      }
    },
    {
      "type": "Feature",
      "properties": {
        "id": "train_050_BLDG_005",
        "parcel_id": "train_050_P_005",
        "area_sqm": 1072.74,
        "perimeter_m": 131.06,
        "centroid_lon": 77.5935074,
        "centroid_lat": 13.0041187,
        "height_m": 5.11,
        "confidence": 0.897,
        "temporal_epoch": "T1"
      },
      "geometry": {
        "type": "Polygon",
        "coordinates": [
          [
            [
              77.5933524,
              13.0042627
            ],
            [
              77.5936624,
              13.0042627
            ],
            [
              77.5936624,
              13.0039747
            ],
            [
              77.5933524,
              13.0039747
            ],
            [
              77.5933524,
              13.0042627
            ]
          ]
        ]
      }
    },
    {
      "type": "Feature",
      "properties": {
        "id": "train_050_BLDG_006",
        "parcel_id": "train_050_P_009",
        "area_sqm": 848.14,
        "perimeter_m": 121.66,
        "centroid_lon": 77.5922505,
        "centroid_lat": 13.0029047,
        "height_m": 10.04,
        "confidence": 0.844,
        "temporal_epoch": "T1"
      },
      "geometry": {
        "type": "Polygon",
        "coordinates": [
          [
            [
              77.5921508,
              13.0030817
            ],
            [
              77.5923502,
              13.0030817
            ],
            [
              77.5923502,
              13.0027277
            ],
            [
              77.5921508,
              13.0027277
            ],
            [
              77.5921508,
              13.0030817
            ]
          ]
        ]
      }
    },
    {
      "type": "Feature",
      "properties": {
        "id": "train_050_BLDG_007",
        "parcel_id": "train_050_P_009",
        "area_sqm": 647.38,
        "perimeter_m": 111.41,
        "centroid_lon": 77.5924106,
        "centroid_lat": 13.0029047,
        "height_m": 5.0,
        "confidence": 0.899,
        "temporal_epoch": "T1"
      },
      "geometry": {
        "type": "Polygon",
        "coordinates": [
          [
            [
              77.5923345,
              13.0030817
            ],
            [
              77.5924867,
              13.0030817
            ],
            [
              77.5924867,
              13.0027277
            ],
            [
              77.5923345,
              13.0027277
            ],
            [
              77.5923345,
              13.0030817
            ]
          ]
        ]
      }
    },
    {
      "type": "Feature",
      "properties": {
        "id": "train_050_BLDG_008",
        "parcel_id": "train_050_P_010",
        "area_sqm": 848.14,
        "perimeter_m": 121.66,
        "centroid_lon": 77.5922505,
        "centroid_lat": 13.0023516,
        "height_m": 10.44,
        "confidence": 0.84,
        "temporal_epoch": "T1"
      },
      "geometry": {
        "type": "Polygon",
        "coordinates": [
          [
            [
              77.5921508,
              13.0025286
            ],
            [
              77.5923502,
              13.0025286
            ],
            [
              77.5923502,
              13.0021746
            ],
            [
              77.5921508,
              13.0021746
            ],
            [
              77.5921508,
              13.0025286
            ]
          ]
        ]
      }
    },
    {
      "type": "Feature",
      "properties": {
        "id": "train_050_BLDG_009",
        "parcel_id": "train_050_P_010",
        "area_sqm": 647.38,
        "perimeter_m": 111.41,
        "centroid_lon": 77.5924106,
        "centroid_lat": 13.0023516,
        "height_m": 11.48,
        "confidence": 0.888,
        "temporal_epoch": "T1"
      },
      "geometry": {
        "type": "Polygon",
        "coordinates": [
          [
            [
              77.5923345,
              13.0025286
            ],
            [
              77.5924867,
              13.0025286
            ],
            [
              77.5924867,
              13.0021746
            ],
            [
              77.5923345,
              13.0021746
            ],
            [
              77.5923345,
              13.0025286
            ]
          ]
        ]
      }
    },
    {
      "type": "Feature",
      "properties": {
        "id": "train_050_BLDG_010",
        "parcel_id": "train_050_P_011",
        "area_sqm": 848.99,
        "perimeter_m": 121.7,
        "centroid_lon": 77.5927755,
        "centroid_lat": 13.0029047,
        "height_m": 7.94,
        "confidence": 0.876,
        "temporal_epoch": "T1"
      },
      "geometry": {
        "type": "Polygon",
        "coordinates": [
          [
            [
              77.5926757,
              13.0030817
            ],
            [
              77.5928753,
              13.0030817
            ],
            [
              77.5928753,
              13.0027277
            ],
            [
              77.5926757,
              13.0027277
            ],
            [
              77.5926757,
              13.0030817
            ]
          ]
        ]
      }
    },
    {
      "type": "Feature",
      "properties": {
        "id": "train_050_BLDG_011",
        "parcel_id": "train_050_P_011",
        "area_sqm": 647.81,
        "perimeter_m": 111.43,
        "centroid_lon": 77.5929356,
        "centroid_lat": 13.0029047,
        "height_m": 5.19,
        "confidence": 0.861,
        "temporal_epoch": "T1"
      },
      "geometry": {
        "type": "Polygon",
        "coordinates": [
          [
            [
              77.5928595,
              13.0030817
            ],
            [
              77.5930118,
              13.0030817
            ],
            [
              77.5930118,
              13.0027277
            ],
            [
              77.5928595,
              13.0027277
            ],
            [
              77.5928595,
              13.0030817
            ]
          ]
        ]
      }
    },
    {
      "type": "Feature",
      "properties": {
        "id": "train_050_BLDG_012",
        "parcel_id": "train_050_P_012",
        "area_sqm": 849.0,
        "perimeter_m": 121.7,
        "centroid_lon": 77.5927755,
        "centroid_lat": 13.0023516,
        "height_m": 8.33,
        "confidence": 0.948,
        "temporal_epoch": "T1"
      },
      "geometry": {
        "type": "Polygon",
        "coordinates": [
          [
            [
              77.5926757,
              13.0025286
            ],
            [
              77.5928753,
              13.0025286
            ],
            [
              77.5928753,
              13.0021746
            ],
            [
              77.5926757,
              13.0021746
            ],
            [
              77.5926757,
              13.0025286
            ]
          ]
        ]
      }
    },
    {
      "type": "Feature",
      "properties": {
        "id": "train_050_BLDG_013",
        "parcel_id": "train_050_P_012",
        "area_sqm": 647.81,
        "perimeter_m": 111.44,
        "centroid_lon": 77.5929356,
        "centroid_lat": 13.0023516,
        "height_m": 10.46,
        "confidence": 0.949,
        "temporal_epoch": "T1"
      },
      "geometry": {
        "type": "Polygon",
        "coordinates": [
          [
            [
              77.5928595,
              13.0025286
            ],
            [
              77.5930118,
              13.0025286
            ],
            [
              77.5930118,
              13.0021746
            ],
            [
              77.5928595,
              13.0021746
            ],
            [
              77.5928595,
              13.0025286
            ]
          ]
        ]
      }
    },
    {
      "type": "Feature",
      "properties": {
        "id": "train_050_BLDG_014",
        "parcel_id": "train_050_P_013",
        "area_sqm": 863.88,
        "perimeter_m": 122.46,
        "centroid_lon": 77.5934539,
        "centroid_lat": 13.0029047,
        "height_m": 5.25,
        "confidence": 0.9,
        "temporal_epoch": "T1"
      },
      "geometry": {
        "type": "Polygon",
        "coordinates": [
          [
            [
              77.5933524,
              13.0030817
            ],
            [
              77.5935555,
              13.0030817
            ],
            [
              77.5935555,
              13.0027277
            ],
            [
              77.5933524,
              13.0027277
            ],
            [
              77.5933524,
              13.0030817
            ]
          ]
        ]
      }
    },
    {
      "type": "Feature",
      "properties": {
        "id": "train_050_BLDG_015",
        "parcel_id": "train_050_P_013",
        "area_sqm": 658.86,
        "perimeter_m": 112.0,
        "centroid_lon": 77.593617,
        "centroid_lat": 13.0029047,
        "height_m": 5.93,
        "confidence": 0.884,
        "temporal_epoch": "T1"
      },
      "geometry": {
        "type": "Polygon",
        "coordinates": [
          [
            [
              77.5935395,
              13.0030817
            ],
            [
              77.5936944,
              13.0030817
            ],
            [
              77.5936944,
              13.0027277
            ],
            [
              77.5935395,
              13.0027277
            ],
            [
              77.5935395,
              13.0030817
            ]
          ]
        ]
      }
    },
    {
      "type": "Feature",
      "properties": {
        "id": "train_050_BLDG_016",
        "parcel_id": "train_050_P_014",
        "area_sqm": 863.88,
        "perimeter_m": 122.46,
        "centroid_lon": 77.5934539,
        "centroid_lat": 13.0023516,
        "height_m": 8.08,
        "confidence": 0.824,
        "temporal_epoch": "T1"
      },
      "geometry": {
        "type": "Polygon",
        "coordinates": [
          [
            [
              77.5933524,
              13.0025286
            ],
            [
              77.5935555,
              13.0025286
            ],
            [
              77.5935555,
              13.0021746
            ],
            [
              77.5933524,
              13.0021746
            ],
            [
              77.5933524,
              13.0025286
            ]
          ]
        ]
      }
    },
    {
      "type": "Feature",
      "properties": {
        "id": "train_050_BLDG_017",
        "parcel_id": "train_050_P_014",
        "area_sqm": 658.87,
        "perimeter_m": 112.0,
        "centroid_lon": 77.593617,
        "centroid_lat": 13.0023516,
        "height_m": 7.7,
        "confidence": 0.806,
        "temporal_epoch": "T1"
      },
      "geometry": {
        "type": "Polygon",
        "coordinates": [
          [
            [
              77.5935395,
              13.0025286
            ],
            [
              77.5936944,
              13.0025286
            ],
            [
              77.5936944,
              13.0021746
            ],
            [
              77.5935395,
              13.0021746
            ],
            [
              77.5935395,
              13.0025286
            ]
          ]
        ]
      }
    },
    {
      "type": "Feature",
      "properties": {
        "id": "train_050_BLDG_018",
        "parcel_id": "train_050_P_015",
        "area_sqm": 863.88,
        "perimeter_m": 122.46,
        "centroid_lon": 77.5939884,
        "centroid_lat": 13.0029047,
        "height_m": 5.82,
        "confidence": 0.86,
        "temporal_epoch": "T1"
      },
      "geometry": {
        "type": "Polygon",
        "coordinates": [
          [
            [
              77.5938868,
              13.0030817
            ],
            [
              77.5940899,
              13.0030817
            ],
            [
              77.5940899,
              13.0027277
            ],
            [
              77.5938868,
              13.0027277
            ],
            [
              77.5938868,
              13.0030817
            ]
          ]
        ]
      }
    },
    {
      "type": "Feature",
      "properties": {
        "id": "train_050_BLDG_019",
        "parcel_id": "train_050_P_015",
        "area_sqm": 659.29,
        "perimeter_m": 112.02,
        "centroid_lon": 77.5941513,
        "centroid_lat": 13.0029047,
        "height_m": 6.93,
        "confidence": 0.897,
        "temporal_epoch": "T1"
      },
      "geometry": {
        "type": "Polygon",
        "coordinates": [
          [
            [
              77.5940738,
              13.0030817
            ],
            [
              77.5942288,
              13.0030817
            ],
            [
              77.5942288,
              13.0027277
            ],
            [
              77.5940738,
              13.0027277
            ],
            [
              77.5940738,
              13.0030817
            ]
          ]
        ]
      }
    }
  ]
}