{
  "type": "FeatureCollection",
  "crs": {
    "type": "name",
    "properties": {
      "name": "EPSG:4326"
    }
  },
  "features": [
    {
      "type": "Feature",
      "properties": {
        "id": "train_050_REF_001",
        "parcel_id": "train_050_P_001",
        "parcel_layer": "REFERENCE",
        "boundary_representation": "REFERENCE",
        "land_use_class": "residential",
        "area_sqm": 2594.38,
        "perimeter_m": 204.13,
        "source": "Synthetic Legacy Cadastral Map (Non-Authoritative Demo)"
      },
      "geometry": {
        "type": "Polygon",
        "coordinates": [
          [
            [
              77.5920843,
              13.0043446
            ],
            [
              77.5925803,
              13.004329
            ],
            [
              77.5925665,
              13.0039043
            ],
            [
              77.5920678,
              13.0039014
            ],
            [
              77.5920843,
              13.0043446
            ]
          ]
        ]
      }
    },
    {
      "type": "Feature",
      "properties": {
        "id": "train_050_REF_002",
        "parcel_id": "train_050_P_002",
        "parcel_layer": "REFERENCE",
        "boundary_representation": "REFERENCE",
        "land_use_class": "residential",
        "area_sqm": 2539.34,
        "perimeter_m": 202.35,
        "source": "Synthetic Legacy Cadastral Map (Non-Authoritative Demo)"
      },
      "geometry": {
        "type": "Polygon",
        "coordinates": [
          [
            [
              77.5920703,
              13.003878
            ],
            [
              77.5925758,
              13.0038874
            ],
            [
              77.5925848,
              13.0034676
            ],
            [
              77.5920768,
              13.0034639
            ],
            [
              77.5920703,
              13.003878
            ]
          ]
        ]
      }
    },
    {
      "type": "Feature",
      "properties": {
        "id": "train_050_REF_003",
        "parcel_id": "train_050_P_003",
        "parcel_layer": "REFERENCE",
        "boundary_representation": "REFERENCE",
        "land_use_class": "residential",
        "area_sqm": 2524.92,
        "perimeter_m": 201.55,
        "source": "Synthetic Legacy Cadastral Map (Non-Authoritative Demo)"
      },
      "geometry": {
        "type": "Polygon",
        "coordinates": [
          [
            [
              77.5925949,
              13.0043304
            ],
            [
              77.5930934,
              13.0043404
            ],
            [
              77.5930984,
              13.0039093
            ],
            [
              77.592601,
              13.0039175
            ],
            [
              77.5925949,
              13.0043304
            ]
          ]
        ]
      }
    },
    {
      "type": "Feature",
      "properties": {
        "id": "train_050_REF_004",
        "parcel_id": "train_050_P_004",
        "parcel_layer": "REFERENCE",
        "boundary_representation": "REFERENCE",
        "land_use_class": "commercial",
        "area_sqm": 2576.59,
        "perimeter_m": 203.47,
        "source": "Synthetic Legacy Cadastral Map (Non-Authoritative Demo)"
      },
      "geometry": {
        "type": "Polygon",
        "coordinates": [
          [
            [
              77.5926328,
              13.0039049
            ],
            [
              77.5931359,
              13.003901
            ],
            [
              77.5931257,
              13.0034703
            ],
            [
              77.5926313,
              13.0034758
            ],
            [
              77.5926328,
              13.0039049
            ]
          ]
        ]
      }
    },
    {
      "type": "Feature",
      "properties": {
        "id": "train_050_REF_005",
        "parcel_id": "train_050_P_005",
        "parcel_layer": "REFERENCE",
        "boundary_representation": "REFERENCE",
        "land_use_class": "mixed_use",
        "area_sqm": 2647.06,
        "perimeter_m": 206.44,
        "source": "Synthetic Legacy Cadastral Map (Non-Authoritative Demo)"
      },
      "geometry": {
        "type": "Polygon",
        "coordinates": [
          [
            [
              77.593284,
              13.0043282
            ],
            [
              77.5937845,
              13.0043427
            ],
            [
              77.5937797,
              13.0039013
            ],
            [
              77.5932626,
              13.0039033
            ],
            [
              77.593284,
              13.0043282
            ]
          ]
        ]
      }
    },
    {
      "type": "Feature",
      "properties": {
        "id": "train_050_REF_006",
        "parcel_id": "train_050_P_006",
        "parcel_layer": "REFERENCE",
        "boundary_representation": "REFERENCE",
        "land_use_class": "vegetation",
        "area_sqm": 2729.51,
        "perimeter_m": 209.55,
        "source": "Synthetic Legacy Cadastral Map (Non-Authoritative Demo)"
      },
      "geometry": {
        "type": "Polygon",
        "coordinates": [
          [
            [
              77.5932658,
              13.0038868
            ],
            [
              77.5937866,
              13.0038946
            ],
            [
              77.5937931,
              13.0034493
            ],
            [
              77.5932794,
              13.0034538
            ],
            [
              77.5932658,
              13.0038868
            ]
          ]
        ]
      }
    },
    {
      "type": "Feature",
      "properties": {
        "id": "train_050_REF_007",
        "parcel_id": "train_050_P_007",
        "parcel_layer": "REFERENCE",
        "boundary_representation": "REFERENCE",
        "land_use_class": "vegetation",
        "area_sqm": 2649.22,
        "perimeter_m": 206.48,
        "source": "Synthetic Legacy Cadastral Map (Non-Authoritative Demo)"
      },
      "geometry": {
        "type": "Polygon",
        "coordinates": [
          [
            [
              77.5938121,
              13.0043395
            ],
            [
              77.594316,
              13.0043364
            ],
            [
              77.5943208,
              13.0038976
            ],
            [
              77.5938039,
              13.0039144
            ],
            [
              77.5938121,
              13.0043395
            ]
          ]
        ]
      }
    },
    {
      "type": "Feature",
      "properties": {
        "id": "train_050_REF_008",
        "parcel_id": "train_050_P_008",
        "parcel_layer": "REFERENCE",
        "boundary_representation": "REFERENCE",
        "land_use_class": "vacant",
        "area_sqm": 2661.57,
        "perimeter_m": 207.29,
        "source": "Synthetic Legacy Cadastral Map (Non-Authoritative Demo)"
      },
      "geometry": {
        "type": "Polygon",
        "coordinates": [
          [
            [
              77.5938366,
              13.003897
            ],
            [
              77.594364,
              13.0039115
            ],
            [
              77.5943604,
              13.0034745
            ],
            [
              77.5938448,
              13.0034845
            ],
            [
              77.5938366,
              13.003897
            ]
          ]
        ]
      }
    },
    {
      "type": "Feature",
      "properties": {
        "id": "train_050_REF_009",
        "parcel_id": "train_050_P_009",
        "parcel_layer": "REFERENCE",
        "boundary_representation": "REFERENCE",
        "land_use_class": "industrial",
        "area_sqm": 3181.16,
        "perimeter_m": 225.79,
        "source": "Synthetic Legacy Cadastral Map (Non-Authoritative Demo)"
      },
      "geometry": {
        "type": "Polygon",
        "coordinates": [
          [
            [
              77.5920807,
              13.0031626
            ],
            [
              77.5925839,
              13.0031745
            ],
            [
              77.5925809,
              13.002648
            ],
            [
              77.5920803,
              13.002634
            ],
            [
              77.5920807,
              13.0031626
            ]
          ]
        ]
      }
    },
    {
      "type": "Feature",
      "properties": {
        "id": "train_050_REF_010",
        "parcel_id": "train_050_P_010",
        "parcel_layer": "REFERENCE",
        "boundary_representation": "REFERENCE",
        "land_use_class": "residential",
        "area_sqm": 3251.83,
        "perimeter_m": 228.2,
        "source": "Synthetic Legacy Cadastral Map (Non-Authoritative Demo)"
      },
      "geometry": {
        "type": "Polygon",
        "coordinates": [
          [
            [
              77.5920636,
              13.0026129
            ],
            [
              77.5925762,
              13.0026225
            ],
            [
              77.592577,
              13.0020851
            ],
            [
              77.5920667,
              13.002092
            ],
            [
              77.5920636,
              13.0026129
            ]
          ]
        ]
      }
    },
    {
      "type": "Feature",
      "properties": {
        "id": "train_050_REF_011",
        "parcel_id": "train_050_P_011",
        "parcel_layer": "REFERENCE",
        "boundary_representation": "REFERENCE",
        "land_use_class": "residential",
        "area_sqm": 3236.56,
        "perimeter_m": 227.69,
        "source": "Synthetic Legacy Cadastral Map (Non-Authoritative Demo)"
      },
      "geometry": {
        "type": "Polygon",
        "coordinates": [
          [
            [
              77.5925918,
              13.0031683
            ],
            [
              77.5931083,
              13.003166
            ],
            [
              77.5930934,
              13.0026346
            ],
            [
              77.5925938,
              13.0026394
            ],
            [
              77.5925918,
              13.0031683
            ]
          ]
        ]
      }
    },
    {
      "type": "Feature",
      "properties": {
        "id": "train_050_REF_012",
        "parcel_id": "train_050_P_012",
        "parcel_layer": "REFERENCE",
        "boundary_representation": "REFERENCE",
        "land_use_class": "residential",
        "area_sqm": 3115.72,
        "perimeter_m": 223.53,
        "source": "Synthetic Legacy Cadastral Map (Non-Authoritative Demo)"
      },
      "geometry": {
        "type": "Polygon",
        "coordinates": [
          [
            [
              77.5926446,
              13.0026419
            ],
            [
              77.5931351,
              13.0026319
            ],
            [
              77.5931259,
              13.0021169
            ],
            [
              77.5926303,
              13.002105
            ],
            [
              77.5926446,
              13.0026419
            ]
          ]
        ]
      }
    },
    {
      "type": "Feature",
      "properties": {
        "id": "train_050_REF_013",
        "parcel_id": "train_050_P_013",
        "parcel_layer": "REFERENCE",
        "boundary_representation": "REFERENCE",
        "land_use_class": "commercial",
        "area_sqm": 3215.95,
        "perimeter_m": 226.89,
        "source": "Synthetic Legacy Cadastral Map (Non-Authoritative Demo)"
      },
      "geometry": {
        "type": "Polygon",
        "coordinates": [
          [
            [
              77.5932736,
              13.003163
            ],
            [
              77.5937944,
              13.0031675
            ],
            [
              77.5937799,
              13.0026489
            ],
            [
              77.5932634,
              13.0026494
            ],
            [
              77.5932736,
              13.003163
            ]
          ]
        ]
      }
    },
    {
      "type": "Feature",
      "properties": {
        "id": "train_050_REF_014",
        "parcel_id": "train_050_P_014",
        "parcel_layer": "REFERENCE",
        "boundary_representation": "REFERENCE",
        "land_use_class": "mixed_use",
        "area_sqm": 3346.44,
        "perimeter_m": 231.48,
        "source": "Synthetic Legacy Cadastral Map (Non-Authoritative Demo)"
      },
      "geometry": {
        "type": "Polygon",
        "coordinates": [
          [
            [
              77.593275,
              13.0026239
            ],
            [
              77.5937882,
              13.002614
            ],
            [
              77.5937954,
              13.0020801
            ],
            [
              77.5932663,
              13.002089
            ],
            [
              77.593275,
              13.0026239
            ]
          ]
        ]
      }
    },
    {
      "type": "Feature",
      "properties": {
        "id": "train_050_REF_015",
        "parcel_id": "train_050_P_015",
        "parcel_layer": "REFERENCE",
        "boundary_representation": "REFERENCE",
        "land_use_class": "mixed_use",
        "area_sqm": 3292.46,
        "perimeter_m": 229.53,
        "source": "Synthetic Legacy Cadastral Map (Non-Authoritative Demo)"
      },
      "geometry": {
        "type": "Polygon",
        "coordinates": [
          [
            [
              77.5937971,
              13.0031692
            ],
            [
              77.5943254,
              13.0031621
            ],
            [
              77.5943269,
              13.0026515
            ],
            [
              77.5937964,
              13.0026446
            ],
            [
              77.5937971,
              13.0031692
            ]
          ]
        ]
      }
    },
    {
      "type": "Feature",
      "properties": {
        "id": "train_050_REF_016",
        "parcel_id": "train_050_P_016",
        "parcel_layer": "REFERENCE",
        "boundary_representation": "REFERENCE",
        "land_use_class": "vegetation",
        "area_sqm": 3185.78,
        "perimeter_m": 225.85,
        "source": "Synthetic Legacy Cadastral Map (Non-Authoritative Demo)"
      },
      "geometry": {
        "type": "Polygon",
        "coordinates": [
          [
            [
              77.593843,
              13.0026313
            ],
            [
              77.5943466,
              13.0026292
            ],
            [
              77.5943644,
              13.0021106
            ],
            [
              77.5938452,
              13.0021129
            ],
            [
              77.593843,
              13.0026313
            ]
          ]
        ]
      }
    }
  ]
}