{
  "type": "FeatureCollection",
  "crs": {
    "type": "name",
    "properties": {
      "name": "EPSG:4326"
    }
  },
  "features": [
    {
      "type": "Feature",
      "properties": {
        "id": "train_035_BND_001",
        "parcel_id": "train_035_P_001",
        "boundary_type": "VISIBLE",
        "confidence": 0.864,
        "length_m": 47.74,
        "evidence_sources": [
          "Drone_RGB_Edge",
          "DSM_Breakline"
        ]
      },
      "geometry": {
        "type": "LineString",
        "coordinates": [
          [
            77.592074,
            13.0013225
          ],
          [
            77.5925133,
            13.0013436
          ]
        ]
      }
    },
    {
      "type": "Feature",
      "properties": {
        "id": "train_035_BND_002",
        "parcel_id": "train_035_P_001",
        "boundary_type": "INFERRED",
        "confidence": 0.706,
        "length_m": 42.36,
        "evidence_sources": [
          "Road_Corridor_Offset",
          "Adjacent_Parcel_Topology"
        ]
      },
      "geometry": {
        "type": "LineString",
        "coordinates": [
          [
            77.5925133,
            13.0013436
          ],
          [
            77.5925054,
            13.000961
          ]
        ]
      }
    },
    {
      "type": "Feature",
      "properties": {
        "id": "train_035_BND_003",
        "parcel_id": "train_035_P_001",
        "boundary_type": "INFERRED",
        "confidence": 0.761,
        "length_m": 46.97,
        "evidence_sources": [
          "Road_Corridor_Offset",
          "Adjacent_Parcel_Topology"
        ]
      },
      "geometry": {
        "type": "LineString",
        "coordinates": [
          [
            77.5925054,
            13.000961
          ],
          [
            77.5920727,
            13.0009552
          ]
        ]
      }
    },
    {
      "type": "Feature",
      "properties": {
        "id": "train_035_BND_004",
        "parcel_id": "train_035_P_001",
        "boundary_type": "VISIBLE",
        "confidence": 0.858,
        "length_m": 40.66,
        "evidence_sources": [
          "Drone_RGB_Edge",
          "DSM_Breakline"
        ]
      },
      "geometry": {
        "type": "LineString",
        "coordinates": [
          [
            77.5920727,
            13.0009552
          ],
          [
            77.592074,
            13.0013225
          ]
        ]
      }
    },
    {
      "type": "Feature",
      "properties": {
        "id": "train_035_BND_005",
        "parcel_id": "train_035_P_002",
        "boundary_type": "VISIBLE",
        "confidence": 0.834,
        "length_m": 46.77,
        "evidence_sources": [
          "Drone_RGB_Edge",
          "DSM_Breakline"
        ]
      },
      "geometry": {
        "type": "LineString",
        "coordinates": [
          [
            77.5920763,
            13.0009469
          ],
          [
            77.5925068,
            13.000929
          ]
        ]
      }
    },
    {
      "type": "Feature",
      "properties": {
        "id": "train_035_BND_006",
        "parcel_id": "train_035_P_002",
        "boundary_type": "VISIBLE",
        "confidence": 0.951,
        "length_m": 38.96,
        "evidence_sources": [
          "Drone_RGB_Edge",
          "DSM_Breakline"
        ]
      },
      "geometry": {
        "type": "LineString",
        "coordinates": [
          [
            77.5925068,
            13.000929
          ],
          [
            77.5925124,
            13.0005771
          ]
        ]
      }
    },
    {
      "type": "Feature",
      "properties": {
        "id": "train_035_BND_007",
        "parcel_id": "train_035_P_002",
        "boundary_type": "VISIBLE",
        "confidence": 0.898,
        "length_m": 49.2,
        "evidence_sources": [
          "Drone_RGB_Edge",
          "DSM_Breakline"
        ]
      },
      "geometry": {
        "type": "LineString",
        "coordinates": [
          [
            77.5925124,
            13.0005771
          ],
          [
            77.5920591,
            13.0005758
          ]
        ]
      }
    },
    {
      "type": "Feature",
      "properties": {
        "id": "train_035_BND_008",
        "parcel_id": "train_035_P_002",
        "boundary_type": "VISIBLE",
        "confidence": 0.829,
        "length_m": 41.12,
        "evidence_sources": [
          "Drone_RGB_Edge",
          "DSM_Breakline"
        ]
      },
      "geometry": {
        "type": "LineString",
        "coordinates": [
          [
            77.5920591,
            13.0005758
          ],
          [
            77.5920763,
            13.0009469
          ]
        ]
      }
    },
    {
      "type": "Feature",
      "properties": {
        "id": "train_035_BND_009",
        "parcel_id": "train_035_P_003",
        "boundary_type": "INFERRED",
        "confidence": 0.656,
        "length_m": 47.76,
        "evidence_sources": [
          "Road_Corridor_Offset",
          "Adjacent_Parcel_Topology"
        ]
      },
      "geometry": {
        "type": "LineString",
        "coordinates": [
          [
            77.5925418,
            13.0013351
          ],
          [
            77.5929818,
            13.0013298
          ]
        ]
      }
    },
    {
      "type": "Feature",
      "properties": {
        "id": "train_035_BND_010",
        "parcel_id": "train_035_P_003",
        "boundary_type": "INFERRED",
        "confidence": 0.746,
        "length_m": 40.74,
        "evidence_sources": [
          "Road_Corridor_Offset",
          "Adjacent_Parcel_Topology"
        ]
      },
      "geometry": {
        "type": "LineString",
        "coordinates": [
          [
            77.5929818,
            13.0013298
          ],
          [
            77.5929746,
            13.0009618
          ]
        ]
      }
    },
    {
      "type": "Feature",
      "properties": {
        "id": "train_035_BND_011",
        "parcel_id": "train_035_P_003",
        "boundary_type": "VISIBLE",
        "confidence": 0.921,
        "length_m": 47.92,
        "evidence_sources": [
          "Drone_RGB_Edge",
          "DSM_Breakline"
        ]
      },
      "geometry": {
        "type": "LineString",
        "coordinates": [
          [
            77.5929746,
            13.0009618
          ],
          [
            77.5925332,
            13.0009687
          ]
        ]
      }
    },
    {
      "type": "Feature",
      "properties": {
        "id": "train_035_BND_012",
        "parcel_id": "train_035_P_003",
        "boundary_type": "VISIBLE",
        "confidence": 0.923,
        "length_m": 40.57,
        "evidence_sources": [
          "Drone_RGB_Edge",
          "DSM_Breakline"
        ]
      },
      "geometry": {
        "type": "LineString",
        "coordinates": [
          [
            77.5925332,
            13.0009687
          ],
          [
            77.5925418,
            13.0013351
          ]
        ]
      }
    },
    {
      "type": "Feature",
      "properties": {
        "id": "train_035_BND_013",
        "parcel_id": "train_035_P_004",
        "boundary_type": "VISIBLE",
        "confidence": 0.836,
        "length_m": 48.14,
        "evidence_sources": [
          "Drone_RGB_Edge",
          "DSM_Breakline"
        ]
      },
      "geometry": {
        "type": "LineString",
        "coordinates": [
          [
            77.5925319,
            13.0009338
          ],
          [
            77.5929753,
            13.0009446
          ]
        ]
      }
    },
    {
      "type": "Feature",
      "properties": {
        "id": "train_035_BND_014",
        "parcel_id": "train_035_P_004",
        "boundary_type": "VISIBLE",
        "confidence": 0.876,
        "length_m": 42.45,
        "evidence_sources": [
          "Drone_RGB_Edge",
          "DSM_Breakline"
        ]
      },
      "geometry": {
        "type": "LineString",
        "coordinates": [
          [
            77.5929753,
            13.0009446
          ],
          [
            77.5929741,
            13.0005611
          ]
        ]
      }
    },
    {
      "type": "Feature",
      "properties": {
        "id": "train_035_BND_015",
        "parcel_id": "train_035_P_004",
        "boundary_type": "VISIBLE",
        "confidence": 0.918,
        "length_m": 47.68,
        "evidence_sources": [
          "Drone_RGB_Edge",
          "DSM_Breakline"
        ]
      },
      "geometry": {
        "type": "LineString",
        "coordinates": [
          [
            77.5929741,
            13.0005611
          ],
          [
            77.5925348,
            13.0005605
          ]
        ]
      }
    },
    {
      "type": "Feature",
      "properties": {
        "id": "train_035_BND_016",
        "parcel_id": "train_035_P_004",
        "boundary_type": "VISIBLE",
        "confidence": 0.857,
        "length_m": 41.32,
        "evidence_sources": [
          "Drone_RGB_Edge",
          "DSM_Breakline"
        ]
      },
      "geometry": {
        "type": "LineString",
        "coordinates": [
          [
            77.5925348,
            13.0005605
          ],
          [
            77.5925319,
            13.0009338
          ]
        ]
      }
    },
    {
      "type": "Feature",
      "properties": {
        "id": "train_035_BND_017",
        "parcel_id": "train_035_P_005",
        "boundary_type": "INFERRED",
        "confidence": 0.767,
        "length_m": 63.17,
        "evidence_sources": [
          "Road_Corridor_Offset",
          "Adjacent_Parcel_Topology"
        ]
      },
      "geometry": {
        "type": "LineString",
        "coordinates": [
          [
            77.5931467,
            13.0013288
          ],
          [
            77.5937285,
            13.0013416
          ]
        ]
      }
    },
    {
      "type": "Feature",
      "properties": {
        "id": "train_035_BND_018",
        "parcel_id": "train_035_P_005",
        "boundary_type": "VISIBLE",
        "confidence": 0.909,
        "length_m": 43.04,
        "evidence_sources": [
          "Drone_RGB_Edge",
          "DSM_Breakline"
        ]
      },
      "geometry": {
        "type": "LineString",
        "coordinates": [
          [
            77.5937285,
            13.0013416
          ],
          [
            77.5937145,
            13.000953
          ]
        ]
      }
    },
    {
      "type": "Feature",
      "properties": {
        "id": "train_035_BND_019",
        "parcel_id": "train_035_P_005",
        "boundary_type": "VISIBLE",
        "confidence": 0.925,
        "length_m": 60.92,
        "evidence_sources": [
          "Drone_RGB_Edge",
          "DSM_Breakline"
        ]
      },
      "geometry": {
        "type": "LineString",
        "coordinates": [
          [
            77.5937145,
            13.000953
          ],
          [
            77.5931533,
            13.0009538
          ]
        ]
      }
    },
    {
      "type": "Feature",
      "properties": {
        "id": "train_035_BND_020",
        "parcel_id": "train_035_P_005",
        "boundary_type": "INFERRED",
        "confidence": 0.682,
        "length_m": 41.52,
        "evidence_sources": [
          "Road_Corridor_Offset",
          "Adjacent_Parcel_Topology"
        ]
      },
      "geometry": {
        "type": "LineString",
        "coordinates": [
          [
            77.5931533,
            13.0009538
          ],
          [
            77.5931467,
            13.0013288
          ]
        ]
      }
    },
    {
      "type": "Feature",
      "properties": {
        "id": "train_035_BND_021",
        "parcel_id": "train_035_P_006",
        "boundary_type": "VISIBLE",
        "confidence": 0.907,
        "length_m": 61.66,
        "evidence_sources": [
          "Drone_RGB_Edge",
          "DSM_Breakline"
        ]
      },
      "geometry": {
        "type": "LineString",
        "coordinates": [
          [
            77.5931472,
            13.0009496
          ],
          [
            77.5937152,
            13.00094
          ]
        ]
      }
    },
    {
      "type": "Feature",
      "properties": {
        "id": "train_035_BND_022",
        "parcel_id": "train_035_P_006",
        "boundary_type": "VISIBLE",
        "confidence": 0.825,
        "length_m": 41.32,
        "evidence_sources": [
          "Drone_RGB_Edge",
          "DSM_Breakline"
        ]
      },
      "geometry": {
        "type": "LineString",
        "coordinates": [
          [
            77.5937152,
            13.00094
          ],
          [
            77.5937178,
            13.0005667
          ]
        ]
      }
    },
    {
      "type": "Feature",
      "properties": {
        "id": "train_035_BND_023",
        "parcel_id": "train_035_P_006",
        "boundary_type": "VISIBLE",
        "confidence": 0.866,
        "length_m": 60.08,
        "evidence_sources": [
          "Drone_RGB_Edge",
          "DSM_Breakline"
        ]
      },
      "geometry": {
        "type": "LineString",
        "coordinates": [
          [
            77.5937178,
            13.0005667
          ],
          [
            77.5931643,
            13.0005676
          ]
        ]
      }
    },
    {
      "type": "Feature",
      "properties": {
        "id": "train_035_BND_024",
        "parcel_id": "train_035_P_006",
        "boundary_type": "VISIBLE",
        "confidence": 0.934,
        "length_m": 42.33,
        "evidence_sources": [
          "Drone_RGB_Edge",
          "DSM_Breakline"
        ]
      },
      "geometry": {
        "type": "LineString",
        "coordinates": [
          [
            77.5931643,
            13.0005676
          ],
          [
            77.5931472,
            13.0009496
          ]
        ]
      }
    },
    {
      "type": "Feature",
      "properties": {
        "id": "train_035_BND_025",
        "parcel_id": "train_035_P_007",
        "boundary_type": "VISIBLE",
        "confidence": 0.894,
        "length_m": 61.43,
        "evidence_sources": [
          "Drone_RGB_Edge",
          "DSM_Breakline"
        ]
      },
      "geometry": {
        "type": "LineString",
        "coordinates": [
          [
            77.5937567,
            13.0013343
          ],
          [
            77.5943226,
            13.0013318
          ]
        ]
      }
    },
    {
      "type": "Feature",
      "properties": {
        "id": "train_035_BND_026",
        "parcel_id": "train_035_P_007",
        "boundary_type": "VISIBLE",
        "confidence": 0.935,
        "length_m": 40.6,
        "evidence_sources": [
          "Drone_RGB_Edge",
          "DSM_Breakline"
        ]
      },
      "geometry": {
        "type": "LineString",
        "coordinates": [
          [
            77.5943226,
            13.0013318
          ],
          [
            77.5943215,
            13.000965
          ]
        ]
      }
    },
    {
      "type": "Feature",
      "properties": {
        "id": "train_035_BND_027",
        "parcel_id": "train_035_P_007",
        "boundary_type": "VISIBLE",
        "confidence": 0.848,
        "length_m": 61.4,
        "evidence_sources": [
          "Drone_RGB_Edge",
          "DSM_Breakline"
        ]
      },
      "geometry": {
        "type": "LineString",
        "coordinates": [
          [
            77.5943215,
            13.000965
          ],
          [
            77.5937559,
            13.0009608
          ]
        ]
      }
    },
    {
      "type": "Feature",
      "properties": {
        "id": "train_035_BND_028",
        "parcel_id": "train_035_P_007",
        "boundary_type": "VISIBLE",
        "confidence": 0.871,
        "length_m": 41.34,
        "evidence_sources": [
          "Drone_RGB_Edge",
          "DSM_Breakline"
        ]
      },
      "geometry": {
        "type": "LineString",
        "coordinates": [
          [
            77.5937559,
            13.0009608
          ],
          [
            77.5937567,
            13.0013343
          ]
        ]
      }
    },
    {
      "type": "Feature",
      "properties": {
        "id": "train_035_BND_029",
        "parcel_id": "train_035_P_008",
        "boundary_type": "VISIBLE",
        "confidence": 0.938,
        "length_m": 61.3,
        "evidence_sources": [
          "Drone_RGB_Edge",
          "DSM_Breakline"
        ]
      },
      "geometry": {
        "type": "LineString",
        "coordinates": [
          [
            77.5937484,
            13.0009422
          ],
          [
            77.5943131,
            13.0009339
          ]
        ]
      }
    },
    {
      "type": "Feature",
      "properties": {
        "id": "train_035_BND_030",
        "parcel_id": "train_035_P_008",
        "boundary_type": "VISIBLE",
        "confidence": 0.935,
        "length_m": 41.69,
        "evidence_sources": [
          "Drone_RGB_Edge",
          "DSM_Breakline"
        ]
      },
      "geometry": {
        "type": "LineString",
        "coordinates": [
          [
            77.5943131,
            13.0009339
          ],
          [
            77.59431,
            13.0005573
          ]
        ]
      }
    },
    {
      "type": "Feature",
      "properties": {
        "id": "train_035_BND_031",
        "parcel_id": "train_035_P_008",
        "boundary_type": "VISIBLE",
        "confidence": 0.914,
        "length_m": 61.97,
        "evidence_sources": [
          "Drone_RGB_Edge",
          "DSM_Breakline"
        ]
      },
      "geometry": {
        "type": "LineString",
        "coordinates": [
          [
            77.59431,
            13.0005573
          ],
          [
            77.5937395,
            13.0005783
          ]
        ]
      }
    },
    {
      "type": "Feature",
      "properties": {
        "id": "train_035_BND_032",
        "parcel_id": "train_035_P_008",
        "boundary_type": "VISIBLE",
        "confidence": 0.922,
        "length_m": 40.29,
        "evidence_sources": [
          "Drone_RGB_Edge",
          "DSM_Breakline"
        ]
      },
      "geometry": {
        "type": "LineString",
        "coordinates": [
          [
            77.5937395,
            13.0005783
          ],
          [
            77.5937484,
            13.0009422
          ]
        ]
      }
    },
    {
      "type": "Feature",
      "properties": {
        "id": "train_035_BND_033",
        "parcel_id": "train_035_P_009",
        "boundary_type": "INFERRED",
        "confidence": 0.694,
        "length_m": 49.14,
        "evidence_sources": [
          "Road_Corridor_Offset",
          "Adjacent_Parcel_Topology"
        ]
      },
      "geometry": {
        "type": "LineString",
        "coordinates": [
          [
            77.5920563,
            13.0002777
          ],
          [
            77.592509,
            13.0002824
          ]
        ]
      }
    },
    {
      "type": "Feature",
      "properties": {
        "id": "train_035_BND_034",
        "parcel_id": "train_035_P_009",
        "boundary_type": "VISIBLE",
        "confidence": 0.82,
        "length_m": 65.96,
        "evidence_sources": [
          "Drone_RGB_Edge",
          "DSM_Breakline"
        ]
      },
      "geometry": {
        "type": "LineString",
        "coordinates": [
          [
            77.592509,
            13.0002824
          ],
          [
            77.5925193,
            12.9996866
          ]
        ]
      }
    },
    {
      "type": "Feature",
      "properties": {
        "id": "train_035_BND_035",
        "parcel_id": "train_035_P_009",
        "boundary_type": "INFERRED",
        "confidence": 0.719,
        "length_m": 49.77,
        "evidence_sources": [
          "Road_Corridor_Offset",
          "Adjacent_Parcel_Topology"
        ]
      },
      "geometry": {
        "type": "LineString",
        "coordinates": [
          [
            77.5925193,
            12.9996866
          ],
          [
            77.5920608,
            12.9996847
          ]
        ]
      }
    },
    {
      "type": "Feature",
      "properties": {
        "id": "train_035_BND_036",
        "parcel_id": "train_035_P_009",
        "boundary_type": "VISIBLE",
        "confidence": 0.828,
        "length_m": 65.64,
        "evidence_sources": [
          "Drone_RGB_Edge",
          "DSM_Breakline"
        ]
      },
      "geometry": {
        "type": "LineString",
        "coordinates": [
          [
            77.5920608,
            12.9996847
          ],
          [
            77.5920563,
            13.0002777
          ]
        ]
      }
    },
    {
      "type": "Feature",
      "properties": {
        "id": "train_035_BND_037",
        "parcel_id": "train_035_P_010",
        "boundary_type": "VISIBLE",
        "confidence": 0.889,
        "length_m": 49.21,
        "evidence_sources": [
          "Drone_RGB_Edge",
          "DSM_Breakline"
        ]
      },
      "geometry": {
        "type": "LineString",
        "coordinates": [
          [
            77.5920599,
            12.9996702
          ],
          [
            77.5925132,
            12.9996758
          ]
        ]
      }
    },
    {
      "type": "Feature",
      "properties": {
        "id": "train_035_BND_038",
        "parcel_id": "train_035_P_010",
        "boundary_type": "INFERRED",
        "confidence": 0.749,
        "length_m": 65.78,
        "evidence_sources": [
          "Road_Corridor_Offset",
          "Adjacent_Parcel_Topology"
        ]
      },
      "geometry": {
        "type": "LineString",
        "coordinates": [
          [
            77.5925132,
            12.9996758
          ],
          [
            77.5925042,
            12.9990816
          ]
        ]
      }
    },
    {
      "type": "Feature",
      "properties": {
        "id": "train_035_BND_039",
        "parcel_id": "train_035_P_010",
        "boundary_type": "VISIBLE",
        "confidence": 0.897,
        "length_m": 46.45,
        "evidence_sources": [
          "Drone_RGB_Edge",
          "DSM_Breakline"
        ]
      },
      "geometry": {
        "type": "LineString",
        "coordinates": [
          [
            77.5925042,
            12.9990816
          ],
          [
            77.5920766,
            12.9990974
          ]
        ]
      }
    },
    {
      "type": "Feature",
      "properties": {
        "id": "train_035_BND_040",
        "parcel_id": "train_035_P_010",
        "boundary_type": "VISIBLE",
        "confidence": 0.955,
        "length_m": 63.43,
        "evidence_sources": [
          "Drone_RGB_Edge",
          "DSM_Breakline"
        ]
      },
      "geometry": {
        "type": "LineString",
        "coordinates": [
          [
            77.5920766,
            12.9990974
          ],
          [
            77.5920599,
            12.9996702
          ]
        ]
      }
    },
    {
      "type": "Feature",
      "properties": {
        "id": "train_035_BND_041",
        "parcel_id": "train_035_P_011",
        "boundary_type": "VISIBLE",
        "confidence": 0.865,
        "length_m": 47.82,
        "evidence_sources": [
          "Drone_RGB_Edge",
          "DSM_Breakline"
        ]
      },
      "geometry": {
        "type": "LineString",
        "coordinates": [
          [
            77.5925308,
            13.0002827
          ],
          [
            77.5929713,
            13.0002888
          ]
        ]
      }
    },
    {
      "type": "Feature",
      "properties": {
        "id": "train_035_BND_042",
        "parcel_id": "train_035_P_011",
        "boundary_type": "VISIBLE",
        "confidence": 0.927,
        "length_m": 66.52,
        "evidence_sources": [
          "Drone_RGB_Edge",
          "DSM_Breakline"
        ]
      },
      "geometry": {
        "type": "LineString",
        "coordinates": [
          [
            77.5929713,
            13.0002888
          ],
          [
            77.5929783,
            12.9996879
          ]
        ]
      }
    },
    {
      "type": "Feature",
      "properties": {
        "id": "train_035_BND_043",
        "parcel_id": "train_035_P_011",
        "boundary_type": "INFERRED",
        "confidence": 0.759,
        "length_m": 48.73,
        "evidence_sources": [
          "Road_Corridor_Offset",
          "Adjacent_Parcel_Topology"
        ]
      },
      "geometry": {
        "type": "LineString",
        "coordinates": [
          [
            77.5929783,
            12.9996879
          ],
          [
            77.5925294,
            12.9996896
          ]
        ]
      }
    },
    {
      "type": "Feature",
      "properties": {
        "id": "train_035_BND_044",
        "parcel_id": "train_035_P_011",
        "boundary_type": "VISIBLE",
        "confidence": 0.934,
        "length_m": 65.65,
        "evidence_sources": [
          "Drone_RGB_Edge",
          "DSM_Breakline"
        ]
      },
      "geometry": {
        "type": "LineString",
        "coordinates": [
          [
            77.5925294,
            12.9996896
          ],
          [
            77.5925308,
            13.0002827
          ]
        ]
      }
    },
    {
      "type": "Feature",
      "properties": {
        "id": "train_035_BND_045",
        "parcel_id": "train_035_P_012",
        "boundary_type": "INFERRED",
        "confidence": 0.776,
        "length_m": 48.7,
        "evidence_sources": [
          "Road_Corridor_Offset",
          "Adjacent_Parcel_Topology"
        ]
      },
      "geometry": {
        "type": "LineString",
        "coordinates": [
          [
            77.5925354,
            12.9996696
          ],
          [
            77.592984,
            12.9996657
          ]
        ]
      }
    },
    {
      "type": "Feature",
      "properties": {
        "id": "train_035_BND_046",
        "parcel_id": "train_035_P_012",
        "boundary_type": "VISIBLE",
        "confidence": 0.828,
        "length_m": 63.31,
        "evidence_sources": [
          "Drone_RGB_Edge",
          "DSM_Breakline"
        ]
      },
      "geometry": {
        "type": "LineString",
        "coordinates": [
          [
            77.592984,
            12.9996657
          ],
          [
            77.5929758,
            12.9990938
          ]
        ]
      }
    },
    {
      "type": "Feature",
      "properties": {
        "id": "train_035_BND_047",
        "parcel_id": "train_035_P_012",
        "boundary_type": "VISIBLE",
        "confidence": 0.859,
        "length_m": 47.17,
        "evidence_sources": [
          "Drone_RGB_Edge",
          "DSM_Breakline"
        ]
      },
      "geometry": {
        "type": "LineString",
        "coordinates": [
          [
            77.5929758,
            12.9990938
          ],
          [
            77.5925415,
            12.9990782
          ]
        ]
      }
    },
    {
      "type": "Feature",
      "properties": {
        "id": "train_035_BND_048",
        "parcel_id": "train_035_P_012",
        "boundary_type": "VISIBLE",
        "confidence": 0.907,
        "length_m": 65.47,
        "evidence_sources": [
          "Drone_RGB_Edge",
          "DSM_Breakline"
        ]
      },
      "geometry": {
        "type": "LineString",
        "coordinates": [
          [
            77.5925415,
            12.9990782
          ],
          [
            77.5925354,
            12.9996696
          ]
        ]
      }
    },
    {
      "type": "Feature",
      "properties": {
        "id": "train_035_BND_049",
        "parcel_id": "train_035_P_013",
        "boundary_type": "VISIBLE",
        "confidence": 0.865,
        "length_m": 62.55,
        "evidence_sources": [
          "Drone_RGB_Edge",
          "DSM_Breakline"
        ]
      },
      "geometry": {
        "type": "LineString",
        "coordinates": [
          [
            77.5931453,
            13.0002817
          ],
          [
            77.5937215,
            13.0002867
          ]
        ]
      }
    },
    {
      "type": "Feature",
      "properties": {
        "id": "train_035_BND_050",
        "parcel_id": "train_035_P_013",
        "boundary_type": "VISIBLE",
        "confidence": 0.918,
        "length_m": 66.59,
        "evidence_sources": [
          "Drone_RGB_Edge",
          "DSM_Breakline"
        ]
      },
      "geometry": {
        "type": "LineString",
        "coordinates": [
          [
            77.5937215,
            13.0002867
          ],
          [
            77.5937272,
            12.9996852
          ]
        ]
      }
    },
    {
      "type": "Feature",
      "properties": {
        "id": "train_035_BND_051",
        "parcel_id": "train_035_P_013",
        "boundary_type": "VISIBLE",
        "confidence": 0.929,
        "length_m": 62.13,
        "evidence_sources": [
          "Drone_RGB_Edge",
          "DSM_Breakline"
        ]
      },
      "geometry": {
        "type": "LineString",
        "coordinates": [
          [
            77.5937272,
            12.9996852
          ],
          [
            77.593155,
            12.9997005
          ]
        ]
      }
    },
    {
      "type": "Feature",
      "properties": {
        "id": "train_035_BND_052",
        "parcel_id": "train_035_P_013",
        "boundary_type": "VISIBLE",
        "confidence": 0.898,
        "length_m": 64.34,
        "evidence_sources": [
          "Drone_RGB_Edge",
          "DSM_Breakline"
        ]
      },
      "geometry": {
        "type": "LineString",
        "coordinates": [
          [
            77.593155,
            12.9997005
          ],
          [
            77.5931453,
            13.0002817
          ]
        ]
      }
    },
    {
      "type": "Feature",
      "properties": {
        "id": "train_035_BND_053",
        "parcel_id": "train_035_P_014",
        "boundary_type": "INFERRED",
        "confidence": 0.639,
        "length_m": 60.29,
        "evidence_sources": [
          "Road_Corridor_Offset",
          "Adjacent_Parcel_Topology"
        ]
      },
      "geometry": {
        "type": "LineString",
        "coordinates": [
          [
            77.5931643,
            12.9996742
          ],
          [
            77.5937197,
            12.9996823
          ]
        ]
      }
    },
    {
      "type": "Feature",
      "properties": {
        "id": "train_035_BND_054",
        "parcel_id": "train_035_P_014",
        "boundary_type": "VISIBLE",
        "confidence": 0.86,
        "length_m": 65.74,
        "evidence_sources": [
          "Drone_RGB_Edge",
          "DSM_Breakline"
        ]
      },
      "geometry": {
        "type": "LineString",
        "coordinates": [
          [
            77.5937197,
            12.9996823
          ],
          [
            77.5937162,
            12.9990884
          ]
        ]
      }
    },
    {
      "type": "Feature",
      "properties": {
        "id": "train_035_BND_055",
        "parcel_id": "train_035_P_014",
        "boundary_type": "VISIBLE",
        "confidence": 0.837,
        "length_m": 60.26,
        "evidence_sources": [
          "Drone_RGB_Edge",
          "DSM_Breakline"
        ]
      },
      "geometry": {
        "type": "LineString",
        "coordinates": [
          [
            77.5937162,
            12.9990884
          ],
          [
            77.5931612,
            12.9990754
          ]
        ]
      }
    },
    {
      "type": "Feature",
      "properties": {
        "id": "train_035_BND_056",
        "parcel_id": "train_035_P_014",
        "boundary_type": "VISIBLE",
        "confidence": 0.82,
        "length_m": 66.28,
        "evidence_sources": [
          "Drone_RGB_Edge",
          "DSM_Breakline"
        ]
      },
      "geometry": {
        "type": "LineString",
        "coordinates": [
          [
            77.5931612,
            12.9990754
          ],
          [
            77.5931643,
            12.9996742
          ]
        ]
      }
    },
    {
      "type": "Feature",
      "properties": {
        "id": "train_035_BND_057",
        "parcel_id": "train_035_P_015",
        "boundary_type": "INFERRED",
        "confidence": 0.649,
        "length_m": 60.9,
        "evidence_sources": [
          "Road_Corridor_Offset",
          "Adjacent_Parcel_Topology"
        ]
      },
      "geometry": {
        "type": "LineString",
        "coordinates": [
          [
            77.5937536,
            13.0002745
          ],
          [
            77.5943146,
            13.0002804
          ]
        ]
      }
    },
    {
      "type": "Feature",
      "properties": {
        "id": "train_035_BND_058",
        "parcel_id": "train_035_P_015",
        "boundary_type": "VISIBLE",
        "confidence": 0.868,
        "length_m": 65.44,
        "evidence_sources": [
          "Drone_RGB_Edge",
          "DSM_Breakline"
        ]
      },
      "geometry": {
        "type": "LineString",
        "coordinates": [
          [
            77.5943146,
            13.0002804
          ],
          [
            77.5943081,
            12.9996893
          ]
        ]
      }
    },
    {
      "type": "Feature",
      "properties": {
        "id": "train_035_BND_059",
        "parcel_id": "train_035_P_015",
        "boundary_type": "VISIBLE",
        "confidence": 0.831,
        "length_m": 61.34,
        "evidence_sources": [
          "Drone_RGB_Edge",
          "DSM_Breakline"
        ]
      },
      "geometry": {
        "type": "LineString",
        "coordinates": [
          [
            77.5943081,
            12.9996893
          ],
          [
            77.593743,
            12.9996919
          ]
        ]
      }
    },
    {
      "type": "Feature",
      "properties": {
        "id": "train_035_BND_060",
        "parcel_id": "train_035_P_015",
        "boundary_type": "VISIBLE",
        "confidence": 0.959,
        "length_m": 64.5,
        "evidence_sources": [
          "Drone_RGB_Edge",
          "DSM_Breakline"
        ]
      },
      "geometry": {
        "type": "LineString",
        "coordinates": [
          [
            77.593743,
            12.9996919
          ],
          [
            77.5937536,
            13.0002745
          ]
        ]
      }
    },
    {
      "type": "Feature",
      "properties": {
        "id": "train_035_BND_061",
        "parcel_id": "train_035_P_016",
        "boundary_type": "INFERRED",
        "confidence": 0.694,
        "length_m": 61.21,
        "evidence_sources": [
          "Road_Corridor_Offset",
          "Adjacent_Parcel_Topology"
        ]
      },
      "geometry": {
        "type": "LineString",
        "coordinates": [
          [
            77.5937477,
            12.9996824
          ],
          [
            77.5943114,
            12.9996684
          ]
        ]
      }
    },
    {
      "type": "Feature",
      "properties": {
        "id": "train_035_BND_062",
        "parcel_id": "train_035_P_016",
        "boundary_type": "VISIBLE",
        "confidence": 0.951,
        "length_m": 65.63,
        "evidence_sources": [
          "Drone_RGB_Edge",
          "DSM_Breakline"
        ]
      },
      "geometry": {
        "type": "LineString",
        "coordinates": [
          [
            77.5943114,
            12.9996684
          ],
          [
            77.5943084,
            12.9990755
          ]
        ]
      }
    },
    {
      "type": "Feature",
      "properties": {
        "id": "train_035_BND_063",
        "parcel_id": "train_035_P_016",
        "boundary_type": "INFERRED",
        "confidence": 0.691,
        "length_m": 61.36,
        "evidence_sources": [
          "Road_Corridor_Offset",
          "Adjacent_Parcel_Topology"
        ]
      },
      "geometry": {
        "type": "LineString",
        "coordinates": [
          [
            77.5943084,
            12.9990755
          ],
          [
            77.5937431,
            12.9990771
          ]
        ]
      }
    },
    {
      "type": "Feature",
      "properties": {
        "id": "train_035_BND_064",
        "parcel_id": "train_035_P_016",
        "boundary_type": "INFERRED",
        "confidence": 0.716,
        "length_m": 67.01,
        "evidence_sources": [
          "Road_Corridor_Offset",
          "Adjacent_Parcel_Topology"
        ]
      },
      "geometry": {
        "type": "LineString",
        "coordinates": [
          [
            77.5937431,
            12.9990771
          ],
          [
            77.5937477,
            12.9996824
          ]
        ]
      }
    }
  ]
}