{
  "type": "FeatureCollection",
  "crs": {
    "type": "name",
    "properties": {
      "name": "EPSG:4326"
    }
  },
  "features": [
    {
      "type": "Feature",
      "properties": {
        "id": "train_035_REF_001",
        "parcel_id": "train_035_P_001",
        "parcel_layer": "REFERENCE",
        "boundary_representation": "REFERENCE",
        "land_use_class": "industrial",
        "area_sqm": 1963.28,
        "perimeter_m": 177.72,
        "source": "Synthetic Legacy Cadastral Map (Non-Authoritative Demo)"
      },
      "geometry": {
        "type": "Polygon",
        "coordinates": [
          [
            [
              77.5920796,
              13.0013253
            ],
            [
              77.5925189,
              13.0013464
            ],
            [
              77.592511,
              13.0009638
            ],
            [
              77.5920783,
              13.0009581
            ],
            [
              77.5920796,
              13.0013253
            ]
          ]
        ]
      }
    },
    {
      "type": "Feature",
      "properties": {
        "id": "train_035_REF_002",
        "parcel_id": "train_035_P_002",
        "parcel_layer": "REFERENCE",
        "boundary_representation": "REFERENCE",
        "land_use_class": "residential",
        "area_sqm": 1919.82,
        "perimeter_m": 176.04,
        "source": "Synthetic Legacy Cadastral Map (Non-Authoritative Demo)"
      },
      "geometry": {
        "type": "Polygon",
        "coordinates": [
          [
            [
              77.592082,
              13.0009497
            ],
            [
              77.5925125,
              13.0009318
            ],
            [
              77.592518,
              13.0005799
            ],
            [
              77.5920648,
              13.0005786
            ],
            [
              77.592082,
              13.0009497
            ]
          ]
        ]
      }
    },
    {
      "type": "Feature",
      "properties": {
        "id": "train_035_REF_003",
        "parcel_id": "train_035_P_003",
        "parcel_layer": "REFERENCE",
        "boundary_representation": "REFERENCE",
        "land_use_class": "residential",
        "area_sqm": 1945.17,
        "perimeter_m": 177.01,
        "source": "Synthetic Legacy Cadastral Map (Non-Authoritative Demo)"
      },
      "geometry": {
        "type": "Polygon",
        "coordinates": [
          [
            [
              77.5925474,
              13.0013379
            ],
            [
              77.5929875,
              13.0013326
            ],
            [
              77.5929803,
              13.0009647
            ],
            [
              77.5925388,
              13.0009715
            ],
            [
              77.5925474,
              13.0013379
            ]
          ]
        ]
      }
    },
    {
      "type": "Feature",
      "properties": {
        "id": "train_035_REF_004",
        "parcel_id": "train_035_P_004",
        "parcel_layer": "REFERENCE",
        "boundary_representation": "REFERENCE",
        "land_use_class": "residential",
        "area_sqm": 2007.0,
        "perimeter_m": 179.62,
        "source": "Synthetic Legacy Cadastral Map (Non-Authoritative Demo)"
      },
      "geometry": {
        "type": "Polygon",
        "coordinates": [
          [
            [
              77.5925732,
              13.0009545
            ],
            [
              77.5930166,
              13.0009652
            ],
            [
              77.5930153,
              13.0005817
            ],
            [
              77.592576,
              13.0005811
            ],
            [
              77.5925732,
              13.0009545
            ]
          ]
        ]
      }
    },
    {
      "type": "Feature",
      "properties": {
        "id": "train_035_REF_005",
        "parcel_id": "train_035_P_005",
        "parcel_layer": "REFERENCE",
        "boundary_representation": "REFERENCE",
        "land_use_class": "commercial",
        "area_sqm": 2621.29,
        "perimeter_m": 208.63,
        "source": "Synthetic Legacy Cadastral Map (Non-Authoritative Demo)"
      },
      "geometry": {
        "type": "Polygon",
        "coordinates": [
          [
            [
              77.5931523,
              13.0013316
            ],
            [
              77.5937341,
              13.0013444
            ],
            [
              77.5937201,
              13.0009558
            ],
            [
              77.593159,
              13.0009566
            ],
            [
              77.5931523,
              13.0013316
            ]
          ]
        ]
      }
    },
    {
      "type": "Feature",
      "properties": {
        "id": "train_035_REF_006",
        "parcel_id": "train_035_P_006",
        "parcel_layer": "REFERENCE",
        "boundary_representation": "REFERENCE",
        "land_use_class": "mixed_use",
        "area_sqm": 2543.89,
        "perimeter_m": 205.39,
        "source": "Synthetic Legacy Cadastral Map (Non-Authoritative Demo)"
      },
      "geometry": {
        "type": "Polygon",
        "coordinates": [
          [
            [
              77.5931528,
              13.0009524
            ],
            [
              77.5937208,
              13.0009428
            ],
            [
              77.5937234,
              13.0005695
            ],
            [
              77.5931699,
              13.0005704
            ],
            [
              77.5931528,
              13.0009524
            ]
          ]
        ]
      }
    },
    {
      "type": "Feature",
      "properties": {
        "id": "train_035_REF_007",
        "parcel_id": "train_035_P_007",
        "parcel_layer": "REFERENCE",
        "boundary_representation": "REFERENCE",
        "land_use_class": "mixed_use",
        "area_sqm": 2516.2,
        "perimeter_m": 204.77,
        "source": "Synthetic Legacy Cadastral Map (Non-Authoritative Demo)"
      },
      "geometry": {
        "type": "Polygon",
        "coordinates": [
          [
            [
              77.5937624,
              13.0013371
            ],
            [
              77.5943282,
              13.0013346
            ],
            [
              77.5943272,
              13.0009678
            ],
            [
              77.5937615,
              13.0009636
            ],
            [
              77.5937624,
              13.0013371
            ]
          ]
        ]
      }
    },
    {
      "type": "Feature",
      "properties": {
        "id": "train_035_REF_008",
        "parcel_id": "train_035_P_008",
        "parcel_layer": "REFERENCE",
        "boundary_representation": "REFERENCE",
        "land_use_class": "vegetation",
        "area_sqm": 2525.95,
        "perimeter_m": 205.24,
        "source": "Synthetic Legacy Cadastral Map (Non-Authoritative Demo)"
      },
      "geometry": {
        "type": "Polygon",
        "coordinates": [
          [
            [
              77.5937896,
              13.0009628
            ],
            [
              77.5943543,
              13.0009545
            ],
            [
              77.5943512,
              13.0005779
            ],
            [
              77.5937808,
              13.0005989
            ],
            [
              77.5937896,
              13.0009628
            ]
          ]
        ]
      }
    },
    {
      "type": "Feature",
      "properties": {
        "id": "train_035_REF_009",
        "parcel_id": "train_035_P_009",
        "parcel_layer": "REFERENCE",
        "boundary_representation": "REFERENCE",
        "land_use_class": "vacant",
        "area_sqm": 3253.6,
        "perimeter_m": 230.49,
        "source": "Synthetic Legacy Cadastral Map (Non-Authoritative Demo)"
      },
      "geometry": {
        "type": "Polygon",
        "coordinates": [
          [
            [
              77.592062,
              13.0002805
            ],
            [
              77.5925146,
              13.0002852
            ],
            [
              77.5925249,
              12.9996895
            ],
            [
              77.5920664,
              12.9996875
            ],
            [
              77.592062,
              13.0002805
            ]
          ]
        ]
      }
    },
    {
      "type": "Feature",
      "properties": {
        "id": "train_035_REF_010",
        "parcel_id": "train_035_P_010",
        "parcel_layer": "REFERENCE",
        "boundary_representation": "REFERENCE",
        "land_use_class": "industrial",
        "area_sqm": 3088.16,
        "perimeter_m": 224.88,
        "source": "Synthetic Legacy Cadastral Map (Non-Authoritative Demo)"
      },
      "geometry": {
        "type": "Polygon",
        "coordinates": [
          [
            [
              77.5920655,
              12.999673
            ],
            [
              77.5925188,
              12.9996786
            ],
            [
              77.5925099,
              12.9990844
            ],
            [
              77.5920822,
              12.9991002
            ],
            [
              77.5920655,
              12.999673
            ]
          ]
        ]
      }
    },
    {
      "type": "Feature",
      "properties": {
        "id": "train_035_REF_011",
        "parcel_id": "train_035_P_011",
        "parcel_layer": "REFERENCE",
        "boundary_representation": "REFERENCE",
        "land_use_class": "industrial",
        "area_sqm": 3190.32,
        "perimeter_m": 228.73,
        "source": "Synthetic Legacy Cadastral Map (Non-Authoritative Demo)"
      },
      "geometry": {
        "type": "Polygon",
        "coordinates": [
          [
            [
              77.5925364,
              13.0002855
            ],
            [
              77.5929769,
              13.0002917
            ],
            [
              77.592984,
              12.9996907
            ],
            [
              77.5925351,
              12.9996924
            ],
            [
              77.5925364,
              13.0002855
            ]
          ]
        ]
      }
    },
    {
      "type": "Feature",
      "properties": {
        "id": "train_035_REF_012",
        "parcel_id": "train_035_P_012",
        "parcel_layer": "REFERENCE",
        "boundary_representation": "REFERENCE",
        "land_use_class": "residential",
        "area_sqm": 3085.09,
        "perimeter_m": 224.65,
        "source": "Synthetic Legacy Cadastral Map (Non-Authoritative Demo)"
      },
      "geometry": {
        "type": "Polygon",
        "coordinates": [
          [
            [
              77.5925767,
              12.9996903
            ],
            [
              77.5930253,
              12.9996863
            ],
            [
              77.593017,
              12.9991144
            ],
            [
              77.5925828,
              12.9990988
            ],
            [
              77.5925767,
              12.9996903
            ]
          ]
        ]
      }
    },
    {
      "type": "Feature",
      "properties": {
        "id": "train_035_REF_013",
        "parcel_id": "train_035_P_013",
        "parcel_layer": "REFERENCE",
        "boundary_representation": "REFERENCE",
        "land_use_class": "residential",
        "area_sqm": 4079.82,
        "perimeter_m": 255.62,
        "source": "Synthetic Legacy Cadastral Map (Non-Authoritative Demo)"
      },
      "geometry": {
        "type": "Polygon",
        "coordinates": [
          [
            [
              77.5931509,
              13.0002845
            ],
            [
              77.5937271,
              13.0002895
            ],
            [
              77.5937329,
              12.999688
            ],
            [
              77.5931606,
              12.9997033
            ],
            [
              77.5931509,
              13.0002845
            ]
          ]
        ]
      }
    },
    {
      "type": "Feature",
      "properties": {
        "id": "train_035_REF_014",
        "parcel_id": "train_035_P_014",
        "parcel_layer": "REFERENCE",
        "boundary_representation": "REFERENCE",
        "land_use_class": "commercial",
        "area_sqm": 3977.87,
        "perimeter_m": 252.58,
        "source": "Synthetic Legacy Cadastral Map (Non-Authoritative Demo)"
      },
      "geometry": {
        "type": "Polygon",
        "coordinates": [
          [
            [
              77.5931699,
              12.9996771
            ],
            [
              77.5937253,
              12.9996851
            ],
            [
              77.5937218,
              12.9990912
            ],
            [
              77.5931669,
              12.9990782
            ],
            [
              77.5931699,
              12.9996771
            ]
          ]
        ]
      }
    },
    {
      "type": "Feature",
      "properties": {
        "id": "train_035_REF_015",
        "parcel_id": "train_035_P_015",
        "parcel_layer": "REFERENCE",
        "boundary_representation": "REFERENCE",
        "land_use_class": "commercial",
        "area_sqm": 3970.11,
        "perimeter_m": 252.18,
        "source": "Synthetic Legacy Cadastral Map (Non-Authoritative Demo)"
      },
      "geometry": {
        "type": "Polygon",
        "coordinates": [
          [
            [
              77.5937592,
              13.0002773
            ],
            [
              77.5943202,
              13.0002832
            ],
            [
              77.5943137,
              12.9996921
            ],
            [
              77.5937486,
              12.9996947
            ],
            [
              77.5937592,
              13.0002773
            ]
          ]
        ]
      }
    },
    {
      "type": "Feature",
      "properties": {
        "id": "train_035_REF_016",
        "parcel_id": "train_035_P_016",
        "parcel_layer": "REFERENCE",
        "boundary_representation": "REFERENCE",
        "land_use_class": "mixed_use",
        "area_sqm": 4064.66,
        "perimeter_m": 255.23,
        "source": "Synthetic Legacy Cadastral Map (Non-Authoritative Demo)"
      },
      "geometry": {
        "type": "Polygon",
        "coordinates": [
          [
            [
              77.593789,
              12.9997031
            ],
            [
              77.5943527,
              12.9996891
            ],
            [
              77.5943497,
              12.9990961
            ],
            [
              77.5937843,
              12.9990978
            ],
            [
              77.593789,
              12.9997031
            ]
          ]
        ]
      }
    }
  ]
}