{
  "type": "FeatureCollection",
  "crs": {
    "type": "name",
    "properties": {
      "name": "EPSG:4326"
    }
  },
  "features": [
    {
      "type": "Feature",
      "properties": {
        "id": "train_064_REF_001",
        "parcel_id": "train_064_P_001",
        "parcel_layer": "REFERENCE",
        "boundary_representation": "REFERENCE",
        "land_use_class": "residential",
        "area_sqm": 3169.22,
        "perimeter_m": 228.27,
        "source": "Synthetic Legacy Cadastral Map (Non-Authoritative Demo)"
      },
      "geometry": {
        "type": "Polygon",
        "coordinates": [
          [
            [
              77.6340651,
              13.0043452
            ],
            [
              77.6345092,
              13.0043405
            ],
            [
              77.6345058,
              13.0037455
            ],
            [
              77.6340706,
              13.0037404
            ],
            [
              77.6340651,
              13.0043452
            ]
          ]
        ]
      }
    },
    {
      "type": "Feature",
      "properties": {
        "id": "train_064_REF_002",
        "parcel_id": "train_064_P_002",
        "parcel_layer": "REFERENCE",
        "boundary_representation": "REFERENCE",
        "land_use_class": "residential",
        "area_sqm": 3039.43,
        "perimeter_m": 223.87,
        "source": "Synthetic Legacy Cadastral Map (Non-Authoritative Demo)"
      },
      "geometry": {
        "type": "Polygon",
        "coordinates": [
          [
            [
              77.6340667,
              13.0037298
            ],
            [
              77.6344968,
              13.0037317
            ],
            [
              77.6345034,
              13.0031468
            ],
            [
              77.6340797,
              13.0031301
            ],
            [
              77.6340667,
              13.0037298
            ]
          ]
        ]
      }
    },
    {
      "type": "Feature",
      "properties": {
        "id": "train_064_REF_003",
        "parcel_id": "train_064_P_003",
        "parcel_layer": "REFERENCE",
        "boundary_representation": "REFERENCE",
        "land_use_class": "residential",
        "area_sqm": 2893.53,
        "perimeter_m": 219.1,
        "source": "Synthetic Legacy Cadastral Map (Non-Authoritative Demo)"
      },
      "geometry": {
        "type": "Polygon",
        "coordinates": [
          [
            [
              77.6345331,
              13.0043318
            ],
            [
              77.6349414,
              13.0043405
            ],
            [
              77.6349419,
              13.0037424
            ],
            [
              77.6345308,
              13.0037544
            ],
            [
              77.6345331,
              13.0043318
            ]
          ]
        ]
      }
    },
    {
      "type": "Feature",
      "properties": {
        "id": "train_064_REF_004",
        "parcel_id": "train_064_P_004",
        "parcel_layer": "REFERENCE",
        "boundary_representation": "REFERENCE",
        "land_use_class": "commercial",
        "area_sqm": 3088.43,
        "perimeter_m": 225.57,
        "source": "Synthetic Legacy Cadastral Map (Non-Authoritative Demo)"
      },
      "geometry": {
        "type": "Polygon",
        "coordinates": [
          [
            [
              77.6345545,
              13.0037453
            ],
            [
              77.6349769,
              13.0037485
            ],
            [
              77.6349906,
              13.0031558
            ],
            [
              77.6345501,
              13.0031467
            ],
            [
              77.6345545,
              13.0037453
            ]
          ]
        ]
      }
    },
    {
      "type": "Feature",
      "properties": {
        "id": "train_064_REF_005",
        "parcel_id": "train_064_P_005",
        "parcel_layer": "REFERENCE",
        "boundary_representation": "REFERENCE",
        "land_use_class": "mixed_use",
        "area_sqm": 4241.05,
        "perimeter_m": 260.58,
        "source": "Synthetic Legacy Cadastral Map (Non-Authoritative Demo)"
      },
      "geometry": {
        "type": "Polygon",
        "coordinates": [
          [
            [
              77.6351163,
              13.0043395
            ],
            [
              77.6357145,
              13.0043455
            ],
            [
              77.6356989,
              13.0037484
            ],
            [
              77.6351169,
              13.0037402
            ],
            [
              77.6351163,
              13.0043395
            ]
          ]
        ]
      }
    },
    {
      "type": "Feature",
      "properties": {
        "id": "train_064_REF_006",
        "parcel_id": "train_064_P_006",
        "parcel_layer": "REFERENCE",
        "boundary_representation": "REFERENCE",
        "land_use_class": "vegetation",
        "area_sqm": 4174.72,
        "perimeter_m": 258.51,
        "source": "Synthetic Legacy Cadastral Map (Non-Authoritative Demo)"
      },
      "geometry": {
        "type": "Polygon",
        "coordinates": [
          [
            [
              77.6351326,
              13.0037354
            ],
            [
              77.6357153,
              13.0037303
            ],
            [
              77.6357091,
              13.0031432
            ],
            [
              77.635121,
              13.0031355
            ],
            [
              77.6351326,
              13.0037354
            ]
          ]
        ]
      }
    },
    {
      "type": "Feature",
      "properties": {
        "id": "train_064_REF_007",
        "parcel_id": "train_064_P_007",
        "parcel_layer": "REFERENCE",
        "boundary_representation": "REFERENCE",
        "land_use_class": "vegetation",
        "area_sqm": 4121.77,
        "perimeter_m": 256.88,
        "source": "Synthetic Legacy Cadastral Map (Non-Authoritative Demo)"
      },
      "geometry": {
        "type": "Polygon",
        "coordinates": [
          [
            [
              77.6357226,
              13.0043343
            ],
            [
              77.6363146,
              13.0043249
            ],
            [
              77.6363257,
              13.0037472
            ],
            [
              77.6357422,
              13.0037446
            ],
            [
              77.6357226,
              13.0043343
            ]
          ]
        ]
      }
    },
    {
      "type": "Feature",
      "properties": {
        "id": "train_064_REF_008",
        "parcel_id": "train_064_P_008",
        "parcel_layer": "REFERENCE",
        "boundary_representation": "REFERENCE",
        "land_use_class": "vacant",
        "area_sqm": 4072.99,
        "perimeter_m": 255.29,
        "source": "Synthetic Legacy Cadastral Map (Non-Authoritative Demo)"
      },
      "geometry": {
        "type": "Polygon",
        "coordinates": [
          [
            [
              77.6357685,
              13.0037496
            ],
            [
              77.6363549,
              13.0037362
            ],
            [
              77.6363547,
              13.0031676
            ],
            [
              77.6357624,
              13.003168
            ],
            [
              77.6357685,
              13.0037496
            ]
          ]
        ]
      }
    },
    {
      "type": "Feature",
      "properties": {
        "id": "train_064_REF_009",
        "parcel_id": "train_064_P_009",
        "parcel_layer": "REFERENCE",
        "boundary_representation": "REFERENCE",
        "land_use_class": "industrial",
        "area_sqm": 2015.34,
        "perimeter_m": 179.66,
        "source": "Synthetic Legacy Cadastral Map (Non-Authoritative Demo)"
      },
      "geometry": {
        "type": "Polygon",
        "coordinates": [
          [
            [
              77.6340838,
              13.0028927
            ],
            [
              77.6345034,
              13.0028973
            ],
            [
              77.6344939,
              13.0024915
            ],
            [
              77.6340673,
              13.002506
            ],
            [
              77.6340838,
              13.0028927
            ]
          ]
        ]
      }
    },
    {
      "type": "Feature",
      "properties": {
        "id": "train_064_REF_010",
        "parcel_id": "train_064_P_010",
        "parcel_layer": "REFERENCE",
        "boundary_representation": "REFERENCE",
        "land_use_class": "residential",
        "area_sqm": 1971.3,
        "perimeter_m": 177.74,
        "source": "Synthetic Legacy Cadastral Map (Non-Authoritative Demo)"
      },
      "geometry": {
        "type": "Polygon",
        "coordinates": [
          [
            [
              77.6340678,
              13.0024748
            ],
            [
              77.6344935,
              13.0024752
            ],
            [
              77.6344976,
              13.0020838
            ],
            [
              77.6340758,
              13.0020918
            ],
            [
              77.6340678,
              13.0024748
            ]
          ]
        ]
      }
    },
    {
      "type": "Feature",
      "properties": {
        "id": "train_064_REF_011",
        "parcel_id": "train_064_P_011",
        "parcel_layer": "REFERENCE",
        "boundary_representation": "REFERENCE",
        "land_use_class": "residential",
        "area_sqm": 2042.89,
        "perimeter_m": 181.05,
        "source": "Synthetic Legacy Cadastral Map (Non-Authoritative Demo)"
      },
      "geometry": {
        "type": "Polygon",
        "coordinates": [
          [
            [
              77.6345265,
              13.0028865
            ],
            [
              77.6349533,
              13.002902
            ],
            [
              77.6349602,
              13.0024982
            ],
            [
              77.6345158,
              13.0025097
            ],
            [
              77.6345265,
              13.0028865
            ]
          ]
        ]
      }
    },
    {
      "type": "Feature",
      "properties": {
        "id": "train_064_REF_012",
        "parcel_id": "train_064_P_012",
        "parcel_layer": "REFERENCE",
        "boundary_representation": "REFERENCE",
        "land_use_class": "residential",
        "area_sqm": 1996.28,
        "perimeter_m": 178.87,
        "source": "Synthetic Legacy Cadastral Map (Non-Authoritative Demo)"
      },
      "geometry": {
        "type": "Polygon",
        "coordinates": [
          [
            [
              77.6345523,
              13.0024941
            ],
            [
              77.6349876,
              13.0025069
            ],
            [
              77.6349754,
              13.0021023
            ],
            [
              77.6345632,
              13.0021146
            ],
            [
              77.6345523,
              13.0024941
            ]
          ]
        ]
      }
    },
    {
      "type": "Feature",
      "properties": {
        "id": "train_064_REF_013",
        "parcel_id": "train_064_P_013",
        "parcel_layer": "REFERENCE",
        "boundary_representation": "REFERENCE",
        "land_use_class": "commercial",
        "area_sqm": 2756.76,
        "perimeter_m": 213.67,
        "source": "Synthetic Legacy Cadastral Map (Non-Authoritative Demo)"
      },
      "geometry": {
        "type": "Polygon",
        "coordinates": [
          [
            [
              77.6351205,
              13.0029028
            ],
            [
              77.6356995,
              13.0028822
            ],
            [
              77.6357063,
              13.0024907
            ],
            [
              77.6351227,
              13.0025047
            ],
            [
              77.6351205,
              13.0029028
            ]
          ]
        ]
      }
    },
    {
      "type": "Feature",
      "properties": {
        "id": "train_064_REF_014",
        "parcel_id": "train_064_P_014",
        "parcel_layer": "REFERENCE",
        "boundary_representation": "REFERENCE",
        "land_use_class": "water",
        "area_sqm": 2723.29,
        "perimeter_m": 212.99,
        "source": "Synthetic Legacy Cadastral Map (Non-Authoritative Demo)"
      },
      "geometry": {
        "type": "Polygon",
        "coordinates": [
          [
            [
              77.6351123,
              13.0024738
            ],
            [
              77.6357093,
              13.0024856
            ],
            [
              77.6357026,
              13.0020975
            ],
            [
              77.6351244,
              13.0020906
            ],
            [
              77.6351123,
              13.0024738
            ]
          ]
        ]
      }
    },
    {
      "type": "Feature",
      "properties": {
        "id": "train_064_REF_015",
        "parcel_id": "train_064_P_015",
        "parcel_layer": "REFERENCE",
        "boundary_representation": "REFERENCE",
        "land_use_class": "mixed_use",
        "area_sqm": 2721.44,
        "perimeter_m": 213.88,
        "source": "Synthetic Legacy Cadastral Map (Non-Authoritative Demo)"
      },
      "geometry": {
        "type": "Polygon",
        "coordinates": [
          [
            [
              77.6357231,
              13.0028848
            ],
            [
              77.6363253,
              13.0028806
            ],
            [
              77.6363298,
              13.0025018
            ],
            [
              77.6357316,
              13.0025088
            ],
            [
              77.6357231,
              13.0028848
            ]
          ]
        ]
      }
    },
    {
      "type": "Feature",
      "properties": {
        "id": "train_064_REF_016",
        "parcel_id": "train_064_P_016",
        "parcel_layer": "REFERENCE",
        "boundary_representation": "REFERENCE",
        "land_use_class": "agricultural",
        "area_sqm": 2823.66,
        "perimeter_m": 216.31,
        "source": "Synthetic Legacy Cadastral Map (Non-Authoritative Demo)"
      },
      "geometry": {
        "type": "Polygon",
        "coordinates": [
          [
            [
              77.6357618,
              13.002498
            ],
            [
              77.6363553,
              13.002507
            ],
            [
              77.6363569,
              13.0021119
            ],
            [
              77.6357697,
              13.0020972
            ],
            [
              77.6357618,
              13.002498
            ]
          ]
        ]
      }
    }
  ]
}