{
  "type": "FeatureCollection",
  "crs": {
    "type": "name",
    "properties": {
      "name": "EPSG:4326"
    }
  },
  "features": [
    {
      "type": "Feature",
      "properties": {
        "id": "train_013_BND_001",
        "parcel_id": "train_013_P_001",
        "boundary_type": "VISIBLE",
        "confidence": 0.832,
        "length_m": 63.79,
        "evidence_sources": [
          "Drone_RGB_Edge",
          "DSM_Breakline"
        ]
      },
      "geometry": {
        "type": "LineString",
        "coordinates": [
          [
            77.6160714,
            12.9953337
          ],
          [
            77.616659,
            12.9953384
          ]
        ]
      }
    },
    {
      "type": "Feature",
      "properties": {
        "id": "train_013_BND_002",
        "parcel_id": "train_013_P_001",
        "boundary_type": "VISIBLE",
        "confidence": 0.924,
        "length_m": 41.58,
        "evidence_sources": [
          "Drone_RGB_Edge",
          "DSM_Breakline"
        ]
      },
      "geometry": {
        "type": "LineString",
        "coordinates": [
          [
            77.616659,
            12.9953384
          ],
          [
            77.6166632,
            12.9949628
          ]
        ]
      }
    },
    {
      "type": "Feature",
      "properties": {
        "id": "train_013_BND_003",
        "parcel_id": "train_013_P_001",
        "boundary_type": "VISIBLE",
        "confidence": 0.938,
        "length_m": 64.02,
        "evidence_sources": [
          "Drone_RGB_Edge",
          "DSM_Breakline"
        ]
      },
      "geometry": {
        "type": "LineString",
        "coordinates": [
          [
            77.6166632,
            12.9949628
          ],
          [
            77.6160734,
            12.9949624
          ]
        ]
      }
    },
    {
      "type": "Feature",
      "properties": {
        "id": "train_013_BND_004",
        "parcel_id": "train_013_P_001",
        "boundary_type": "VISIBLE",
        "confidence": 0.903,
        "length_m": 41.1,
        "evidence_sources": [
          "Drone_RGB_Edge",
          "DSM_Breakline"
        ]
      },
      "geometry": {
        "type": "LineString",
        "coordinates": [
          [
            77.6160734,
            12.9949624
          ],
          [
            77.6160714,
            12.9953337
          ]
        ]
      }
    },
    {
      "type": "Feature",
      "properties": {
        "id": "train_013_BND_005",
        "parcel_id": "train_013_P_002",
        "boundary_type": "VISIBLE",
        "confidence": 0.839,
        "length_m": 65.2,
        "evidence_sources": [
          "Drone_RGB_Edge",
          "DSM_Breakline"
        ]
      },
      "geometry": {
        "type": "LineString",
        "coordinates": [
          [
            77.6160699,
            12.9949364
          ],
          [
            77.6166705,
            12.9949314
          ]
        ]
      }
    },
    {
      "type": "Feature",
      "properties": {
        "id": "train_013_BND_006",
        "parcel_id": "train_013_P_002",
        "boundary_type": "INFERRED",
        "confidence": 0.649,
        "length_m": 39.71,
        "evidence_sources": [
          "Road_Corridor_Offset",
          "Adjacent_Parcel_Topology"
        ]
      },
      "geometry": {
        "type": "LineString",
        "coordinates": [
          [
            77.6166705,
            12.9949314
          ],
          [
            77.6166528,
            12.9945731
          ]
        ]
      }
    },
    {
      "type": "Feature",
      "properties": {
        "id": "train_013_BND_007",
        "parcel_id": "train_013_P_002",
        "boundary_type": "VISIBLE",
        "confidence": 0.859,
        "length_m": 62.85,
        "evidence_sources": [
          "Drone_RGB_Edge",
          "DSM_Breakline"
        ]
      },
      "geometry": {
        "type": "LineString",
        "coordinates": [
          [
            77.6166528,
            12.9945731
          ],
          [
            77.6160738,
            12.9945675
          ]
        ]
      }
    },
    {
      "type": "Feature",
      "properties": {
        "id": "train_013_BND_008",
        "parcel_id": "train_013_P_002",
        "boundary_type": "INFERRED",
        "confidence": 0.685,
        "length_m": 40.84,
        "evidence_sources": [
          "Road_Corridor_Offset",
          "Adjacent_Parcel_Topology"
        ]
      },
      "geometry": {
        "type": "LineString",
        "coordinates": [
          [
            77.6160738,
            12.9945675
          ],
          [
            77.6160699,
            12.9949364
          ]
        ]
      }
    },
    {
      "type": "Feature",
      "properties": {
        "id": "train_013_BND_009",
        "parcel_id": "train_013_P_003",
        "boundary_type": "INFERRED",
        "confidence": 0.784,
        "length_m": 64.27,
        "evidence_sources": [
          "Road_Corridor_Offset",
          "Adjacent_Parcel_Topology"
        ]
      },
      "geometry": {
        "type": "LineString",
        "coordinates": [
          [
            77.6166855,
            12.9953272
          ],
          [
            77.6172776,
            12.9953282
          ]
        ]
      }
    },
    {
      "type": "Feature",
      "properties": {
        "id": "train_013_BND_010",
        "parcel_id": "train_013_P_003",
        "boundary_type": "INFERRED",
        "confidence": 0.617,
        "length_m": 40.65,
        "evidence_sources": [
          "Road_Corridor_Offset",
          "Adjacent_Parcel_Topology"
        ]
      },
      "geometry": {
        "type": "LineString",
        "coordinates": [
          [
            77.6172776,
            12.9953282
          ],
          [
            77.6172775,
            12.994961
          ]
        ]
      }
    },
    {
      "type": "Feature",
      "properties": {
        "id": "train_013_BND_011",
        "parcel_id": "train_013_P_003",
        "boundary_type": "VISIBLE",
        "confidence": 0.881,
        "length_m": 63.64,
        "evidence_sources": [
          "Drone_RGB_Edge",
          "DSM_Breakline"
        ]
      },
      "geometry": {
        "type": "LineString",
        "coordinates": [
          [
            77.6172775,
            12.994961
          ],
          [
            77.6166912,
            12.994963
          ]
        ]
      }
    },
    {
      "type": "Feature",
      "properties": {
        "id": "train_013_BND_012",
        "parcel_id": "train_013_P_003",
        "boundary_type": "VISIBLE",
        "confidence": 0.937,
        "length_m": 40.32,
        "evidence_sources": [
          "Drone_RGB_Edge",
          "DSM_Breakline"
        ]
      },
      "geometry": {
        "type": "LineString",
        "coordinates": [
          [
            77.6166912,
            12.994963
          ],
          [
            77.6166855,
            12.9953272
          ]
        ]
      }
    },
    {
      "type": "Feature",
      "properties": {
        "id": "train_013_BND_013",
        "parcel_id": "train_013_P_004",
        "boundary_type": "VISIBLE",
        "confidence": 0.853,
        "length_m": 65.23,
        "evidence_sources": [
          "Drone_RGB_Edge",
          "DSM_Breakline"
        ]
      },
      "geometry": {
        "type": "LineString",
        "coordinates": [
          [
            77.6166811,
            12.9949397
          ],
          [
            77.617282,
            12.9949386
          ]
        ]
      }
    },
    {
      "type": "Feature",
      "properties": {
        "id": "train_013_BND_014",
        "parcel_id": "train_013_P_004",
        "boundary_type": "INFERRED",
        "confidence": 0.788,
        "length_m": 41.7,
        "evidence_sources": [
          "Road_Corridor_Offset",
          "Adjacent_Parcel_Topology"
        ]
      },
      "geometry": {
        "type": "LineString",
        "coordinates": [
          [
            77.617282,
            12.9949386
          ],
          [
            77.6172729,
            12.994562
          ]
        ]
      }
    },
    {
      "type": "Feature",
      "properties": {
        "id": "train_013_BND_015",
        "parcel_id": "train_013_P_004",
        "boundary_type": "VISIBLE",
        "confidence": 0.875,
        "length_m": 64.37,
        "evidence_sources": [
          "Drone_RGB_Edge",
          "DSM_Breakline"
        ]
      },
      "geometry": {
        "type": "LineString",
        "coordinates": [
          [
            77.6172729,
            12.994562
          ],
          [
            77.6166799,
            12.9945625
          ]
        ]
      }
    },
    {
      "type": "Feature",
      "properties": {
        "id": "train_013_BND_016",
        "parcel_id": "train_013_P_004",
        "boundary_type": "INFERRED",
        "confidence": 0.668,
        "length_m": 41.75,
        "evidence_sources": [
          "Road_Corridor_Offset",
          "Adjacent_Parcel_Topology"
        ]
      },
      "geometry": {
        "type": "LineString",
        "coordinates": [
          [
            77.6166799,
            12.9945625
          ],
          [
            77.6166811,
            12.9949397
          ]
        ]
      }
    },
    {
      "type": "Feature",
      "properties": {
        "id": "train_013_BND_017",
        "parcel_id": "train_013_P_005",
        "boundary_type": "INFERRED",
        "confidence": 0.705,
        "length_m": 45.38,
        "evidence_sources": [
          "Road_Corridor_Offset",
          "Adjacent_Parcel_Topology"
        ]
      },
      "geometry": {
        "type": "LineString",
        "coordinates": [
          [
            77.6174643,
            12.9953371
          ],
          [
            77.6178821,
            12.995322
          ]
        ]
      }
    },
    {
      "type": "Feature",
      "properties": {
        "id": "train_013_BND_018",
        "parcel_id": "train_013_P_005",
        "boundary_type": "INFERRED",
        "confidence": 0.704,
        "length_m": 38.8,
        "evidence_sources": [
          "Road_Corridor_Offset",
          "Adjacent_Parcel_Topology"
        ]
      },
      "geometry": {
        "type": "LineString",
        "coordinates": [
          [
            77.6178821,
            12.995322
          ],
          [
            77.6178833,
            12.9949715
          ]
        ]
      }
    },
    {
      "type": "Feature",
      "properties": {
        "id": "train_013_BND_019",
        "parcel_id": "train_013_P_005",
        "boundary_type": "VISIBLE",
        "confidence": 0.887,
        "length_m": 45.58,
        "evidence_sources": [
          "Drone_RGB_Edge",
          "DSM_Breakline"
        ]
      },
      "geometry": {
        "type": "LineString",
        "coordinates": [
          [
            77.6178833,
            12.9949715
          ],
          [
            77.6174634,
            12.9949665
          ]
        ]
      }
    },
    {
      "type": "Feature",
      "properties": {
        "id": "train_013_BND_020",
        "parcel_id": "train_013_P_005",
        "boundary_type": "INFERRED",
        "confidence": 0.734,
        "length_m": 41.02,
        "evidence_sources": [
          "Road_Corridor_Offset",
          "Adjacent_Parcel_Topology"
        ]
      },
      "geometry": {
        "type": "LineString",
        "coordinates": [
          [
            77.6174634,
            12.9949665
          ],
          [
            77.6174643,
            12.9953371
          ]
        ]
      }
    },
    {
      "type": "Feature",
      "properties": {
        "id": "train_013_BND_021",
        "parcel_id": "train_013_P_006",
        "boundary_type": "INFERRED",
        "confidence": 0.64,
        "length_m": 44.59,
        "evidence_sources": [
          "Road_Corridor_Offset",
          "Adjacent_Parcel_Topology"
        ]
      },
      "geometry": {
        "type": "LineString",
        "coordinates": [
          [
            77.6174633,
            12.9949406
          ],
          [
            77.617874,
            12.9949358
          ]
        ]
      }
    },
    {
      "type": "Feature",
      "properties": {
        "id": "train_013_BND_022",
        "parcel_id": "train_013_P_006",
        "boundary_type": "VISIBLE",
        "confidence": 0.926,
        "length_m": 41.6,
        "evidence_sources": [
          "Drone_RGB_Edge",
          "DSM_Breakline"
        ]
      },
      "geometry": {
        "type": "LineString",
        "coordinates": [
          [
            77.617874,
            12.9949358
          ],
          [
            77.6178638,
            12.9945601
          ]
        ]
      }
    },
    {
      "type": "Feature",
      "properties": {
        "id": "train_013_BND_023",
        "parcel_id": "train_013_P_006",
        "boundary_type": "VISIBLE",
        "confidence": 0.895,
        "length_m": 44.9,
        "evidence_sources": [
          "Drone_RGB_Edge",
          "DSM_Breakline"
        ]
      },
      "geometry": {
        "type": "LineString",
        "coordinates": [
          [
            77.6178638,
            12.9945601
          ],
          [
            77.6174504,
            12.994573
          ]
        ]
      }
    },
    {
      "type": "Feature",
      "properties": {
        "id": "train_013_BND_024",
        "parcel_id": "train_013_P_006",
        "boundary_type": "VISIBLE",
        "confidence": 0.853,
        "length_m": 40.72,
        "evidence_sources": [
          "Drone_RGB_Edge",
          "DSM_Breakline"
        ]
      },
      "geometry": {
        "type": "LineString",
        "coordinates": [
          [
            77.6174504,
            12.994573
          ],
          [
            77.6174633,
            12.9949406
          ]
        ]
      }
    },
    {
      "type": "Feature",
      "properties": {
        "id": "train_013_BND_025",
        "parcel_id": "train_013_P_007",
        "boundary_type": "VISIBLE",
        "confidence": 0.873,
        "length_m": 45.83,
        "evidence_sources": [
          "Drone_RGB_Edge",
          "DSM_Breakline"
        ]
      },
      "geometry": {
        "type": "LineString",
        "coordinates": [
          [
            77.6178957,
            12.9953392
          ],
          [
            77.6183176,
            12.9953239
          ]
        ]
      }
    },
    {
      "type": "Feature",
      "properties": {
        "id": "train_013_BND_026",
        "parcel_id": "train_013_P_007",
        "boundary_type": "VISIBLE",
        "confidence": 0.845,
        "length_m": 40.76,
        "evidence_sources": [
          "Drone_RGB_Edge",
          "DSM_Breakline"
        ]
      },
      "geometry": {
        "type": "LineString",
        "coordinates": [
          [
            77.6183176,
            12.9953239
          ],
          [
            77.6183117,
            12.9949557
          ]
        ]
      }
    },
    {
      "type": "Feature",
      "properties": {
        "id": "train_013_BND_027",
        "parcel_id": "train_013_P_007",
        "boundary_type": "VISIBLE",
        "confidence": 0.857,
        "length_m": 46.01,
        "evidence_sources": [
          "Drone_RGB_Edge",
          "DSM_Breakline"
        ]
      },
      "geometry": {
        "type": "LineString",
        "coordinates": [
          [
            77.6183117,
            12.9949557
          ],
          [
            77.6178879,
            12.9949616
          ]
        ]
      }
    },
    {
      "type": "Feature",
      "properties": {
        "id": "train_013_BND_028",
        "parcel_id": "train_013_P_007",
        "boundary_type": "VISIBLE",
        "confidence": 0.933,
        "length_m": 41.81,
        "evidence_sources": [
          "Drone_RGB_Edge",
          "DSM_Breakline"
        ]
      },
      "geometry": {
        "type": "LineString",
        "coordinates": [
          [
            77.6178879,
            12.9949616
          ],
          [
            77.6178957,
            12.9953392
          ]
        ]
      }
    },
    {
      "type": "Feature",
      "properties": {
        "id": "train_013_BND_029",
        "parcel_id": "train_013_P_008",
        "boundary_type": "VISIBLE",
        "confidence": 0.933,
        "length_m": 46.12,
        "evidence_sources": [
          "Drone_RGB_Edge",
          "DSM_Breakline"
        ]
      },
      "geometry": {
        "type": "LineString",
        "coordinates": [
          [
            77.6178849,
            12.9949387
          ],
          [
            77.6183098,
            12.9949399
          ]
        ]
      }
    },
    {
      "type": "Feature",
      "properties": {
        "id": "train_013_BND_030",
        "parcel_id": "train_013_P_008",
        "boundary_type": "VISIBLE",
        "confidence": 0.888,
        "length_m": 41.68,
        "evidence_sources": [
          "Drone_RGB_Edge",
          "DSM_Breakline"
        ]
      },
      "geometry": {
        "type": "LineString",
        "coordinates": [
          [
            77.6183098,
            12.9949399
          ],
          [
            77.6183062,
            12.9945634
          ]
        ]
      }
    },
    {
      "type": "Feature",
      "properties": {
        "id": "train_013_BND_031",
        "parcel_id": "train_013_P_008",
        "boundary_type": "VISIBLE",
        "confidence": 0.934,
        "length_m": 43.57,
        "evidence_sources": [
          "Drone_RGB_Edge",
          "DSM_Breakline"
        ]
      },
      "geometry": {
        "type": "LineString",
        "coordinates": [
          [
            77.6183062,
            12.9945634
          ],
          [
            77.6179049,
            12.9945708
          ]
        ]
      }
    },
    {
      "type": "Feature",
      "properties": {
        "id": "train_013_BND_032",
        "parcel_id": "train_013_P_008",
        "boundary_type": "VISIBLE",
        "confidence": 0.833,
        "length_m": 40.78,
        "evidence_sources": [
          "Drone_RGB_Edge",
          "DSM_Breakline"
        ]
      },
      "geometry": {
        "type": "LineString",
        "coordinates": [
          [
            77.6179049,
            12.9945708
          ],
          [
            77.6178849,
            12.9949387
          ]
        ]
      }
    },
    {
      "type": "Feature",
      "properties": {
        "id": "train_013_BND_033",
        "parcel_id": "train_013_P_009",
        "boundary_type": "VISIBLE",
        "confidence": 0.82,
        "length_m": 66.36,
        "evidence_sources": [
          "Drone_RGB_Edge",
          "DSM_Breakline"
        ]
      },
      "geometry": {
        "type": "LineString",
        "coordinates": [
          [
            77.6160573,
            12.99433
          ],
          [
            77.6166686,
            12.9943222
          ]
        ]
      }
    },
    {
      "type": "Feature",
      "properties": {
        "id": "train_013_BND_034",
        "parcel_id": "train_013_P_009",
        "boundary_type": "VISIBLE",
        "confidence": 0.827,
        "length_m": 66.48,
        "evidence_sources": [
          "Drone_RGB_Edge",
          "DSM_Breakline"
        ]
      },
      "geometry": {
        "type": "LineString",
        "coordinates": [
          [
            77.6166686,
            12.9943222
          ],
          [
            77.6166689,
            12.9937216
          ]
        ]
      }
    },
    {
      "type": "Feature",
      "properties": {
        "id": "train_013_BND_035",
        "parcel_id": "train_013_P_009",
        "boundary_type": "VISIBLE",
        "confidence": 0.879,
        "length_m": 65.28,
        "evidence_sources": [
          "Drone_RGB_Edge",
          "DSM_Breakline"
        ]
      },
      "geometry": {
        "type": "LineString",
        "coordinates": [
          [
            77.6166689,
            12.9937216
          ],
          [
            77.6160678,
            12.9937053
          ]
        ]
      }
    },
    {
      "type": "Feature",
      "properties": {
        "id": "train_013_BND_036",
        "parcel_id": "train_013_P_009",
        "boundary_type": "VISIBLE",
        "confidence": 0.931,
        "length_m": 69.16,
        "evidence_sources": [
          "Drone_RGB_Edge",
          "DSM_Breakline"
        ]
      },
      "geometry": {
        "type": "LineString",
        "coordinates": [
          [
            77.6160678,
            12.9937053
          ],
          [
            77.6160573,
            12.99433
          ]
        ]
      }
    },
    {
      "type": "Feature",
      "properties": {
        "id": "train_013_BND_037",
        "parcel_id": "train_013_P_010",
        "boundary_type": "VISIBLE",
        "confidence": 0.929,
        "length_m": 64.49,
        "evidence_sources": [
          "Drone_RGB_Edge",
          "DSM_Breakline"
        ]
      },
      "geometry": {
        "type": "LineString",
        "coordinates": [
          [
            77.6160744,
            12.9936841
          ],
          [
            77.6166685,
            12.9936828
          ]
        ]
      }
    },
    {
      "type": "Feature",
      "properties": {
        "id": "train_013_BND_038",
        "parcel_id": "train_013_P_010",
        "boundary_type": "INFERRED",
        "confidence": 0.741,
        "length_m": 66.12,
        "evidence_sources": [
          "Road_Corridor_Offset",
          "Adjacent_Parcel_Topology"
        ]
      },
      "geometry": {
        "type": "LineString",
        "coordinates": [
          [
            77.6166685,
            12.9936828
          ],
          [
            77.6166738,
            12.9930855
          ]
        ]
      }
    },
    {
      "type": "Feature",
      "properties": {
        "id": "train_013_BND_039",
        "parcel_id": "train_013_P_010",
        "boundary_type": "VISIBLE",
        "confidence": 0.885,
        "length_m": 66.32,
        "evidence_sources": [
          "Drone_RGB_Edge",
          "DSM_Breakline"
        ]
      },
      "geometry": {
        "type": "LineString",
        "coordinates": [
          [
            77.6166738,
            12.9930855
          ],
          [
            77.6160629,
            12.99308
          ]
        ]
      }
    },
    {
      "type": "Feature",
      "properties": {
        "id": "train_013_BND_040",
        "parcel_id": "train_013_P_010",
        "boundary_type": "VISIBLE",
        "confidence": 0.825,
        "length_m": 66.88,
        "evidence_sources": [
          "Drone_RGB_Edge",
          "DSM_Breakline"
        ]
      },
      "geometry": {
        "type": "LineString",
        "coordinates": [
          [
            77.6160629,
            12.99308
          ],
          [
            77.6160744,
            12.9936841
          ]
        ]
      }
    },
    {
      "type": "Feature",
      "properties": {
        "id": "train_013_BND_041",
        "parcel_id": "train_013_P_011",
        "boundary_type": "VISIBLE",
        "confidence": 0.86,
        "length_m": 64.71,
        "evidence_sources": [
          "Drone_RGB_Edge",
          "DSM_Breakline"
        ]
      },
      "geometry": {
        "type": "LineString",
        "coordinates": [
          [
            77.6166838,
            12.9943226
          ],
          [
            77.6172798,
            12.9943105
          ]
        ]
      }
    },
    {
      "type": "Feature",
      "properties": {
        "id": "train_013_BND_042",
        "parcel_id": "train_013_P_011",
        "boundary_type": "VISIBLE",
        "confidence": 0.872,
        "length_m": 66.53,
        "evidence_sources": [
          "Drone_RGB_Edge",
          "DSM_Breakline"
        ]
      },
      "geometry": {
        "type": "LineString",
        "coordinates": [
          [
            77.6172798,
            12.9943105
          ],
          [
            77.6172778,
            12.9937095
          ]
        ]
      }
    },
    {
      "type": "Feature",
      "properties": {
        "id": "train_013_BND_043",
        "parcel_id": "train_013_P_011",
        "boundary_type": "VISIBLE",
        "confidence": 0.897,
        "length_m": 63.71,
        "evidence_sources": [
          "Drone_RGB_Edge",
          "DSM_Breakline"
        ]
      },
      "geometry": {
        "type": "LineString",
        "coordinates": [
          [
            77.6172778,
            12.9937095
          ],
          [
            77.6166911,
            12.9937232
          ]
        ]
      }
    },
    {
      "type": "Feature",
      "properties": {
        "id": "train_013_BND_044",
        "parcel_id": "train_013_P_011",
        "boundary_type": "VISIBLE",
        "confidence": 0.857,
        "length_m": 66.36,
        "evidence_sources": [
          "Drone_RGB_Edge",
          "DSM_Breakline"
        ]
      },
      "geometry": {
        "type": "LineString",
        "coordinates": [
          [
            77.6166911,
            12.9937232
          ],
          [
            77.6166838,
            12.9943226
          ]
        ]
      }
    },
    {
      "type": "Feature",
      "properties": {
        "id": "train_013_BND_045",
        "parcel_id": "train_013_P_012",
        "boundary_type": "VISIBLE",
        "confidence": 0.841,
        "length_m": 65.8,
        "evidence_sources": [
          "Drone_RGB_Edge",
          "DSM_Breakline"
        ]
      },
      "geometry": {
        "type": "LineString",
        "coordinates": [
          [
            77.6166829,
            12.9936852
          ],
          [
            77.617289,
            12.9936906
          ]
        ]
      }
    },
    {
      "type": "Feature",
      "properties": {
        "id": "train_013_BND_046",
        "parcel_id": "train_013_P_012",
        "boundary_type": "VISIBLE",
        "confidence": 0.887,
        "length_m": 66.02,
        "evidence_sources": [
          "Drone_RGB_Edge",
          "DSM_Breakline"
        ]
      },
      "geometry": {
        "type": "LineString",
        "coordinates": [
          [
            77.617289,
            12.9936906
          ],
          [
            77.6172909,
            12.9930942
          ]
        ]
      }
    },
    {
      "type": "Feature",
      "properties": {
        "id": "train_013_BND_047",
        "parcel_id": "train_013_P_012",
        "boundary_type": "VISIBLE",
        "confidence": 0.922,
        "length_m": 64.91,
        "evidence_sources": [
          "Drone_RGB_Edge",
          "DSM_Breakline"
        ]
      },
      "geometry": {
        "type": "LineString",
        "coordinates": [
          [
            77.6172909,
            12.9930942
          ],
          [
            77.6166932,
            12.9930762
          ]
        ]
      }
    },
    {
      "type": "Feature",
      "properties": {
        "id": "train_013_BND_048",
        "parcel_id": "train_013_P_012",
        "boundary_type": "INFERRED",
        "confidence": 0.748,
        "length_m": 67.42,
        "evidence_sources": [
          "Road_Corridor_Offset",
          "Adjacent_Parcel_Topology"
        ]
      },
      "geometry": {
        "type": "LineString",
        "coordinates": [
          [
            77.6166932,
            12.9930762
          ],
          [
            77.6166829,
            12.9936852
          ]
        ]
      }
    },
    {
      "type": "Feature",
      "properties": {
        "id": "train_013_BND_049",
        "parcel_id": "train_013_P_013",
        "boundary_type": "VISIBLE",
        "confidence": 0.858,
        "length_m": 46.18,
        "evidence_sources": [
          "Drone_RGB_Edge",
          "DSM_Breakline"
        ]
      },
      "geometry": {
        "type": "LineString",
        "coordinates": [
          [
            77.6174487,
            12.9943139
          ],
          [
            77.6178741,
            12.9943111
          ]
        ]
      }
    },
    {
      "type": "Feature",
      "properties": {
        "id": "train_013_BND_050",
        "parcel_id": "train_013_P_013",
        "boundary_type": "VISIBLE",
        "confidence": 0.849,
        "length_m": 66.81,
        "evidence_sources": [
          "Drone_RGB_Edge",
          "DSM_Breakline"
        ]
      },
      "geometry": {
        "type": "LineString",
        "coordinates": [
          [
            77.6178741,
            12.9943111
          ],
          [
            77.6178836,
            12.9937076
          ]
        ]
      }
    },
    {
      "type": "Feature",
      "properties": {
        "id": "train_013_BND_051",
        "parcel_id": "train_013_P_013",
        "boundary_type": "VISIBLE",
        "confidence": 0.855,
        "length_m": 47.49,
        "evidence_sources": [
          "Drone_RGB_Edge",
          "DSM_Breakline"
        ]
      },
      "geometry": {
        "type": "LineString",
        "coordinates": [
          [
            77.6178836,
            12.9937076
          ],
          [
            77.6174463,
            12.9937194
          ]
        ]
      }
    },
    {
      "type": "Feature",
      "properties": {
        "id": "train_013_BND_052",
        "parcel_id": "train_013_P_013",
        "boundary_type": "VISIBLE",
        "confidence": 0.848,
        "length_m": 65.81,
        "evidence_sources": [
          "Drone_RGB_Edge",
          "DSM_Breakline"
        ]
      },
      "geometry": {
        "type": "LineString",
        "coordinates": [
          [
            77.6174463,
            12.9937194
          ],
          [
            77.6174487,
            12.9943139
          ]
        ]
      }
    },
    {
      "type": "Feature",
      "properties": {
        "id": "train_013_BND_053",
        "parcel_id": "train_013_P_014",
        "boundary_type": "INFERRED",
        "confidence": 0.716,
        "length_m": 47.19,
        "evidence_sources": [
          "Road_Corridor_Offset",
          "Adjacent_Parcel_Topology"
        ]
      },
      "geometry": {
        "type": "LineString",
        "coordinates": [
          [
            77.6174461,
            12.9936869
          ],
          [
            77.6178808,
            12.9936868
          ]
        ]
      }
    },
    {
      "type": "Feature",
      "properties": {
        "id": "train_013_BND_054",
        "parcel_id": "train_013_P_014",
        "boundary_type": "VISIBLE",
        "confidence": 0.892,
        "length_m": 65.73,
        "evidence_sources": [
          "Drone_RGB_Edge",
          "DSM_Breakline"
        ]
      },
      "geometry": {
        "type": "LineString",
        "coordinates": [
          [
            77.6178808,
            12.9936868
          ],
          [
            77.6178794,
            12.993093
          ]
        ]
      }
    },
    {
      "type": "Feature",
      "properties": {
        "id": "train_013_BND_055",
        "parcel_id": "train_013_P_014",
        "boundary_type": "INFERRED",
        "confidence": 0.687,
        "length_m": 46.66,
        "evidence_sources": [
          "Road_Corridor_Offset",
          "Adjacent_Parcel_Topology"
        ]
      },
      "geometry": {
        "type": "LineString",
        "coordinates": [
          [
            77.6178794,
            12.993093
          ],
          [
            77.6174496,
            12.993095
          ]
        ]
      }
    },
    {
      "type": "Feature",
      "properties": {
        "id": "train_013_BND_056",
        "parcel_id": "train_013_P_014",
        "boundary_type": "INFERRED",
        "confidence": 0.755,
        "length_m": 65.52,
        "evidence_sources": [
          "Road_Corridor_Offset",
          "Adjacent_Parcel_Topology"
        ]
      },
      "geometry": {
        "type": "LineString",
        "coordinates": [
          [
            77.6174496,
            12.993095
          ],
          [
            77.6174461,
            12.9936869
          ]
        ]
      }
    },
    {
      "type": "Feature",
      "properties": {
        "id": "train_013_BND_057",
        "parcel_id": "train_013_P_015",
        "boundary_type": "INFERRED",
        "confidence": 0.692,
        "length_m": 46.72,
        "evidence_sources": [
          "Road_Corridor_Offset",
          "Adjacent_Parcel_Topology"
        ]
      },
      "geometry": {
        "type": "LineString",
        "coordinates": [
          [
            77.6178865,
            12.9943179
          ],
          [
            77.6183169,
            12.9943184
          ]
        ]
      }
    },
    {
      "type": "Feature",
      "properties": {
        "id": "train_013_BND_058",
        "parcel_id": "train_013_P_015",
        "boundary_type": "VISIBLE",
        "confidence": 0.953,
        "length_m": 67.03,
        "evidence_sources": [
          "Drone_RGB_Edge",
          "DSM_Breakline"
        ]
      },
      "geometry": {
        "type": "LineString",
        "coordinates": [
          [
            77.6183169,
            12.9943184
          ],
          [
            77.61831,
            12.9937129
          ]
        ]
      }
    },
    {
      "type": "Feature",
      "properties": {
        "id": "train_013_BND_059",
        "parcel_id": "train_013_P_015",
        "boundary_type": "VISIBLE",
        "confidence": 0.935,
        "length_m": 44.91,
        "evidence_sources": [
          "Drone_RGB_Edge",
          "DSM_Breakline"
        ]
      },
      "geometry": {
        "type": "LineString",
        "coordinates": [
          [
            77.61831,
            12.9937129
          ],
          [
            77.6178964,
            12.9937232
          ]
        ]
      }
    },
    {
      "type": "Feature",
      "properties": {
        "id": "train_013_BND_060",
        "parcel_id": "train_013_P_015",
        "boundary_type": "VISIBLE",
        "confidence": 0.935,
        "length_m": 65.84,
        "evidence_sources": [
          "Drone_RGB_Edge",
          "DSM_Breakline"
        ]
      },
      "geometry": {
        "type": "LineString",
        "coordinates": [
          [
            77.6178964,
            12.9937232
          ],
          [
            77.6178865,
            12.9943179
          ]
        ]
      }
    },
    {
      "type": "Feature",
      "properties": {
        "id": "train_013_BND_061",
        "parcel_id": "train_013_P_016",
        "boundary_type": "VISIBLE",
        "confidence": 0.959,
        "length_m": 45.99,
        "evidence_sources": [
          "Drone_RGB_Edge",
          "DSM_Breakline"
        ]
      },
      "geometry": {
        "type": "LineString",
        "coordinates": [
          [
            77.6178934,
            12.9936864
          ],
          [
            77.6183168,
            12.9937016
          ]
        ]
      }
    },
    {
      "type": "Feature",
      "properties": {
        "id": "train_013_BND_062",
        "parcel_id": "train_013_P_016",
        "boundary_type": "VISIBLE",
        "confidence": 0.83,
        "length_m": 69.07,
        "evidence_sources": [
          "Drone_RGB_Edge",
          "DSM_Breakline"
        ]
      },
      "geometry": {
        "type": "LineString",
        "coordinates": [
          [
            77.6183168,
            12.9937016
          ],
          [
            77.618318,
            12.9930776
          ]
        ]
      }
    },
    {
      "type": "Feature",
      "properties": {
        "id": "train_013_BND_063",
        "parcel_id": "train_013_P_016",
        "boundary_type": "VISIBLE",
        "confidence": 0.941,
        "length_m": 46.67,
        "evidence_sources": [
          "Drone_RGB_Edge",
          "DSM_Breakline"
        ]
      },
      "geometry": {
        "type": "LineString",
        "coordinates": [
          [
            77.618318,
            12.9930776
          ],
          [
            77.6178882,
            12.993088
          ]
        ]
      }
    },
    {
      "type": "Feature",
      "properties": {
        "id": "train_013_BND_064",
        "parcel_id": "train_013_P_016",
        "boundary_type": "VISIBLE",
        "confidence": 0.924,
        "length_m": 66.24,
        "evidence_sources": [
          "Drone_RGB_Edge",
          "DSM_Breakline"
        ]
      },
      "geometry": {
        "type": "LineString",
        "coordinates": [
          [
            77.6178882,
            12.993088
          ],
          [
            77.6178934,
            12.9936864
          ]
        ]
      }
    }
  ]
}