{
  "type": "FeatureCollection",
  "crs": {
    "type": "name",
    "properties": {
      "name": "EPSG:4326"
    }
  },
  "features": [
    {
      "type": "Feature",
      "properties": {
        "id": "train_013_BLDG_001",
        "parcel_id": "train_013_P_001",
        "area_sqm": 1086.79,
        "perimeter_m": 133.71,
        "centroid_lon": 77.6163471,
        "centroid_lat": 12.9951469,
        "height_m": 6.05,
        "confidence": 0.909,
        "temporal_epoch": "T1"
      },
      "geometry": {
        "type": "Polygon",
        "coordinates": [
          [
            [
              77.6161676,
              12.9952729
            ],
            [
              77.6165265,
              12.9952729
            ],
            [
              77.6165265,
              12.9950209
            ],
            [
              77.6161676,
              12.9950209
            ],
            [
              77.6161676,
              12.9952729
            ]
          ]
        ]
      }
    },
    {
      "type": "Feature",
      "properties": {
        "id": "train_013_BLDG_002",
        "parcel_id": "train_013_P_002",
        "area_sqm": 1086.79,
        "perimeter_m": 133.71,
        "centroid_lon": 77.6163471,
        "centroid_lat": 12.9947531,
        "height_m": 5.28,
        "confidence": 0.813,
        "temporal_epoch": "T1"
      },
      "geometry": {
        "type": "Polygon",
        "coordinates": [
          [
            [
              77.6161676,
              12.9948791
            ],
            [
              77.6165265,
              12.9948791
            ],
            [
              77.6165265,
              12.9946271
            ],
            [
              77.6161676,
              12.9946271
            ],
            [
              77.6161676,
              12.9948791
            ]
          ]
        ]
      }
    },
    {
      "type": "Feature",
      "properties": {
        "id": "train_013_BLDG_003",
        "parcel_id": "train_013_P_003",
        "area_sqm": 1678.18,
        "perimeter_m": 176.11,
        "centroid_lon": 77.6170635,
        "centroid_lat": 12.9951469,
        "height_m": 8.15,
        "confidence": 0.817,
        "temporal_epoch": "T1"
      },
      "geometry": {
        "type": "Polygon",
        "coordinates": [
          [
            [
              77.6167864,
              12.9952729
            ],
            [
              77.6173406,
              12.9952729
            ],
            [
              77.6173406,
              12.9950209
            ],
            [
              77.6167864,
              12.9950209
            ],
            [
              77.6167864,
              12.9952729
            ]
          ]
        ]
      }
    },
    {
      "type": "Feature",
      "properties": {
        "id": "train_013_BLDG_004",
        "parcel_id": "train_013_P_004",
        "area_sqm": 1086.49,
        "perimeter_m": 133.69,
        "centroid_lon": 77.6169658,
        "centroid_lat": 12.9947531,
        "height_m": 11.24,
        "confidence": 0.894,
        "temporal_epoch": "T1"
      },
      "geometry": {
        "type": "Polygon",
        "coordinates": [
          [
            [
              77.6167864,
              12.9948791
            ],
            [
              77.6171452,
              12.9948791
            ],
            [
              77.6171452,
              12.9946271
            ],
            [
              77.6167864,
              12.9946271
            ],
            [
              77.6167864,
              12.9948791
            ]
          ]
        ]
      }
    },
    {
      "type": "Feature",
      "properties": {
        "id": "train_013_BLDG_005",
        "parcel_id": "train_013_P_005",
        "area_sqm": 773.68,
        "perimeter_m": 111.26,
        "centroid_lon": 77.6176509,
        "centroid_lat": 12.9951469,
        "height_m": 7.2,
        "confidence": 0.784,
        "temporal_epoch": "T1"
      },
      "geometry": {
        "type": "Polygon",
        "coordinates": [
          [
            [
              77.6175231,
              12.9952729
            ],
            [
              77.6177786,
              12.9952729
            ],
            [
              77.6177786,
              12.9950209
            ],
            [
              77.6175231,
              12.9950209
            ],
            [
              77.6175231,
              12.9952729
            ]
          ]
        ]
      }
    },
    {
      "type": "Feature",
      "properties": {
        "id": "train_013_BLDG_006",
        "parcel_id": "train_013_P_006",
        "area_sqm": 773.68,
        "perimeter_m": 111.26,
        "centroid_lon": 77.6176509,
        "centroid_lat": 12.9947531,
        "height_m": 6.36,
        "confidence": 0.799,
        "temporal_epoch": "T1"
      },
      "geometry": {
        "type": "Polygon",
        "coordinates": [
          [
            [
              77.6175231,
              12.9948791
            ],
            [
              77.6177786,
              12.9948791
            ],
            [
              77.6177786,
              12.9946271
            ],
            [
              77.6175231,
              12.9946271
            ],
            [
              77.6175231,
              12.9948791
            ]
          ]
        ]
      }
    },
    {
      "type": "Feature",
      "properties": {
        "id": "train_013_BLDG_007",
        "parcel_id": "train_013_P_007",
        "area_sqm": 773.68,
        "perimeter_m": 111.26,
        "centroid_lon": 77.6180915,
        "centroid_lat": 12.9951469,
        "height_m": 5.31,
        "confidence": 0.892,
        "temporal_epoch": "T1"
      },
      "geometry": {
        "type": "Polygon",
        "coordinates": [
          [
            [
              77.6179637,
              12.9952729
            ],
            [
              77.6182192,
              12.9952729
            ],
            [
              77.6182192,
              12.9950209
            ],
            [
              77.6179637,
              12.9950209
            ],
            [
              77.6179637,
              12.9952729
            ]
          ]
        ]
      }
    },
    {
      "type": "Feature",
      "properties": {
        "id": "train_013_BLDG_008",
        "parcel_id": "train_013_P_008",
        "area_sqm": 773.68,
        "perimeter_m": 111.26,
        "centroid_lon": 77.6180915,
        "centroid_lat": 12.9947531,
        "height_m": 6.8,
        "confidence": 0.859,
        "temporal_epoch": "T1"
      },
      "geometry": {
        "type": "Polygon",
        "coordinates": [
          [
            [
              77.6179637,
              12.9948791
            ],
            [
              77.6182192,
              12.9948791
            ],
            [
              77.6182192,
              12.9946271
            ],
            [
              77.6179637,
              12.9946271
            ],
            [
              77.6179637,
              12.9948791
            ]
          ]
        ]
      }
    },
    {
      "type": "Feature",
      "properties": {
        "id": "train_013_BLDG_009",
        "parcel_id": "train_013_P_009",
        "area_sqm": 1733.69,
        "perimeter_m": 166.92,
        "centroid_lon": 77.6163471,
        "centroid_lat": 12.9940172,
        "height_m": 10.26,
        "confidence": 0.806,
        "temporal_epoch": "T1"
      },
      "geometry": {
        "type": "Polygon",
        "coordinates": [
          [
            [
              77.6161676,
              12.9942182
            ],
            [
              77.6165265,
              12.9942182
            ],
            [
              77.6165265,
              12.9938162
            ],
            [
              77.6161676,
              12.9938162
            ],
            [
              77.6161676,
              12.9942182
            ]
          ]
        ]
      }
    },
    {
      "type": "Feature",
      "properties": {
        "id": "train_013_BLDG_010",
        "parcel_id": "train_013_P_011",
        "area_sqm": 1733.21,
        "perimeter_m": 166.9,
        "centroid_lon": 77.6169658,
        "centroid_lat": 12.9940172,
        "height_m": 4.72,
        "confidence": 0.801,
        "temporal_epoch": "T1"
      },
      "geometry": {
        "type": "Polygon",
        "coordinates": [
          [
            [
              77.6167864,
              12.9942182
            ],
            [
              77.6171452,
              12.9942182
            ],
            [
              77.6171452,
              12.9938162
            ],
            [
              77.6167864,
              12.9938162
            ],
            [
              77.6167864,
              12.9942182
            ]
          ]
        ]
      }
    },
    {
      "type": "Feature",
      "properties": {
        "id": "train_013_BLDG_011",
        "parcel_id": "train_013_P_012",
        "area_sqm": 1733.21,
        "perimeter_m": 166.9,
        "centroid_lon": 77.6169658,
        "centroid_lat": 12.9933891,
        "height_m": 5.74,
        "confidence": 0.91,
        "temporal_epoch": "T1"
      },
      "geometry": {
        "type": "Polygon",
        "coordinates": [
          [
            [
              77.6167864,
              12.9935901
            ],
            [
              77.6171452,
              12.9935901
            ],
            [
              77.6171452,
              12.9931881
            ],
            [
              77.6167864,
              12.9931881
            ],
            [
              77.6167864,
              12.9935901
            ]
          ]
        ]
      }
    },
    {
      "type": "Feature",
      "properties": {
        "id": "train_013_BLDG_012",
        "parcel_id": "train_013_P_013",
        "area_sqm": 1234.21,
        "perimeter_m": 144.47,
        "centroid_lon": 77.6176508,
        "centroid_lat": 12.9940172,
        "height_m": 8.17,
        "confidence": 0.818,
        "temporal_epoch": "T1"
      },
      "geometry": {
        "type": "Polygon",
        "coordinates": [
          [
            [
              77.6175231,
              12.9942182
            ],
            [
              77.6177786,
              12.9942182
            ],
            [
              77.6177786,
              12.9938162
            ],
            [
              77.6175231,
              12.9938162
            ],
            [
              77.6175231,
              12.9942182
            ]
          ]
        ]
      }
    },
    {
      "type": "Feature",
      "properties": {
        "id": "train_013_BLDG_013",
        "parcel_id": "train_013_P_014",
        "area_sqm": 1234.21,
        "perimeter_m": 144.47,
        "centroid_lon": 77.6176508,
        "centroid_lat": 12.9933891,
        "height_m": 5.46,
        "confidence": 0.837,
        "temporal_epoch": "T1"
      },
      "geometry": {
        "type": "Polygon",
        "coordinates": [
          [
            [
              77.6175231,
              12.9935901
            ],
            [
              77.6177786,
              12.9935901
            ],
            [
              77.6177786,
              12.9931881
            ],
            [
              77.6175231,
              12.9931881
            ],
            [
              77.6175231,
              12.9935901
            ]
          ]
        ]
      }
    },
    {
      "type": "Feature",
      "properties": {
        "id": "train_013_BLDG_014",
        "parcel_id": "train_013_P_015",
        "area_sqm": 1234.21,
        "perimeter_m": 144.47,
        "centroid_lon": 77.6180915,
        "centroid_lat": 12.9940172,
        "height_m": 10.28,
        "confidence": 0.844,
        "temporal_epoch": "T1"
      },
      "geometry": {
        "type": "Polygon",
        "coordinates": [
          [
            [
              77.6179637,
              12.9942182
            ],
            [
              77.6182192,
              12.9942182
            ],
            [
              77.6182192,
              12.9938162
            ],
            [
              77.6179637,
              12.9938162
            ],
            [
              77.6179637,
              12.9942182
            ]
          ]
        ]
      }
    },
    {
      "type": "Feature",
      "properties": {
        "id": "train_013_BLDG_015",
        "parcel_id": "train_013_P_016",
        "area_sqm": 1234.22,
        "perimeter_m": 144.47,
        "centroid_lon": 77.6180915,
        "centroid_lat": 12.9933891,
        "height_m": 10.24,
        "confidence": 0.909,
        "temporal_epoch": "T1"
      },
      "geometry": {
        "type": "Polygon",
        "coordinates": [
          [
            [
              77.6179637,
              12.9935901
            ],
            [
              77.6182192,
              12.9935901
            ],
            [
              77.6182192,
              12.9931881
            ],
            [
              77.6179637,
              12.9931881
            ],
            [
              77.6179637,
              12.9935901
            ]
          ]
        ]
      }
    }
  ]
}