{
  "type": "FeatureCollection",
  "crs": {
    "type": "name",
    "properties": {
      "name": "EPSG:4326"
    }
  },
  "features": [
    {
      "type": "Feature",
      "properties": {
        "id": "train_067_BND_001",
        "parcel_id": "train_067_P_001",
        "boundary_type": "VISIBLE",
        "confidence": 0.847,
        "length_m": 69.92,
        "evidence_sources": [
          "Drone_RGB_Edge",
          "DSM_Breakline"
        ]
      },
      "geometry": {
        "type": "LineString",
        "coordinates": [
          [
            77.5980564,
            13.0073309
          ],
          [
            77.5987005,
            13.0073355
          ]
        ]
      }
    },
    {
      "type": "Feature",
      "properties": {
        "id": "train_067_BND_002",
        "parcel_id": "train_067_P_001",
        "boundary_type": "VISIBLE",
        "confidence": 0.838,
        "length_m": 35.88,
        "evidence_sources": [
          "Drone_RGB_Edge",
          "DSM_Breakline"
        ]
      },
      "geometry": {
        "type": "LineString",
        "coordinates": [
          [
            77.5987005,
            13.0073355
          ],
          [
            77.5986973,
            13.0070114
          ]
        ]
      }
    },
    {
      "type": "Feature",
      "properties": {
        "id": "train_067_BND_003",
        "parcel_id": "train_067_P_001",
        "boundary_type": "VISIBLE",
        "confidence": 0.874,
        "length_m": 67.62,
        "evidence_sources": [
          "Drone_RGB_Edge",
          "DSM_Breakline"
        ]
      },
      "geometry": {
        "type": "LineString",
        "coordinates": [
          [
            77.5986973,
            13.0070114
          ],
          [
            77.5980744,
            13.0070025
          ]
        ]
      }
    },
    {
      "type": "Feature",
      "properties": {
        "id": "train_067_BND_004",
        "parcel_id": "train_067_P_001",
        "boundary_type": "VISIBLE",
        "confidence": 0.858,
        "length_m": 36.4,
        "evidence_sources": [
          "Drone_RGB_Edge",
          "DSM_Breakline"
        ]
      },
      "geometry": {
        "type": "LineString",
        "coordinates": [
          [
            77.5980744,
            13.0070025
          ],
          [
            77.5980564,
            13.0073309
          ]
        ]
      }
    },
    {
      "type": "Feature",
      "properties": {
        "id": "train_067_BND_005",
        "parcel_id": "train_067_P_002",
        "boundary_type": "VISIBLE",
        "confidence": 0.873,
        "length_m": 67.8,
        "evidence_sources": [
          "Drone_RGB_Edge",
          "DSM_Breakline"
        ]
      },
      "geometry": {
        "type": "LineString",
        "coordinates": [
          [
            77.5980655,
            13.0069935
          ],
          [
            77.5986901,
            13.0069869
          ]
        ]
      }
    },
    {
      "type": "Feature",
      "properties": {
        "id": "train_067_BND_006",
        "parcel_id": "train_067_P_002",
        "boundary_type": "VISIBLE",
        "confidence": 0.957,
        "length_m": 36.78,
        "evidence_sources": [
          "Drone_RGB_Edge",
          "DSM_Breakline"
        ]
      },
      "geometry": {
        "type": "LineString",
        "coordinates": [
          [
            77.5986901,
            13.0069869
          ],
          [
            77.5986922,
            13.0066546
          ]
        ]
      }
    },
    {
      "type": "Feature",
      "properties": {
        "id": "train_067_BND_007",
        "parcel_id": "train_067_P_002",
        "boundary_type": "INFERRED",
        "confidence": 0.629,
        "length_m": 68.26,
        "evidence_sources": [
          "Road_Corridor_Offset",
          "Adjacent_Parcel_Topology"
        ]
      },
      "geometry": {
        "type": "LineString",
        "coordinates": [
          [
            77.5986922,
            13.0066546
          ],
          [
            77.5980634,
            13.0066646
          ]
        ]
      }
    },
    {
      "type": "Feature",
      "properties": {
        "id": "train_067_BND_008",
        "parcel_id": "train_067_P_002",
        "boundary_type": "VISIBLE",
        "confidence": 0.944,
        "length_m": 36.41,
        "evidence_sources": [
          "Drone_RGB_Edge",
          "DSM_Breakline"
        ]
      },
      "geometry": {
        "type": "LineString",
        "coordinates": [
          [
            77.5980634,
            13.0066646
          ],
          [
            77.5980655,
            13.0069935
          ]
        ]
      }
    },
    {
      "type": "Feature",
      "properties": {
        "id": "train_067_BND_009",
        "parcel_id": "train_067_P_003",
        "boundary_type": "VISIBLE",
        "confidence": 0.951,
        "length_m": 69.14,
        "evidence_sources": [
          "Drone_RGB_Edge",
          "DSM_Breakline"
        ]
      },
      "geometry": {
        "type": "LineString",
        "coordinates": [
          [
            77.5987275,
            13.0073266
          ],
          [
            77.5993644,
            13.0073379
          ]
        ]
      }
    },
    {
      "type": "Feature",
      "properties": {
        "id": "train_067_BND_010",
        "parcel_id": "train_067_P_003",
        "boundary_type": "INFERRED",
        "confidence": 0.638,
        "length_m": 35.5,
        "evidence_sources": [
          "Road_Corridor_Offset",
          "Adjacent_Parcel_Topology"
        ]
      },
      "geometry": {
        "type": "LineString",
        "coordinates": [
          [
            77.5993644,
            13.0073379
          ],
          [
            77.599367,
            13.0070172
          ]
        ]
      }
    },
    {
      "type": "Feature",
      "properties": {
        "id": "train_067_BND_011",
        "parcel_id": "train_067_P_003",
        "boundary_type": "VISIBLE",
        "confidence": 0.92,
        "length_m": 68.81,
        "evidence_sources": [
          "Drone_RGB_Edge",
          "DSM_Breakline"
        ]
      },
      "geometry": {
        "type": "LineString",
        "coordinates": [
          [
            77.599367,
            13.0070172
          ],
          [
            77.5987333,
            13.0070009
          ]
        ]
      }
    },
    {
      "type": "Feature",
      "properties": {
        "id": "train_067_BND_012",
        "parcel_id": "train_067_P_003",
        "boundary_type": "INFERRED",
        "confidence": 0.736,
        "length_m": 36.06,
        "evidence_sources": [
          "Road_Corridor_Offset",
          "Adjacent_Parcel_Topology"
        ]
      },
      "geometry": {
        "type": "LineString",
        "coordinates": [
          [
            77.5987333,
            13.0070009
          ],
          [
            77.5987275,
            13.0073266
          ]
        ]
      }
    },
    {
      "type": "Feature",
      "properties": {
        "id": "train_067_BND_013",
        "parcel_id": "train_067_P_004",
        "boundary_type": "VISIBLE",
        "confidence": 0.945,
        "length_m": 69.21,
        "evidence_sources": [
          "Drone_RGB_Edge",
          "DSM_Breakline"
        ]
      },
      "geometry": {
        "type": "LineString",
        "coordinates": [
          [
            77.5987193,
            13.0069766
          ],
          [
            77.5993567,
            13.0069914
          ]
        ]
      }
    },
    {
      "type": "Feature",
      "properties": {
        "id": "train_067_BND_014",
        "parcel_id": "train_067_P_004",
        "boundary_type": "INFERRED",
        "confidence": 0.669,
        "length_m": 36.34,
        "evidence_sources": [
          "Road_Corridor_Offset",
          "Adjacent_Parcel_Topology"
        ]
      },
      "geometry": {
        "type": "LineString",
        "coordinates": [
          [
            77.5993567,
            13.0069914
          ],
          [
            77.5993526,
            13.0066631
          ]
        ]
      }
    },
    {
      "type": "Feature",
      "properties": {
        "id": "train_067_BND_015",
        "parcel_id": "train_067_P_004",
        "boundary_type": "INFERRED",
        "confidence": 0.659,
        "length_m": 67.16,
        "evidence_sources": [
          "Road_Corridor_Offset",
          "Adjacent_Parcel_Topology"
        ]
      },
      "geometry": {
        "type": "LineString",
        "coordinates": [
          [
            77.5993526,
            13.0066631
          ],
          [
            77.5987339,
            13.0066605
          ]
        ]
      }
    },
    {
      "type": "Feature",
      "properties": {
        "id": "train_067_BND_016",
        "parcel_id": "train_067_P_004",
        "boundary_type": "INFERRED",
        "confidence": 0.676,
        "length_m": 35.03,
        "evidence_sources": [
          "Road_Corridor_Offset",
          "Adjacent_Parcel_Topology"
        ]
      },
      "geometry": {
        "type": "LineString",
        "coordinates": [
          [
            77.5987339,
            13.0066605
          ],
          [
            77.5987193,
            13.0069766
          ]
        ]
      }
    },
    {
      "type": "Feature",
      "properties": {
        "id": "train_067_BND_017",
        "parcel_id": "train_067_P_005",
        "boundary_type": "VISIBLE",
        "confidence": 0.866,
        "length_m": 39.85,
        "evidence_sources": [
          "Drone_RGB_Edge",
          "DSM_Breakline"
        ]
      },
      "geometry": {
        "type": "LineString",
        "coordinates": [
          [
            77.5995682,
            13.0073384
          ],
          [
            77.5999353,
            13.007341
          ]
        ]
      }
    },
    {
      "type": "Feature",
      "properties": {
        "id": "train_067_BND_018",
        "parcel_id": "train_067_P_005",
        "boundary_type": "VISIBLE",
        "confidence": 0.896,
        "length_m": 36.11,
        "evidence_sources": [
          "Drone_RGB_Edge",
          "DSM_Breakline"
        ]
      },
      "geometry": {
        "type": "LineString",
        "coordinates": [
          [
            77.5999353,
            13.007341
          ],
          [
            77.5999201,
            13.0070151
          ]
        ]
      }
    },
    {
      "type": "Feature",
      "properties": {
        "id": "train_067_BND_019",
        "parcel_id": "train_067_P_005",
        "boundary_type": "VISIBLE",
        "confidence": 0.824,
        "length_m": 38.69,
        "evidence_sources": [
          "Drone_RGB_Edge",
          "DSM_Breakline"
        ]
      },
      "geometry": {
        "type": "LineString",
        "coordinates": [
          [
            77.5999201,
            13.0070151
          ],
          [
            77.5995637,
            13.0070186
          ]
        ]
      }
    },
    {
      "type": "Feature",
      "properties": {
        "id": "train_067_BND_020",
        "parcel_id": "train_067_P_005",
        "boundary_type": "VISIBLE",
        "confidence": 0.829,
        "length_m": 35.4,
        "evidence_sources": [
          "Drone_RGB_Edge",
          "DSM_Breakline"
        ]
      },
      "geometry": {
        "type": "LineString",
        "coordinates": [
          [
            77.5995637,
            13.0070186
          ],
          [
            77.5995682,
            13.0073384
          ]
        ]
      }
    },
    {
      "type": "Feature",
      "properties": {
        "id": "train_067_BND_021",
        "parcel_id": "train_067_P_006",
        "boundary_type": "VISIBLE",
        "confidence": 0.906,
        "length_m": 40.21,
        "evidence_sources": [
          "Drone_RGB_Edge",
          "DSM_Breakline"
        ]
      },
      "geometry": {
        "type": "LineString",
        "coordinates": [
          [
            77.5995676,
            13.0069749
          ],
          [
            77.5999378,
            13.0069888
          ]
        ]
      }
    },
    {
      "type": "Feature",
      "properties": {
        "id": "train_067_BND_022",
        "parcel_id": "train_067_P_006",
        "boundary_type": "VISIBLE",
        "confidence": 0.941,
        "length_m": 35.47,
        "evidence_sources": [
          "Drone_RGB_Edge",
          "DSM_Breakline"
        ]
      },
      "geometry": {
        "type": "LineString",
        "coordinates": [
          [
            77.5999378,
            13.0069888
          ],
          [
            77.5999202,
            13.0066688
          ]
        ]
      }
    },
    {
      "type": "Feature",
      "properties": {
        "id": "train_067_BND_023",
        "parcel_id": "train_067_P_006",
        "boundary_type": "INFERRED",
        "confidence": 0.624,
        "length_m": 38.7,
        "evidence_sources": [
          "Road_Corridor_Offset",
          "Adjacent_Parcel_Topology"
        ]
      },
      "geometry": {
        "type": "LineString",
        "coordinates": [
          [
            77.5999202,
            13.0066688
          ],
          [
            77.5995641,
            13.0066516
          ]
        ]
      }
    },
    {
      "type": "Feature",
      "properties": {
        "id": "train_067_BND_024",
        "parcel_id": "train_067_P_006",
        "boundary_type": "INFERRED",
        "confidence": 0.784,
        "length_m": 35.79,
        "evidence_sources": [
          "Road_Corridor_Offset",
          "Adjacent_Parcel_Topology"
        ]
      },
      "geometry": {
        "type": "LineString",
        "coordinates": [
          [
            77.5995641,
            13.0066516
          ],
          [
            77.5995676,
            13.0069749
          ]
        ]
      }
    },
    {
      "type": "Feature",
      "properties": {
        "id": "train_067_BND_025",
        "parcel_id": "train_067_P_007",
        "boundary_type": "VISIBLE",
        "confidence": 0.894,
        "length_m": 39.07,
        "evidence_sources": [
          "Drone_RGB_Edge",
          "DSM_Breakline"
        ]
      },
      "geometry": {
        "type": "LineString",
        "coordinates": [
          [
            77.5999597,
            13.007343
          ],
          [
            77.6003192,
            13.0073261
          ]
        ]
      }
    },
    {
      "type": "Feature",
      "properties": {
        "id": "train_067_BND_026",
        "parcel_id": "train_067_P_007",
        "boundary_type": "VISIBLE",
        "confidence": 0.864,
        "length_m": 34.03,
        "evidence_sources": [
          "Drone_RGB_Edge",
          "DSM_Breakline"
        ]
      },
      "geometry": {
        "type": "LineString",
        "coordinates": [
          [
            77.6003192,
            13.0073261
          ],
          [
            77.6003057,
            13.007019
          ]
        ]
      }
    },
    {
      "type": "Feature",
      "properties": {
        "id": "train_067_BND_027",
        "parcel_id": "train_067_P_007",
        "boundary_type": "VISIBLE",
        "confidence": 0.93,
        "length_m": 38.66,
        "evidence_sources": [
          "Drone_RGB_Edge",
          "DSM_Breakline"
        ]
      },
      "geometry": {
        "type": "LineString",
        "coordinates": [
          [
            77.6003057,
            13.007019
          ],
          [
            77.5999502,
            13.0069975
          ]
        ]
      }
    },
    {
      "type": "Feature",
      "properties": {
        "id": "train_067_BND_028",
        "parcel_id": "train_067_P_007",
        "boundary_type": "VISIBLE",
        "confidence": 0.886,
        "length_m": 38.26,
        "evidence_sources": [
          "Drone_RGB_Edge",
          "DSM_Breakline"
        ]
      },
      "geometry": {
        "type": "LineString",
        "coordinates": [
          [
            77.5999502,
            13.0069975
          ],
          [
            77.5999597,
            13.007343
          ]
        ]
      }
    },
    {
      "type": "Feature",
      "properties": {
        "id": "train_067_BND_029",
        "parcel_id": "train_067_P_008",
        "boundary_type": "INFERRED",
        "confidence": 0.705,
        "length_m": 40.05,
        "evidence_sources": [
          "Road_Corridor_Offset",
          "Adjacent_Parcel_Topology"
        ]
      },
      "geometry": {
        "type": "LineString",
        "coordinates": [
          [
            77.599947,
            13.0069807
          ],
          [
            77.600316,
            13.0069775
          ]
        ]
      }
    },
    {
      "type": "Feature",
      "properties": {
        "id": "train_067_BND_030",
        "parcel_id": "train_067_P_008",
        "boundary_type": "VISIBLE",
        "confidence": 0.867,
        "length_m": 34.64,
        "evidence_sources": [
          "Drone_RGB_Edge",
          "DSM_Breakline"
        ]
      },
      "geometry": {
        "type": "LineString",
        "coordinates": [
          [
            77.600316,
            13.0069775
          ],
          [
            77.6003198,
            13.0066646
          ]
        ]
      }
    },
    {
      "type": "Feature",
      "properties": {
        "id": "train_067_BND_031",
        "parcel_id": "train_067_P_008",
        "boundary_type": "VISIBLE",
        "confidence": 0.843,
        "length_m": 39.5,
        "evidence_sources": [
          "Drone_RGB_Edge",
          "DSM_Breakline"
        ]
      },
      "geometry": {
        "type": "LineString",
        "coordinates": [
          [
            77.6003198,
            13.0066646
          ],
          [
            77.5999561,
            13.0066531
          ]
        ]
      }
    },
    {
      "type": "Feature",
      "properties": {
        "id": "train_067_BND_032",
        "parcel_id": "train_067_P_008",
        "boundary_type": "INFERRED",
        "confidence": 0.644,
        "length_m": 36.28,
        "evidence_sources": [
          "Road_Corridor_Offset",
          "Adjacent_Parcel_Topology"
        ]
      },
      "geometry": {
        "type": "LineString",
        "coordinates": [
          [
            77.5999561,
            13.0066531
          ],
          [
            77.599947,
            13.0069807
          ]
        ]
      }
    },
    {
      "type": "Feature",
      "properties": {
        "id": "train_067_BND_033",
        "parcel_id": "train_067_P_009",
        "boundary_type": "INFERRED",
        "confidence": 0.723,
        "length_m": 69.17,
        "evidence_sources": [
          "Road_Corridor_Offset",
          "Adjacent_Parcel_Topology"
        ]
      },
      "geometry": {
        "type": "LineString",
        "coordinates": [
          [
            77.5980635,
            13.0063748
          ],
          [
            77.5987007,
            13.0063811
          ]
        ]
      }
    },
    {
      "type": "Feature",
      "properties": {
        "id": "train_067_BND_034",
        "parcel_id": "train_067_P_009",
        "boundary_type": "INFERRED",
        "confidence": 0.689,
        "length_m": 71.68,
        "evidence_sources": [
          "Road_Corridor_Offset",
          "Adjacent_Parcel_Topology"
        ]
      },
      "geometry": {
        "type": "LineString",
        "coordinates": [
          [
            77.5987007,
            13.0063811
          ],
          [
            77.5987038,
            13.0057336
          ]
        ]
      }
    },
    {
      "type": "Feature",
      "properties": {
        "id": "train_067_BND_035",
        "parcel_id": "train_067_P_009",
        "boundary_type": "VISIBLE",
        "confidence": 0.912,
        "length_m": 68.72,
        "evidence_sources": [
          "Drone_RGB_Edge",
          "DSM_Breakline"
        ]
      },
      "geometry": {
        "type": "LineString",
        "coordinates": [
          [
            77.5987038,
            13.0057336
          ],
          [
            77.5980707,
            13.0057405
          ]
        ]
      }
    },
    {
      "type": "Feature",
      "properties": {
        "id": "train_067_BND_036",
        "parcel_id": "train_067_P_009",
        "boundary_type": "VISIBLE",
        "confidence": 0.872,
        "length_m": 70.22,
        "evidence_sources": [
          "Drone_RGB_Edge",
          "DSM_Breakline"
        ]
      },
      "geometry": {
        "type": "LineString",
        "coordinates": [
          [
            77.5980707,
            13.0057405
          ],
          [
            77.5980635,
            13.0063748
          ]
        ]
      }
    },
    {
      "type": "Feature",
      "properties": {
        "id": "train_067_BND_037",
        "parcel_id": "train_067_P_010",
        "boundary_type": "INFERRED",
        "confidence": 0.705,
        "length_m": 68.85,
        "evidence_sources": [
          "Road_Corridor_Offset",
          "Adjacent_Parcel_Topology"
        ]
      },
      "geometry": {
        "type": "LineString",
        "coordinates": [
          [
            77.5980591,
            13.0057282
          ],
          [
            77.5986934,
            13.0057286
          ]
        ]
      }
    },
    {
      "type": "Feature",
      "properties": {
        "id": "train_067_BND_038",
        "parcel_id": "train_067_P_010",
        "boundary_type": "VISIBLE",
        "confidence": 0.957,
        "length_m": 70.86,
        "evidence_sources": [
          "Drone_RGB_Edge",
          "DSM_Breakline"
        ]
      },
      "geometry": {
        "type": "LineString",
        "coordinates": [
          [
            77.5986934,
            13.0057286
          ],
          [
            77.5987099,
            13.0050887
          ]
        ]
      }
    },
    {
      "type": "Feature",
      "properties": {
        "id": "train_067_BND_039",
        "parcel_id": "train_067_P_010",
        "boundary_type": "VISIBLE",
        "confidence": 0.933,
        "length_m": 70.81,
        "evidence_sources": [
          "Drone_RGB_Edge",
          "DSM_Breakline"
        ]
      },
      "geometry": {
        "type": "LineString",
        "coordinates": [
          [
            77.5987099,
            13.0050887
          ],
          [
            77.5980576,
            13.0050804
          ]
        ]
      }
    },
    {
      "type": "Feature",
      "properties": {
        "id": "train_067_BND_040",
        "parcel_id": "train_067_P_010",
        "boundary_type": "VISIBLE",
        "confidence": 0.95,
        "length_m": 71.71,
        "evidence_sources": [
          "Drone_RGB_Edge",
          "DSM_Breakline"
        ]
      },
      "geometry": {
        "type": "LineString",
        "coordinates": [
          [
            77.5980576,
            13.0050804
          ],
          [
            77.5980591,
            13.0057282
          ]
        ]
      }
    },
    {
      "type": "Feature",
      "properties": {
        "id": "train_067_BND_041",
        "parcel_id": "train_067_P_011",
        "boundary_type": "VISIBLE",
        "confidence": 0.871,
        "length_m": 68.39,
        "evidence_sources": [
          "Drone_RGB_Edge",
          "DSM_Breakline"
        ]
      },
      "geometry": {
        "type": "LineString",
        "coordinates": [
          [
            77.59873,
            13.0063826
          ],
          [
            77.5993598,
            13.0063655
          ]
        ]
      }
    },
    {
      "type": "Feature",
      "properties": {
        "id": "train_067_BND_042",
        "parcel_id": "train_067_P_011",
        "boundary_type": "VISIBLE",
        "confidence": 0.954,
        "length_m": 68.91,
        "evidence_sources": [
          "Drone_RGB_Edge",
          "DSM_Breakline"
        ]
      },
      "geometry": {
        "type": "LineString",
        "coordinates": [
          [
            77.5993598,
            13.0063655
          ],
          [
            77.5993596,
            13.005743
          ]
        ]
      }
    },
    {
      "type": "Feature",
      "properties": {
        "id": "train_067_BND_043",
        "parcel_id": "train_067_P_011",
        "boundary_type": "INFERRED",
        "confidence": 0.697,
        "length_m": 68.24,
        "evidence_sources": [
          "Road_Corridor_Offset",
          "Adjacent_Parcel_Topology"
        ]
      },
      "geometry": {
        "type": "LineString",
        "coordinates": [
          [
            77.5993596,
            13.005743
          ],
          [
            77.598731,
            13.0057515
          ]
        ]
      }
    },
    {
      "type": "Feature",
      "properties": {
        "id": "train_067_BND_044",
        "parcel_id": "train_067_P_011",
        "boundary_type": "VISIBLE",
        "confidence": 0.86,
        "length_m": 69.86,
        "evidence_sources": [
          "Drone_RGB_Edge",
          "DSM_Breakline"
        ]
      },
      "geometry": {
        "type": "LineString",
        "coordinates": [
          [
            77.598731,
            13.0057515
          ],
          [
            77.59873,
            13.0063826
          ]
        ]
      }
    },
    {
      "type": "Feature",
      "properties": {
        "id": "train_067_BND_045",
        "parcel_id": "train_067_P_012",
        "boundary_type": "INFERRED",
        "confidence": 0.754,
        "length_m": 68.88,
        "evidence_sources": [
          "Road_Corridor_Offset",
          "Adjacent_Parcel_Topology"
        ]
      },
      "geometry": {
        "type": "LineString",
        "coordinates": [
          [
            77.5987162,
            13.0057237
          ],
          [
            77.5993507,
            13.0057154
          ]
        ]
      }
    },
    {
      "type": "Feature",
      "properties": {
        "id": "train_067_BND_046",
        "parcel_id": "train_067_P_012",
        "boundary_type": "VISIBLE",
        "confidence": 0.896,
        "length_m": 69.26,
        "evidence_sources": [
          "Drone_RGB_Edge",
          "DSM_Breakline"
        ]
      },
      "geometry": {
        "type": "LineString",
        "coordinates": [
          [
            77.5993507,
            13.0057154
          ],
          [
            77.599351,
            13.0050897
          ]
        ]
      }
    },
    {
      "type": "Feature",
      "properties": {
        "id": "train_067_BND_047",
        "parcel_id": "train_067_P_012",
        "boundary_type": "VISIBLE",
        "confidence": 0.899,
        "length_m": 68.9,
        "evidence_sources": [
          "Drone_RGB_Edge",
          "DSM_Breakline"
        ]
      },
      "geometry": {
        "type": "LineString",
        "coordinates": [
          [
            77.599351,
            13.0050897
          ],
          [
            77.5987163,
            13.0050856
          ]
        ]
      }
    },
    {
      "type": "Feature",
      "properties": {
        "id": "train_067_BND_048",
        "parcel_id": "train_067_P_012",
        "boundary_type": "VISIBLE",
        "confidence": 0.943,
        "length_m": 70.63,
        "evidence_sources": [
          "Drone_RGB_Edge",
          "DSM_Breakline"
        ]
      },
      "geometry": {
        "type": "LineString",
        "coordinates": [
          [
            77.5987163,
            13.0050856
          ],
          [
            77.5987162,
            13.0057237
          ]
        ]
      }
    },
    {
      "type": "Feature",
      "properties": {
        "id": "train_067_BND_049",
        "parcel_id": "train_067_P_013",
        "boundary_type": "VISIBLE",
        "confidence": 0.861,
        "length_m": 38.47,
        "evidence_sources": [
          "Drone_RGB_Edge",
          "DSM_Breakline"
        ]
      },
      "geometry": {
        "type": "LineString",
        "coordinates": [
          [
            77.5995712,
            13.0063801
          ],
          [
            77.5999256,
            13.0063822
          ]
        ]
      }
    },
    {
      "type": "Feature",
      "properties": {
        "id": "train_067_BND_050",
        "parcel_id": "train_067_P_013",
        "boundary_type": "VISIBLE",
        "confidence": 0.896,
        "length_m": 69.6,
        "evidence_sources": [
          "Drone_RGB_Edge",
          "DSM_Breakline"
        ]
      },
      "geometry": {
        "type": "LineString",
        "coordinates": [
          [
            77.5999256,
            13.0063822
          ],
          [
            77.5999299,
            13.0057535
          ]
        ]
      }
    },
    {
      "type": "Feature",
      "properties": {
        "id": "train_067_BND_051",
        "parcel_id": "train_067_P_013",
        "boundary_type": "VISIBLE",
        "confidence": 0.934,
        "length_m": 39.64,
        "evidence_sources": [
          "Drone_RGB_Edge",
          "DSM_Breakline"
        ]
      },
      "geometry": {
        "type": "LineString",
        "coordinates": [
          [
            77.5999299,
            13.0057535
          ],
          [
            77.5995651,
            13.0057365
          ]
        ]
      }
    },
    {
      "type": "Feature",
      "properties": {
        "id": "train_067_BND_052",
        "parcel_id": "train_067_P_013",
        "boundary_type": "INFERRED",
        "confidence": 0.673,
        "length_m": 71.25,
        "evidence_sources": [
          "Road_Corridor_Offset",
          "Adjacent_Parcel_Topology"
        ]
      },
      "geometry": {
        "type": "LineString",
        "coordinates": [
          [
            77.5995651,
            13.0057365
          ],
          [
            77.5995712,
            13.0063801
          ]
        ]
      }
    },
    {
      "type": "Feature",
      "properties": {
        "id": "train_067_BND_053",
        "parcel_id": "train_067_P_014",
        "boundary_type": "VISIBLE",
        "confidence": 0.861,
        "length_m": 40.53,
        "evidence_sources": [
          "Drone_RGB_Edge",
          "DSM_Breakline"
        ]
      },
      "geometry": {
        "type": "LineString",
        "coordinates": [
          [
            77.599566,
            13.0057103
          ],
          [
            77.5999394,
            13.0057115
          ]
        ]
      }
    },
    {
      "type": "Feature",
      "properties": {
        "id": "train_067_BND_054",
        "parcel_id": "train_067_P_014",
        "boundary_type": "VISIBLE",
        "confidence": 0.846,
        "length_m": 68.92,
        "evidence_sources": [
          "Drone_RGB_Edge",
          "DSM_Breakline"
        ]
      },
      "geometry": {
        "type": "LineString",
        "coordinates": [
          [
            77.5999394,
            13.0057115
          ],
          [
            77.5999369,
            13.0050889
          ]
        ]
      }
    },
    {
      "type": "Feature",
      "properties": {
        "id": "train_067_BND_055",
        "parcel_id": "train_067_P_014",
        "boundary_type": "VISIBLE",
        "confidence": 0.959,
        "length_m": 38.98,
        "evidence_sources": [
          "Drone_RGB_Edge",
          "DSM_Breakline"
        ]
      },
      "geometry": {
        "type": "LineString",
        "coordinates": [
          [
            77.5999369,
            13.0050889
          ],
          [
            77.5995778,
            13.0050848
          ]
        ]
      }
    },
    {
      "type": "Feature",
      "properties": {
        "id": "train_067_BND_056",
        "parcel_id": "train_067_P_014",
        "boundary_type": "VISIBLE",
        "confidence": 0.9,
        "length_m": 69.25,
        "evidence_sources": [
          "Drone_RGB_Edge",
          "DSM_Breakline"
        ]
      },
      "geometry": {
        "type": "LineString",
        "coordinates": [
          [
            77.5995778,
            13.0050848
          ],
          [
            77.599566,
            13.0057103
          ]
        ]
      }
    },
    {
      "type": "Feature",
      "properties": {
        "id": "train_067_BND_057",
        "parcel_id": "train_067_P_015",
        "boundary_type": "INFERRED",
        "confidence": 0.741,
        "length_m": 39.96,
        "evidence_sources": [
          "Road_Corridor_Offset",
          "Adjacent_Parcel_Topology"
        ]
      },
      "geometry": {
        "type": "LineString",
        "coordinates": [
          [
            77.5999561,
            13.0063839
          ],
          [
            77.6003242,
            13.0063831
          ]
        ]
      }
    },
    {
      "type": "Feature",
      "properties": {
        "id": "train_067_BND_058",
        "parcel_id": "train_067_P_015",
        "boundary_type": "INFERRED",
        "confidence": 0.703,
        "length_m": 71.3,
        "evidence_sources": [
          "Road_Corridor_Offset",
          "Adjacent_Parcel_Topology"
        ]
      },
      "geometry": {
        "type": "LineString",
        "coordinates": [
          [
            77.6003242,
            13.0063831
          ],
          [
            77.6003079,
            13.0057392
          ]
        ]
      }
    },
    {
      "type": "Feature",
      "properties": {
        "id": "train_067_BND_059",
        "parcel_id": "train_067_P_015",
        "boundary_type": "VISIBLE",
        "confidence": 0.957,
        "length_m": 39.54,
        "evidence_sources": [
          "Drone_RGB_Edge",
          "DSM_Breakline"
        ]
      },
      "geometry": {
        "type": "LineString",
        "coordinates": [
          [
            77.6003079,
            13.0057392
          ],
          [
            77.5999436,
            13.0057404
          ]
        ]
      }
    },
    {
      "type": "Feature",
      "properties": {
        "id": "train_067_BND_060",
        "parcel_id": "train_067_P_015",
        "boundary_type": "VISIBLE",
        "confidence": 0.939,
        "length_m": 71.25,
        "evidence_sources": [
          "Drone_RGB_Edge",
          "DSM_Breakline"
        ]
      },
      "geometry": {
        "type": "LineString",
        "coordinates": [
          [
            77.5999436,
            13.0057404
          ],
          [
            77.5999561,
            13.0063839
          ]
        ]
      }
    },
    {
      "type": "Feature",
      "properties": {
        "id": "train_067_BND_061",
        "parcel_id": "train_067_P_016",
        "boundary_type": "VISIBLE",
        "confidence": 0.855,
        "length_m": 39.07,
        "evidence_sources": [
          "Drone_RGB_Edge",
          "DSM_Breakline"
        ]
      },
      "geometry": {
        "type": "LineString",
        "coordinates": [
          [
            77.599948,
            13.0057296
          ],
          [
            77.6003076,
            13.0057144
          ]
        ]
      }
    },
    {
      "type": "Feature",
      "properties": {
        "id": "train_067_BND_062",
        "parcel_id": "train_067_P_016",
        "boundary_type": "INFERRED",
        "confidence": 0.631,
        "length_m": 68.92,
        "evidence_sources": [
          "Road_Corridor_Offset",
          "Adjacent_Parcel_Topology"
        ]
      },
      "geometry": {
        "type": "LineString",
        "coordinates": [
          [
            77.6003076,
            13.0057144
          ],
          [
            77.6003213,
            13.0050919
          ]
        ]
      }
    },
    {
      "type": "Feature",
      "properties": {
        "id": "train_067_BND_063",
        "parcel_id": "train_067_P_016",
        "boundary_type": "VISIBLE",
        "confidence": 0.871,
        "length_m": 40.28,
        "evidence_sources": [
          "Drone_RGB_Edge",
          "DSM_Breakline"
        ]
      },
      "geometry": {
        "type": "LineString",
        "coordinates": [
          [
            77.6003213,
            13.0050919
          ],
          [
            77.5999503,
            13.005085
          ]
        ]
      }
    },
    {
      "type": "Feature",
      "properties": {
        "id": "train_067_BND_064",
        "parcel_id": "train_067_P_016",
        "boundary_type": "INFERRED",
        "confidence": 0.615,
        "length_m": 71.35,
        "evidence_sources": [
          "Road_Corridor_Offset",
          "Adjacent_Parcel_Topology"
        ]
      },
      "geometry": {
        "type": "LineString",
        "coordinates": [
          [
            77.5999503,
            13.005085
          ],
          [
            77.599948,
            13.0057296
          ]
        ]
      }
    }
  ]
}