{
  "type": "FeatureCollection",
  "crs": {
    "type": "name",
    "properties": {
      "name": "EPSG:4326"
    }
  },
  "features": [
    {
      "type": "Feature",
      "properties": {
        "id": "train_067_REF_001",
        "parcel_id": "train_067_P_001",
        "parcel_layer": "REFERENCE",
        "boundary_representation": "REFERENCE",
        "land_use_class": "vegetation",
        "area_sqm": 2483.74,
        "perimeter_m": 209.82,
        "source": "Synthetic Legacy Cadastral Map (Non-Authoritative Demo)"
      },
      "geometry": {
        "type": "Polygon",
        "coordinates": [
          [
            [
              77.598062,
              13.0073337
            ],
            [
              77.5987062,
              13.0073383
            ],
            [
              77.5987029,
              13.0070142
            ],
            [
              77.59808,
              13.0070054
            ],
            [
              77.598062,
              13.0073337
            ]
          ]
        ]
      }
    },
    {
      "type": "Feature",
      "properties": {
        "id": "train_067_REF_002",
        "parcel_id": "train_067_P_002",
        "parcel_layer": "REFERENCE",
        "boundary_representation": "REFERENCE",
        "land_use_class": "vegetation",
        "area_sqm": 2489.23,
        "perimeter_m": 209.25,
        "source": "Synthetic Legacy Cadastral Map (Non-Authoritative Demo)"
      },
      "geometry": {
        "type": "Polygon",
        "coordinates": [
          [
            [
              77.5980711,
              13.0069963
            ],
            [
              77.5986957,
              13.0069897
            ],
            [
              77.5986978,
              13.0066574
            ],
            [
              77.5980691,
              13.0066674
            ],
            [
              77.5980711,
              13.0069963
            ]
          ]
        ]
      }
    },
    {
      "type": "Feature",
      "properties": {
        "id": "train_067_REF_003",
        "parcel_id": "train_067_P_003",
        "parcel_layer": "REFERENCE",
        "boundary_representation": "REFERENCE",
        "land_use_class": "vegetation",
        "area_sqm": 2467.8,
        "perimeter_m": 209.51,
        "source": "Synthetic Legacy Cadastral Map (Non-Authoritative Demo)"
      },
      "geometry": {
        "type": "Polygon",
        "coordinates": [
          [
            [
              77.5987331,
              13.0073294
            ],
            [
              77.59937,
              13.0073407
            ],
            [
              77.5993726,
              13.00702
            ],
            [
              77.5987389,
              13.0070037
            ],
            [
              77.5987331,
              13.0073294
            ]
          ]
        ]
      }
    },
    {
      "type": "Feature",
      "properties": {
        "id": "train_067_REF_004",
        "parcel_id": "train_067_P_004",
        "parcel_layer": "REFERENCE",
        "boundary_representation": "REFERENCE",
        "land_use_class": "vacant",
        "area_sqm": 2431.76,
        "perimeter_m": 207.72,
        "source": "Synthetic Legacy Cadastral Map (Non-Authoritative Demo)"
      },
      "geometry": {
        "type": "Polygon",
        "coordinates": [
          [
            [
              77.5987606,
              13.0069972
            ],
            [
              77.5993979,
              13.0070121
            ],
            [
              77.5993938,
              13.0066837
            ],
            [
              77.5987751,
              13.0066812
            ],
            [
              77.5987606,
              13.0069972
            ]
          ]
        ]
      }
    },
    {
      "type": "Feature",
      "properties": {
        "id": "train_067_REF_005",
        "parcel_id": "train_067_P_005",
        "parcel_layer": "REFERENCE",
        "boundary_representation": "REFERENCE",
        "land_use_class": "industrial",
        "area_sqm": 1403.54,
        "perimeter_m": 150.06,
        "source": "Synthetic Legacy Cadastral Map (Non-Authoritative Demo)"
      },
      "geometry": {
        "type": "Polygon",
        "coordinates": [
          [
            [
              77.5995738,
              13.0073413
            ],
            [
              77.599941,
              13.0073438
            ],
            [
              77.5999258,
              13.007018
            ],
            [
              77.5995694,
              13.0070214
            ],
            [
              77.5995738,
              13.0073413
            ]
          ]
        ]
      }
    },
    {
      "type": "Feature",
      "properties": {
        "id": "train_067_REF_006",
        "parcel_id": "train_067_P_006",
        "parcel_layer": "REFERENCE",
        "boundary_representation": "REFERENCE",
        "land_use_class": "residential",
        "area_sqm": 1401.72,
        "perimeter_m": 150.19,
        "source": "Synthetic Legacy Cadastral Map (Non-Authoritative Demo)"
      },
      "geometry": {
        "type": "Polygon",
        "coordinates": [
          [
            [
              77.5995732,
              13.0069777
            ],
            [
              77.5999434,
              13.0069916
            ],
            [
              77.5999259,
              13.0066716
            ],
            [
              77.5995697,
              13.0066544
            ],
            [
              77.5995732,
              13.0069777
            ]
          ]
        ]
      }
    },
    {
      "type": "Feature",
      "properties": {
        "id": "train_067_REF_007",
        "parcel_id": "train_067_P_007",
        "parcel_layer": "REFERENCE",
        "boundary_representation": "REFERENCE",
        "land_use_class": "residential",
        "area_sqm": 1401.09,
        "perimeter_m": 150.0,
        "source": "Synthetic Legacy Cadastral Map (Non-Authoritative Demo)"
      },
      "geometry": {
        "type": "Polygon",
        "coordinates": [
          [
            [
              77.5999653,
              13.0073458
            ],
            [
              77.6003248,
              13.0073289
            ],
            [
              77.6003113,
              13.0070219
            ],
            [
              77.5999558,
              13.0070003
            ],
            [
              77.5999653,
              13.0073458
            ]
          ]
        ]
      }
    },
    {
      "type": "Feature",
      "properties": {
        "id": "train_067_REF_008",
        "parcel_id": "train_067_P_008",
        "parcel_layer": "REFERENCE",
        "boundary_representation": "REFERENCE",
        "land_use_class": "vegetation",
        "area_sqm": 1410.01,
        "perimeter_m": 150.47,
        "source": "Synthetic Legacy Cadastral Map (Non-Authoritative Demo)"
      },
      "geometry": {
        "type": "Polygon",
        "coordinates": [
          [
            [
              77.5999883,
              13.0070013
            ],
            [
              77.6003573,
              13.0069981
            ],
            [
              77.600361,
              13.0066852
            ],
            [
              77.5999973,
              13.0066737
            ],
            [
              77.5999883,
              13.0070013
            ]
          ]
        ]
      }
    },
    {
      "type": "Feature",
      "properties": {
        "id": "train_067_REF_009",
        "parcel_id": "train_067_P_009",
        "parcel_layer": "REFERENCE",
        "boundary_representation": "REFERENCE",
        "land_use_class": "commercial",
        "area_sqm": 4890.69,
        "perimeter_m": 279.78,
        "source": "Synthetic Legacy Cadastral Map (Non-Authoritative Demo)"
      },
      "geometry": {
        "type": "Polygon",
        "coordinates": [
          [
            [
              77.5980691,
              13.0063776
            ],
            [
              77.5987063,
              13.0063839
            ],
            [
              77.5987094,
              13.0057364
            ],
            [
              77.5980764,
              13.0057433
            ],
            [
              77.5980691,
              13.0063776
            ]
          ]
        ]
      }
    },
    {
      "type": "Feature",
      "properties": {
        "id": "train_067_REF_010",
        "parcel_id": "train_067_P_010",
        "parcel_layer": "REFERENCE",
        "boundary_representation": "REFERENCE",
        "land_use_class": "vegetation",
        "area_sqm": 4976.29,
        "perimeter_m": 282.2,
        "source": "Synthetic Legacy Cadastral Map (Non-Authoritative Demo)"
      },
      "geometry": {
        "type": "Polygon",
        "coordinates": [
          [
            [
              77.5980647,
              13.005731
            ],
            [
              77.598699,
              13.0057314
            ],
            [
              77.5987155,
              13.0050916
            ],
            [
              77.5980633,
              13.0050832
            ],
            [
              77.5980647,
              13.005731
            ]
          ]
        ]
      }
    },
    {
      "type": "Feature",
      "properties": {
        "id": "train_067_REF_011",
        "parcel_id": "train_067_P_011",
        "parcel_layer": "REFERENCE",
        "boundary_representation": "REFERENCE",
        "land_use_class": "vegetation",
        "area_sqm": 4739.0,
        "perimeter_m": 275.4,
        "source": "Synthetic Legacy Cadastral Map (Non-Authoritative Demo)"
      },
      "geometry": {
        "type": "Polygon",
        "coordinates": [
          [
            [
              77.5987356,
              13.0063854
            ],
            [
              77.5993655,
              13.0063683
            ],
            [
              77.5993652,
              13.0057458
            ],
            [
              77.5987366,
              13.0057543
            ],
            [
              77.5987356,
              13.0063854
            ]
          ]
        ]
      }
    },
    {
      "type": "Feature",
      "properties": {
        "id": "train_067_REF_012",
        "parcel_id": "train_067_P_012",
        "parcel_layer": "REFERENCE",
        "boundary_representation": "REFERENCE",
        "land_use_class": "vegetation",
        "area_sqm": 4817.86,
        "perimeter_m": 277.66,
        "source": "Synthetic Legacy Cadastral Map (Non-Authoritative Demo)"
      },
      "geometry": {
        "type": "Polygon",
        "coordinates": [
          [
            [
              77.5987574,
              13.0057443
            ],
            [
              77.599392,
              13.005736
            ],
            [
              77.5993922,
              13.0051103
            ],
            [
              77.5987576,
              13.0051063
            ],
            [
              77.5987574,
              13.0057443
            ]
          ]
        ]
      }
    },
    {
      "type": "Feature",
      "properties": {
        "id": "train_067_REF_013",
        "parcel_id": "train_067_P_013",
        "parcel_layer": "REFERENCE",
        "boundary_representation": "REFERENCE",
        "land_use_class": "vegetation",
        "area_sqm": 2748.76,
        "perimeter_m": 218.96,
        "source": "Synthetic Legacy Cadastral Map (Non-Authoritative Demo)"
      },
      "geometry": {
        "type": "Polygon",
        "coordinates": [
          [
            [
              77.5995768,
              13.006383
            ],
            [
              77.5999312,
              13.006385
            ],
            [
              77.5999355,
              13.0057563
            ],
            [
              77.5995707,
              13.0057393
            ],
            [
              77.5995768,
              13.006383
            ]
          ]
        ]
      }
    },
    {
      "type": "Feature",
      "properties": {
        "id": "train_067_REF_014",
        "parcel_id": "train_067_P_014",
        "parcel_layer": "REFERENCE",
        "boundary_representation": "REFERENCE",
        "land_use_class": "industrial",
        "area_sqm": 2746.39,
        "perimeter_m": 217.68,
        "source": "Synthetic Legacy Cadastral Map (Non-Authoritative Demo)"
      },
      "geometry": {
        "type": "Polygon",
        "coordinates": [
          [
            [
              77.5995716,
              13.0057131
            ],
            [
              77.599945,
              13.0057143
            ],
            [
              77.5999425,
              13.0050917
            ],
            [
              77.5995834,
              13.0050876
            ],
            [
              77.5995716,
              13.0057131
            ]
          ]
        ]
      }
    },
    {
      "type": "Feature",
      "properties": {
        "id": "train_067_REF_015",
        "parcel_id": "train_067_P_015",
        "parcel_layer": "REFERENCE",
        "boundary_representation": "REFERENCE",
        "land_use_class": "industrial",
        "area_sqm": 2832.49,
        "perimeter_m": 222.04,
        "source": "Synthetic Legacy Cadastral Map (Non-Authoritative Demo)"
      },
      "geometry": {
        "type": "Polygon",
        "coordinates": [
          [
            [
              77.5999617,
              13.0063867
            ],
            [
              77.6003298,
              13.0063859
            ],
            [
              77.6003135,
              13.005742
            ],
            [
              77.5999492,
              13.0057432
            ],
            [
              77.5999617,
              13.0063867
            ]
          ]
        ]
      }
    },
    {
      "type": "Feature",
      "properties": {
        "id": "train_067_REF_016",
        "parcel_id": "train_067_P_016",
        "parcel_layer": "REFERENCE",
        "boundary_representation": "REFERENCE",
        "land_use_class": "residential",
        "area_sqm": 2780.25,
        "perimeter_m": 219.63,
        "source": "Synthetic Legacy Cadastral Map (Non-Authoritative Demo)"
      },
      "geometry": {
        "type": "Polygon",
        "coordinates": [
          [
            [
              77.5999893,
              13.0057503
            ],
            [
              77.6003489,
              13.005735
            ],
            [
              77.6003625,
              13.0051125
            ],
            [
              77.5999916,
              13.0051056
            ],
            [
              77.5999893,
              13.0057503
            ]
          ]
        ]
      }
    }
  ]
}