{
  "type": "FeatureCollection",
  "crs": {
    "type": "name",
    "properties": {
      "name": "EPSG:4326"
    }
  },
  "features": [
    {
      "type": "Feature",
      "properties": {
        "id": "train_067_RD_001",
        "road_class": "MAIN_ROAD",
        "width_m": 5.0,
        "length_m": 258.47,
        "confidence": 0.94
      },
      "geometry": {
        "type": "LineString",
        "coordinates": [
          [
            77.598,
            13.0065187
          ],
          [
            77.6003812,
            13.0065187
          ]
        ]
      }
    },
    {
      "type": "Feature",
      "properties": {
        "id": "train_067_RD_002",
        "road_class": "NARROW_LANE",
        "width_m": 3.0,
        "length_m": 263.6,
        "confidence": 0.89
      },
      "geometry": {
        "type": "LineString",
        "coordinates": [
          [
            77.5994625,
            13.0074
          ],
          [
            77.5994625,
            13.0050187
          ]
        ]
      }
    }
  ]
}