{
  "type": "FeatureCollection",
  "crs": {
    "type": "name",
    "properties": {
      "name": "EPSG:4326"
    }
  },
  "features": [
    {
      "type": "Feature",
      "properties": {
        "id": "train_073_BLDG_001",
        "parcel_id": "train_073_P_001",
        "area_sqm": 979.87,
        "perimeter_m": 125.6,
        "centroid_lon": 77.6162721,
        "centroid_lat": 13.0071047,
        "height_m": 11.49,
        "confidence": 0.809,
        "temporal_epoch": "T1"
      },
      "geometry": {
        "type": "Polygon",
        "coordinates": [
          [
            [
              77.6161389,
              13.0072577
            ],
            [
              77.6164054,
              13.0072577
            ],
            [
              77.6164054,
              13.0069517
            ],
            [
              77.6161389,
              13.0069517
            ],
            [
              77.6161389,
              13.0072577
            ]
          ]
        ]
      }
    },
    {
      "type": "Feature",
      "properties": {
        "id": "train_073_BLDG_002",
        "parcel_id": "train_073_P_002",
        "area_sqm": 979.87,
        "perimeter_m": 125.6,
        "centroid_lon": 77.6162721,
        "centroid_lat": 13.0066266,
        "height_m": 5.97,
        "confidence": 0.948,
        "temporal_epoch": "T1"
      },
      "geometry": {
        "type": "Polygon",
        "coordinates": [
          [
            [
              77.6161389,
              13.0067796
            ],
            [
              77.6164054,
              13.0067796
            ],
            [
              77.6164054,
              13.0064736
            ],
            [
              77.6161389,
              13.0064736
            ],
            [
              77.6161389,
              13.0067796
            ]
          ]
        ]
      }
    },
    {
      "type": "Feature",
      "properties": {
        "id": "train_073_BLDG_003",
        "parcel_id": "train_073_P_003",
        "area_sqm": 1557.5,
        "perimeter_m": 159.71,
        "centroid_lon": 77.6168101,
        "centroid_lat": 13.0071047,
        "height_m": 6.14,
        "confidence": 0.893,
        "temporal_epoch": "T1"
      },
      "geometry": {
        "type": "Polygon",
        "coordinates": [
          [
            [
              77.6165983,
              13.0072577
            ],
            [
              77.6170219,
              13.0072577
            ],
            [
              77.6170219,
              13.0069517
            ],
            [
              77.6165983,
              13.0069517
            ],
            [
              77.6165983,
              13.0072577
            ]
          ]
        ]
      }
    },
    {
      "type": "Feature",
      "properties": {
        "id": "train_073_BLDG_004",
        "parcel_id": "train_073_P_005",
        "area_sqm": 1239.45,
        "perimeter_m": 140.93,
        "centroid_lon": 77.6174357,
        "centroid_lat": 13.0071047,
        "height_m": 5.5,
        "confidence": 0.835,
        "temporal_epoch": "T1"
      },
      "geometry": {
        "type": "Polygon",
        "coordinates": [
          [
            [
              77.6172671,
              13.0072577
            ],
            [
              77.6176042,
              13.0072577
            ],
            [
              77.6176042,
              13.0069517
            ],
            [
              77.6172671,
              13.0069517
            ],
            [
              77.6172671,
              13.0072577
            ]
          ]
        ]
      }
    },
    {
      "type": "Feature",
      "properties": {
        "id": "train_073_BLDG_005",
        "parcel_id": "train_073_P_006",
        "area_sqm": 1239.46,
        "perimeter_m": 140.93,
        "centroid_lon": 77.6174357,
        "centroid_lat": 13.0066266,
        "height_m": 10.18,
        "confidence": 0.907,
        "temporal_epoch": "T1"
      },
      "geometry": {
        "type": "Polygon",
        "coordinates": [
          [
            [
              77.6172671,
              13.0067796
            ],
            [
              77.6176042,
              13.0067796
            ],
            [
              77.6176042,
              13.0064736
            ],
            [
              77.6172671,
              13.0064736
            ],
            [
              77.6172671,
              13.0067796
            ]
          ]
        ]
      }
    },
    {
      "type": "Feature",
      "properties": {
        "id": "train_073_BLDG_006",
        "parcel_id": "train_073_P_007",
        "area_sqm": 1239.45,
        "perimeter_m": 140.93,
        "centroid_lon": 77.6180169,
        "centroid_lat": 13.0071047,
        "height_m": 9.09,
        "confidence": 0.941,
        "temporal_epoch": "T1"
      },
      "geometry": {
        "type": "Polygon",
        "coordinates": [
          [
            [
              77.6178484,
              13.0072577
            ],
            [
              77.6181855,
              13.0072577
            ],
            [
              77.6181855,
              13.0069517
            ],
            [
              77.6178484,
              13.0069517
            ],
            [
              77.6178484,
              13.0072577
            ]
          ]
        ]
      }
    },
    {
      "type": "Feature",
      "properties": {
        "id": "train_073_BLDG_007",
        "parcel_id": "train_073_P_008",
        "area_sqm": 1239.46,
        "perimeter_m": 140.93,
        "centroid_lon": 77.6180169,
        "centroid_lat": 13.0066266,
        "height_m": 7.71,
        "confidence": 0.876,
        "temporal_epoch": "T1"
      },
      "geometry": {
        "type": "Polygon",
        "coordinates": [
          [
            [
              77.6178484,
              13.0067796
            ],
            [
              77.6181855,
              13.0067796
            ],
            [
              77.6181855,
              13.0064736
            ],
            [
              77.6178484,
              13.0064736
            ],
            [
              77.6178484,
              13.0067796
            ]
          ]
        ]
      }
    },
    {
      "type": "Feature",
      "properties": {
        "id": "train_073_BLDG_008",
        "parcel_id": "train_073_P_009",
        "area_sqm": 1075.94,
        "perimeter_m": 132.24,
        "centroid_lon": 77.6162722,
        "centroid_lat": 13.0058625,
        "height_m": 8.66,
        "confidence": 0.893,
        "temporal_epoch": "T1"
      },
      "geometry": {
        "type": "Polygon",
        "coordinates": [
          [
            [
              77.6161389,
              13.0060305
            ],
            [
              77.6164054,
              13.0060305
            ],
            [
              77.6164054,
              13.0056945
            ],
            [
              77.6161389,
              13.0056945
            ],
            [
              77.6161389,
              13.0060305
            ]
          ]
        ]
      }
    },
    {
      "type": "Feature",
      "properties": {
        "id": "train_073_BLDG_009",
        "parcel_id": "train_073_P_010",
        "area_sqm": 1075.94,
        "perimeter_m": 132.24,
        "centroid_lon": 77.6162722,
        "centroid_lat": 13.0053375,
        "height_m": 9.23,
        "confidence": 0.888,
        "temporal_epoch": "T1"
      },
      "geometry": {
        "type": "Polygon",
        "coordinates": [
          [
            [
              77.6161389,
              13.0055055
            ],
            [
              77.6164054,
              13.0055055
            ],
            [
              77.6164054,
              13.0051695
            ],
            [
              77.6161389,
              13.0051695
            ],
            [
              77.6161389,
              13.0055055
            ]
          ]
        ]
      }
    },
    {
      "type": "Feature",
      "properties": {
        "id": "train_073_BLDG_010",
        "parcel_id": "train_073_P_011",
        "area_sqm": 1075.94,
        "perimeter_m": 132.24,
        "centroid_lon": 77.6167315,
        "centroid_lat": 13.0058625,
        "height_m": 10.07,
        "confidence": 0.952,
        "temporal_epoch": "T1"
      },
      "geometry": {
        "type": "Polygon",
        "coordinates": [
          [
            [
              77.6165983,
              13.0060305
            ],
            [
              77.6168648,
              13.0060305
            ],
            [
              77.6168648,
              13.0056945
            ],
            [
              77.6165983,
              13.0056945
            ],
            [
              77.6165983,
              13.0060305
            ]
          ]
        ]
      }
    },
    {
      "type": "Feature",
      "properties": {
        "id": "train_073_BLDG_011",
        "parcel_id": "train_073_P_012",
        "area_sqm": 1075.94,
        "perimeter_m": 132.24,
        "centroid_lon": 77.6167315,
        "centroid_lat": 13.0053375,
        "height_m": 6.96,
        "confidence": 0.787,
        "temporal_epoch": "T1"
      },
      "geometry": {
        "type": "Polygon",
        "coordinates": [
          [
            [
              77.6165983,
              13.0055055
            ],
            [
              77.6168648,
              13.0055055
            ],
            [
              77.6168648,
              13.0051695
            ],
            [
              77.6165983,
              13.0051695
            ],
            [
              77.6165983,
              13.0055055
            ]
          ]
        ]
      }
    },
    {
      "type": "Feature",
      "properties": {
        "id": "train_073_BLDG_012",
        "parcel_id": "train_073_P_013",
        "area_sqm": 1360.98,
        "perimeter_m": 147.57,
        "centroid_lon": 77.6174357,
        "centroid_lat": 13.0058625,
        "height_m": 10.49,
        "confidence": 0.912,
        "temporal_epoch": "T1"
      },
      "geometry": {
        "type": "Polygon",
        "coordinates": [
          [
            [
              77.6172671,
              13.0060305
            ],
            [
              77.6176042,
              13.0060305
            ],
            [
              77.6176042,
              13.0056945
            ],
            [
              77.6172671,
              13.0056945
            ],
            [
              77.6172671,
              13.0060305
            ]
          ]
        ]
      }
    },
    {
      "type": "Feature",
      "properties": {
        "id": "train_073_BLDG_013",
        "parcel_id": "train_073_P_015",
        "area_sqm": 1360.98,
        "perimeter_m": 147.57,
        "centroid_lon": 77.6180169,
        "centroid_lat": 13.0058625,
        "height_m": 9.56,
        "confidence": 0.83,
        "temporal_epoch": "T1"
      },
      "geometry": {
        "type": "Polygon",
        "coordinates": [
          [
            [
              77.6178484,
              13.0060305
            ],
            [
              77.6181855,
              13.0060305
            ],
            [
              77.6181855,
              13.0056945
            ],
            [
              77.6178484,
              13.0056945
            ],
            [
              77.6178484,
              13.0060305
            ]
          ]
        ]
      }
    },
    {
      "type": "Feature",
      "properties": {
        "id": "train_073_BLDG_014",
        "parcel_id": "train_073_P_016",
        "area_sqm": 1360.98,
        "perimeter_m": 147.57,
        "centroid_lon": 77.6180169,
        "centroid_lat": 13.0053375,
        "height_m": 6.1,
        "confidence": 0.933,
        "temporal_epoch": "T1"
      },
      "geometry": {
        "type": "Polygon",
        "coordinates": [
          [
            [
              77.6178484,
              13.0055055
            ],
            [
              77.6181855,
              13.0055055
            ],
            [
              77.6181855,
              13.0051695
            ],
            [
              77.6178484,
              13.0051695
            ],
            [
              77.6178484,
              13.0055055
            ]
          ]
        ]
      }
    }
  ]
}