{
  "type": "FeatureCollection",
  "crs": {
    "type": "name",
    "properties": {
      "name": "EPSG:4326"
    }
  },
  "features": [
    {
      "type": "Feature",
      "properties": {
        "id": "train_073_REF_001",
        "parcel_id": "train_073_P_001",
        "parcel_layer": "REFERENCE",
        "boundary_representation": "REFERENCE",
        "land_use_class": "commercial",
        "area_sqm": 2418.1,
        "perimeter_m": 196.87,
        "source": "Synthetic Legacy Cadastral Map (Non-Authoritative Demo)"
      },
      "geometry": {
        "type": "Polygon",
        "coordinates": [
          [
            [
              77.6160754,
              13.0073333
            ],
            [
              77.6165116,
              13.0073361
            ],
            [
              77.6165046,
              13.0068752
            ],
            [
              77.6160695,
              13.0068702
            ],
            [
              77.6160754,
              13.0073333
            ]
          ]
        ]
      }
    },
    {
      "type": "Feature",
      "properties": {
        "id": "train_073_REF_002",
        "parcel_id": "train_073_P_002",
        "parcel_layer": "REFERENCE",
        "boundary_representation": "REFERENCE",
        "land_use_class": "mixed_use",
        "area_sqm": 2341.81,
        "perimeter_m": 193.77,
        "source": "Synthetic Legacy Cadastral Map (Non-Authoritative Demo)"
      },
      "geometry": {
        "type": "Polygon",
        "coordinates": [
          [
            [
              77.6160834,
              13.0068493
            ],
            [
              77.6165045,
              13.0068576
            ],
            [
              77.6165042,
              13.0064004
            ],
            [
              77.6160671,
              13.0063979
            ],
            [
              77.6160834,
              13.0068493
            ]
          ]
        ]
      }
    },
    {
      "type": "Feature",
      "properties": {
        "id": "train_073_REF_003",
        "parcel_id": "train_073_P_003",
        "parcel_layer": "REFERENCE",
        "boundary_representation": "REFERENCE",
        "land_use_class": "mixed_use",
        "area_sqm": 2314.41,
        "perimeter_m": 192.59,
        "source": "Synthetic Legacy Cadastral Map (Non-Authoritative Demo)"
      },
      "geometry": {
        "type": "Polygon",
        "coordinates": [
          [
            [
              77.6165341,
              13.0073255
            ],
            [
              77.6169604,
              13.0073387
            ],
            [
              77.6169656,
              13.0068771
            ],
            [
              77.6165373,
              13.0068856
            ],
            [
              77.6165341,
              13.0073255
            ]
          ]
        ]
      }
    },
    {
      "type": "Feature",
      "properties": {
        "id": "train_073_REF_004",
        "parcel_id": "train_073_P_004",
        "parcel_layer": "REFERENCE",
        "boundary_representation": "REFERENCE",
        "land_use_class": "vegetation",
        "area_sqm": 2388.76,
        "perimeter_m": 195.68,
        "source": "Synthetic Legacy Cadastral Map (Non-Authoritative Demo)"
      },
      "geometry": {
        "type": "Polygon",
        "coordinates": [
          [
            [
              77.6165789,
              13.0068822
            ],
            [
              77.6170138,
              13.0068692
            ],
            [
              77.6170113,
              13.0064097
            ],
            [
              77.6165789,
              13.0064249
            ],
            [
              77.6165789,
              13.0068822
            ]
          ]
        ]
      }
    },
    {
      "type": "Feature",
      "properties": {
        "id": "train_073_REF_005",
        "parcel_id": "train_073_P_005",
        "parcel_layer": "REFERENCE",
        "boundary_representation": "REFERENCE",
        "land_use_class": "mixed_use",
        "area_sqm": 3046.12,
        "perimeter_m": 221.85,
        "source": "Synthetic Legacy Cadastral Map (Non-Authoritative Demo)"
      },
      "geometry": {
        "type": "Polygon",
        "coordinates": [
          [
            [
              77.6171754,
              13.0073373
            ],
            [
              77.6177421,
              13.0073278
            ],
            [
              77.6177368,
              13.0068703
            ],
            [
              77.6171839,
              13.006889
            ],
            [
              77.6171754,
              13.0073373
            ]
          ]
        ]
      }
    },
    {
      "type": "Feature",
      "properties": {
        "id": "train_073_REF_006",
        "parcel_id": "train_073_P_006",
        "parcel_layer": "REFERENCE",
        "boundary_representation": "REFERENCE",
        "land_use_class": "industrial",
        "area_sqm": 3007.81,
        "perimeter_m": 220.79,
        "source": "Synthetic Legacy Cadastral Map (Non-Authoritative Demo)"
      },
      "geometry": {
        "type": "Polygon",
        "coordinates": [
          [
            [
              77.6171698,
              13.006849
            ],
            [
              77.6177471,
              13.006859
            ],
            [
              77.617738,
              13.0064118
            ],
            [
              77.617185,
              13.0064104
            ],
            [
              77.6171698,
              13.006849
            ]
          ]
        ]
      }
    },
    {
      "type": "Feature",
      "properties": {
        "id": "train_073_REF_007",
        "parcel_id": "train_073_P_007",
        "parcel_layer": "REFERENCE",
        "boundary_representation": "REFERENCE",
        "land_use_class": "commercial",
        "area_sqm": 3130.39,
        "perimeter_m": 225.18,
        "source": "Synthetic Legacy Cadastral Map (Non-Authoritative Demo)"
      },
      "geometry": {
        "type": "Polygon",
        "coordinates": [
          [
            [
              77.6177576,
              13.007326
            ],
            [
              77.6183301,
              13.0073293
            ],
            [
              77.6183285,
              13.0068741
            ],
            [
              77.6177495,
              13.0068762
            ],
            [
              77.6177576,
              13.007326
            ]
          ]
        ]
      }
    },
    {
      "type": "Feature",
      "properties": {
        "id": "train_073_REF_008",
        "parcel_id": "train_073_P_008",
        "parcel_layer": "REFERENCE",
        "boundary_representation": "REFERENCE",
        "land_use_class": "residential",
        "area_sqm": 3005.88,
        "perimeter_m": 220.37,
        "source": "Synthetic Legacy Cadastral Map (Non-Authoritative Demo)"
      },
      "geometry": {
        "type": "Polygon",
        "coordinates": [
          [
            [
              77.6178021,
              13.0068749
            ],
            [
              77.618352,
              13.006871
            ],
            [
              77.6183571,
              13.0064176
            ],
            [
              77.6177935,
              13.0064297
            ],
            [
              77.6178021,
              13.0068749
            ]
          ]
        ]
      }
    },
    {
      "type": "Feature",
      "properties": {
        "id": "train_073_REF_009",
        "parcel_id": "train_073_P_009",
        "parcel_layer": "REFERENCE",
        "boundary_representation": "REFERENCE",
        "land_use_class": "commercial",
        "area_sqm": 2623.67,
        "perimeter_m": 205.58,
        "source": "Synthetic Legacy Cadastral Map (Non-Authoritative Demo)"
      },
      "geometry": {
        "type": "Polygon",
        "coordinates": [
          [
            [
              77.6160753,
              13.0061127
            ],
            [
              77.6165094,
              13.0061111
            ],
            [
              77.616512,
              13.0056084
            ],
            [
              77.6160765,
              13.005611
            ],
            [
              77.6160753,
              13.0061127
            ]
          ]
        ]
      }
    },
    {
      "type": "Feature",
      "properties": {
        "id": "train_073_REF_010",
        "parcel_id": "train_073_P_010",
        "parcel_layer": "REFERENCE",
        "boundary_representation": "REFERENCE",
        "land_use_class": "commercial",
        "area_sqm": 2564.52,
        "perimeter_m": 203.61,
        "source": "Synthetic Legacy Cadastral Map (Non-Authoritative Demo)"
      },
      "geometry": {
        "type": "Polygon",
        "coordinates": [
          [
            [
              77.616081,
              13.0055879
            ],
            [
              77.616501,
              13.0055907
            ],
            [
              77.6165055,
              13.0050869
            ],
            [
              77.6160823,
              13.0050793
            ],
            [
              77.616081,
              13.0055879
            ]
          ]
        ]
      }
    },
    {
      "type": "Feature",
      "properties": {
        "id": "train_073_REF_011",
        "parcel_id": "train_073_P_011",
        "parcel_layer": "REFERENCE",
        "boundary_representation": "REFERENCE",
        "land_use_class": "mixed_use",
        "area_sqm": 2655.3,
        "perimeter_m": 206.66,
        "source": "Synthetic Legacy Cadastral Map (Non-Authoritative Demo)"
      },
      "geometry": {
        "type": "Polygon",
        "coordinates": [
          [
            [
              77.6165393,
              13.0061139
            ],
            [
              77.6169799,
              13.0061059
            ],
            [
              77.6169708,
              13.0056202
            ],
            [
              77.6165223,
              13.0056052
            ],
            [
              77.6165393,
              13.0061139
            ]
          ]
        ]
      }
    },
    {
      "type": "Feature",
      "properties": {
        "id": "train_073_REF_012",
        "parcel_id": "train_073_P_012",
        "parcel_layer": "REFERENCE",
        "boundary_representation": "REFERENCE",
        "land_use_class": "mixed_use",
        "area_sqm": 2644.34,
        "perimeter_m": 206.63,
        "source": "Synthetic Legacy Cadastral Map (Non-Authoritative Demo)"
      },
      "geometry": {
        "type": "Polygon",
        "coordinates": [
          [
            [
              77.6165648,
              13.0056157
            ],
            [
              77.61701,
              13.0056092
            ],
            [
              77.616997,
              13.0051049
            ],
            [
              77.616579,
              13.0051002
            ],
            [
              77.6165648,
              13.0056157
            ]
          ]
        ]
      }
    },
    {
      "type": "Feature",
      "properties": {
        "id": "train_073_REF_013",
        "parcel_id": "train_073_P_013",
        "parcel_layer": "REFERENCE",
        "boundary_representation": "REFERENCE",
        "land_use_class": "mixed_use",
        "area_sqm": 3250.74,
        "perimeter_m": 228.47,
        "source": "Synthetic Legacy Cadastral Map (Non-Authoritative Demo)"
      },
      "geometry": {
        "type": "Polygon",
        "coordinates": [
          [
            [
              77.6171682,
              13.0061099
            ],
            [
              77.6177367,
              13.0061083
            ],
            [
              77.6177325,
              13.0056232
            ],
            [
              77.6171902,
              13.0056208
            ],
            [
              77.6171682,
              13.0061099
            ]
          ]
        ]
      }
    },
    {
      "type": "Feature",
      "properties": {
        "id": "train_073_REF_014",
        "parcel_id": "train_073_P_014",
        "parcel_layer": "REFERENCE",
        "boundary_representation": "REFERENCE",
        "land_use_class": "vacant",
        "area_sqm": 3337.33,
        "perimeter_m": 231.33,
        "source": "Synthetic Legacy Cadastral Map (Non-Authoritative Demo)"
      },
      "geometry": {
        "type": "Polygon",
        "coordinates": [
          [
            [
              77.6171731,
              13.005585
            ],
            [
              77.6177358,
              13.0055889
            ],
            [
              77.6177275,
              13.0050907
            ],
            [
              77.6171774,
              13.0050848
            ],
            [
              77.6171731,
              13.005585
            ]
          ]
        ]
      }
    },
    {
      "type": "Feature",
      "properties": {
        "id": "train_073_REF_015",
        "parcel_id": "train_073_P_015",
        "parcel_layer": "REFERENCE",
        "boundary_representation": "REFERENCE",
        "land_use_class": "commercial",
        "area_sqm": 3404.94,
        "perimeter_m": 233.75,
        "source": "Synthetic Legacy Cadastral Map (Non-Authoritative Demo)"
      },
      "geometry": {
        "type": "Polygon",
        "coordinates": [
          [
            [
              77.6177589,
              13.006108
            ],
            [
              77.6183277,
              13.0061154
            ],
            [
              77.6183196,
              13.0056123
            ],
            [
              77.6177556,
              13.0056104
            ],
            [
              77.6177589,
              13.006108
            ]
          ]
        ]
      }
    },
    {
      "type": "Feature",
      "properties": {
        "id": "train_073_REF_016",
        "parcel_id": "train_073_P_016",
        "parcel_layer": "REFERENCE",
        "boundary_representation": "REFERENCE",
        "land_use_class": "industrial",
        "area_sqm": 3392.83,
        "perimeter_m": 233.22,
        "source": "Synthetic Legacy Cadastral Map (Non-Authoritative Demo)"
      },
      "geometry": {
        "type": "Polygon",
        "coordinates": [
          [
            [
              77.6177898,
              13.0056148
            ],
            [
              77.618346,
              13.005605
            ],
            [
              77.6183532,
              13.0051053
            ],
            [
              77.6177905,
              13.005105
            ],
            [
              77.6177898,
              13.0056148
            ]
          ]
        ]
      }
    }
  ]
}