{
  "type": "FeatureCollection",
  "crs": {
    "type": "name",
    "properties": {
      "name": "EPSG:4326"
    }
  },
  "features": [
    {
      "type": "Feature",
      "properties": {
        "id": "train_081_BLDG_001",
        "parcel_id": "train_081_P_001",
        "area_sqm": 1205.05,
        "perimeter_m": 139.61,
        "centroid_lon": 77.5952898,
        "centroid_lat": 13.0100719,
        "height_m": 9.49,
        "confidence": 0.839,
        "temporal_epoch": "T1"
      },
      "geometry": {
        "type": "Polygon",
        "coordinates": [
          [
            [
              77.5951457,
              13.0102459
            ],
            [
              77.5954339,
              13.0102459
            ],
            [
              77.5954339,
              13.0098979
            ],
            [
              77.5951457,
              13.0098979
            ],
            [
              77.5951457,
              13.0102459
            ]
          ]
        ]
      }
    },
    {
      "type": "Feature",
      "properties": {
        "id": "train_081_BLDG_002",
        "parcel_id": "train_081_P_005",
        "area_sqm": 1318.36,
        "perimeter_m": 145.49,
        "centroid_lon": 77.596493,
        "centroid_lat": 13.0100719,
        "height_m": 6.17,
        "confidence": 0.793,
        "temporal_epoch": "T1"
      },
      "geometry": {
        "type": "Polygon",
        "coordinates": [
          [
            [
              77.5963354,
              13.0102459
            ],
            [
              77.5966507,
              13.0102459
            ],
            [
              77.5966507,
              13.0098979
            ],
            [
              77.5963354,
              13.0098979
            ],
            [
              77.5963354,
              13.0102459
            ]
          ]
        ]
      }
    },
    {
      "type": "Feature",
      "properties": {
        "id": "train_081_BLDG_003",
        "parcel_id": "train_081_P_006",
        "area_sqm": 1318.36,
        "perimeter_m": 145.49,
        "centroid_lon": 77.596493,
        "centroid_lat": 13.0095281,
        "height_m": 9.76,
        "confidence": 0.945,
        "temporal_epoch": "T1"
      },
      "geometry": {
        "type": "Polygon",
        "coordinates": [
          [
            [
              77.5963354,
              13.0097021
            ],
            [
              77.5966507,
              13.0097021
            ],
            [
              77.5966507,
              13.0093541
            ],
            [
              77.5963354,
              13.0093541
            ],
            [
              77.5963354,
              13.0097021
            ]
          ]
        ]
      }
    },
    {
      "type": "Feature",
      "properties": {
        "id": "train_081_BLDG_004",
        "parcel_id": "train_081_P_007",
        "area_sqm": 1318.78,
        "perimeter_m": 145.51,
        "centroid_lon": 77.5970368,
        "centroid_lat": 13.0100719,
        "height_m": 8.39,
        "confidence": 0.796,
        "temporal_epoch": "T1"
      },
      "geometry": {
        "type": "Polygon",
        "coordinates": [
          [
            [
              77.5968791,
              13.0102459
            ],
            [
              77.5971945,
              13.0102459
            ],
            [
              77.5971945,
              13.0098979
            ],
            [
              77.5968791,
              13.0098979
            ],
            [
              77.5968791,
              13.0102459
            ]
          ]
        ]
      }
    },
    {
      "type": "Feature",
      "properties": {
        "id": "train_081_BLDG_005",
        "parcel_id": "train_081_P_008",
        "area_sqm": 1318.78,
        "perimeter_m": 145.51,
        "centroid_lon": 77.5970368,
        "centroid_lat": 13.0095281,
        "height_m": 7.83,
        "confidence": 0.873,
        "temporal_epoch": "T1"
      },
      "geometry": {
        "type": "Polygon",
        "coordinates": [
          [
            [
              77.5968791,
              13.0097021
            ],
            [
              77.5971945,
              13.0097021
            ],
            [
              77.5971945,
              13.0093541
            ],
            [
              77.5968791,
              13.0093541
            ],
            [
              77.5968791,
              13.0097021
            ]
          ]
        ]
      }
    },
    {
      "type": "Feature",
      "properties": {
        "id": "train_081_BLDG_006",
        "parcel_id": "train_081_P_009",
        "area_sqm": 1101.17,
        "perimeter_m": 132.97,
        "centroid_lon": 77.5952898,
        "centroid_lat": 13.0088203,
        "height_m": 9.55,
        "confidence": 0.811,
        "temporal_epoch": "T1"
      },
      "geometry": {
        "type": "Polygon",
        "coordinates": [
          [
            [
              77.5951457,
              13.0089793
            ],
            [
              77.5954339,
              13.0089793
            ],
            [
              77.5954339,
              13.0086613
            ],
            [
              77.5951457,
              13.0086613
            ],
            [
              77.5951457,
              13.0089793
            ]
          ]
        ]
      }
    },
    {
      "type": "Feature",
      "properties": {
        "id": "train_081_BLDG_007",
        "parcel_id": "train_081_P_010",
        "area_sqm": 1101.17,
        "perimeter_m": 132.97,
        "centroid_lon": 77.5952898,
        "centroid_lat": 13.0083234,
        "height_m": 5.3,
        "confidence": 0.946,
        "temporal_epoch": "T1"
      },
      "geometry": {
        "type": "Polygon",
        "coordinates": [
          [
            [
              77.5951457,
              13.0084824
            ],
            [
              77.5954339,
              13.0084824
            ],
            [
              77.5954339,
              13.0081644
            ],
            [
              77.5951457,
              13.0081644
            ],
            [
              77.5951457,
              13.0084824
            ]
          ]
        ]
      }
    },
    {
      "type": "Feature",
      "properties": {
        "id": "train_081_BLDG_008",
        "parcel_id": "train_081_P_011",
        "area_sqm": 1100.79,
        "perimeter_m": 132.94,
        "centroid_lon": 77.5957867,
        "centroid_lat": 13.0088203,
        "height_m": 7.51,
        "confidence": 0.797,
        "temporal_epoch": "T1"
      },
      "geometry": {
        "type": "Polygon",
        "coordinates": [
          [
            [
              77.5956426,
              13.0089793
            ],
            [
              77.5959307,
              13.0089793
            ],
            [
              77.5959307,
              13.0086613
            ],
            [
              77.5956426,
              13.0086613
            ],
            [
              77.5956426,
              13.0089793
            ]
          ]
        ]
      }
    },
    {
      "type": "Feature",
      "properties": {
        "id": "train_081_BLDG_009",
        "parcel_id": "train_081_P_014",
        "area_sqm": 1204.72,
        "perimeter_m": 138.85,
        "centroid_lon": 77.596493,
        "centroid_lat": 13.0083234,
        "height_m": 7.47,
        "confidence": 0.95,
        "temporal_epoch": "T1"
      },
      "geometry": {
        "type": "Polygon",
        "coordinates": [
          [
            [
              77.5963354,
              13.0084824
            ],
            [
              77.5966507,
              13.0084824
            ],
            [
              77.5966507,
              13.0081644
            ],
            [
              77.5963354,
              13.0081644
            ],
            [
              77.5963354,
              13.0084824
            ]
          ]
        ]
      }
    },
    {
      "type": "Feature",
      "properties": {
        "id": "train_081_BLDG_010",
        "parcel_id": "train_081_P_015",
        "area_sqm": 1205.1,
        "perimeter_m": 138.87,
        "centroid_lon": 77.5970368,
        "centroid_lat": 13.0088203,
        "height_m": 5.28,
        "confidence": 0.905,
        "temporal_epoch": "T1"
      },
      "geometry": {
        "type": "Polygon",
        "coordinates": [
          [
            [
              77.5968791,
              13.0089793
            ],
            [
              77.5971945,
              13.0089793
            ],
            [
              77.5971945,
              13.0086613
            ],
            [
              77.5968791,
              13.0086613
            ],
            [
              77.5968791,
              13.0089793
            ]
          ]
        ]
      }
    },
    {
      "type": "Feature",
      "properties": {
        "id": "train_081_BLDG_011",
        "parcel_id": "train_081_P_016",
        "area_sqm": 1205.1,
        "perimeter_m": 138.87,
        "centroid_lon": 77.5970368,
        "centroid_lat": 13.0083234,
        "height_m": 4.79,
        "confidence": 0.917,
        "temporal_epoch": "T1"
      },
      "geometry": {
        "type": "Polygon",
        "coordinates": [
          [
            [
              77.5968791,
              13.0084824
            ],
            [
              77.5971945,
              13.0084824
            ],
            [
              77.5971945,
              13.0081644
            ],
            [
              77.5968791,
              13.0081644
            ],
            [
              77.5968791,
              13.0084824
            ]
          ]
        ]
      }
    }
  ]
}