{
  "type": "FeatureCollection",
  "crs": {
    "type": "name",
    "properties": {
      "name": "EPSG:4326"
    }
  },
  "features": [
    {
      "type": "Feature",
      "properties": {
        "id": "train_017_BND_001",
        "parcel_id": "train_017_P_001",
        "boundary_type": "VISIBLE",
        "confidence": 0.945,
        "length_m": 68.7,
        "evidence_sources": [
          "Drone_RGB_Edge",
          "DSM_Breakline"
        ]
      },
      "geometry": {
        "type": "LineString",
        "coordinates": [
          [
            77.6280781,
            12.9953303
          ],
          [
            77.628711,
            12.9953344
          ]
        ]
      }
    },
    {
      "type": "Feature",
      "properties": {
        "id": "train_017_BND_002",
        "parcel_id": "train_017_P_001",
        "boundary_type": "VISIBLE",
        "confidence": 0.866,
        "length_m": 71.49,
        "evidence_sources": [
          "Drone_RGB_Edge",
          "DSM_Breakline"
        ]
      },
      "geometry": {
        "type": "LineString",
        "coordinates": [
          [
            77.628711,
            12.9953344
          ],
          [
            77.6286987,
            12.9946887
          ]
        ]
      }
    },
    {
      "type": "Feature",
      "properties": {
        "id": "train_017_BND_003",
        "parcel_id": "train_017_P_001",
        "boundary_type": "VISIBLE",
        "confidence": 0.897,
        "length_m": 68.98,
        "evidence_sources": [
          "Drone_RGB_Edge",
          "DSM_Breakline"
        ]
      },
      "geometry": {
        "type": "LineString",
        "coordinates": [
          [
            77.6286987,
            12.9946887
          ],
          [
            77.6280633,
            12.9946815
          ]
        ]
      }
    },
    {
      "type": "Feature",
      "properties": {
        "id": "train_017_BND_004",
        "parcel_id": "train_017_P_001",
        "boundary_type": "VISIBLE",
        "confidence": 0.83,
        "length_m": 71.84,
        "evidence_sources": [
          "Drone_RGB_Edge",
          "DSM_Breakline"
        ]
      },
      "geometry": {
        "type": "LineString",
        "coordinates": [
          [
            77.6280633,
            12.9946815
          ],
          [
            77.6280781,
            12.9953303
          ]
        ]
      }
    },
    {
      "type": "Feature",
      "properties": {
        "id": "train_017_BND_005",
        "parcel_id": "train_017_P_002",
        "boundary_type": "VISIBLE",
        "confidence": 0.901,
        "length_m": 69.79,
        "evidence_sources": [
          "Drone_RGB_Edge",
          "DSM_Breakline"
        ]
      },
      "geometry": {
        "type": "LineString",
        "coordinates": [
          [
            77.6280625,
            12.9946773
          ],
          [
            77.6287053,
            12.9946658
          ]
        ]
      }
    },
    {
      "type": "Feature",
      "properties": {
        "id": "train_017_BND_006",
        "parcel_id": "train_017_P_002",
        "boundary_type": "INFERRED",
        "confidence": 0.629,
        "length_m": 71.6,
        "evidence_sources": [
          "Road_Corridor_Offset",
          "Adjacent_Parcel_Topology"
        ]
      },
      "geometry": {
        "type": "LineString",
        "coordinates": [
          [
            77.6287053,
            12.9946658
          ],
          [
            77.6287033,
            12.994019
          ]
        ]
      }
    },
    {
      "type": "Feature",
      "properties": {
        "id": "train_017_BND_007",
        "parcel_id": "train_017_P_002",
        "boundary_type": "VISIBLE",
        "confidence": 0.923,
        "length_m": 70.06,
        "evidence_sources": [
          "Drone_RGB_Edge",
          "DSM_Breakline"
        ]
      },
      "geometry": {
        "type": "LineString",
        "coordinates": [
          [
            77.6287033,
            12.994019
          ],
          [
            77.6280581,
            12.9940342
          ]
        ]
      }
    },
    {
      "type": "Feature",
      "properties": {
        "id": "train_017_BND_008",
        "parcel_id": "train_017_P_002",
        "boundary_type": "INFERRED",
        "confidence": 0.625,
        "length_m": 71.19,
        "evidence_sources": [
          "Road_Corridor_Offset",
          "Adjacent_Parcel_Topology"
        ]
      },
      "geometry": {
        "type": "LineString",
        "coordinates": [
          [
            77.6280581,
            12.9940342
          ],
          [
            77.6280625,
            12.9946773
          ]
        ]
      }
    },
    {
      "type": "Feature",
      "properties": {
        "id": "train_017_BND_009",
        "parcel_id": "train_017_P_003",
        "boundary_type": "VISIBLE",
        "confidence": 0.83,
        "length_m": 68.43,
        "evidence_sources": [
          "Drone_RGB_Edge",
          "DSM_Breakline"
        ]
      },
      "geometry": {
        "type": "LineString",
        "coordinates": [
          [
            77.6287206,
            12.9953236
          ],
          [
            77.6293507,
            12.9953416
          ]
        ]
      }
    },
    {
      "type": "Feature",
      "properties": {
        "id": "train_017_BND_010",
        "parcel_id": "train_017_P_003",
        "boundary_type": "VISIBLE",
        "confidence": 0.89,
        "length_m": 71.74,
        "evidence_sources": [
          "Drone_RGB_Edge",
          "DSM_Breakline"
        ]
      },
      "geometry": {
        "type": "LineString",
        "coordinates": [
          [
            77.6293507,
            12.9953416
          ],
          [
            77.6293489,
            12.9946935
          ]
        ]
      }
    },
    {
      "type": "Feature",
      "properties": {
        "id": "train_017_BND_011",
        "parcel_id": "train_017_P_003",
        "boundary_type": "INFERRED",
        "confidence": 0.745,
        "length_m": 67.3,
        "evidence_sources": [
          "Road_Corridor_Offset",
          "Adjacent_Parcel_Topology"
        ]
      },
      "geometry": {
        "type": "LineString",
        "coordinates": [
          [
            77.6293489,
            12.9946935
          ],
          [
            77.6287289,
            12.9946982
          ]
        ]
      }
    },
    {
      "type": "Feature",
      "properties": {
        "id": "train_017_BND_012",
        "parcel_id": "train_017_P_003",
        "boundary_type": "VISIBLE",
        "confidence": 0.958,
        "length_m": 69.24,
        "evidence_sources": [
          "Drone_RGB_Edge",
          "DSM_Breakline"
        ]
      },
      "geometry": {
        "type": "LineString",
        "coordinates": [
          [
            77.6287289,
            12.9946982
          ],
          [
            77.6287206,
            12.9953236
          ]
        ]
      }
    },
    {
      "type": "Feature",
      "properties": {
        "id": "train_017_BND_013",
        "parcel_id": "train_017_P_004",
        "boundary_type": "VISIBLE",
        "confidence": 0.857,
        "length_m": 67.98,
        "evidence_sources": [
          "Drone_RGB_Edge",
          "DSM_Breakline"
        ]
      },
      "geometry": {
        "type": "LineString",
        "coordinates": [
          [
            77.6287332,
            12.9946586
          ],
          [
            77.6293594,
            12.9946616
          ]
        ]
      }
    },
    {
      "type": "Feature",
      "properties": {
        "id": "train_017_BND_014",
        "parcel_id": "train_017_P_004",
        "boundary_type": "VISIBLE",
        "confidence": 0.952,
        "length_m": 69.6,
        "evidence_sources": [
          "Drone_RGB_Edge",
          "DSM_Breakline"
        ]
      },
      "geometry": {
        "type": "LineString",
        "coordinates": [
          [
            77.6293594,
            12.9946616
          ],
          [
            77.6293655,
            12.9940329
          ]
        ]
      }
    },
    {
      "type": "Feature",
      "properties": {
        "id": "train_017_BND_015",
        "parcel_id": "train_017_P_004",
        "boundary_type": "INFERRED",
        "confidence": 0.765,
        "length_m": 68.59,
        "evidence_sources": [
          "Road_Corridor_Offset",
          "Adjacent_Parcel_Topology"
        ]
      },
      "geometry": {
        "type": "LineString",
        "coordinates": [
          [
            77.6293655,
            12.9940329
          ],
          [
            77.6287339,
            12.9940138
          ]
        ]
      }
    },
    {
      "type": "Feature",
      "properties": {
        "id": "train_017_BND_016",
        "parcel_id": "train_017_P_004",
        "boundary_type": "VISIBLE",
        "confidence": 0.854,
        "length_m": 71.38,
        "evidence_sources": [
          "Drone_RGB_Edge",
          "DSM_Breakline"
        ]
      },
      "geometry": {
        "type": "LineString",
        "coordinates": [
          [
            77.6287339,
            12.9940138
          ],
          [
            77.6287332,
            12.9946586
          ]
        ]
      }
    },
    {
      "type": "Feature",
      "properties": {
        "id": "train_017_BND_017",
        "parcel_id": "train_017_P_005",
        "boundary_type": "VISIBLE",
        "confidence": 0.928,
        "length_m": 37.92,
        "evidence_sources": [
          "Drone_RGB_Edge",
          "DSM_Breakline"
        ]
      },
      "geometry": {
        "type": "LineString",
        "coordinates": [
          [
            77.6295721,
            12.9953364
          ],
          [
            77.6299214,
            12.9953422
          ]
        ]
      }
    },
    {
      "type": "Feature",
      "properties": {
        "id": "train_017_BND_018",
        "parcel_id": "train_017_P_005",
        "boundary_type": "INFERRED",
        "confidence": 0.787,
        "length_m": 72.96,
        "evidence_sources": [
          "Road_Corridor_Offset",
          "Adjacent_Parcel_Topology"
        ]
      },
      "geometry": {
        "type": "LineString",
        "coordinates": [
          [
            77.6299214,
            12.9953422
          ],
          [
            77.6299192,
            12.9946831
          ]
        ]
      }
    },
    {
      "type": "Feature",
      "properties": {
        "id": "train_017_BND_019",
        "parcel_id": "train_017_P_005",
        "boundary_type": "VISIBLE",
        "confidence": 0.859,
        "length_m": 38.33,
        "evidence_sources": [
          "Drone_RGB_Edge",
          "DSM_Breakline"
        ]
      },
      "geometry": {
        "type": "LineString",
        "coordinates": [
          [
            77.6299192,
            12.9946831
          ],
          [
            77.6295661,
            12.994684
          ]
        ]
      }
    },
    {
      "type": "Feature",
      "properties": {
        "id": "train_017_BND_020",
        "parcel_id": "train_017_P_005",
        "boundary_type": "VISIBLE",
        "confidence": 0.856,
        "length_m": 72.22,
        "evidence_sources": [
          "Drone_RGB_Edge",
          "DSM_Breakline"
        ]
      },
      "geometry": {
        "type": "LineString",
        "coordinates": [
          [
            77.6295661,
            12.994684
          ],
          [
            77.6295721,
            12.9953364
          ]
        ]
      }
    },
    {
      "type": "Feature",
      "properties": {
        "id": "train_017_BND_021",
        "parcel_id": "train_017_P_006",
        "boundary_type": "INFERRED",
        "confidence": 0.765,
        "length_m": 39.98,
        "evidence_sources": [
          "Road_Corridor_Offset",
          "Adjacent_Parcel_Topology"
        ]
      },
      "geometry": {
        "type": "LineString",
        "coordinates": [
          [
            77.629572,
            12.9946724
          ],
          [
            77.6299403,
            12.9946688
          ]
        ]
      }
    },
    {
      "type": "Feature",
      "properties": {
        "id": "train_017_BND_022",
        "parcel_id": "train_017_P_006",
        "boundary_type": "INFERRED",
        "confidence": 0.781,
        "length_m": 70.75,
        "evidence_sources": [
          "Road_Corridor_Offset",
          "Adjacent_Parcel_Topology"
        ]
      },
      "geometry": {
        "type": "LineString",
        "coordinates": [
          [
            77.6299403,
            12.9946688
          ],
          [
            77.6299398,
            12.9940297
          ]
        ]
      }
    },
    {
      "type": "Feature",
      "properties": {
        "id": "train_017_BND_023",
        "parcel_id": "train_017_P_006",
        "boundary_type": "VISIBLE",
        "confidence": 0.92,
        "length_m": 39.93,
        "evidence_sources": [
          "Drone_RGB_Edge",
          "DSM_Breakline"
        ]
      },
      "geometry": {
        "type": "LineString",
        "coordinates": [
          [
            77.6299398,
            12.9940297
          ],
          [
            77.6295723,
            12.9940138
          ]
        ]
      }
    },
    {
      "type": "Feature",
      "properties": {
        "id": "train_017_BND_024",
        "parcel_id": "train_017_P_006",
        "boundary_type": "VISIBLE",
        "confidence": 0.91,
        "length_m": 72.91,
        "evidence_sources": [
          "Drone_RGB_Edge",
          "DSM_Breakline"
        ]
      },
      "geometry": {
        "type": "LineString",
        "coordinates": [
          [
            77.6295723,
            12.9940138
          ],
          [
            77.629572,
            12.9946724
          ]
        ]
      }
    },
    {
      "type": "Feature",
      "properties": {
        "id": "train_017_BND_025",
        "parcel_id": "train_017_P_007",
        "boundary_type": "INFERRED",
        "confidence": 0.623,
        "length_m": 38.76,
        "evidence_sources": [
          "Road_Corridor_Offset",
          "Adjacent_Parcel_Topology"
        ]
      },
      "geometry": {
        "type": "LineString",
        "coordinates": [
          [
            77.6299617,
            12.9953387
          ],
          [
            77.6303186,
            12.9953271
          ]
        ]
      }
    },
    {
      "type": "Feature",
      "properties": {
        "id": "train_017_BND_026",
        "parcel_id": "train_017_P_007",
        "boundary_type": "VISIBLE",
        "confidence": 0.933,
        "length_m": 71.33,
        "evidence_sources": [
          "Drone_RGB_Edge",
          "DSM_Breakline"
        ]
      },
      "geometry": {
        "type": "LineString",
        "coordinates": [
          [
            77.6303186,
            12.9953271
          ],
          [
            77.6303109,
            12.9946828
          ]
        ]
      }
    },
    {
      "type": "Feature",
      "properties": {
        "id": "train_017_BND_027",
        "parcel_id": "train_017_P_007",
        "boundary_type": "INFERRED",
        "confidence": 0.636,
        "length_m": 39.67,
        "evidence_sources": [
          "Road_Corridor_Offset",
          "Adjacent_Parcel_Topology"
        ]
      },
      "geometry": {
        "type": "LineString",
        "coordinates": [
          [
            77.6303109,
            12.9946828
          ],
          [
            77.6299455,
            12.9946795
          ]
        ]
      }
    },
    {
      "type": "Feature",
      "properties": {
        "id": "train_017_BND_028",
        "parcel_id": "train_017_P_007",
        "boundary_type": "VISIBLE",
        "confidence": 0.894,
        "length_m": 72.99,
        "evidence_sources": [
          "Drone_RGB_Edge",
          "DSM_Breakline"
        ]
      },
      "geometry": {
        "type": "LineString",
        "coordinates": [
          [
            77.6299455,
            12.9946795
          ],
          [
            77.6299617,
            12.9953387
          ]
        ]
      }
    },
    {
      "type": "Feature",
      "properties": {
        "id": "train_017_BND_029",
        "parcel_id": "train_017_P_008",
        "boundary_type": "INFERRED",
        "confidence": 0.695,
        "length_m": 38.44,
        "evidence_sources": [
          "Road_Corridor_Offset",
          "Adjacent_Parcel_Topology"
        ]
      },
      "geometry": {
        "type": "LineString",
        "coordinates": [
          [
            77.6299537,
            12.994656
          ],
          [
            77.6303078,
            12.9946597
          ]
        ]
      }
    },
    {
      "type": "Feature",
      "properties": {
        "id": "train_017_BND_030",
        "parcel_id": "train_017_P_008",
        "boundary_type": "VISIBLE",
        "confidence": 0.917,
        "length_m": 69.28,
        "evidence_sources": [
          "Drone_RGB_Edge",
          "DSM_Breakline"
        ]
      },
      "geometry": {
        "type": "LineString",
        "coordinates": [
          [
            77.6303078,
            12.9946597
          ],
          [
            77.6303045,
            12.9940339
          ]
        ]
      }
    },
    {
      "type": "Feature",
      "properties": {
        "id": "train_017_BND_031",
        "parcel_id": "train_017_P_008",
        "boundary_type": "VISIBLE",
        "confidence": 0.859,
        "length_m": 37.52,
        "evidence_sources": [
          "Drone_RGB_Edge",
          "DSM_Breakline"
        ]
      },
      "geometry": {
        "type": "LineString",
        "coordinates": [
          [
            77.6303045,
            12.9940339
          ],
          [
            77.629959,
            12.9940232
          ]
        ]
      }
    },
    {
      "type": "Feature",
      "properties": {
        "id": "train_017_BND_032",
        "parcel_id": "train_017_P_008",
        "boundary_type": "VISIBLE",
        "confidence": 0.849,
        "length_m": 70.05,
        "evidence_sources": [
          "Drone_RGB_Edge",
          "DSM_Breakline"
        ]
      },
      "geometry": {
        "type": "LineString",
        "coordinates": [
          [
            77.629959,
            12.9940232
          ],
          [
            77.6299537,
            12.994656
          ]
        ]
      }
    },
    {
      "type": "Feature",
      "properties": {
        "id": "train_017_BND_033",
        "parcel_id": "train_017_P_009",
        "boundary_type": "VISIBLE",
        "confidence": 0.892,
        "length_m": 67.57,
        "evidence_sources": [
          "Drone_RGB_Edge",
          "DSM_Breakline"
        ]
      },
      "geometry": {
        "type": "LineString",
        "coordinates": [
          [
            77.6280719,
            12.993777
          ],
          [
            77.6286943,
            12.9937681
          ]
        ]
      }
    },
    {
      "type": "Feature",
      "properties": {
        "id": "train_017_BND_034",
        "parcel_id": "train_017_P_009",
        "boundary_type": "VISIBLE",
        "confidence": 0.87,
        "length_m": 36.67,
        "evidence_sources": [
          "Drone_RGB_Edge",
          "DSM_Breakline"
        ]
      },
      "geometry": {
        "type": "LineString",
        "coordinates": [
          [
            77.6286943,
            12.9937681
          ],
          [
            77.6286997,
            12.9934369
          ]
        ]
      }
    },
    {
      "type": "Feature",
      "properties": {
        "id": "train_017_BND_035",
        "parcel_id": "train_017_P_009",
        "boundary_type": "VISIBLE",
        "confidence": 0.903,
        "length_m": 69.57,
        "evidence_sources": [
          "Drone_RGB_Edge",
          "DSM_Breakline"
        ]
      },
      "geometry": {
        "type": "LineString",
        "coordinates": [
          [
            77.6286997,
            12.9934369
          ],
          [
            77.6280589,
            12.9934495
          ]
        ]
      }
    },
    {
      "type": "Feature",
      "properties": {
        "id": "train_017_BND_036",
        "parcel_id": "train_017_P_009",
        "boundary_type": "VISIBLE",
        "confidence": 0.881,
        "length_m": 36.28,
        "evidence_sources": [
          "Drone_RGB_Edge",
          "DSM_Breakline"
        ]
      },
      "geometry": {
        "type": "LineString",
        "coordinates": [
          [
            77.6280589,
            12.9934495
          ],
          [
            77.6280719,
            12.993777
          ]
        ]
      }
    },
    {
      "type": "Feature",
      "properties": {
        "id": "train_017_BND_037",
        "parcel_id": "train_017_P_010",
        "boundary_type": "INFERRED",
        "confidence": 0.768,
        "length_m": 68.63,
        "evidence_sources": [
          "Road_Corridor_Offset",
          "Adjacent_Parcel_Topology"
        ]
      },
      "geometry": {
        "type": "LineString",
        "coordinates": [
          [
            77.6280646,
            12.9934209
          ],
          [
            77.6286967,
            12.9934092
          ]
        ]
      }
    },
    {
      "type": "Feature",
      "properties": {
        "id": "train_017_BND_038",
        "parcel_id": "train_017_P_010",
        "boundary_type": "INFERRED",
        "confidence": 0.737,
        "length_m": 36.35,
        "evidence_sources": [
          "Road_Corridor_Offset",
          "Adjacent_Parcel_Topology"
        ]
      },
      "geometry": {
        "type": "LineString",
        "coordinates": [
          [
            77.6286967,
            12.9934092
          ],
          [
            77.6287056,
            12.9930809
          ]
        ]
      }
    },
    {
      "type": "Feature",
      "properties": {
        "id": "train_017_BND_039",
        "parcel_id": "train_017_P_010",
        "boundary_type": "VISIBLE",
        "confidence": 0.933,
        "length_m": 70.34,
        "evidence_sources": [
          "Drone_RGB_Edge",
          "DSM_Breakline"
        ]
      },
      "geometry": {
        "type": "LineString",
        "coordinates": [
          [
            77.6287056,
            12.9930809
          ],
          [
            77.6280576,
            12.9930772
          ]
        ]
      }
    },
    {
      "type": "Feature",
      "properties": {
        "id": "train_017_BND_040",
        "parcel_id": "train_017_P_010",
        "boundary_type": "VISIBLE",
        "confidence": 0.898,
        "length_m": 38.05,
        "evidence_sources": [
          "Drone_RGB_Edge",
          "DSM_Breakline"
        ]
      },
      "geometry": {
        "type": "LineString",
        "coordinates": [
          [
            77.6280576,
            12.9930772
          ],
          [
            77.6280646,
            12.9934209
          ]
        ]
      }
    },
    {
      "type": "Feature",
      "properties": {
        "id": "train_017_BND_041",
        "parcel_id": "train_017_P_011",
        "boundary_type": "VISIBLE",
        "confidence": 0.836,
        "length_m": 69.86,
        "evidence_sources": [
          "Drone_RGB_Edge",
          "DSM_Breakline"
        ]
      },
      "geometry": {
        "type": "LineString",
        "coordinates": [
          [
            77.62872,
            12.9937679
          ],
          [
            77.6293635,
            12.9937777
          ]
        ]
      }
    },
    {
      "type": "Feature",
      "properties": {
        "id": "train_017_BND_042",
        "parcel_id": "train_017_P_011",
        "boundary_type": "INFERRED",
        "confidence": 0.666,
        "length_m": 38.09,
        "evidence_sources": [
          "Road_Corridor_Offset",
          "Adjacent_Parcel_Topology"
        ]
      },
      "geometry": {
        "type": "LineString",
        "coordinates": [
          [
            77.6293635,
            12.9937777
          ],
          [
            77.6293468,
            12.993434
          ]
        ]
      }
    },
    {
      "type": "Feature",
      "properties": {
        "id": "train_017_BND_043",
        "parcel_id": "train_017_P_011",
        "boundary_type": "INFERRED",
        "confidence": 0.661,
        "length_m": 68.12,
        "evidence_sources": [
          "Road_Corridor_Offset",
          "Adjacent_Parcel_Topology"
        ]
      },
      "geometry": {
        "type": "LineString",
        "coordinates": [
          [
            77.6293468,
            12.993434
          ],
          [
            77.6287193,
            12.9934388
          ]
        ]
      }
    },
    {
      "type": "Feature",
      "properties": {
        "id": "train_017_BND_044",
        "parcel_id": "train_017_P_011",
        "boundary_type": "VISIBLE",
        "confidence": 0.953,
        "length_m": 36.43,
        "evidence_sources": [
          "Drone_RGB_Edge",
          "DSM_Breakline"
        ]
      },
      "geometry": {
        "type": "LineString",
        "coordinates": [
          [
            77.6287193,
            12.9934388
          ],
          [
            77.62872,
            12.9937679
          ]
        ]
      }
    },
    {
      "type": "Feature",
      "properties": {
        "id": "train_017_BND_045",
        "parcel_id": "train_017_P_012",
        "boundary_type": "INFERRED",
        "confidence": 0.784,
        "length_m": 69.22,
        "evidence_sources": [
          "Road_Corridor_Offset",
          "Adjacent_Parcel_Topology"
        ]
      },
      "geometry": {
        "type": "LineString",
        "coordinates": [
          [
            77.628726,
            12.9934134
          ],
          [
            77.6293636,
            12.9934222
          ]
        ]
      }
    },
    {
      "type": "Feature",
      "properties": {
        "id": "train_017_BND_046",
        "parcel_id": "train_017_P_012",
        "boundary_type": "INFERRED",
        "confidence": 0.76,
        "length_m": 37.61,
        "evidence_sources": [
          "Road_Corridor_Offset",
          "Adjacent_Parcel_Topology"
        ]
      },
      "geometry": {
        "type": "LineString",
        "coordinates": [
          [
            77.6293636,
            12.9934222
          ],
          [
            77.6293471,
            12.9930828
          ]
        ]
      }
    },
    {
      "type": "Feature",
      "properties": {
        "id": "train_017_BND_047",
        "parcel_id": "train_017_P_012",
        "boundary_type": "VISIBLE",
        "confidence": 0.847,
        "length_m": 67.2,
        "evidence_sources": [
          "Drone_RGB_Edge",
          "DSM_Breakline"
        ]
      },
      "geometry": {
        "type": "LineString",
        "coordinates": [
          [
            77.6293471,
            12.9930828
          ],
          [
            77.6287281,
            12.9930906
          ]
        ]
      }
    },
    {
      "type": "Feature",
      "properties": {
        "id": "train_017_BND_048",
        "parcel_id": "train_017_P_012",
        "boundary_type": "VISIBLE",
        "confidence": 0.82,
        "length_m": 35.73,
        "evidence_sources": [
          "Drone_RGB_Edge",
          "DSM_Breakline"
        ]
      },
      "geometry": {
        "type": "LineString",
        "coordinates": [
          [
            77.6287281,
            12.9930906
          ],
          [
            77.628726,
            12.9934134
          ]
        ]
      }
    },
    {
      "type": "Feature",
      "properties": {
        "id": "train_017_BND_049",
        "parcel_id": "train_017_P_013",
        "boundary_type": "VISIBLE",
        "confidence": 0.948,
        "length_m": 38.71,
        "evidence_sources": [
          "Drone_RGB_Edge",
          "DSM_Breakline"
        ]
      },
      "geometry": {
        "type": "LineString",
        "coordinates": [
          [
            77.6295744,
            12.9937806
          ],
          [
            77.629931,
            12.9937765
          ]
        ]
      }
    },
    {
      "type": "Feature",
      "properties": {
        "id": "train_017_BND_050",
        "parcel_id": "train_017_P_013",
        "boundary_type": "VISIBLE",
        "confidence": 0.893,
        "length_m": 36.63,
        "evidence_sources": [
          "Drone_RGB_Edge",
          "DSM_Breakline"
        ]
      },
      "geometry": {
        "type": "LineString",
        "coordinates": [
          [
            77.629931,
            12.9937765
          ],
          [
            77.629932,
            12.9934456
          ]
        ]
      }
    },
    {
      "type": "Feature",
      "properties": {
        "id": "train_017_BND_051",
        "parcel_id": "train_017_P_013",
        "boundary_type": "INFERRED",
        "confidence": 0.742,
        "length_m": 39.64,
        "evidence_sources": [
          "Road_Corridor_Offset",
          "Adjacent_Parcel_Topology"
        ]
      },
      "geometry": {
        "type": "LineString",
        "coordinates": [
          [
            77.629932,
            12.9934456
          ],
          [
            77.6295668,
            12.9934445
          ]
        ]
      }
    },
    {
      "type": "Feature",
      "properties": {
        "id": "train_017_BND_052",
        "parcel_id": "train_017_P_013",
        "boundary_type": "INFERRED",
        "confidence": 0.785,
        "length_m": 37.21,
        "evidence_sources": [
          "Road_Corridor_Offset",
          "Adjacent_Parcel_Topology"
        ]
      },
      "geometry": {
        "type": "LineString",
        "coordinates": [
          [
            77.6295668,
            12.9934445
          ],
          [
            77.6295744,
            12.9937806
          ]
        ]
      }
    },
    {
      "type": "Feature",
      "properties": {
        "id": "train_017_BND_053",
        "parcel_id": "train_017_P_014",
        "boundary_type": "VISIBLE",
        "confidence": 0.911,
        "length_m": 40.59,
        "evidence_sources": [
          "Drone_RGB_Edge",
          "DSM_Breakline"
        ]
      },
      "geometry": {
        "type": "LineString",
        "coordinates": [
          [
            77.6295592,
            12.9934108
          ],
          [
            77.6299328,
            12.9934266
          ]
        ]
      }
    },
    {
      "type": "Feature",
      "properties": {
        "id": "train_017_BND_054",
        "parcel_id": "train_017_P_014",
        "boundary_type": "INFERRED",
        "confidence": 0.719,
        "length_m": 37.9,
        "evidence_sources": [
          "Road_Corridor_Offset",
          "Adjacent_Parcel_Topology"
        ]
      },
      "geometry": {
        "type": "LineString",
        "coordinates": [
          [
            77.6299328,
            12.9934266
          ],
          [
            77.6299186,
            12.9930845
          ]
        ]
      }
    },
    {
      "type": "Feature",
      "properties": {
        "id": "train_017_BND_055",
        "parcel_id": "train_017_P_014",
        "boundary_type": "VISIBLE",
        "confidence": 0.928,
        "length_m": 38.24,
        "evidence_sources": [
          "Drone_RGB_Edge",
          "DSM_Breakline"
        ]
      },
      "geometry": {
        "type": "LineString",
        "coordinates": [
          [
            77.6299186,
            12.9930845
          ],
          [
            77.6295664,
            12.9930798
          ]
        ]
      }
    },
    {
      "type": "Feature",
      "properties": {
        "id": "train_017_BND_056",
        "parcel_id": "train_017_P_014",
        "boundary_type": "VISIBLE",
        "confidence": 0.907,
        "length_m": 36.65,
        "evidence_sources": [
          "Drone_RGB_Edge",
          "DSM_Breakline"
        ]
      },
      "geometry": {
        "type": "LineString",
        "coordinates": [
          [
            77.6295664,
            12.9930798
          ],
          [
            77.6295592,
            12.9934108
          ]
        ]
      }
    },
    {
      "type": "Feature",
      "properties": {
        "id": "train_017_BND_057",
        "parcel_id": "train_017_P_015",
        "boundary_type": "VISIBLE",
        "confidence": 0.904,
        "length_m": 39.04,
        "evidence_sources": [
          "Drone_RGB_Edge",
          "DSM_Breakline"
        ]
      },
      "geometry": {
        "type": "LineString",
        "coordinates": [
          [
            77.6299502,
            12.9937678
          ],
          [
            77.6303098,
            12.9937713
          ]
        ]
      }
    },
    {
      "type": "Feature",
      "properties": {
        "id": "train_017_BND_058",
        "parcel_id": "train_017_P_015",
        "boundary_type": "VISIBLE",
        "confidence": 0.89,
        "length_m": 37.28,
        "evidence_sources": [
          "Drone_RGB_Edge",
          "DSM_Breakline"
        ]
      },
      "geometry": {
        "type": "LineString",
        "coordinates": [
          [
            77.6303098,
            12.9937713
          ],
          [
            77.6303068,
            12.9934345
          ]
        ]
      }
    },
    {
      "type": "Feature",
      "properties": {
        "id": "train_017_BND_059",
        "parcel_id": "train_017_P_015",
        "boundary_type": "VISIBLE",
        "confidence": 0.833,
        "length_m": 39.69,
        "evidence_sources": [
          "Drone_RGB_Edge",
          "DSM_Breakline"
        ]
      },
      "geometry": {
        "type": "LineString",
        "coordinates": [
          [
            77.6303068,
            12.9934345
          ],
          [
            77.6299412,
            12.9934339
          ]
        ]
      }
    },
    {
      "type": "Feature",
      "properties": {
        "id": "train_017_BND_060",
        "parcel_id": "train_017_P_015",
        "boundary_type": "VISIBLE",
        "confidence": 0.865,
        "length_m": 36.97,
        "evidence_sources": [
          "Drone_RGB_Edge",
          "DSM_Breakline"
        ]
      },
      "geometry": {
        "type": "LineString",
        "coordinates": [
          [
            77.6299412,
            12.9934339
          ],
          [
            77.6299502,
            12.9937678
          ]
        ]
      }
    },
    {
      "type": "Feature",
      "properties": {
        "id": "train_017_BND_061",
        "parcel_id": "train_017_P_016",
        "boundary_type": "VISIBLE",
        "confidence": 0.859,
        "length_m": 39.1,
        "evidence_sources": [
          "Drone_RGB_Edge",
          "DSM_Breakline"
        ]
      },
      "geometry": {
        "type": "LineString",
        "coordinates": [
          [
            77.629957,
            12.993431
          ],
          [
            77.6303171,
            12.9934247
          ]
        ]
      }
    },
    {
      "type": "Feature",
      "properties": {
        "id": "train_017_BND_062",
        "parcel_id": "train_017_P_016",
        "boundary_type": "VISIBLE",
        "confidence": 0.894,
        "length_m": 37.65,
        "evidence_sources": [
          "Drone_RGB_Edge",
          "DSM_Breakline"
        ]
      },
      "geometry": {
        "type": "LineString",
        "coordinates": [
          [
            77.6303171,
            12.9934247
          ],
          [
            77.6303059,
            12.9930848
          ]
        ]
      }
    },
    {
      "type": "Feature",
      "properties": {
        "id": "train_017_BND_063",
        "parcel_id": "train_017_P_016",
        "boundary_type": "INFERRED",
        "confidence": 0.686,
        "length_m": 39.1,
        "evidence_sources": [
          "Road_Corridor_Offset",
          "Adjacent_Parcel_Topology"
        ]
      },
      "geometry": {
        "type": "LineString",
        "coordinates": [
          [
            77.6303059,
            12.9930848
          ],
          [
            77.6299458,
            12.9930772
          ]
        ]
      }
    },
    {
      "type": "Feature",
      "properties": {
        "id": "train_017_BND_064",
        "parcel_id": "train_017_P_016",
        "boundary_type": "VISIBLE",
        "confidence": 0.947,
        "length_m": 39.18,
        "evidence_sources": [
          "Drone_RGB_Edge",
          "DSM_Breakline"
        ]
      },
      "geometry": {
        "type": "LineString",
        "coordinates": [
          [
            77.6299458,
            12.9930772
          ],
          [
            77.629957,
            12.993431
          ]
        ]
      }
    }
  ]
}