{
  "type": "FeatureCollection",
  "crs": {
    "type": "name",
    "properties": {
      "name": "EPSG:4326"
    }
  },
  "features": [
    {
      "type": "Feature",
      "properties": {
        "id": "train_017_BLDG_001",
        "parcel_id": "train_017_P_002",
        "area_sqm": 1948.31,
        "perimeter_m": 176.94,
        "centroid_lon": 77.6283647,
        "centroid_lat": 12.9943453,
        "height_m": 9.93,
        "confidence": 0.819,
        "temporal_epoch": "T1"
      },
      "geometry": {
        "type": "Polygon",
        "coordinates": [
          [
            [
              77.6281744,
              12.9945583
            ],
            [
              77.628555,
              12.9945583
            ],
            [
              77.628555,
              12.9941323
            ],
            [
              77.6281744,
              12.9941323
            ],
            [
              77.6281744,
              12.9945583
            ]
          ]
        ]
      }
    },
    {
      "type": "Feature",
      "properties": {
        "id": "train_017_BLDG_002",
        "parcel_id": "train_017_P_003",
        "area_sqm": 2994.64,
        "perimeter_m": 221.32,
        "centroid_lon": 77.6291231,
        "centroid_lat": 12.9950109,
        "height_m": 11.2,
        "confidence": 0.811,
        "temporal_epoch": "T1"
      },
      "geometry": {
        "type": "Polygon",
        "coordinates": [
          [
            [
              77.6288306,
              12.9952239
            ],
            [
              77.6294156,
              12.9952239
            ],
            [
              77.6294156,
              12.9947979
            ],
            [
              77.6288306,
              12.9947979
            ],
            [
              77.6288306,
              12.9952239
            ]
          ]
        ]
      }
    },
    {
      "type": "Feature",
      "properties": {
        "id": "train_017_BLDG_003",
        "parcel_id": "train_017_P_006",
        "area_sqm": 1141.55,
        "perimeter_m": 142.73,
        "centroid_lon": 77.6297369,
        "centroid_lat": 12.9943453,
        "height_m": 6.14,
        "confidence": 0.952,
        "temporal_epoch": "T1"
      },
      "geometry": {
        "type": "Polygon",
        "coordinates": [
          [
            [
              77.6296254,
              12.9945583
            ],
            [
              77.6298484,
              12.9945583
            ],
            [
              77.6298484,
              12.9941323
            ],
            [
              77.6296254,
              12.9941323
            ],
            [
              77.6296254,
              12.9945583
            ]
          ]
        ]
      }
    },
    {
      "type": "Feature",
      "properties": {
        "id": "train_017_BLDG_004",
        "parcel_id": "train_017_P_007",
        "area_sqm": 1141.55,
        "perimeter_m": 142.73,
        "centroid_lon": 77.6301213,
        "centroid_lat": 12.9950109,
        "height_m": 10.47,
        "confidence": 0.856,
        "temporal_epoch": "T1"
      },
      "geometry": {
        "type": "Polygon",
        "coordinates": [
          [
            [
              77.6300098,
              12.9952239
            ],
            [
              77.6302328,
              12.9952239
            ],
            [
              77.6302328,
              12.9947979
            ],
            [
              77.6300098,
              12.9947979
            ],
            [
              77.6300098,
              12.9952239
            ]
          ]
        ]
      }
    },
    {
      "type": "Feature",
      "properties": {
        "id": "train_017_BLDG_005",
        "parcel_id": "train_017_P_009",
        "area_sqm": 1042.76,
        "perimeter_m": 133.11,
        "centroid_lon": 77.6283647,
        "centroid_lat": 12.9936094,
        "height_m": 11.49,
        "confidence": 0.822,
        "temporal_epoch": "T1"
      },
      "geometry": {
        "type": "Polygon",
        "coordinates": [
          [
            [
              77.6281744,
              12.9937234
            ],
            [
              77.628555,
              12.9937234
            ],
            [
              77.628555,
              12.9934954
            ],
            [
              77.6281744,
              12.9934954
            ],
            [
              77.6281744,
              12.9937234
            ]
          ]
        ]
      }
    },
    {
      "type": "Feature",
      "properties": {
        "id": "train_017_BLDG_006",
        "parcel_id": "train_017_P_012",
        "area_sqm": 1042.76,
        "perimeter_m": 133.11,
        "centroid_lon": 77.6290209,
        "centroid_lat": 12.9932531,
        "height_m": 10.47,
        "confidence": 0.863,
        "temporal_epoch": "T1"
      },
      "geometry": {
        "type": "Polygon",
        "coordinates": [
          [
            [
              77.6288306,
              12.9933671
            ],
            [
              77.6292112,
              12.9933671
            ],
            [
              77.6292112,
              12.9931391
            ],
            [
              77.6288306,
              12.9931391
            ],
            [
              77.6288306,
              12.9933671
            ]
          ]
        ]
      }
    },
    {
      "type": "Feature",
      "properties": {
        "id": "train_017_BLDG_007",
        "parcel_id": "train_017_P_016",
        "area_sqm": 610.97,
        "perimeter_m": 98.89,
        "centroid_lon": 77.6301213,
        "centroid_lat": 12.9932531,
        "height_m": 5.75,
        "confidence": 0.849,
        "temporal_epoch": "T1"
      },
      "geometry": {
        "type": "Polygon",
        "coordinates": [
          [
            [
              77.6300098,
              12.9933671
            ],
            [
              77.6302328,
              12.9933671
            ],
            [
              77.6302328,
              12.9931391
            ],
            [
              77.6300098,
              12.9931391
            ],
            [
              77.6300098,
              12.9933671
            ]
          ]
        ]
      }
    }
  ]
}