{
  "type": "FeatureCollection",
  "crs": {
    "type": "name",
    "properties": {
      "name": "EPSG:4326"
    }
  },
  "features": [
    {
      "type": "Feature",
      "properties": {
        "id": "train_046_BND_001",
        "parcel_id": "train_046_P_001",
        "boundary_type": "INFERRED",
        "confidence": 0.712,
        "length_m": 34.84,
        "evidence_sources": [
          "Road_Corridor_Offset",
          "Adjacent_Parcel_Topology"
        ]
      },
      "geometry": {
        "type": "LineString",
        "coordinates": [
          [
            77.6250992,
            13.001313
          ],
          [
            77.6254201,
            13.001316
          ]
        ]
      }
    },
    {
      "type": "Feature",
      "properties": {
        "id": "train_046_BND_002",
        "parcel_id": "train_046_P_001",
        "boundary_type": "VISIBLE",
        "confidence": 0.843,
        "length_m": 30.08,
        "evidence_sources": [
          "Drone_RGB_Edge",
          "DSM_Breakline"
        ]
      },
      "geometry": {
        "type": "LineString",
        "coordinates": [
          [
            77.6254201,
            13.001316
          ],
          [
            77.6254335,
            13.0010446
          ]
        ]
      }
    },
    {
      "type": "Feature",
      "properties": {
        "id": "train_046_BND_003",
        "parcel_id": "train_046_P_001",
        "boundary_type": "VISIBLE",
        "confidence": 0.864,
        "length_m": 36.28,
        "evidence_sources": [
          "Drone_RGB_Edge",
          "DSM_Breakline"
        ]
      },
      "geometry": {
        "type": "LineString",
        "coordinates": [
          [
            77.6254335,
            13.0010446
          ],
          [
            77.6250993,
            13.001044
          ]
        ]
      }
    },
    {
      "type": "Feature",
      "properties": {
        "id": "train_046_BND_004",
        "parcel_id": "train_046_P_001",
        "boundary_type": "VISIBLE",
        "confidence": 0.864,
        "length_m": 29.78,
        "evidence_sources": [
          "Drone_RGB_Edge",
          "DSM_Breakline"
        ]
      },
      "geometry": {
        "type": "LineString",
        "coordinates": [
          [
            77.6250993,
            13.001044
          ],
          [
            77.6250992,
            13.001313
          ]
        ]
      }
    },
    {
      "type": "Feature",
      "properties": {
        "id": "train_046_BND_005",
        "parcel_id": "train_046_P_002",
        "boundary_type": "VISIBLE",
        "confidence": 0.885,
        "length_m": 34.84,
        "evidence_sources": [
          "Drone_RGB_Edge",
          "DSM_Breakline"
        ]
      },
      "geometry": {
        "type": "LineString",
        "coordinates": [
          [
            77.6251045,
            13.000935
          ],
          [
            77.6254217,
            13.0009833
          ]
        ]
      }
    },
    {
      "type": "Feature",
      "properties": {
        "id": "train_046_BND_006",
        "parcel_id": "train_046_P_002",
        "boundary_type": "VISIBLE",
        "confidence": 0.95,
        "length_m": 33.37,
        "evidence_sources": [
          "Drone_RGB_Edge",
          "DSM_Breakline"
        ]
      },
      "geometry": {
        "type": "LineString",
        "coordinates": [
          [
            77.6254217,
            13.0009833
          ],
          [
            77.6254373,
            13.0006822
          ]
        ]
      }
    },
    {
      "type": "Feature",
      "properties": {
        "id": "train_046_BND_007",
        "parcel_id": "train_046_P_002",
        "boundary_type": "VISIBLE",
        "confidence": 0.855,
        "length_m": 39.73,
        "evidence_sources": [
          "Drone_RGB_Edge",
          "DSM_Breakline"
        ]
      },
      "geometry": {
        "type": "LineString",
        "coordinates": [
          [
            77.6254373,
            13.0006822
          ],
          [
            77.6250728,
            13.0006501
          ]
        ]
      }
    },
    {
      "type": "Feature",
      "properties": {
        "id": "train_046_BND_008",
        "parcel_id": "train_046_P_002",
        "boundary_type": "INFERRED",
        "confidence": 0.614,
        "length_m": 31.72,
        "evidence_sources": [
          "Road_Corridor_Offset",
          "Adjacent_Parcel_Topology"
        ]
      },
      "geometry": {
        "type": "LineString",
        "coordinates": [
          [
            77.6250728,
            13.0006501
          ],
          [
            77.6251045,
            13.000935
          ]
        ]
      }
    },
    {
      "type": "Feature",
      "properties": {
        "id": "train_046_BND_009",
        "parcel_id": "train_046_P_003",
        "boundary_type": "VISIBLE",
        "confidence": 0.952,
        "length_m": 38.69,
        "evidence_sources": [
          "Drone_RGB_Edge",
          "DSM_Breakline"
        ]
      },
      "geometry": {
        "type": "LineString",
        "coordinates": [
          [
            77.6254662,
            13.001329
          ],
          [
            77.6258226,
            13.0013285
          ]
        ]
      }
    },
    {
      "type": "Feature",
      "properties": {
        "id": "train_046_BND_010",
        "parcel_id": "train_046_P_003",
        "boundary_type": "VISIBLE",
        "confidence": 0.872,
        "length_m": 37.3,
        "evidence_sources": [
          "Drone_RGB_Edge",
          "DSM_Breakline"
        ]
      },
      "geometry": {
        "type": "LineString",
        "coordinates": [
          [
            77.6258226,
            13.0013285
          ],
          [
            77.6257773,
            13.0009945
          ]
        ]
      }
    },
    {
      "type": "Feature",
      "properties": {
        "id": "train_046_BND_011",
        "parcel_id": "train_046_P_003",
        "boundary_type": "VISIBLE",
        "confidence": 0.906,
        "length_m": 35.54,
        "evidence_sources": [
          "Drone_RGB_Edge",
          "DSM_Breakline"
        ]
      },
      "geometry": {
        "type": "LineString",
        "coordinates": [
          [
            77.6257773,
            13.0009945
          ],
          [
            77.6254544,
            13.0010475
          ]
        ]
      }
    },
    {
      "type": "Feature",
      "properties": {
        "id": "train_046_BND_012",
        "parcel_id": "train_046_P_003",
        "boundary_type": "VISIBLE",
        "confidence": 0.865,
        "length_m": 31.19,
        "evidence_sources": [
          "Drone_RGB_Edge",
          "DSM_Breakline"
        ]
      },
      "geometry": {
        "type": "LineString",
        "coordinates": [
          [
            77.6254544,
            13.0010475
          ],
          [
            77.6254662,
            13.001329
          ]
        ]
      }
    },
    {
      "type": "Feature",
      "properties": {
        "id": "train_046_BND_013",
        "parcel_id": "train_046_P_004",
        "boundary_type": "VISIBLE",
        "confidence": 0.847,
        "length_m": 30.51,
        "evidence_sources": [
          "Drone_RGB_Edge",
          "DSM_Breakline"
        ]
      },
      "geometry": {
        "type": "LineString",
        "coordinates": [
          [
            77.6255044,
            13.0009241
          ],
          [
            77.6257854,
            13.0009293
          ]
        ]
      }
    },
    {
      "type": "Feature",
      "properties": {
        "id": "train_046_BND_014",
        "parcel_id": "train_046_P_004",
        "boundary_type": "VISIBLE",
        "confidence": 0.856,
        "length_m": 28.62,
        "evidence_sources": [
          "Drone_RGB_Edge",
          "DSM_Breakline"
        ]
      },
      "geometry": {
        "type": "LineString",
        "coordinates": [
          [
            77.6257854,
            13.0009293
          ],
          [
            77.6257969,
            13.000671
          ]
        ]
      }
    },
    {
      "type": "Feature",
      "properties": {
        "id": "train_046_BND_015",
        "parcel_id": "train_046_P_004",
        "boundary_type": "VISIBLE",
        "confidence": 0.824,
        "length_m": 35.98,
        "evidence_sources": [
          "Drone_RGB_Edge",
          "DSM_Breakline"
        ]
      },
      "geometry": {
        "type": "LineString",
        "coordinates": [
          [
            77.6257969,
            13.000671
          ],
          [
            77.6254656,
            13.000681
          ]
        ]
      }
    },
    {
      "type": "Feature",
      "properties": {
        "id": "train_046_BND_016",
        "parcel_id": "train_046_P_004",
        "boundary_type": "VISIBLE",
        "confidence": 0.841,
        "length_m": 27.24,
        "evidence_sources": [
          "Drone_RGB_Edge",
          "DSM_Breakline"
        ]
      },
      "geometry": {
        "type": "LineString",
        "coordinates": [
          [
            77.6254656,
            13.000681
          ],
          [
            77.6255044,
            13.0009241
          ]
        ]
      }
    },
    {
      "type": "Feature",
      "properties": {
        "id": "train_046_BND_017",
        "parcel_id": "train_046_P_005",
        "boundary_type": "VISIBLE",
        "confidence": 0.856,
        "length_m": 63.46,
        "evidence_sources": [
          "Drone_RGB_Edge",
          "DSM_Breakline"
        ]
      },
      "geometry": {
        "type": "LineString",
        "coordinates": [
          [
            77.6260492,
            13.0013334
          ],
          [
            77.6266324,
            13.001294
          ]
        ]
      }
    },
    {
      "type": "Feature",
      "properties": {
        "id": "train_046_BND_018",
        "parcel_id": "train_046_P_005",
        "boundary_type": "VISIBLE",
        "confidence": 0.929,
        "length_m": 27.1,
        "evidence_sources": [
          "Drone_RGB_Edge",
          "DSM_Breakline"
        ]
      },
      "geometry": {
        "type": "LineString",
        "coordinates": [
          [
            77.6266324,
            13.001294
          ],
          [
            77.6266245,
            13.0010493
          ]
        ]
      }
    },
    {
      "type": "Feature",
      "properties": {
        "id": "train_046_BND_019",
        "parcel_id": "train_046_P_005",
        "boundary_type": "INFERRED",
        "confidence": 0.748,
        "length_m": 65.28,
        "evidence_sources": [
          "Road_Corridor_Offset",
          "Adjacent_Parcel_Topology"
        ]
      },
      "geometry": {
        "type": "LineString",
        "coordinates": [
          [
            77.6266245,
            13.0010493
          ],
          [
            77.6260247,
            13.0010069
          ]
        ]
      }
    },
    {
      "type": "Feature",
      "properties": {
        "id": "train_046_BND_020",
        "parcel_id": "train_046_P_005",
        "boundary_type": "VISIBLE",
        "confidence": 0.838,
        "length_m": 36.24,
        "evidence_sources": [
          "Drone_RGB_Edge",
          "DSM_Breakline"
        ]
      },
      "geometry": {
        "type": "LineString",
        "coordinates": [
          [
            77.6260247,
            13.0010069
          ],
          [
            77.6260492,
            13.0013334
          ]
        ]
      }
    },
    {
      "type": "Feature",
      "properties": {
        "id": "train_046_BND_021",
        "parcel_id": "train_046_P_006",
        "boundary_type": "VISIBLE",
        "confidence": 0.829,
        "length_m": 64.64,
        "evidence_sources": [
          "Drone_RGB_Edge",
          "DSM_Breakline"
        ]
      },
      "geometry": {
        "type": "LineString",
        "coordinates": [
          [
            77.6260664,
            13.0009266
          ],
          [
            77.6266611,
            13.0009573
          ]
        ]
      }
    },
    {
      "type": "Feature",
      "properties": {
        "id": "train_046_BND_022",
        "parcel_id": "train_046_P_006",
        "boundary_type": "VISIBLE",
        "confidence": 0.91,
        "length_m": 34.99,
        "evidence_sources": [
          "Drone_RGB_Edge",
          "DSM_Breakline"
        ]
      },
      "geometry": {
        "type": "LineString",
        "coordinates": [
          [
            77.6266611,
            13.0009573
          ],
          [
            77.626631,
            13.0006426
          ]
        ]
      }
    },
    {
      "type": "Feature",
      "properties": {
        "id": "train_046_BND_023",
        "parcel_id": "train_046_P_006",
        "boundary_type": "VISIBLE",
        "confidence": 0.874,
        "length_m": 64.4,
        "evidence_sources": [
          "Drone_RGB_Edge",
          "DSM_Breakline"
        ]
      },
      "geometry": {
        "type": "LineString",
        "coordinates": [
          [
            77.626631,
            13.0006426
          ],
          [
            77.6260385,
            13.0006723
          ]
        ]
      }
    },
    {
      "type": "Feature",
      "properties": {
        "id": "train_046_BND_024",
        "parcel_id": "train_046_P_006",
        "boundary_type": "VISIBLE",
        "confidence": 0.876,
        "length_m": 28.31,
        "evidence_sources": [
          "Drone_RGB_Edge",
          "DSM_Breakline"
        ]
      },
      "geometry": {
        "type": "LineString",
        "coordinates": [
          [
            77.6260385,
            13.0006723
          ],
          [
            77.6260664,
            13.0009266
          ]
        ]
      }
    },
    {
      "type": "Feature",
      "properties": {
        "id": "train_046_BND_025",
        "parcel_id": "train_046_P_007",
        "boundary_type": "INFERRED",
        "confidence": 0.674,
        "length_m": 61.6,
        "evidence_sources": [
          "Road_Corridor_Offset",
          "Adjacent_Parcel_Topology"
        ]
      },
      "geometry": {
        "type": "LineString",
        "coordinates": [
          [
            77.6267182,
            13.0012816
          ],
          [
            77.6272848,
            13.0013128
          ]
        ]
      }
    },
    {
      "type": "Feature",
      "properties": {
        "id": "train_046_BND_026",
        "parcel_id": "train_046_P_007",
        "boundary_type": "VISIBLE",
        "confidence": 0.83,
        "length_m": 36.11,
        "evidence_sources": [
          "Drone_RGB_Edge",
          "DSM_Breakline"
        ]
      },
      "geometry": {
        "type": "LineString",
        "coordinates": [
          [
            77.6272848,
            13.0013128
          ],
          [
            77.6273189,
            13.0009883
          ]
        ]
      }
    },
    {
      "type": "Feature",
      "properties": {
        "id": "train_046_BND_027",
        "parcel_id": "train_046_P_007",
        "boundary_type": "VISIBLE",
        "confidence": 0.82,
        "length_m": 65.34,
        "evidence_sources": [
          "Drone_RGB_Edge",
          "DSM_Breakline"
        ]
      },
      "geometry": {
        "type": "LineString",
        "coordinates": [
          [
            77.6273189,
            13.0009883
          ],
          [
            77.626717,
            13.0009922
          ]
        ]
      }
    },
    {
      "type": "Feature",
      "properties": {
        "id": "train_046_BND_028",
        "parcel_id": "train_046_P_007",
        "boundary_type": "VISIBLE",
        "confidence": 0.959,
        "length_m": 32.04,
        "evidence_sources": [
          "Drone_RGB_Edge",
          "DSM_Breakline"
        ]
      },
      "geometry": {
        "type": "LineString",
        "coordinates": [
          [
            77.626717,
            13.0009922
          ],
          [
            77.6267182,
            13.0012816
          ]
        ]
      }
    },
    {
      "type": "Feature",
      "properties": {
        "id": "train_046_BND_029",
        "parcel_id": "train_046_P_008",
        "boundary_type": "INFERRED",
        "confidence": 0.724,
        "length_m": 64.41,
        "evidence_sources": [
          "Road_Corridor_Offset",
          "Adjacent_Parcel_Topology"
        ]
      },
      "geometry": {
        "type": "LineString",
        "coordinates": [
          [
            77.6266903,
            13.0009821
          ],
          [
            77.6272837,
            13.0009796
          ]
        ]
      }
    },
    {
      "type": "Feature",
      "properties": {
        "id": "train_046_BND_030",
        "parcel_id": "train_046_P_008",
        "boundary_type": "VISIBLE",
        "confidence": 0.869,
        "length_m": 33.4,
        "evidence_sources": [
          "Drone_RGB_Edge",
          "DSM_Breakline"
        ]
      },
      "geometry": {
        "type": "LineString",
        "coordinates": [
          [
            77.6272837,
            13.0009796
          ],
          [
            77.6272719,
            13.0006781
          ]
        ]
      }
    },
    {
      "type": "Feature",
      "properties": {
        "id": "train_046_BND_031",
        "parcel_id": "train_046_P_008",
        "boundary_type": "VISIBLE",
        "confidence": 0.906,
        "length_m": 61.92,
        "evidence_sources": [
          "Drone_RGB_Edge",
          "DSM_Breakline"
        ]
      },
      "geometry": {
        "type": "LineString",
        "coordinates": [
          [
            77.6272719,
            13.0006781
          ],
          [
            77.6267032,
            13.0006351
          ]
        ]
      }
    },
    {
      "type": "Feature",
      "properties": {
        "id": "train_046_BND_032",
        "parcel_id": "train_046_P_008",
        "boundary_type": "VISIBLE",
        "confidence": 0.937,
        "length_m": 38.44,
        "evidence_sources": [
          "Drone_RGB_Edge",
          "DSM_Breakline"
        ]
      },
      "geometry": {
        "type": "LineString",
        "coordinates": [
          [
            77.6267032,
            13.0006351
          ],
          [
            77.6266903,
            13.0009821
          ]
        ]
      }
    },
    {
      "type": "Feature",
      "properties": {
        "id": "train_046_BND_033",
        "parcel_id": "train_046_P_009",
        "boundary_type": "VISIBLE",
        "confidence": 0.854,
        "length_m": 32.95,
        "evidence_sources": [
          "Drone_RGB_Edge",
          "DSM_Breakline"
        ]
      },
      "geometry": {
        "type": "LineString",
        "coordinates": [
          [
            77.6251113,
            13.0004247
          ],
          [
            77.6254148,
            13.0004299
          ]
        ]
      }
    },
    {
      "type": "Feature",
      "properties": {
        "id": "train_046_BND_034",
        "parcel_id": "train_046_P_009",
        "boundary_type": "VISIBLE",
        "confidence": 0.892,
        "length_m": 70.6,
        "evidence_sources": [
          "Drone_RGB_Edge",
          "DSM_Breakline"
        ]
      },
      "geometry": {
        "type": "LineString",
        "coordinates": [
          [
            77.6254148,
            13.0004299
          ],
          [
            77.6253912,
            12.9997925
          ]
        ]
      }
    },
    {
      "type": "Feature",
      "properties": {
        "id": "train_046_BND_035",
        "parcel_id": "train_046_P_009",
        "boundary_type": "INFERRED",
        "confidence": 0.779,
        "length_m": 35.51,
        "evidence_sources": [
          "Road_Corridor_Offset",
          "Adjacent_Parcel_Topology"
        ]
      },
      "geometry": {
        "type": "LineString",
        "coordinates": [
          [
            77.6253912,
            12.9997925
          ],
          [
            77.6250647,
            12.9998124
          ]
        ]
      }
    },
    {
      "type": "Feature",
      "properties": {
        "id": "train_046_BND_036",
        "parcel_id": "train_046_P_009",
        "boundary_type": "INFERRED",
        "confidence": 0.618,
        "length_m": 67.97,
        "evidence_sources": [
          "Road_Corridor_Offset",
          "Adjacent_Parcel_Topology"
        ]
      },
      "geometry": {
        "type": "LineString",
        "coordinates": [
          [
            77.6250647,
            12.9998124
          ],
          [
            77.6251113,
            13.0004247
          ]
        ]
      }
    },
    {
      "type": "Feature",
      "properties": {
        "id": "train_046_BND_037",
        "parcel_id": "train_046_P_010",
        "boundary_type": "VISIBLE",
        "confidence": 0.946,
        "length_m": 37.76,
        "evidence_sources": [
          "Drone_RGB_Edge",
          "DSM_Breakline"
        ]
      },
      "geometry": {
        "type": "LineString",
        "coordinates": [
          [
            77.6250649,
            12.9997292
          ],
          [
            77.6254119,
            12.9997059
          ]
        ]
      }
    },
    {
      "type": "Feature",
      "properties": {
        "id": "train_046_BND_038",
        "parcel_id": "train_046_P_010",
        "boundary_type": "VISIBLE",
        "confidence": 0.953,
        "length_m": 68.52,
        "evidence_sources": [
          "Drone_RGB_Edge",
          "DSM_Breakline"
        ]
      },
      "geometry": {
        "type": "LineString",
        "coordinates": [
          [
            77.6254119,
            12.9997059
          ],
          [
            77.6254003,
            12.999087
          ]
        ]
      }
    },
    {
      "type": "Feature",
      "properties": {
        "id": "train_046_BND_039",
        "parcel_id": "train_046_P_010",
        "boundary_type": "VISIBLE",
        "confidence": 0.823,
        "length_m": 30.29,
        "evidence_sources": [
          "Drone_RGB_Edge",
          "DSM_Breakline"
        ]
      },
      "geometry": {
        "type": "LineString",
        "coordinates": [
          [
            77.6254003,
            12.999087
          ],
          [
            77.6251214,
            12.9990955
          ]
        ]
      }
    },
    {
      "type": "Feature",
      "properties": {
        "id": "train_046_BND_040",
        "parcel_id": "train_046_P_010",
        "boundary_type": "VISIBLE",
        "confidence": 0.841,
        "length_m": 70.42,
        "evidence_sources": [
          "Drone_RGB_Edge",
          "DSM_Breakline"
        ]
      },
      "geometry": {
        "type": "LineString",
        "coordinates": [
          [
            77.6251214,
            12.9990955
          ],
          [
            77.6250649,
            12.9997292
          ]
        ]
      }
    },
    {
      "type": "Feature",
      "properties": {
        "id": "train_046_BND_041",
        "parcel_id": "train_046_P_011",
        "boundary_type": "INFERRED",
        "confidence": 0.729,
        "length_m": 32.08,
        "evidence_sources": [
          "Road_Corridor_Offset",
          "Adjacent_Parcel_Topology"
        ]
      },
      "geometry": {
        "type": "LineString",
        "coordinates": [
          [
            77.6254882,
            13.0004424
          ],
          [
            77.6257777,
            13.000384
          ]
        ]
      }
    },
    {
      "type": "Feature",
      "properties": {
        "id": "train_046_BND_042",
        "parcel_id": "train_046_P_011",
        "boundary_type": "INFERRED",
        "confidence": 0.709,
        "length_m": 67.4,
        "evidence_sources": [
          "Road_Corridor_Offset",
          "Adjacent_Parcel_Topology"
        ]
      },
      "geometry": {
        "type": "LineString",
        "coordinates": [
          [
            77.6257777,
            13.000384
          ],
          [
            77.625768,
            12.9997752
          ]
        ]
      }
    },
    {
      "type": "Feature",
      "properties": {
        "id": "train_046_BND_043",
        "parcel_id": "train_046_P_011",
        "boundary_type": "VISIBLE",
        "confidence": 0.857,
        "length_m": 29.31,
        "evidence_sources": [
          "Drone_RGB_Edge",
          "DSM_Breakline"
        ]
      },
      "geometry": {
        "type": "LineString",
        "coordinates": [
          [
            77.625768,
            12.9997752
          ],
          [
            77.6254983,
            12.9997875
          ]
        ]
      }
    },
    {
      "type": "Feature",
      "properties": {
        "id": "train_046_BND_044",
        "parcel_id": "train_046_P_011",
        "boundary_type": "INFERRED",
        "confidence": 0.682,
        "length_m": 72.5,
        "evidence_sources": [
          "Road_Corridor_Offset",
          "Adjacent_Parcel_Topology"
        ]
      },
      "geometry": {
        "type": "LineString",
        "coordinates": [
          [
            77.6254983,
            12.9997875
          ],
          [
            77.6254882,
            13.0004424
          ]
        ]
      }
    },
    {
      "type": "Feature",
      "properties": {
        "id": "train_046_BND_045",
        "parcel_id": "train_046_P_012",
        "boundary_type": "VISIBLE",
        "confidence": 0.839,
        "length_m": 36.18,
        "evidence_sources": [
          "Drone_RGB_Edge",
          "DSM_Breakline"
        ]
      },
      "geometry": {
        "type": "LineString",
        "coordinates": [
          [
            77.6254571,
            12.9997184
          ],
          [
            77.6257904,
            12.9997169
          ]
        ]
      }
    },
    {
      "type": "Feature",
      "properties": {
        "id": "train_046_BND_046",
        "parcel_id": "train_046_P_012",
        "boundary_type": "VISIBLE",
        "confidence": 0.926,
        "length_m": 68.52,
        "evidence_sources": [
          "Drone_RGB_Edge",
          "DSM_Breakline"
        ]
      },
      "geometry": {
        "type": "LineString",
        "coordinates": [
          [
            77.6257904,
            12.9997169
          ],
          [
            77.6257763,
            12.9990981
          ]
        ]
      }
    },
    {
      "type": "Feature",
      "properties": {
        "id": "train_046_BND_047",
        "parcel_id": "train_046_P_012",
        "boundary_type": "VISIBLE",
        "confidence": 0.824,
        "length_m": 30.19,
        "evidence_sources": [
          "Drone_RGB_Edge",
          "DSM_Breakline"
        ]
      },
      "geometry": {
        "type": "LineString",
        "coordinates": [
          [
            77.6257763,
            12.9990981
          ],
          [
            77.6254996,
            12.9991259
          ]
        ]
      }
    },
    {
      "type": "Feature",
      "properties": {
        "id": "train_046_BND_048",
        "parcel_id": "train_046_P_012",
        "boundary_type": "VISIBLE",
        "confidence": 0.946,
        "length_m": 65.75,
        "evidence_sources": [
          "Drone_RGB_Edge",
          "DSM_Breakline"
        ]
      },
      "geometry": {
        "type": "LineString",
        "coordinates": [
          [
            77.6254996,
            12.9991259
          ],
          [
            77.6254571,
            12.9997184
          ]
        ]
      }
    },
    {
      "type": "Feature",
      "properties": {
        "id": "train_046_BND_049",
        "parcel_id": "train_046_P_013",
        "boundary_type": "INFERRED",
        "confidence": 0.668,
        "length_m": 67.04,
        "evidence_sources": [
          "Road_Corridor_Offset",
          "Adjacent_Parcel_Topology"
        ]
      },
      "geometry": {
        "type": "LineString",
        "coordinates": [
          [
            77.6260306,
            13.0003803
          ],
          [
            77.6266479,
            13.0003978
          ]
        ]
      }
    },
    {
      "type": "Feature",
      "properties": {
        "id": "train_046_BND_050",
        "parcel_id": "train_046_P_013",
        "boundary_type": "INFERRED",
        "confidence": 0.618,
        "length_m": 69.53,
        "evidence_sources": [
          "Road_Corridor_Offset",
          "Adjacent_Parcel_Topology"
        ]
      },
      "geometry": {
        "type": "LineString",
        "coordinates": [
          [
            77.6266479,
            13.0003978
          ],
          [
            77.6266579,
            12.9997698
          ]
        ]
      }
    },
    {
      "type": "Feature",
      "properties": {
        "id": "train_046_BND_051",
        "parcel_id": "train_046_P_013",
        "boundary_type": "VISIBLE",
        "confidence": 0.943,
        "length_m": 64.25,
        "evidence_sources": [
          "Drone_RGB_Edge",
          "DSM_Breakline"
        ]
      },
      "geometry": {
        "type": "LineString",
        "coordinates": [
          [
            77.6266579,
            12.9997698
          ],
          [
            77.6260666,
            12.9997963
          ]
        ]
      }
    },
    {
      "type": "Feature",
      "properties": {
        "id": "train_046_BND_052",
        "parcel_id": "train_046_P_013",
        "boundary_type": "VISIBLE",
        "confidence": 0.89,
        "length_m": 64.77,
        "evidence_sources": [
          "Drone_RGB_Edge",
          "DSM_Breakline"
        ]
      },
      "geometry": {
        "type": "LineString",
        "coordinates": [
          [
            77.6260666,
            12.9997963
          ],
          [
            77.6260306,
            13.0003803
          ]
        ]
      }
    },
    {
      "type": "Feature",
      "properties": {
        "id": "train_046_BND_053",
        "parcel_id": "train_046_P_014",
        "boundary_type": "VISIBLE",
        "confidence": 0.859,
        "length_m": 66.56,
        "evidence_sources": [
          "Drone_RGB_Edge",
          "DSM_Breakline"
        ]
      },
      "geometry": {
        "type": "LineString",
        "coordinates": [
          [
            77.6260412,
            12.9997027
          ],
          [
            77.6266544,
            12.9996994
          ]
        ]
      }
    },
    {
      "type": "Feature",
      "properties": {
        "id": "train_046_BND_054",
        "parcel_id": "train_046_P_014",
        "boundary_type": "VISIBLE",
        "confidence": 0.87,
        "length_m": 68.42,
        "evidence_sources": [
          "Drone_RGB_Edge",
          "DSM_Breakline"
        ]
      },
      "geometry": {
        "type": "LineString",
        "coordinates": [
          [
            77.6266544,
            12.9996994
          ],
          [
            77.6266648,
            12.9990814
          ]
        ]
      }
    },
    {
      "type": "Feature",
      "properties": {
        "id": "train_046_BND_055",
        "parcel_id": "train_046_P_014",
        "boundary_type": "VISIBLE",
        "confidence": 0.908,
        "length_m": 63.94,
        "evidence_sources": [
          "Drone_RGB_Edge",
          "DSM_Breakline"
        ]
      },
      "geometry": {
        "type": "LineString",
        "coordinates": [
          [
            77.6266648,
            12.9990814
          ],
          [
            77.6260758,
            12.9990755
          ]
        ]
      }
    },
    {
      "type": "Feature",
      "properties": {
        "id": "train_046_BND_056",
        "parcel_id": "train_046_P_014",
        "boundary_type": "VISIBLE",
        "confidence": 0.881,
        "length_m": 69.53,
        "evidence_sources": [
          "Drone_RGB_Edge",
          "DSM_Breakline"
        ]
      },
      "geometry": {
        "type": "LineString",
        "coordinates": [
          [
            77.6260758,
            12.9990755
          ],
          [
            77.6260412,
            12.9997027
          ]
        ]
      }
    },
    {
      "type": "Feature",
      "properties": {
        "id": "train_046_BND_057",
        "parcel_id": "train_046_P_015",
        "boundary_type": "VISIBLE",
        "confidence": 0.879,
        "length_m": 66.56,
        "evidence_sources": [
          "Drone_RGB_Edge",
          "DSM_Breakline"
        ]
      },
      "geometry": {
        "type": "LineString",
        "coordinates": [
          [
            77.6266883,
            13.0004133
          ],
          [
            77.6273015,
            13.000413
          ]
        ]
      }
    },
    {
      "type": "Feature",
      "properties": {
        "id": "train_046_BND_058",
        "parcel_id": "train_046_P_015",
        "boundary_type": "VISIBLE",
        "confidence": 0.895,
        "length_m": 71.92,
        "evidence_sources": [
          "Drone_RGB_Edge",
          "DSM_Breakline"
        ]
      },
      "geometry": {
        "type": "LineString",
        "coordinates": [
          [
            77.6273015,
            13.000413
          ],
          [
            77.6273148,
            12.9997634
          ]
        ]
      }
    },
    {
      "type": "Feature",
      "properties": {
        "id": "train_046_BND_059",
        "parcel_id": "train_046_P_015",
        "boundary_type": "VISIBLE",
        "confidence": 0.854,
        "length_m": 64.03,
        "evidence_sources": [
          "Drone_RGB_Edge",
          "DSM_Breakline"
        ]
      },
      "geometry": {
        "type": "LineString",
        "coordinates": [
          [
            77.6273148,
            12.9997634
          ],
          [
            77.6267249,
            12.9997631
          ]
        ]
      }
    },
    {
      "type": "Feature",
      "properties": {
        "id": "train_046_BND_060",
        "parcel_id": "train_046_P_015",
        "boundary_type": "VISIBLE",
        "confidence": 0.843,
        "length_m": 72.08,
        "evidence_sources": [
          "Drone_RGB_Edge",
          "DSM_Breakline"
        ]
      },
      "geometry": {
        "type": "LineString",
        "coordinates": [
          [
            77.6267249,
            12.9997631
          ],
          [
            77.6266883,
            13.0004133
          ]
        ]
      }
    },
    {
      "type": "Feature",
      "properties": {
        "id": "train_046_BND_061",
        "parcel_id": "train_046_P_016",
        "boundary_type": "VISIBLE",
        "confidence": 0.848,
        "length_m": 59.23,
        "evidence_sources": [
          "Drone_RGB_Edge",
          "DSM_Breakline"
        ]
      },
      "geometry": {
        "type": "LineString",
        "coordinates": [
          [
            77.6267214,
            12.9997577
          ],
          [
            77.6272668,
            12.9997415
          ]
        ]
      }
    },
    {
      "type": "Feature",
      "properties": {
        "id": "train_046_BND_062",
        "parcel_id": "train_046_P_016",
        "boundary_type": "VISIBLE",
        "confidence": 0.924,
        "length_m": 72.48,
        "evidence_sources": [
          "Drone_RGB_Edge",
          "DSM_Breakline"
        ]
      },
      "geometry": {
        "type": "LineString",
        "coordinates": [
          [
            77.6272668,
            12.9997415
          ],
          [
            77.6272887,
            12.9990871
          ]
        ]
      }
    },
    {
      "type": "Feature",
      "properties": {
        "id": "train_046_BND_063",
        "parcel_id": "train_046_P_016",
        "boundary_type": "VISIBLE",
        "confidence": 0.95,
        "length_m": 66.06,
        "evidence_sources": [
          "Drone_RGB_Edge",
          "DSM_Breakline"
        ]
      },
      "geometry": {
        "type": "LineString",
        "coordinates": [
          [
            77.6272887,
            12.9990871
          ],
          [
            77.6266813,
            12.9991247
          ]
        ]
      }
    },
    {
      "type": "Feature",
      "properties": {
        "id": "train_046_BND_064",
        "parcel_id": "train_046_P_016",
        "boundary_type": "VISIBLE",
        "confidence": 0.92,
        "length_m": 70.21,
        "evidence_sources": [
          "Drone_RGB_Edge",
          "DSM_Breakline"
        ]
      },
      "geometry": {
        "type": "LineString",
        "coordinates": [
          [
            77.6266813,
            12.9991247
          ],
          [
            77.6267214,
            12.9997577
          ]
        ]
      }
    }
  ]
}