{
  "type": "FeatureCollection",
  "crs": {
    "type": "name",
    "properties": {
      "name": "EPSG:4326"
    }
  },
  "features": [
    {
      "type": "Feature",
      "properties": {
        "id": "train_046_BLDG_001",
        "parcel_id": "train_046_P_001",
        "area_sqm": 610.95,
        "perimeter_m": 98.89,
        "centroid_lon": 77.6252369,
        "centroid_lat": 13.0011656,
        "height_m": 7.5,
        "confidence": 0.811,
        "temporal_epoch": "T1"
      },
      "geometry": {
        "type": "Polygon",
        "coordinates": [
          [
            [
              77.6251254,
              13.0012796
            ],
            [
              77.6253484,
              13.0012796
            ],
            [
              77.6253484,
              13.0010516
            ],
            [
              77.6251254,
              13.0010516
            ],
            [
              77.6251254,
              13.0012796
            ]
          ]
        ]
      }
    },
    {
      "type": "Feature",
      "properties": {
        "id": "train_046_BLDG_002",
        "parcel_id": "train_046_P_005",
        "area_sqm": 1042.73,
        "perimeter_m": 133.11,
        "centroid_lon": 77.6263209,
        "centroid_lat": 13.0011656,
        "height_m": 8.9,
        "confidence": 0.862,
        "temporal_epoch": "T1"
      },
      "geometry": {
        "type": "Polygon",
        "coordinates": [
          [
            [
              77.6261306,
              13.0012796
            ],
            [
              77.6265112,
              13.0012796
            ],
            [
              77.6265112,
              13.0010516
            ],
            [
              77.6261306,
              13.0010516
            ],
            [
              77.6261306,
              13.0012796
            ]
          ]
        ]
      }
    },
    {
      "type": "Feature",
      "properties": {
        "id": "train_046_BLDG_003",
        "parcel_id": "train_046_P_006",
        "area_sqm": 1042.73,
        "perimeter_m": 133.11,
        "centroid_lon": 77.6263209,
        "centroid_lat": 13.0008094,
        "height_m": 7.88,
        "confidence": 0.89,
        "temporal_epoch": "T1"
      },
      "geometry": {
        "type": "Polygon",
        "coordinates": [
          [
            [
              77.6261306,
              13.0009234
            ],
            [
              77.6265112,
              13.0009234
            ],
            [
              77.6265112,
              13.0006954
            ],
            [
              77.6261306,
              13.0006954
            ],
            [
              77.6261306,
              13.0009234
            ]
          ]
        ]
      }
    },
    {
      "type": "Feature",
      "properties": {
        "id": "train_046_BLDG_004",
        "parcel_id": "train_046_P_007",
        "area_sqm": 1042.73,
        "perimeter_m": 133.11,
        "centroid_lon": 77.6269772,
        "centroid_lat": 13.0011656,
        "height_m": 9.73,
        "confidence": 0.923,
        "temporal_epoch": "T1"
      },
      "geometry": {
        "type": "Polygon",
        "coordinates": [
          [
            [
              77.6267869,
              13.0012796
            ],
            [
              77.6271675,
              13.0012796
            ],
            [
              77.6271675,
              13.0010516
            ],
            [
              77.6267869,
              13.0010516
            ],
            [
              77.6267869,
              13.0012796
            ]
          ]
        ]
      }
    },
    {
      "type": "Feature",
      "properties": {
        "id": "train_046_BLDG_005",
        "parcel_id": "train_046_P_008",
        "area_sqm": 1042.73,
        "perimeter_m": 133.11,
        "centroid_lon": 77.6269772,
        "centroid_lat": 13.0008094,
        "height_m": 6.72,
        "confidence": 0.907,
        "temporal_epoch": "T1"
      },
      "geometry": {
        "type": "Polygon",
        "coordinates": [
          [
            [
              77.6267869,
              13.0009234
            ],
            [
              77.6271675,
              13.0009234
            ],
            [
              77.6271675,
              13.0006954
            ],
            [
              77.6267869,
              13.0006954
            ],
            [
              77.6267869,
              13.0009234
            ]
          ]
        ]
      }
    },
    {
      "type": "Feature",
      "properties": {
        "id": "train_046_BLDG_006",
        "parcel_id": "train_046_P_009",
        "area_sqm": 1173.67,
        "perimeter_m": 145.38,
        "centroid_lon": 77.6252369,
        "centroid_lat": 13.0001016,
        "height_m": 10.72,
        "confidence": 0.784,
        "temporal_epoch": "T1"
      },
      "geometry": {
        "type": "Polygon",
        "coordinates": [
          [
            [
              77.6251254,
              13.0003206
            ],
            [
              77.6253484,
              13.0003206
            ],
            [
              77.6253484,
              12.9998826
            ],
            [
              77.6251254,
              12.9998826
            ],
            [
              77.6251254,
              13.0003206
            ]
          ]
        ]
      }
    },
    {
      "type": "Feature",
      "properties": {
        "id": "train_046_BLDG_007",
        "parcel_id": "train_046_P_010",
        "area_sqm": 1173.67,
        "perimeter_m": 145.38,
        "centroid_lon": 77.6252369,
        "centroid_lat": 12.9994172,
        "height_m": 8.59,
        "confidence": 0.853,
        "temporal_epoch": "T1"
      },
      "geometry": {
        "type": "Polygon",
        "coordinates": [
          [
            [
              77.6251254,
              12.9996362
            ],
            [
              77.6253484,
              12.9996362
            ],
            [
              77.6253484,
              12.9991982
            ],
            [
              77.6251254,
              12.9991982
            ],
            [
              77.6251254,
              12.9996362
            ]
          ]
        ]
      }
    },
    {
      "type": "Feature",
      "properties": {
        "id": "train_046_BLDG_008",
        "parcel_id": "train_046_P_011",
        "area_sqm": 1173.15,
        "perimeter_m": 145.36,
        "centroid_lon": 77.6256213,
        "centroid_lat": 13.0001016,
        "height_m": 7.87,
        "confidence": 0.79,
        "temporal_epoch": "T1"
      },
      "geometry": {
        "type": "Polygon",
        "coordinates": [
          [
            [
              77.6255098,
              13.0003206
            ],
            [
              77.6257327,
              13.0003206
            ],
            [
              77.6257327,
              12.9998826
            ],
            [
              77.6255098,
              12.9998826
            ],
            [
              77.6255098,
              13.0003206
            ]
          ]
        ]
      }
    },
    {
      "type": "Feature",
      "properties": {
        "id": "train_046_BLDG_009",
        "parcel_id": "train_046_P_014",
        "area_sqm": 2003.14,
        "perimeter_m": 179.6,
        "centroid_lon": 77.6263209,
        "centroid_lat": 12.9994172,
        "height_m": 7.66,
        "confidence": 0.845,
        "temporal_epoch": "T1"
      },
      "geometry": {
        "type": "Polygon",
        "coordinates": [
          [
            [
              77.6261306,
              12.9996362
            ],
            [
              77.6265112,
              12.9996362
            ],
            [
              77.6265112,
              12.9991982
            ],
            [
              77.6261306,
              12.9991982
            ],
            [
              77.6261306,
              12.9996362
            ]
          ]
        ]
      }
    },
    {
      "type": "Feature",
      "properties": {
        "id": "train_046_BLDG_010",
        "parcel_id": "train_046_P_015",
        "area_sqm": 2003.14,
        "perimeter_m": 179.6,
        "centroid_lon": 77.6269772,
        "centroid_lat": 13.0001016,
        "height_m": 10.61,
        "confidence": 0.86,
        "temporal_epoch": "T1"
      },
      "geometry": {
        "type": "Polygon",
        "coordinates": [
          [
            [
              77.6267869,
              13.0003206
            ],
            [
              77.6271675,
              13.0003206
            ],
            [
              77.6271675,
              12.9998826
            ],
            [
              77.6267869,
              12.9998826
            ],
            [
              77.6267869,
              13.0003206
            ]
          ]
        ]
      }
    },
    {
      "type": "Feature",
      "properties": {
        "id": "train_046_BLDG_011",
        "parcel_id": "train_046_P_016",
        "area_sqm": 2003.15,
        "perimeter_m": 179.6,
        "centroid_lon": 77.6269772,
        "centroid_lat": 12.9994172,
        "height_m": 9.84,
        "confidence": 0.835,
        "temporal_epoch": "T1"
      },
      "geometry": {
        "type": "Polygon",
        "coordinates": [
          [
            [
              77.6267869,
              12.9996362
            ],
            [
              77.6271675,
              12.9996362
            ],
            [
              77.6271675,
              12.9991982
            ],
            [
              77.6267869,
              12.9991982
            ],
            [
              77.6267869,
              12.9996362
            ]
          ]
        ]
      }
    }
  ]
}