{
  "type": "FeatureCollection",
  "crs": {
    "type": "name",
    "properties": {
      "name": "EPSG:4326"
    }
  },
  "features": [
    {
      "type": "Feature",
      "properties": {
        "id": "train_046_REF_001",
        "parcel_id": "train_046_P_001",
        "parcel_layer": "REFERENCE",
        "boundary_representation": "REFERENCE",
        "land_use_class": "mixed_use",
        "area_sqm": 1063.78,
        "perimeter_m": 130.98,
        "source": "Synthetic Legacy Cadastral Map (Non-Authoritative Demo)"
      },
      "geometry": {
        "type": "Polygon",
        "coordinates": [
          [
            [
              77.6251049,
              13.0013158
            ],
            [
              77.6254258,
              13.0013188
            ],
            [
              77.6254392,
              13.0010474
            ],
            [
              77.6251049,
              13.0010468
            ],
            [
              77.6251049,
              13.0013158
            ]
          ]
        ]
      }
    },
    {
      "type": "Feature",
      "properties": {
        "id": "train_046_REF_002",
        "parcel_id": "train_046_P_002",
        "parcel_layer": "REFERENCE",
        "boundary_representation": "REFERENCE",
        "land_use_class": "vegetation",
        "area_sqm": 1195.75,
        "perimeter_m": 139.65,
        "source": "Synthetic Legacy Cadastral Map (Non-Authoritative Demo)"
      },
      "geometry": {
        "type": "Polygon",
        "coordinates": [
          [
            [
              77.6251102,
              13.0009378
            ],
            [
              77.6254273,
              13.0009861
            ],
            [
              77.6254429,
              13.000685
            ],
            [
              77.6250784,
              13.000653
            ],
            [
              77.6251102,
              13.0009378
            ]
          ]
        ]
      }
    },
    {
      "type": "Feature",
      "properties": {
        "id": "train_046_REF_003",
        "parcel_id": "train_046_P_003",
        "parcel_layer": "REFERENCE",
        "boundary_representation": "REFERENCE",
        "land_use_class": "vegetation",
        "area_sqm": 1264.97,
        "perimeter_m": 142.7,
        "source": "Synthetic Legacy Cadastral Map (Non-Authoritative Demo)"
      },
      "geometry": {
        "type": "Polygon",
        "coordinates": [
          [
            [
              77.6254718,
              13.0013318
            ],
            [
              77.6258282,
              13.0013313
            ],
            [
              77.6257829,
              13.0009974
            ],
            [
              77.62546,
              13.0010503
            ],
            [
              77.6254718,
              13.0013318
            ]
          ]
        ]
      }
    },
    {
      "type": "Feature",
      "properties": {
        "id": "train_046_REF_004",
        "parcel_id": "train_046_P_004",
        "parcel_layer": "REFERENCE",
        "boundary_representation": "REFERENCE",
        "land_use_class": "vacant",
        "area_sqm": 922.81,
        "perimeter_m": 122.36,
        "source": "Synthetic Legacy Cadastral Map (Non-Authoritative Demo)"
      },
      "geometry": {
        "type": "Polygon",
        "coordinates": [
          [
            [
              77.6255457,
              13.0009447
            ],
            [
              77.6258267,
              13.0009499
            ],
            [
              77.6258382,
              13.0006916
            ],
            [
              77.6255068,
              13.0007016
            ],
            [
              77.6255457,
              13.0009447
            ]
          ]
        ]
      }
    },
    {
      "type": "Feature",
      "properties": {
        "id": "train_046_REF_005",
        "parcel_id": "train_046_P_005",
        "parcel_layer": "REFERENCE",
        "boundary_representation": "REFERENCE",
        "land_use_class": "industrial",
        "area_sqm": 2029.97,
        "perimeter_m": 192.09,
        "source": "Synthetic Legacy Cadastral Map (Non-Authoritative Demo)"
      },
      "geometry": {
        "type": "Polygon",
        "coordinates": [
          [
            [
              77.6260548,
              13.0013362
            ],
            [
              77.626638,
              13.0012969
            ],
            [
              77.6266301,
              13.0010521
            ],
            [
              77.6260303,
              13.0010097
            ],
            [
              77.6260548,
              13.0013362
            ]
          ]
        ]
      }
    },
    {
      "type": "Feature",
      "properties": {
        "id": "train_046_REF_006",
        "parcel_id": "train_046_P_006",
        "parcel_layer": "REFERENCE",
        "boundary_representation": "REFERENCE",
        "land_use_class": "residential",
        "area_sqm": 2028.77,
        "perimeter_m": 192.34,
        "source": "Synthetic Legacy Cadastral Map (Non-Authoritative Demo)"
      },
      "geometry": {
        "type": "Polygon",
        "coordinates": [
          [
            [
              77.626072,
              13.0009294
            ],
            [
              77.6266667,
              13.0009601
            ],
            [
              77.6266366,
              13.0006454
            ],
            [
              77.6260441,
              13.0006752
            ],
            [
              77.626072,
              13.0009294
            ]
          ]
        ]
      }
    },
    {
      "type": "Feature",
      "properties": {
        "id": "train_046_REF_007",
        "parcel_id": "train_046_P_007",
        "parcel_layer": "REFERENCE",
        "boundary_representation": "REFERENCE",
        "land_use_class": "residential",
        "area_sqm": 2157.07,
        "perimeter_m": 195.06,
        "source": "Synthetic Legacy Cadastral Map (Non-Authoritative Demo)"
      },
      "geometry": {
        "type": "Polygon",
        "coordinates": [
          [
            [
              77.6267239,
              13.0012844
            ],
            [
              77.6272904,
              13.0013156
            ],
            [
              77.6273245,
              13.0009911
            ],
            [
              77.6267226,
              13.0009951
            ],
            [
              77.6267239,
              13.0012844
            ]
          ]
        ]
      }
    },
    {
      "type": "Feature",
      "properties": {
        "id": "train_046_REF_008",
        "parcel_id": "train_046_P_008",
        "parcel_layer": "REFERENCE",
        "boundary_representation": "REFERENCE",
        "land_use_class": "residential",
        "area_sqm": 2264.03,
        "perimeter_m": 198.17,
        "source": "Synthetic Legacy Cadastral Map (Non-Authoritative Demo)"
      },
      "geometry": {
        "type": "Polygon",
        "coordinates": [
          [
            [
              77.6267316,
              13.0010027
            ],
            [
              77.627325,
              13.0010002
            ],
            [
              77.6273131,
              13.0006987
            ],
            [
              77.6267444,
              13.0006557
            ],
            [
              77.6267316,
              13.0010027
            ]
          ]
        ]
      }
    },
    {
      "type": "Feature",
      "properties": {
        "id": "train_046_REF_009",
        "parcel_id": "train_046_P_009",
        "parcel_layer": "REFERENCE",
        "boundary_representation": "REFERENCE",
        "land_use_class": "commercial",
        "area_sqm": 2368.22,
        "perimeter_m": 207.03,
        "source": "Synthetic Legacy Cadastral Map (Non-Authoritative Demo)"
      },
      "geometry": {
        "type": "Polygon",
        "coordinates": [
          [
            [
              77.6251169,
              13.0004275
            ],
            [
              77.6254204,
              13.0004327
            ],
            [
              77.6253968,
              12.9997953
            ],
            [
              77.6250703,
              12.9998152
            ],
            [
              77.6251169,
              13.0004275
            ]
          ]
        ]
      }
    },
    {
      "type": "Feature",
      "properties": {
        "id": "train_046_REF_010",
        "parcel_id": "train_046_P_010",
        "parcel_layer": "REFERENCE",
        "boundary_representation": "REFERENCE",
        "land_use_class": "mixed_use",
        "area_sqm": 2351.07,
        "perimeter_m": 206.99,
        "source": "Synthetic Legacy Cadastral Map (Non-Authoritative Demo)"
      },
      "geometry": {
        "type": "Polygon",
        "coordinates": [
          [
            [
              77.6250706,
              12.9997321
            ],
            [
              77.6254175,
              12.9997087
            ],
            [
              77.625406,
              12.9990898
            ],
            [
              77.625127,
              12.9990983
            ],
            [
              77.6250706,
              12.9997321
            ]
          ]
        ]
      }
    },
    {
      "type": "Feature",
      "properties": {
        "id": "train_046_REF_011",
        "parcel_id": "train_046_P_011",
        "parcel_layer": "REFERENCE",
        "boundary_representation": "REFERENCE",
        "land_use_class": "mixed_use",
        "area_sqm": 2122.76,
        "perimeter_m": 201.3,
        "source": "Synthetic Legacy Cadastral Map (Non-Authoritative Demo)"
      },
      "geometry": {
        "type": "Polygon",
        "coordinates": [
          [
            [
              77.6254939,
              13.0004452
            ],
            [
              77.6257833,
              13.0003868
            ],
            [
              77.6257737,
              12.999778
            ],
            [
              77.6255039,
              12.9997903
            ],
            [
              77.6254939,
              13.0004452
            ]
          ]
        ]
      }
    },
    {
      "type": "Feature",
      "properties": {
        "id": "train_046_REF_012",
        "parcel_id": "train_046_P_012",
        "parcel_layer": "REFERENCE",
        "boundary_representation": "REFERENCE",
        "land_use_class": "vegetation",
        "area_sqm": 2217.18,
        "perimeter_m": 200.64,
        "source": "Synthetic Legacy Cadastral Map (Non-Authoritative Demo)"
      },
      "geometry": {
        "type": "Polygon",
        "coordinates": [
          [
            [
              77.6254984,
              12.999739
            ],
            [
              77.6258316,
              12.9997376
            ],
            [
              77.6258176,
              12.9991187
            ],
            [
              77.6255408,
              12.9991466
            ],
            [
              77.6254984,
              12.999739
            ]
          ]
        ]
      }
    },
    {
      "type": "Feature",
      "properties": {
        "id": "train_046_REF_013",
        "parcel_id": "train_046_P_013",
        "parcel_layer": "REFERENCE",
        "boundary_representation": "REFERENCE",
        "land_use_class": "vacant",
        "area_sqm": 4399.17,
        "perimeter_m": 265.58,
        "source": "Synthetic Legacy Cadastral Map (Non-Authoritative Demo)"
      },
      "geometry": {
        "type": "Polygon",
        "coordinates": [
          [
            [
              77.6260363,
              13.0003831
            ],
            [
              77.6266535,
              13.0004006
            ],
            [
              77.6266636,
              12.9997726
            ],
            [
              77.6260722,
              12.9997991
            ],
            [
              77.6260363,
              13.0003831
            ]
          ]
        ]
      }
    },
    {
      "type": "Feature",
      "properties": {
        "id": "train_046_REF_014",
        "parcel_id": "train_046_P_014",
        "parcel_layer": "REFERENCE",
        "boundary_representation": "REFERENCE",
        "land_use_class": "industrial",
        "area_sqm": 4497.37,
        "perimeter_m": 268.45,
        "source": "Synthetic Legacy Cadastral Map (Non-Authoritative Demo)"
      },
      "geometry": {
        "type": "Polygon",
        "coordinates": [
          [
            [
              77.6260468,
              12.9997055
            ],
            [
              77.62666,
              12.9997023
            ],
            [
              77.6266704,
              12.9990842
            ],
            [
              77.6260814,
              12.9990784
            ],
            [
              77.6260468,
              12.9997055
            ]
          ]
        ]
      }
    },
    {
      "type": "Feature",
      "properties": {
        "id": "train_046_REF_015",
        "parcel_id": "train_046_P_015",
        "parcel_layer": "REFERENCE",
        "boundary_representation": "REFERENCE",
        "land_use_class": "industrial",
        "area_sqm": 4696.93,
        "perimeter_m": 274.58,
        "source": "Synthetic Legacy Cadastral Map (Non-Authoritative Demo)"
      },
      "geometry": {
        "type": "Polygon",
        "coordinates": [
          [
            [
              77.626694,
              13.0004161
            ],
            [
              77.6273071,
              13.0004158
            ],
            [
              77.6273204,
              12.9997662
            ],
            [
              77.6267306,
              12.9997659
            ],
            [
              77.626694,
              13.0004161
            ]
          ]
        ]
      }
    },
    {
      "type": "Feature",
      "properties": {
        "id": "train_046_REF_016",
        "parcel_id": "train_046_P_016",
        "parcel_layer": "REFERENCE",
        "boundary_representation": "REFERENCE",
        "land_use_class": "residential",
        "area_sqm": 4460.92,
        "perimeter_m": 267.97,
        "source": "Synthetic Legacy Cadastral Map (Non-Authoritative Demo)"
      },
      "geometry": {
        "type": "Polygon",
        "coordinates": [
          [
            [
              77.6267626,
              12.9997783
            ],
            [
              77.627308,
              12.9997621
            ],
            [
              77.6273299,
              12.9991077
            ],
            [
              77.6267226,
              12.9991453
            ],
            [
              77.6267626,
              12.9997783
            ]
          ]
        ]
      }
    }
  ]
}