{
  "type": "FeatureCollection",
  "crs": {
    "type": "name",
    "properties": {
      "name": "EPSG:4326"
    }
  },
  "features": [
    {
      "type": "Feature",
      "properties": {
        "id": "train_083_REF_001",
        "parcel_id": "train_083_P_001",
        "parcel_layer": "REFERENCE",
        "boundary_representation": "REFERENCE",
        "land_use_class": "commercial",
        "area_sqm": 2838.03,
        "perimeter_m": 213.3,
        "source": "Synthetic Legacy Cadastral Map (Non-Authoritative Demo)"
      },
      "geometry": {
        "type": "Polygon",
        "coordinates": [
          [
            [
              77.6010631,
              13.0103446
            ],
            [
              77.601536,
              13.0103384
            ],
            [
              77.6015318,
              13.0098454
            ],
            [
              77.6010627,
              13.0098346
            ],
            [
              77.6010631,
              13.0103446
            ]
          ]
        ]
      }
    },
    {
      "type": "Feature",
      "properties": {
        "id": "train_083_REF_002",
        "parcel_id": "train_083_P_002",
        "parcel_layer": "REFERENCE",
        "boundary_representation": "REFERENCE",
        "land_use_class": "industrial",
        "area_sqm": 2740.28,
        "perimeter_m": 209.48,
        "source": "Synthetic Legacy Cadastral Map (Non-Authoritative Demo)"
      },
      "geometry": {
        "type": "Polygon",
        "coordinates": [
          [
            [
              77.6010776,
              13.0098263
            ],
            [
              77.6015475,
              13.009812
            ],
            [
              77.6015454,
              13.0093358
            ],
            [
              77.6010744,
              13.009333
            ],
            [
              77.6010776,
              13.0098263
            ]
          ]
        ]
      }
    },
    {
      "type": "Feature",
      "properties": {
        "id": "train_083_REF_003",
        "parcel_id": "train_083_P_003",
        "parcel_layer": "REFERENCE",
        "boundary_representation": "REFERENCE",
        "land_use_class": "mixed_use",
        "area_sqm": 2829.63,
        "perimeter_m": 213.11,
        "source": "Synthetic Legacy Cadastral Map (Non-Authoritative Demo)"
      },
      "geometry": {
        "type": "Polygon",
        "coordinates": [
          [
            [
              77.6015598,
              13.0103433
            ],
            [
              77.6020222,
              13.0103441
            ],
            [
              77.6020259,
              13.0098367
            ],
            [
              77.6015616,
              13.0098342
            ],
            [
              77.6015598,
              13.0103433
            ]
          ]
        ]
      }
    },
    {
      "type": "Feature",
      "properties": {
        "id": "train_083_REF_004",
        "parcel_id": "train_083_P_004",
        "parcel_layer": "REFERENCE",
        "boundary_representation": "REFERENCE",
        "land_use_class": "residential",
        "area_sqm": 2872.27,
        "perimeter_m": 214.64,
        "source": "Synthetic Legacy Cadastral Map (Non-Authoritative Demo)"
      },
      "geometry": {
        "type": "Polygon",
        "coordinates": [
          [
            [
              77.6015934,
              13.0098475
            ],
            [
              77.6020565,
              13.0098414
            ],
            [
              77.6020701,
              13.0093372
            ],
            [
              77.6015906,
              13.0093372
            ],
            [
              77.6015934,
              13.0098475
            ]
          ]
        ]
      }
    },
    {
      "type": "Feature",
      "properties": {
        "id": "train_083_REF_005",
        "parcel_id": "train_083_P_005",
        "parcel_layer": "REFERENCE",
        "boundary_representation": "REFERENCE",
        "land_use_class": "mixed_use",
        "area_sqm": 3134.52,
        "perimeter_m": 224.12,
        "source": "Synthetic Legacy Cadastral Map (Non-Authoritative Demo)"
      },
      "geometry": {
        "type": "Polygon",
        "coordinates": [
          [
            [
              77.6022331,
              13.0103341
            ],
            [
              77.6027673,
              13.0103298
            ],
            [
              77.6027712,
              13.0098393
            ],
            [
              77.6022357,
              13.009849
            ],
            [
              77.6022331,
              13.0103341
            ]
          ]
        ]
      }
    },
    {
      "type": "Feature",
      "properties": {
        "id": "train_083_REF_006",
        "parcel_id": "train_083_P_006",
        "parcel_layer": "REFERENCE",
        "boundary_representation": "REFERENCE",
        "land_use_class": "commercial",
        "area_sqm": 3227.77,
        "perimeter_m": 227.49,
        "source": "Synthetic Legacy Cadastral Map (Non-Authoritative Demo)"
      },
      "geometry": {
        "type": "Polygon",
        "coordinates": [
          [
            [
              77.6022267,
              13.0098102
            ],
            [
              77.6027717,
              13.0098212
            ],
            [
              77.6027736,
              13.009328
            ],
            [
              77.6022248,
              13.009321
            ],
            [
              77.6022267,
              13.0098102
            ]
          ]
        ]
      }
    },
    {
      "type": "Feature",
      "properties": {
        "id": "train_083_REF_007",
        "parcel_id": "train_083_P_007",
        "parcel_layer": "REFERENCE",
        "boundary_representation": "REFERENCE",
        "land_use_class": "commercial",
        "area_sqm": 3204.1,
        "perimeter_m": 226.51,
        "source": "Synthetic Legacy Cadastral Map (Non-Authoritative Demo)"
      },
      "geometry": {
        "type": "Polygon",
        "coordinates": [
          [
            [
              77.6027891,
              13.0103466
            ],
            [
              77.6033087,
              13.0103405
            ],
            [
              77.603329,
              13.0098394
            ],
            [
              77.6027893,
              13.0098406
            ],
            [
              77.6027891,
              13.0103466
            ]
          ]
        ]
      }
    },
    {
      "type": "Feature",
      "properties": {
        "id": "train_083_REF_008",
        "parcel_id": "train_083_P_008",
        "parcel_layer": "REFERENCE",
        "boundary_representation": "REFERENCE",
        "land_use_class": "mixed_use",
        "area_sqm": 3060.76,
        "perimeter_m": 221.33,
        "source": "Synthetic Legacy Cadastral Map (Non-Authoritative Demo)"
      },
      "geometry": {
        "type": "Polygon",
        "coordinates": [
          [
            [
              77.6028355,
              13.0098321
            ],
            [
              77.6033502,
              13.009834
            ],
            [
              77.6033441,
              13.0093396
            ],
            [
              77.6028264,
              13.0093395
            ],
            [
              77.6028355,
              13.0098321
            ]
          ]
        ]
      }
    },
    {
      "type": "Feature",
      "properties": {
        "id": "train_083_REF_009",
        "parcel_id": "train_083_P_009",
        "parcel_layer": "REFERENCE",
        "boundary_representation": "REFERENCE",
        "land_use_class": "commercial",
        "area_sqm": 2646.21,
        "perimeter_m": 205.94,
        "source": "Synthetic Legacy Cadastral Map (Non-Authoritative Demo)"
      },
      "geometry": {
        "type": "Polygon",
        "coordinates": [
          [
            [
              77.6010749,
              13.0090763
            ],
            [
              77.6015341,
              13.0090814
            ],
            [
              77.6015312,
              13.0086031
            ],
            [
              77.6010775,
              13.0085896
            ],
            [
              77.6010749,
              13.0090763
            ]
          ]
        ]
      }
    },
    {
      "type": "Feature",
      "properties": {
        "id": "train_083_REF_010",
        "parcel_id": "train_083_P_010",
        "parcel_layer": "REFERENCE",
        "boundary_representation": "REFERENCE",
        "land_use_class": "vacant",
        "area_sqm": 2776.15,
        "perimeter_m": 210.85,
        "source": "Synthetic Legacy Cadastral Map (Non-Authoritative Demo)"
      },
      "geometry": {
        "type": "Polygon",
        "coordinates": [
          [
            [
              77.6010718,
              13.0085702
            ],
            [
              77.6015471,
              13.008577
            ],
            [
              77.6015388,
              13.0080822
            ],
            [
              77.6010688,
              13.0080873
            ],
            [
              77.6010718,
              13.0085702
            ]
          ]
        ]
      }
    },
    {
      "type": "Feature",
      "properties": {
        "id": "train_083_REF_011",
        "parcel_id": "train_083_P_011",
        "parcel_layer": "REFERENCE",
        "boundary_representation": "REFERENCE",
        "land_use_class": "mixed_use",
        "area_sqm": 2693.85,
        "perimeter_m": 207.84,
        "source": "Synthetic Legacy Cadastral Map (Non-Authoritative Demo)"
      },
      "geometry": {
        "type": "Polygon",
        "coordinates": [
          [
            [
              77.6015703,
              13.0090866
            ],
            [
              77.6020346,
              13.0090828
            ],
            [
              77.6020148,
              13.0085863
            ],
            [
              77.6015648,
              13.0086028
            ],
            [
              77.6015703,
              13.0090866
            ]
          ]
        ]
      }
    },
    {
      "type": "Feature",
      "properties": {
        "id": "train_083_REF_012",
        "parcel_id": "train_083_P_012",
        "parcel_layer": "REFERENCE",
        "boundary_representation": "REFERENCE",
        "land_use_class": "industrial",
        "area_sqm": 2687.52,
        "perimeter_m": 207.48,
        "source": "Synthetic Legacy Cadastral Map (Non-Authoritative Demo)"
      },
      "geometry": {
        "type": "Polygon",
        "coordinates": [
          [
            [
              77.6016036,
              13.0085889
            ],
            [
              77.6020618,
              13.0085847
            ],
            [
              77.6020635,
              13.0080969
            ],
            [
              77.6015947,
              13.0081117
            ],
            [
              77.6016036,
              13.0085889
            ]
          ]
        ]
      }
    },
    {
      "type": "Feature",
      "properties": {
        "id": "train_083_REF_013",
        "parcel_id": "train_083_P_013",
        "parcel_layer": "REFERENCE",
        "boundary_representation": "REFERENCE",
        "land_use_class": "mixed_use",
        "area_sqm": 3089.26,
        "perimeter_m": 222.42,
        "source": "Synthetic Legacy Cadastral Map (Non-Authoritative Demo)"
      },
      "geometry": {
        "type": "Polygon",
        "coordinates": [
          [
            [
              77.6022397,
              13.0090831
            ],
            [
              77.6027737,
              13.0090883
            ],
            [
              77.6027595,
              13.0085875
            ],
            [
              77.6022466,
              13.0086016
            ],
            [
              77.6022397,
              13.0090831
            ]
          ]
        ]
      }
    },
    {
      "type": "Feature",
      "properties": {
        "id": "train_083_REF_014",
        "parcel_id": "train_083_P_014",
        "parcel_layer": "REFERENCE",
        "boundary_representation": "REFERENCE",
        "land_use_class": "residential",
        "area_sqm": 3047.87,
        "perimeter_m": 221.15,
        "source": "Synthetic Legacy Cadastral Map (Non-Authoritative Demo)"
      },
      "geometry": {
        "type": "Polygon",
        "coordinates": [
          [
            [
              77.602239,
              13.0085649
            ],
            [
              77.6027621,
              13.0085745
            ],
            [
              77.6027758,
              13.0080983
            ],
            [
              77.6022291,
              13.0080927
            ],
            [
              77.602239,
              13.0085649
            ]
          ]
        ]
      }
    },
    {
      "type": "Feature",
      "properties": {
        "id": "train_083_REF_015",
        "parcel_id": "train_083_P_015",
        "parcel_layer": "REFERENCE",
        "boundary_representation": "REFERENCE",
        "land_use_class": "commercial",
        "area_sqm": 3076.82,
        "perimeter_m": 221.96,
        "source": "Synthetic Legacy Cadastral Map (Non-Authoritative Demo)"
      },
      "geometry": {
        "type": "Polygon",
        "coordinates": [
          [
            [
              77.6027942,
              13.0090762
            ],
            [
              77.6033108,
              13.0090745
            ],
            [
              77.6033104,
              13.0085877
            ],
            [
              77.6027806,
              13.0085841
            ],
            [
              77.6027942,
              13.0090762
            ]
          ]
        ]
      }
    },
    {
      "type": "Feature",
      "properties": {
        "id": "train_083_REF_016",
        "parcel_id": "train_083_P_016",
        "parcel_layer": "REFERENCE",
        "boundary_representation": "REFERENCE",
        "land_use_class": "commercial",
        "area_sqm": 3206.7,
        "perimeter_m": 226.7,
        "source": "Synthetic Legacy Cadastral Map (Non-Authoritative Demo)"
      },
      "geometry": {
        "type": "Polygon",
        "coordinates": [
          [
            [
              77.6028194,
              13.0086014
            ],
            [
              77.6033637,
              13.0086016
            ],
            [
              77.6033561,
              13.0081032
            ],
            [
              77.6028149,
              13.0081165
            ],
            [
              77.6028194,
              13.0086014
            ]
          ]
        ]
      }
    }
  ]
}