{
  "type": "FeatureCollection",
  "crs": {
    "type": "name",
    "properties": {
      "name": "EPSG:4326"
    }
  },
  "features": [
    {
      "type": "Feature",
      "properties": {
        "id": "scene_urban_T1_RD_001",
        "road_class": "MAIN_ROAD",
        "width_m": 4.0,
        "length_m": 258.46,
        "confidence": 0.94
      },
      "geometry": {
        "type": "LineString",
        "coordinates": [
          [
            77.613,
            13.0150125
          ],
          [
            77.6153812,
            13.0150125
          ]
        ]
      }
    },
    {
      "type": "Feature",
      "properties": {
        "id": "scene_urban_T1_RD_002",
        "road_class": "NARROW_LANE",
        "width_m": 2.5,
        "length_m": 263.6,
        "confidence": 0.89
      },
      "geometry": {
        "type": "LineString",
        "coordinates": [
          [
            77.6139187,
            13.0164
          ],
          [
            77.6139187,
            13.0140187
          ]
        ]
      }
    }
  ]
}