{
  "type": "FeatureCollection",
  "crs": {
    "type": "name",
    "properties": {
      "name": "EPSG:4326"
    }
  },
  "features": [
    {
      "type": "Feature",
      "properties": {
        "id": "train_020_REF_001",
        "parcel_id": "train_020_P_001",
        "parcel_layer": "REFERENCE",
        "boundary_representation": "REFERENCE",
        "land_use_class": "vacant",
        "area_sqm": 3786.93,
        "perimeter_m": 246.52,
        "source": "Synthetic Legacy Cadastral Map (Non-Authoritative Demo)"
      },
      "geometry": {
        "type": "Polygon",
        "coordinates": [
          [
            [
              77.5920636,
              12.9983307
            ],
            [
              77.592613,
              12.9983368
            ],
            [
              77.592604,
              12.9977494
            ],
            [
              77.5920777,
              12.9977462
            ],
            [
              77.5920636,
              12.9983307
            ]
          ]
        ]
      }
    },
    {
      "type": "Feature",
      "properties": {
        "id": "train_020_REF_002",
        "parcel_id": "train_020_P_002",
        "parcel_layer": "REFERENCE",
        "boundary_representation": "REFERENCE",
        "land_use_class": "industrial",
        "area_sqm": 3623.73,
        "perimeter_m": 241.2,
        "source": "Synthetic Legacy Cadastral Map (Non-Authoritative Demo)"
      },
      "geometry": {
        "type": "Polygon",
        "coordinates": [
          [
            [
              77.5920659,
              12.9977234
            ],
            [
              77.5925986,
              12.9977159
            ],
            [
              77.5925942,
              12.9971452
            ],
            [
              77.5920787,
              12.9971432
            ],
            [
              77.5920659,
              12.9977234
            ]
          ]
        ]
      }
    },
    {
      "type": "Feature",
      "properties": {
        "id": "train_020_REF_003",
        "parcel_id": "train_020_P_003",
        "parcel_layer": "REFERENCE",
        "boundary_representation": "REFERENCE",
        "land_use_class": "industrial",
        "area_sqm": 3750.85,
        "perimeter_m": 245.4,
        "source": "Synthetic Legacy Cadastral Map (Non-Authoritative Demo)"
      },
      "geometry": {
        "type": "Polygon",
        "coordinates": [
          [
            [
              77.5926257,
              12.9983329
            ],
            [
              77.5931634,
              12.9983385
            ],
            [
              77.5931607,
              12.9977592
            ],
            [
              77.5926317,
              12.9977417
            ],
            [
              77.5926257,
              12.9983329
            ]
          ]
        ]
      }
    },
    {
      "type": "Feature",
      "properties": {
        "id": "train_020_REF_004",
        "parcel_id": "train_020_P_004",
        "parcel_layer": "REFERENCE",
        "boundary_representation": "REFERENCE",
        "land_use_class": "residential",
        "area_sqm": 3858.46,
        "perimeter_m": 248.75,
        "source": "Synthetic Legacy Cadastral Map (Non-Authoritative Demo)"
      },
      "geometry": {
        "type": "Polygon",
        "coordinates": [
          [
            [
              77.5926526,
              12.9977394
            ],
            [
              77.5932018,
              12.9977499
            ],
            [
              77.5932013,
              12.9971662
            ],
            [
              77.5926561,
              12.9971495
            ],
            [
              77.5926526,
              12.9977394
            ]
          ]
        ]
      }
    },
    {
      "type": "Feature",
      "properties": {
        "id": "train_020_REF_005",
        "parcel_id": "train_020_P_005",
        "parcel_layer": "REFERENCE",
        "boundary_representation": "REFERENCE",
        "land_use_class": "residential",
        "area_sqm": 3496.63,
        "perimeter_m": 237.76,
        "source": "Synthetic Legacy Cadastral Map (Non-Authoritative Demo)"
      },
      "geometry": {
        "type": "Polygon",
        "coordinates": [
          [
            [
              77.593324,
              12.9983426
            ],
            [
              77.5938166,
              12.9983333
            ],
            [
              77.5938217,
              12.9977509
            ],
            [
              77.5933295,
              12.997743
            ],
            [
              77.593324,
              12.9983426
            ]
          ]
        ]
      }
    },
    {
      "type": "Feature",
      "properties": {
        "id": "train_020_REF_006",
        "parcel_id": "train_020_P_006",
        "parcel_layer": "REFERENCE",
        "boundary_representation": "REFERENCE",
        "land_use_class": "commercial",
        "area_sqm": 3433.86,
        "perimeter_m": 236.0,
        "source": "Synthetic Legacy Cadastral Map (Non-Authoritative Demo)"
      },
      "geometry": {
        "type": "Polygon",
        "coordinates": [
          [
            [
              77.5933214,
              12.9977175
            ],
            [
              77.5938083,
              12.9977351
            ],
            [
              77.5938064,
              12.9971316
            ],
            [
              77.5933316,
              12.9971325
            ],
            [
              77.5933214,
              12.9977175
            ]
          ]
        ]
      }
    },
    {
      "type": "Feature",
      "properties": {
        "id": "train_020_REF_007",
        "parcel_id": "train_020_P_007",
        "parcel_layer": "REFERENCE",
        "boundary_representation": "REFERENCE",
        "land_use_class": "commercial",
        "area_sqm": 3343.37,
        "perimeter_m": 232.53,
        "source": "Synthetic Legacy Cadastral Map (Non-Authoritative Demo)"
      },
      "geometry": {
        "type": "Polygon",
        "coordinates": [
          [
            [
              77.5938446,
              12.998343
            ],
            [
              77.594316,
              12.9983296
            ],
            [
              77.5943171,
              12.997756
            ],
            [
              77.5938271,
              12.9977592
            ],
            [
              77.5938446,
              12.998343
            ]
          ]
        ]
      }
    },
    {
      "type": "Feature",
      "properties": {
        "id": "train_020_REF_008",
        "parcel_id": "train_020_P_008",
        "parcel_layer": "REFERENCE",
        "boundary_representation": "REFERENCE",
        "land_use_class": "mixed_use",
        "area_sqm": 3381.45,
        "perimeter_m": 234.29,
        "source": "Synthetic Legacy Cadastral Map (Non-Authoritative Demo)"
      },
      "geometry": {
        "type": "Polygon",
        "coordinates": [
          [
            [
              77.5938754,
              12.9977512
            ],
            [
              77.594345,
              12.9977474
            ],
            [
              77.5943554,
              12.9971562
            ],
            [
              77.5938747,
              12.9971578
            ],
            [
              77.5938754,
              12.9977512
            ]
          ]
        ]
      }
    },
    {
      "type": "Feature",
      "properties": {
        "id": "train_020_REF_009",
        "parcel_id": "train_020_P_009",
        "parcel_layer": "REFERENCE",
        "boundary_representation": "REFERENCE",
        "land_use_class": "vegetation",
        "area_sqm": 2336.97,
        "perimeter_m": 195.84,
        "source": "Synthetic Legacy Cadastral Map (Non-Authoritative Demo)"
      },
      "geometry": {
        "type": "Polygon",
        "coordinates": [
          [
            [
              77.592082,
              12.9968612
            ],
            [
              77.592614,
              12.9968498
            ],
            [
              77.5925948,
              12.9964802
            ],
            [
              77.5920831,
              12.9964857
            ],
            [
              77.592082,
              12.9968612
            ]
          ]
        ]
      }
    },
    {
      "type": "Feature",
      "properties": {
        "id": "train_020_REF_010",
        "parcel_id": "train_020_P_010",
        "parcel_layer": "REFERENCE",
        "boundary_representation": "REFERENCE",
        "land_use_class": "vacant",
        "area_sqm": 2422.48,
        "perimeter_m": 200.25,
        "source": "Synthetic Legacy Cadastral Map (Non-Authoritative Demo)"
      },
      "geometry": {
        "type": "Polygon",
        "coordinates": [
          [
            [
              77.5920625,
              12.996471
            ],
            [
              77.5926133,
              12.9964536
            ],
            [
              77.5926027,
              12.9960872
            ],
            [
              77.5920635,
              12.9960978
            ],
            [
              77.5920625,
              12.996471
            ]
          ]
        ]
      }
    },
    {
      "type": "Feature",
      "properties": {
        "id": "train_020_REF_011",
        "parcel_id": "train_020_P_011",
        "parcel_layer": "REFERENCE",
        "boundary_representation": "REFERENCE",
        "land_use_class": "vacant",
        "area_sqm": 2332.56,
        "perimeter_m": 195.33,
        "source": "Synthetic Legacy Cadastral Map (Non-Authoritative Demo)"
      },
      "geometry": {
        "type": "Polygon",
        "coordinates": [
          [
            [
              77.5926368,
              12.9968646
            ],
            [
              77.5931468,
              12.9968501
            ],
            [
              77.5931472,
              12.996472
            ],
            [
              77.5926259,
              12.9964901
            ],
            [
              77.5926368,
              12.9968646
            ]
          ]
        ]
      }
    },
    {
      "type": "Feature",
      "properties": {
        "id": "train_020_REF_012",
        "parcel_id": "train_020_P_012",
        "parcel_layer": "REFERENCE",
        "boundary_representation": "REFERENCE",
        "land_use_class": "industrial",
        "area_sqm": 2355.66,
        "perimeter_m": 196.71,
        "source": "Synthetic Legacy Cadastral Map (Non-Authoritative Demo)"
      },
      "geometry": {
        "type": "Polygon",
        "coordinates": [
          [
            [
              77.5926518,
              12.996475
            ],
            [
              77.593184,
              12.9964873
            ],
            [
              77.593186,
              12.9961014
            ],
            [
              77.5926687,
              12.9961137
            ],
            [
              77.5926518,
              12.996475
            ]
          ]
        ]
      }
    },
    {
      "type": "Feature",
      "properties": {
        "id": "train_020_REF_013",
        "parcel_id": "train_020_P_013",
        "parcel_layer": "REFERENCE",
        "boundary_representation": "REFERENCE",
        "land_use_class": "residential",
        "area_sqm": 2067.21,
        "perimeter_m": 184.02,
        "source": "Synthetic Legacy Cadastral Map (Non-Authoritative Demo)"
      },
      "geometry": {
        "type": "Polygon",
        "coordinates": [
          [
            [
              77.5933375,
              12.9968447
            ],
            [
              77.5938241,
              12.996844
            ],
            [
              77.5938113,
              12.9964934
            ],
            [
              77.5933233,
              12.9964891
            ],
            [
              77.5933375,
              12.9968447
            ]
          ]
        ]
      }
    },
    {
      "type": "Feature",
      "properties": {
        "id": "train_020_REF_014",
        "parcel_id": "train_020_P_014",
        "parcel_layer": "REFERENCE",
        "boundary_representation": "REFERENCE",
        "land_use_class": "residential",
        "area_sqm": 2089.51,
        "perimeter_m": 184.72,
        "source": "Synthetic Legacy Cadastral Map (Non-Authoritative Demo)"
      },
      "geometry": {
        "type": "Polygon",
        "coordinates": [
          [
            [
              77.593335,
              12.99645
            ],
            [
              77.5938068,
              12.9964537
            ],
            [
              77.5938207,
              12.9960901
            ],
            [
              77.5933229,
              12.9960962
            ],
            [
              77.593335,
              12.99645
            ]
          ]
        ]
      }
    },
    {
      "type": "Feature",
      "properties": {
        "id": "train_020_REF_015",
        "parcel_id": "train_020_P_015",
        "parcel_layer": "REFERENCE",
        "boundary_representation": "REFERENCE",
        "land_use_class": "residential",
        "area_sqm": 2199.04,
        "perimeter_m": 188.85,
        "source": "Synthetic Legacy Cadastral Map (Non-Authoritative Demo)"
      },
      "geometry": {
        "type": "Polygon",
        "coordinates": [
          [
            [
              77.5938304,
              12.9968626
            ],
            [
              77.59432,
              12.9968562
            ],
            [
              77.5943088,
              12.9964842
            ],
            [
              77.5938287,
              12.9964797
            ],
            [
              77.5938304,
              12.9968626
            ]
          ]
        ]
      }
    },
    {
      "type": "Feature",
      "properties": {
        "id": "train_020_REF_016",
        "parcel_id": "train_020_P_016",
        "parcel_layer": "REFERENCE",
        "boundary_representation": "REFERENCE",
        "land_use_class": "commercial",
        "area_sqm": 2198.98,
        "perimeter_m": 188.79,
        "source": "Synthetic Legacy Cadastral Map (Non-Authoritative Demo)"
      },
      "geometry": {
        "type": "Polygon",
        "coordinates": [
          [
            [
              77.5938753,
              12.9964793
            ],
            [
              77.5943487,
              12.9964877
            ],
            [
              77.5943598,
              12.9961114
            ],
            [
              77.5938673,
              12.9960978
            ],
            [
              77.5938753,
              12.9964793
            ]
          ]
        ]
      }
    }
  ]
}