{
  "type": "FeatureCollection",
  "crs": {
    "type": "name",
    "properties": {
      "name": "EPSG:4326"
    }
  },
  "features": [
    {
      "type": "Feature",
      "properties": {
        "id": "train_002_BND_001",
        "parcel_id": "train_002_P_001",
        "boundary_type": "VISIBLE",
        "confidence": 0.869,
        "length_m": 50.27,
        "evidence_sources": [
          "Drone_RGB_Edge",
          "DSM_Breakline"
        ]
      },
      "geometry": {
        "type": "LineString",
        "coordinates": [
          [
            77.6280731,
            12.992335
          ],
          [
            77.6285362,
            12.9923313
          ]
        ]
      }
    },
    {
      "type": "Feature",
      "properties": {
        "id": "train_002_BND_002",
        "parcel_id": "train_002_P_001",
        "boundary_type": "VISIBLE",
        "confidence": 0.959,
        "length_m": 57.48,
        "evidence_sources": [
          "Drone_RGB_Edge",
          "DSM_Breakline"
        ]
      },
      "geometry": {
        "type": "LineString",
        "coordinates": [
          [
            77.6285362,
            12.9923313
          ],
          [
            77.6285395,
            12.9918121
          ]
        ]
      }
    },
    {
      "type": "Feature",
      "properties": {
        "id": "train_002_BND_003",
        "parcel_id": "train_002_P_001",
        "boundary_type": "VISIBLE",
        "confidence": 0.824,
        "length_m": 50.41,
        "evidence_sources": [
          "Drone_RGB_Edge",
          "DSM_Breakline"
        ]
      },
      "geometry": {
        "type": "LineString",
        "coordinates": [
          [
            77.6285395,
            12.9918121
          ],
          [
            77.6280752,
            12.9918184
          ]
        ]
      }
    },
    {
      "type": "Feature",
      "properties": {
        "id": "train_002_BND_004",
        "parcel_id": "train_002_P_001",
        "boundary_type": "INFERRED",
        "confidence": 0.757,
        "length_m": 57.19,
        "evidence_sources": [
          "Road_Corridor_Offset",
          "Adjacent_Parcel_Topology"
        ]
      },
      "geometry": {
        "type": "LineString",
        "coordinates": [
          [
            77.6280752,
            12.9918184
          ],
          [
            77.6280731,
            12.992335
          ]
        ]
      }
    },
    {
      "type": "Feature",
      "properties": {
        "id": "train_002_BND_005",
        "parcel_id": "train_002_P_002",
        "boundary_type": "INFERRED",
        "confidence": 0.739,
        "length_m": 51.02,
        "evidence_sources": [
          "Road_Corridor_Offset",
          "Adjacent_Parcel_Topology"
        ]
      },
      "geometry": {
        "type": "LineString",
        "coordinates": [
          [
            77.6280733,
            12.9918019
          ],
          [
            77.6285433,
            12.9918077
          ]
        ]
      }
    },
    {
      "type": "Feature",
      "properties": {
        "id": "train_002_BND_006",
        "parcel_id": "train_002_P_002",
        "boundary_type": "VISIBLE",
        "confidence": 0.855,
        "length_m": 58.93,
        "evidence_sources": [
          "Drone_RGB_Edge",
          "DSM_Breakline"
        ]
      },
      "geometry": {
        "type": "LineString",
        "coordinates": [
          [
            77.6285433,
            12.9918077
          ],
          [
            77.6285304,
            12.9912755
          ]
        ]
      }
    },
    {
      "type": "Feature",
      "properties": {
        "id": "train_002_BND_007",
        "parcel_id": "train_002_P_002",
        "boundary_type": "VISIBLE",
        "confidence": 0.905,
        "length_m": 50.89,
        "evidence_sources": [
          "Drone_RGB_Edge",
          "DSM_Breakline"
        ]
      },
      "geometry": {
        "type": "LineString",
        "coordinates": [
          [
            77.6285304,
            12.9912755
          ],
          [
            77.6280616,
            12.991278
          ]
        ]
      }
    },
    {
      "type": "Feature",
      "properties": {
        "id": "train_002_BND_008",
        "parcel_id": "train_002_P_002",
        "boundary_type": "INFERRED",
        "confidence": 0.664,
        "length_m": 58.01,
        "evidence_sources": [
          "Road_Corridor_Offset",
          "Adjacent_Parcel_Topology"
        ]
      },
      "geometry": {
        "type": "LineString",
        "coordinates": [
          [
            77.6280616,
            12.991278
          ],
          [
            77.6280733,
            12.9918019
          ]
        ]
      }
    },
    {
      "type": "Feature",
      "properties": {
        "id": "train_002_BND_009",
        "parcel_id": "train_002_P_003",
        "boundary_type": "INFERRED",
        "confidence": 0.613,
        "length_m": 49.43,
        "evidence_sources": [
          "Road_Corridor_Offset",
          "Adjacent_Parcel_Topology"
        ]
      },
      "geometry": {
        "type": "LineString",
        "coordinates": [
          [
            77.6285564,
            12.9923332
          ],
          [
            77.6290117,
            12.9923285
          ]
        ]
      }
    },
    {
      "type": "Feature",
      "properties": {
        "id": "train_002_BND_010",
        "parcel_id": "train_002_P_003",
        "boundary_type": "INFERRED",
        "confidence": 0.725,
        "length_m": 56.45,
        "evidence_sources": [
          "Road_Corridor_Offset",
          "Adjacent_Parcel_Topology"
        ]
      },
      "geometry": {
        "type": "LineString",
        "coordinates": [
          [
            77.6290117,
            12.9923285
          ],
          [
            77.6290208,
            12.9918186
          ]
        ]
      }
    },
    {
      "type": "Feature",
      "properties": {
        "id": "train_002_BND_011",
        "parcel_id": "train_002_P_003",
        "boundary_type": "VISIBLE",
        "confidence": 0.869,
        "length_m": 51.44,
        "evidence_sources": [
          "Drone_RGB_Edge",
          "DSM_Breakline"
        ]
      },
      "geometry": {
        "type": "LineString",
        "coordinates": [
          [
            77.6290208,
            12.9918186
          ],
          [
            77.628547,
            12.9918253
          ]
        ]
      }
    },
    {
      "type": "Feature",
      "properties": {
        "id": "train_002_BND_012",
        "parcel_id": "train_002_P_003",
        "boundary_type": "VISIBLE",
        "confidence": 0.828,
        "length_m": 56.23,
        "evidence_sources": [
          "Drone_RGB_Edge",
          "DSM_Breakline"
        ]
      },
      "geometry": {
        "type": "LineString",
        "coordinates": [
          [
            77.628547,
            12.9918253
          ],
          [
            77.6285564,
            12.9923332
          ]
        ]
      }
    },
    {
      "type": "Feature",
      "properties": {
        "id": "train_002_BND_013",
        "parcel_id": "train_002_P_004",
        "boundary_type": "VISIBLE",
        "confidence": 0.931,
        "length_m": 48.54,
        "evidence_sources": [
          "Drone_RGB_Edge",
          "DSM_Breakline"
        ]
      },
      "geometry": {
        "type": "LineString",
        "coordinates": [
          [
            77.6285658,
            12.9918093
          ],
          [
            77.6290124,
            12.9917879
          ]
        ]
      }
    },
    {
      "type": "Feature",
      "properties": {
        "id": "train_002_BND_014",
        "parcel_id": "train_002_P_004",
        "boundary_type": "VISIBLE",
        "confidence": 0.864,
        "length_m": 54.84,
        "evidence_sources": [
          "Drone_RGB_Edge",
          "DSM_Breakline"
        ]
      },
      "geometry": {
        "type": "LineString",
        "coordinates": [
          [
            77.6290124,
            12.9917879
          ],
          [
            77.629024,
            12.9912926
          ]
        ]
      }
    },
    {
      "type": "Feature",
      "properties": {
        "id": "train_002_BND_015",
        "parcel_id": "train_002_P_004",
        "boundary_type": "VISIBLE",
        "confidence": 0.937,
        "length_m": 50.87,
        "evidence_sources": [
          "Drone_RGB_Edge",
          "DSM_Breakline"
        ]
      },
      "geometry": {
        "type": "LineString",
        "coordinates": [
          [
            77.629024,
            12.9912926
          ],
          [
            77.6285555,
            12.9912808
          ]
        ]
      }
    },
    {
      "type": "Feature",
      "properties": {
        "id": "train_002_BND_016",
        "parcel_id": "train_002_P_004",
        "boundary_type": "VISIBLE",
        "confidence": 0.882,
        "length_m": 58.51,
        "evidence_sources": [
          "Drone_RGB_Edge",
          "DSM_Breakline"
        ]
      },
      "geometry": {
        "type": "LineString",
        "coordinates": [
          [
            77.6285555,
            12.9912808
          ],
          [
            77.6285658,
            12.9918093
          ]
        ]
      }
    },
    {
      "type": "Feature",
      "properties": {
        "id": "train_002_BND_017",
        "parcel_id": "train_002_P_005",
        "boundary_type": "VISIBLE",
        "confidence": 0.927,
        "length_m": 58.39,
        "evidence_sources": [
          "Drone_RGB_Edge",
          "DSM_Breakline"
        ]
      },
      "geometry": {
        "type": "LineString",
        "coordinates": [
          [
            77.6291963,
            12.9923256
          ],
          [
            77.6297342,
            12.9923283
          ]
        ]
      }
    },
    {
      "type": "Feature",
      "properties": {
        "id": "train_002_BND_018",
        "parcel_id": "train_002_P_005",
        "boundary_type": "VISIBLE",
        "confidence": 0.911,
        "length_m": 57.35,
        "evidence_sources": [
          "Drone_RGB_Edge",
          "DSM_Breakline"
        ]
      },
      "geometry": {
        "type": "LineString",
        "coordinates": [
          [
            77.6297342,
            12.9923283
          ],
          [
            77.6297387,
            12.9918102
          ]
        ]
      }
    },
    {
      "type": "Feature",
      "properties": {
        "id": "train_002_BND_019",
        "parcel_id": "train_002_P_005",
        "boundary_type": "VISIBLE",
        "confidence": 0.845,
        "length_m": 59.72,
        "evidence_sources": [
          "Drone_RGB_Edge",
          "DSM_Breakline"
        ]
      },
      "geometry": {
        "type": "LineString",
        "coordinates": [
          [
            77.6297387,
            12.9918102
          ],
          [
            77.6291886,
            12.9918104
          ]
        ]
      }
    },
    {
      "type": "Feature",
      "properties": {
        "id": "train_002_BND_020",
        "parcel_id": "train_002_P_005",
        "boundary_type": "VISIBLE",
        "confidence": 0.872,
        "length_m": 57.04,
        "evidence_sources": [
          "Drone_RGB_Edge",
          "DSM_Breakline"
        ]
      },
      "geometry": {
        "type": "LineString",
        "coordinates": [
          [
            77.6291886,
            12.9918104
          ],
          [
            77.6291963,
            12.9923256
          ]
        ]
      }
    },
    {
      "type": "Feature",
      "properties": {
        "id": "train_002_BND_021",
        "parcel_id": "train_002_P_006",
        "boundary_type": "VISIBLE",
        "confidence": 0.861,
        "length_m": 59.65,
        "evidence_sources": [
          "Drone_RGB_Edge",
          "DSM_Breakline"
        ]
      },
      "geometry": {
        "type": "LineString",
        "coordinates": [
          [
            77.6291935,
            12.9917902
          ],
          [
            77.6297427,
            12.9918067
          ]
        ]
      }
    },
    {
      "type": "Feature",
      "properties": {
        "id": "train_002_BND_022",
        "parcel_id": "train_002_P_006",
        "boundary_type": "VISIBLE",
        "confidence": 0.825,
        "length_m": 58.27,
        "evidence_sources": [
          "Drone_RGB_Edge",
          "DSM_Breakline"
        ]
      },
      "geometry": {
        "type": "LineString",
        "coordinates": [
          [
            77.6297427,
            12.9918067
          ],
          [
            77.6297331,
            12.9912804
          ]
        ]
      }
    },
    {
      "type": "Feature",
      "properties": {
        "id": "train_002_BND_023",
        "parcel_id": "train_002_P_006",
        "boundary_type": "INFERRED",
        "confidence": 0.612,
        "length_m": 58.48,
        "evidence_sources": [
          "Road_Corridor_Offset",
          "Adjacent_Parcel_Topology"
        ]
      },
      "geometry": {
        "type": "LineString",
        "coordinates": [
          [
            77.6297331,
            12.9912804
          ],
          [
            77.6291944,
            12.9912778
          ]
        ]
      }
    },
    {
      "type": "Feature",
      "properties": {
        "id": "train_002_BND_024",
        "parcel_id": "train_002_P_006",
        "boundary_type": "VISIBLE",
        "confidence": 0.835,
        "length_m": 56.72,
        "evidence_sources": [
          "Drone_RGB_Edge",
          "DSM_Breakline"
        ]
      },
      "geometry": {
        "type": "LineString",
        "coordinates": [
          [
            77.6291944,
            12.9912778
          ],
          [
            77.6291935,
            12.9917902
          ]
        ]
      }
    },
    {
      "type": "Feature",
      "properties": {
        "id": "train_002_BND_025",
        "parcel_id": "train_002_P_007",
        "boundary_type": "VISIBLE",
        "confidence": 0.862,
        "length_m": 60.78,
        "evidence_sources": [
          "Drone_RGB_Edge",
          "DSM_Breakline"
        ]
      },
      "geometry": {
        "type": "LineString",
        "coordinates": [
          [
            77.6297575,
            12.9923398
          ],
          [
            77.6303172,
            12.9923247
          ]
        ]
      }
    },
    {
      "type": "Feature",
      "properties": {
        "id": "train_002_BND_026",
        "parcel_id": "train_002_P_007",
        "boundary_type": "VISIBLE",
        "confidence": 0.892,
        "length_m": 56.28,
        "evidence_sources": [
          "Drone_RGB_Edge",
          "DSM_Breakline"
        ]
      },
      "geometry": {
        "type": "LineString",
        "coordinates": [
          [
            77.6303172,
            12.9923247
          ],
          [
            77.6303165,
            12.9918163
          ]
        ]
      }
    },
    {
      "type": "Feature",
      "properties": {
        "id": "train_002_BND_027",
        "parcel_id": "train_002_P_007",
        "boundary_type": "INFERRED",
        "confidence": 0.721,
        "length_m": 61.11,
        "evidence_sources": [
          "Road_Corridor_Offset",
          "Adjacent_Parcel_Topology"
        ]
      },
      "geometry": {
        "type": "LineString",
        "coordinates": [
          [
            77.6303165,
            12.9918163
          ],
          [
            77.6297536,
            12.991816
          ]
        ]
      }
    },
    {
      "type": "Feature",
      "properties": {
        "id": "train_002_BND_028",
        "parcel_id": "train_002_P_007",
        "boundary_type": "VISIBLE",
        "confidence": 0.822,
        "length_m": 57.98,
        "evidence_sources": [
          "Drone_RGB_Edge",
          "DSM_Breakline"
        ]
      },
      "geometry": {
        "type": "LineString",
        "coordinates": [
          [
            77.6297536,
            12.991816
          ],
          [
            77.6297575,
            12.9923398
          ]
        ]
      }
    },
    {
      "type": "Feature",
      "properties": {
        "id": "train_002_BND_029",
        "parcel_id": "train_002_P_008",
        "boundary_type": "VISIBLE",
        "confidence": 0.943,
        "length_m": 60.16,
        "evidence_sources": [
          "Drone_RGB_Edge",
          "DSM_Breakline"
        ]
      },
      "geometry": {
        "type": "LineString",
        "coordinates": [
          [
            77.6297702,
            12.9917944
          ],
          [
            77.6303243,
            12.9918028
          ]
        ]
      }
    },
    {
      "type": "Feature",
      "properties": {
        "id": "train_002_BND_030",
        "parcel_id": "train_002_P_008",
        "boundary_type": "INFERRED",
        "confidence": 0.714,
        "length_m": 57.29,
        "evidence_sources": [
          "Road_Corridor_Offset",
          "Adjacent_Parcel_Topology"
        ]
      },
      "geometry": {
        "type": "LineString",
        "coordinates": [
          [
            77.6303243,
            12.9918028
          ],
          [
            77.6303221,
            12.9912853
          ]
        ]
      }
    },
    {
      "type": "Feature",
      "properties": {
        "id": "train_002_BND_031",
        "parcel_id": "train_002_P_008",
        "boundary_type": "INFERRED",
        "confidence": 0.755,
        "length_m": 61.04,
        "evidence_sources": [
          "Road_Corridor_Offset",
          "Adjacent_Parcel_Topology"
        ]
      },
      "geometry": {
        "type": "LineString",
        "coordinates": [
          [
            77.6303221,
            12.9912853
          ],
          [
            77.6297598,
            12.991279
          ]
        ]
      }
    },
    {
      "type": "Feature",
      "properties": {
        "id": "train_002_BND_032",
        "parcel_id": "train_002_P_008",
        "boundary_type": "VISIBLE",
        "confidence": 0.848,
        "length_m": 57.06,
        "evidence_sources": [
          "Drone_RGB_Edge",
          "DSM_Breakline"
        ]
      },
      "geometry": {
        "type": "LineString",
        "coordinates": [
          [
            77.6297598,
            12.991279
          ],
          [
            77.6297702,
            12.9917944
          ]
        ]
      }
    },
    {
      "type": "Feature",
      "properties": {
        "id": "train_002_BND_033",
        "parcel_id": "train_002_P_009",
        "boundary_type": "VISIBLE",
        "confidence": 0.833,
        "length_m": 49.27,
        "evidence_sources": [
          "Drone_RGB_Edge",
          "DSM_Breakline"
        ]
      },
      "geometry": {
        "type": "LineString",
        "coordinates": [
          [
            77.6280766,
            12.9910051
          ],
          [
            77.6285304,
            12.9910109
          ]
        ]
      }
    },
    {
      "type": "Feature",
      "properties": {
        "id": "train_002_BND_034",
        "parcel_id": "train_002_P_009",
        "boundary_type": "INFERRED",
        "confidence": 0.616,
        "length_m": 49.28,
        "evidence_sources": [
          "Road_Corridor_Offset",
          "Adjacent_Parcel_Topology"
        ]
      },
      "geometry": {
        "type": "LineString",
        "coordinates": [
          [
            77.6285304,
            12.9910109
          ],
          [
            77.6285299,
            12.9905657
          ]
        ]
      }
    },
    {
      "type": "Feature",
      "properties": {
        "id": "train_002_BND_035",
        "parcel_id": "train_002_P_009",
        "boundary_type": "INFERRED",
        "confidence": 0.786,
        "length_m": 51.23,
        "evidence_sources": [
          "Road_Corridor_Offset",
          "Adjacent_Parcel_Topology"
        ]
      },
      "geometry": {
        "type": "LineString",
        "coordinates": [
          [
            77.6285299,
            12.9905657
          ],
          [
            77.6280584,
            12.9905469
          ]
        ]
      }
    },
    {
      "type": "Feature",
      "properties": {
        "id": "train_002_BND_036",
        "parcel_id": "train_002_P_009",
        "boundary_type": "VISIBLE",
        "confidence": 0.906,
        "length_m": 50.76,
        "evidence_sources": [
          "Drone_RGB_Edge",
          "DSM_Breakline"
        ]
      },
      "geometry": {
        "type": "LineString",
        "coordinates": [
          [
            77.6280584,
            12.9905469
          ],
          [
            77.6280766,
            12.9910051
          ]
        ]
      }
    },
    {
      "type": "Feature",
      "properties": {
        "id": "train_002_BND_037",
        "parcel_id": "train_002_P_010",
        "boundary_type": "VISIBLE",
        "confidence": 0.927,
        "length_m": 50.15,
        "evidence_sources": [
          "Drone_RGB_Edge",
          "DSM_Breakline"
        ]
      },
      "geometry": {
        "type": "LineString",
        "coordinates": [
          [
            77.628061,
            12.9905389
          ],
          [
            77.628523,
            12.9905383
          ]
        ]
      }
    },
    {
      "type": "Feature",
      "properties": {
        "id": "train_002_BND_038",
        "parcel_id": "train_002_P_010",
        "boundary_type": "VISIBLE",
        "confidence": 0.826,
        "length_m": 49.1,
        "evidence_sources": [
          "Drone_RGB_Edge",
          "DSM_Breakline"
        ]
      },
      "geometry": {
        "type": "LineString",
        "coordinates": [
          [
            77.628523,
            12.9905383
          ],
          [
            77.6285319,
            12.9900948
          ]
        ]
      }
    },
    {
      "type": "Feature",
      "properties": {
        "id": "train_002_BND_039",
        "parcel_id": "train_002_P_010",
        "boundary_type": "INFERRED",
        "confidence": 0.732,
        "length_m": 50.71,
        "evidence_sources": [
          "Road_Corridor_Offset",
          "Adjacent_Parcel_Topology"
        ]
      },
      "geometry": {
        "type": "LineString",
        "coordinates": [
          [
            77.6285319,
            12.9900948
          ],
          [
            77.6280648,
            12.990092
          ]
        ]
      }
    },
    {
      "type": "Feature",
      "properties": {
        "id": "train_002_BND_040",
        "parcel_id": "train_002_P_010",
        "boundary_type": "INFERRED",
        "confidence": 0.774,
        "length_m": 49.47,
        "evidence_sources": [
          "Road_Corridor_Offset",
          "Adjacent_Parcel_Topology"
        ]
      },
      "geometry": {
        "type": "LineString",
        "coordinates": [
          [
            77.6280648,
            12.990092
          ],
          [
            77.628061,
            12.9905389
          ]
        ]
      }
    },
    {
      "type": "Feature",
      "properties": {
        "id": "train_002_BND_041",
        "parcel_id": "train_002_P_011",
        "boundary_type": "VISIBLE",
        "confidence": 0.844,
        "length_m": 49.04,
        "evidence_sources": [
          "Drone_RGB_Edge",
          "DSM_Breakline"
        ]
      },
      "geometry": {
        "type": "LineString",
        "coordinates": [
          [
            77.6285659,
            12.9910084
          ],
          [
            77.6290176,
            12.9909999
          ]
        ]
      }
    },
    {
      "type": "Feature",
      "properties": {
        "id": "train_002_BND_042",
        "parcel_id": "train_002_P_011",
        "boundary_type": "VISIBLE",
        "confidence": 0.849,
        "length_m": 49.53,
        "evidence_sources": [
          "Drone_RGB_Edge",
          "DSM_Breakline"
        ]
      },
      "geometry": {
        "type": "LineString",
        "coordinates": [
          [
            77.6290176,
            12.9909999
          ],
          [
            77.6290175,
            12.9905525
          ]
        ]
      }
    },
    {
      "type": "Feature",
      "properties": {
        "id": "train_002_BND_043",
        "parcel_id": "train_002_P_011",
        "boundary_type": "VISIBLE",
        "confidence": 0.86,
        "length_m": 50.58,
        "evidence_sources": [
          "Drone_RGB_Edge",
          "DSM_Breakline"
        ]
      },
      "geometry": {
        "type": "LineString",
        "coordinates": [
          [
            77.6290175,
            12.9905525
          ],
          [
            77.6285516,
            12.9905497
          ]
        ]
      }
    },
    {
      "type": "Feature",
      "properties": {
        "id": "train_002_BND_044",
        "parcel_id": "train_002_P_011",
        "boundary_type": "VISIBLE",
        "confidence": 0.888,
        "length_m": 50.8,
        "evidence_sources": [
          "Drone_RGB_Edge",
          "DSM_Breakline"
        ]
      },
      "geometry": {
        "type": "LineString",
        "coordinates": [
          [
            77.6285516,
            12.9905497
          ],
          [
            77.6285659,
            12.9910084
          ]
        ]
      }
    },
    {
      "type": "Feature",
      "properties": {
        "id": "train_002_BND_045",
        "parcel_id": "train_002_P_012",
        "boundary_type": "VISIBLE",
        "confidence": 0.875,
        "length_m": 49.62,
        "evidence_sources": [
          "Drone_RGB_Edge",
          "DSM_Breakline"
        ]
      },
      "geometry": {
        "type": "LineString",
        "coordinates": [
          [
            77.6285541,
            12.9905282
          ],
          [
            77.6290112,
            12.9905295
          ]
        ]
      }
    },
    {
      "type": "Feature",
      "properties": {
        "id": "train_002_BND_046",
        "parcel_id": "train_002_P_012",
        "boundary_type": "VISIBLE",
        "confidence": 0.924,
        "length_m": 49.05,
        "evidence_sources": [
          "Drone_RGB_Edge",
          "DSM_Breakline"
        ]
      },
      "geometry": {
        "type": "LineString",
        "coordinates": [
          [
            77.6290112,
            12.9905295
          ],
          [
            77.6290114,
            12.9900864
          ]
        ]
      }
    },
    {
      "type": "Feature",
      "properties": {
        "id": "train_002_BND_047",
        "parcel_id": "train_002_P_012",
        "boundary_type": "INFERRED",
        "confidence": 0.717,
        "length_m": 49.99,
        "evidence_sources": [
          "Road_Corridor_Offset",
          "Adjacent_Parcel_Topology"
        ]
      },
      "geometry": {
        "type": "LineString",
        "coordinates": [
          [
            77.6290114,
            12.9900864
          ],
          [
            77.6285509,
            12.9900799
          ]
        ]
      }
    },
    {
      "type": "Feature",
      "properties": {
        "id": "train_002_BND_048",
        "parcel_id": "train_002_P_012",
        "boundary_type": "VISIBLE",
        "confidence": 0.921,
        "length_m": 49.63,
        "evidence_sources": [
          "Drone_RGB_Edge",
          "DSM_Breakline"
        ]
      },
      "geometry": {
        "type": "LineString",
        "coordinates": [
          [
            77.6285509,
            12.9900799
          ],
          [
            77.6285541,
            12.9905282
          ]
        ]
      }
    },
    {
      "type": "Feature",
      "properties": {
        "id": "train_002_BND_049",
        "parcel_id": "train_002_P_013",
        "boundary_type": "VISIBLE",
        "confidence": 0.924,
        "length_m": 60.12,
        "evidence_sources": [
          "Drone_RGB_Edge",
          "DSM_Breakline"
        ]
      },
      "geometry": {
        "type": "LineString",
        "coordinates": [
          [
            77.6291831,
            12.9909919
          ],
          [
            77.6297369,
            12.9909977
          ]
        ]
      }
    },
    {
      "type": "Feature",
      "properties": {
        "id": "train_002_BND_050",
        "parcel_id": "train_002_P_013",
        "boundary_type": "INFERRED",
        "confidence": 0.767,
        "length_m": 48.79,
        "evidence_sources": [
          "Road_Corridor_Offset",
          "Adjacent_Parcel_Topology"
        ]
      },
      "geometry": {
        "type": "LineString",
        "coordinates": [
          [
            77.6297369,
            12.9909977
          ],
          [
            77.629745,
            12.990557
          ]
        ]
      }
    },
    {
      "type": "Feature",
      "properties": {
        "id": "train_002_BND_051",
        "parcel_id": "train_002_P_013",
        "boundary_type": "VISIBLE",
        "confidence": 0.942,
        "length_m": 58.93,
        "evidence_sources": [
          "Drone_RGB_Edge",
          "DSM_Breakline"
        ]
      },
      "geometry": {
        "type": "LineString",
        "coordinates": [
          [
            77.629745,
            12.990557
          ],
          [
            77.6292022,
            12.9905499
          ]
        ]
      }
    },
    {
      "type": "Feature",
      "properties": {
        "id": "train_002_BND_052",
        "parcel_id": "train_002_P_013",
        "boundary_type": "INFERRED",
        "confidence": 0.734,
        "length_m": 48.97,
        "evidence_sources": [
          "Road_Corridor_Offset",
          "Adjacent_Parcel_Topology"
        ]
      },
      "geometry": {
        "type": "LineString",
        "coordinates": [
          [
            77.6292022,
            12.9905499
          ],
          [
            77.6291831,
            12.9909919
          ]
        ]
      }
    },
    {
      "type": "Feature",
      "properties": {
        "id": "train_002_BND_053",
        "parcel_id": "train_002_P_014",
        "boundary_type": "VISIBLE",
        "confidence": 0.909,
        "length_m": 58.96,
        "evidence_sources": [
          "Drone_RGB_Edge",
          "DSM_Breakline"
        ]
      },
      "geometry": {
        "type": "LineString",
        "coordinates": [
          [
            77.6291973,
            12.990537
          ],
          [
            77.6297404,
            12.9905392
          ]
        ]
      }
    },
    {
      "type": "Feature",
      "properties": {
        "id": "train_002_BND_054",
        "parcel_id": "train_002_P_014",
        "boundary_type": "VISIBLE",
        "confidence": 0.914,
        "length_m": 50.17,
        "evidence_sources": [
          "Drone_RGB_Edge",
          "DSM_Breakline"
        ]
      },
      "geometry": {
        "type": "LineString",
        "coordinates": [
          [
            77.6297404,
            12.9905392
          ],
          [
            77.6297436,
            12.990086
          ]
        ]
      }
    },
    {
      "type": "Feature",
      "properties": {
        "id": "train_002_BND_055",
        "parcel_id": "train_002_P_014",
        "boundary_type": "VISIBLE",
        "confidence": 0.904,
        "length_m": 59.98,
        "evidence_sources": [
          "Drone_RGB_Edge",
          "DSM_Breakline"
        ]
      },
      "geometry": {
        "type": "LineString",
        "coordinates": [
          [
            77.6297436,
            12.990086
          ],
          [
            77.6291911,
            12.9900803
          ]
        ]
      }
    },
    {
      "type": "Feature",
      "properties": {
        "id": "train_002_BND_056",
        "parcel_id": "train_002_P_014",
        "boundary_type": "INFERRED",
        "confidence": 0.667,
        "length_m": 50.56,
        "evidence_sources": [
          "Road_Corridor_Offset",
          "Adjacent_Parcel_Topology"
        ]
      },
      "geometry": {
        "type": "LineString",
        "coordinates": [
          [
            77.6291911,
            12.9900803
          ],
          [
            77.6291973,
            12.990537
          ]
        ]
      }
    },
    {
      "type": "Feature",
      "properties": {
        "id": "train_002_BND_057",
        "parcel_id": "train_002_P_015",
        "boundary_type": "VISIBLE",
        "confidence": 0.887,
        "length_m": 60.36,
        "evidence_sources": [
          "Drone_RGB_Edge",
          "DSM_Breakline"
        ]
      },
      "geometry": {
        "type": "LineString",
        "coordinates": [
          [
            77.6297635,
            12.9910055
          ],
          [
            77.6303193,
            12.9909903
          ]
        ]
      }
    },
    {
      "type": "Feature",
      "properties": {
        "id": "train_002_BND_058",
        "parcel_id": "train_002_P_015",
        "boundary_type": "VISIBLE",
        "confidence": 0.943,
        "length_m": 47.76,
        "evidence_sources": [
          "Drone_RGB_Edge",
          "DSM_Breakline"
        ]
      },
      "geometry": {
        "type": "LineString",
        "coordinates": [
          [
            77.6303193,
            12.9909903
          ],
          [
            77.6303136,
            12.9905589
          ]
        ]
      }
    },
    {
      "type": "Feature",
      "properties": {
        "id": "train_002_BND_059",
        "parcel_id": "train_002_P_015",
        "boundary_type": "VISIBLE",
        "confidence": 0.823,
        "length_m": 59.53,
        "evidence_sources": [
          "Drone_RGB_Edge",
          "DSM_Breakline"
        ]
      },
      "geometry": {
        "type": "LineString",
        "coordinates": [
          [
            77.6303136,
            12.9905589
          ],
          [
            77.6297653,
            12.9905515
          ]
        ]
      }
    },
    {
      "type": "Feature",
      "properties": {
        "id": "train_002_BND_060",
        "parcel_id": "train_002_P_015",
        "boundary_type": "VISIBLE",
        "confidence": 0.855,
        "length_m": 50.26,
        "evidence_sources": [
          "Drone_RGB_Edge",
          "DSM_Breakline"
        ]
      },
      "geometry": {
        "type": "LineString",
        "coordinates": [
          [
            77.6297653,
            12.9905515
          ],
          [
            77.6297635,
            12.9910055
          ]
        ]
      }
    },
    {
      "type": "Feature",
      "properties": {
        "id": "train_002_BND_061",
        "parcel_id": "train_002_P_016",
        "boundary_type": "INFERRED",
        "confidence": 0.618,
        "length_m": 59.12,
        "evidence_sources": [
          "Road_Corridor_Offset",
          "Adjacent_Parcel_Topology"
        ]
      },
      "geometry": {
        "type": "LineString",
        "coordinates": [
          [
            77.6297677,
            12.9905414
          ],
          [
            77.6303123,
            12.9905341
          ]
        ]
      }
    },
    {
      "type": "Feature",
      "properties": {
        "id": "train_002_BND_062",
        "parcel_id": "train_002_P_016",
        "boundary_type": "VISIBLE",
        "confidence": 0.881,
        "length_m": 48.59,
        "evidence_sources": [
          "Drone_RGB_Edge",
          "DSM_Breakline"
        ]
      },
      "geometry": {
        "type": "LineString",
        "coordinates": [
          [
            77.6303123,
            12.9905341
          ],
          [
            77.6303043,
            12.9900952
          ]
        ]
      }
    },
    {
      "type": "Feature",
      "properties": {
        "id": "train_002_BND_063",
        "parcel_id": "train_002_P_016",
        "boundary_type": "VISIBLE",
        "confidence": 0.86,
        "length_m": 57.99,
        "evidence_sources": [
          "Drone_RGB_Edge",
          "DSM_Breakline"
        ]
      },
      "geometry": {
        "type": "LineString",
        "coordinates": [
          [
            77.6303043,
            12.9900952
          ],
          [
            77.6297701,
            12.9900953
          ]
        ]
      }
    },
    {
      "type": "Feature",
      "properties": {
        "id": "train_002_BND_064",
        "parcel_id": "train_002_P_016",
        "boundary_type": "VISIBLE",
        "confidence": 0.902,
        "length_m": 49.38,
        "evidence_sources": [
          "Drone_RGB_Edge",
          "DSM_Breakline"
        ]
      },
      "geometry": {
        "type": "LineString",
        "coordinates": [
          [
            77.6297701,
            12.9900953
          ],
          [
            77.6297677,
            12.9905414
          ]
        ]
      }
    }
  ]
}