{
  "type": "FeatureCollection",
  "crs": {
    "type": "name",
    "properties": {
      "name": "EPSG:4326"
    }
  },
  "features": [
    {
      "type": "Feature",
      "properties": {
        "id": "train_002_BLDG_001",
        "parcel_id": "train_002_P_002",
        "area_sqm": 1162.22,
        "perimeter_m": 137.12,
        "centroid_lon": 77.6282854,
        "centroid_lat": 12.9915422,
        "height_m": 9.73,
        "confidence": 0.854,
        "temporal_epoch": "T1"
      },
      "geometry": {
        "type": "Polygon",
        "coordinates": [
          [
            [
              77.628144,
              12.9917132
            ],
            [
              77.6284268,
              12.9917132
            ],
            [
              77.6284268,
              12.9913712
            ],
            [
              77.628144,
              12.9913712
            ],
            [
              77.628144,
              12.9917132
            ]
          ]
        ]
      }
    },
    {
      "type": "Feature",
      "properties": {
        "id": "train_002_BLDG_002",
        "parcel_id": "train_002_P_003",
        "area_sqm": 1835.39,
        "perimeter_m": 172.68,
        "centroid_lon": 77.6288548,
        "centroid_lat": 12.9920766,
        "height_m": 5.93,
        "confidence": 0.805,
        "temporal_epoch": "T1"
      },
      "geometry": {
        "type": "Polygon",
        "coordinates": [
          [
            [
              77.6286315,
              12.9922476
            ],
            [
              77.6290781,
              12.9922476
            ],
            [
              77.6290781,
              12.9919056
            ],
            [
              77.6286315,
              12.9919056
            ],
            [
              77.6286315,
              12.9922476
            ]
          ]
        ]
      }
    },
    {
      "type": "Feature",
      "properties": {
        "id": "train_002_BLDG_003",
        "parcel_id": "train_002_P_004",
        "area_sqm": 1161.81,
        "perimeter_m": 137.09,
        "centroid_lon": 77.6287729,
        "centroid_lat": 12.9915422,
        "height_m": 9.6,
        "confidence": 0.904,
        "temporal_epoch": "T1"
      },
      "geometry": {
        "type": "Polygon",
        "coordinates": [
          [
            [
              77.6286315,
              12.9917132
            ],
            [
              77.6289142,
              12.9917132
            ],
            [
              77.6289142,
              12.9913712
            ],
            [
              77.6286315,
              12.9913712
            ],
            [
              77.6286315,
              12.9917132
            ]
          ]
        ]
      }
    },
    {
      "type": "Feature",
      "properties": {
        "id": "train_002_BLDG_004",
        "parcel_id": "train_002_P_009",
        "area_sqm": 1019.5,
        "perimeter_m": 127.82,
        "centroid_lon": 77.6282854,
        "centroid_lat": 12.9907781,
        "height_m": 9.77,
        "confidence": 0.937,
        "temporal_epoch": "T1"
      },
      "geometry": {
        "type": "Polygon",
        "coordinates": [
          [
            [
              77.628144,
              12.9909281
            ],
            [
              77.6284268,
              12.9909281
            ],
            [
              77.6284268,
              12.9906281
            ],
            [
              77.628144,
              12.9906281
            ],
            [
              77.628144,
              12.9909281
            ]
          ]
        ]
      }
    },
    {
      "type": "Feature",
      "properties": {
        "id": "train_002_BLDG_005",
        "parcel_id": "train_002_P_012",
        "area_sqm": 1019.14,
        "perimeter_m": 127.8,
        "centroid_lon": 77.6287728,
        "centroid_lat": 12.9903094,
        "height_m": 10.75,
        "confidence": 0.898,
        "temporal_epoch": "T1"
      },
      "geometry": {
        "type": "Polygon",
        "coordinates": [
          [
            [
              77.6286315,
              12.9904594
            ],
            [
              77.6289142,
              12.9904594
            ],
            [
              77.6289142,
              12.9901594
            ],
            [
              77.6286315,
              12.9901594
            ],
            [
              77.6286315,
              12.9904594
            ]
          ]
        ]
      }
    }
  ]
}