{
  "type": "FeatureCollection",
  "crs": {
    "type": "name",
    "properties": {
      "name": "EPSG:4326"
    }
  },
  "features": [
    {
      "type": "Feature",
      "properties": {
        "id": "train_048_BND_001",
        "parcel_id": "train_048_P_001",
        "boundary_type": "INFERRED",
        "confidence": 0.766,
        "length_m": 61.08,
        "evidence_sources": [
          "Road_Corridor_Offset",
          "Adjacent_Parcel_Topology"
        ]
      },
      "geometry": {
        "type": "LineString",
        "coordinates": [
          [
            77.6310774,
            13.0013388
          ],
          [
            77.6316401,
            13.0013415
          ]
        ]
      }
    },
    {
      "type": "Feature",
      "properties": {
        "id": "train_048_BND_002",
        "parcel_id": "train_048_P_001",
        "boundary_type": "VISIBLE",
        "confidence": 0.932,
        "length_m": 63.02,
        "evidence_sources": [
          "Drone_RGB_Edge",
          "DSM_Breakline"
        ]
      },
      "geometry": {
        "type": "LineString",
        "coordinates": [
          [
            77.6316401,
            13.0013415
          ],
          [
            77.6316557,
            13.0007724
          ]
        ]
      }
    },
    {
      "type": "Feature",
      "properties": {
        "id": "train_048_BND_003",
        "parcel_id": "train_048_P_001",
        "boundary_type": "VISIBLE",
        "confidence": 0.92,
        "length_m": 64.14,
        "evidence_sources": [
          "Drone_RGB_Edge",
          "DSM_Breakline"
        ]
      },
      "geometry": {
        "type": "LineString",
        "coordinates": [
          [
            77.6316557,
            13.0007724
          ],
          [
            77.6310649,
            13.0007794
          ]
        ]
      }
    },
    {
      "type": "Feature",
      "properties": {
        "id": "train_048_BND_004",
        "parcel_id": "train_048_P_001",
        "boundary_type": "VISIBLE",
        "confidence": 0.913,
        "length_m": 61.94,
        "evidence_sources": [
          "Drone_RGB_Edge",
          "DSM_Breakline"
        ]
      },
      "geometry": {
        "type": "LineString",
        "coordinates": [
          [
            77.6310649,
            13.0007794
          ],
          [
            77.6310774,
            13.0013388
          ]
        ]
      }
    },
    {
      "type": "Feature",
      "properties": {
        "id": "train_048_BND_005",
        "parcel_id": "train_048_P_002",
        "boundary_type": "VISIBLE",
        "confidence": 0.929,
        "length_m": 63.67,
        "evidence_sources": [
          "Drone_RGB_Edge",
          "DSM_Breakline"
        ]
      },
      "geometry": {
        "type": "LineString",
        "coordinates": [
          [
            77.63106,
            13.0007603
          ],
          [
            77.6316465,
            13.0007636
          ]
        ]
      }
    },
    {
      "type": "Feature",
      "properties": {
        "id": "train_048_BND_006",
        "parcel_id": "train_048_P_002",
        "boundary_type": "VISIBLE",
        "confidence": 0.935,
        "length_m": 62.24,
        "evidence_sources": [
          "Drone_RGB_Edge",
          "DSM_Breakline"
        ]
      },
      "geometry": {
        "type": "LineString",
        "coordinates": [
          [
            77.6316465,
            13.0007636
          ],
          [
            77.6316498,
            13.0002014
          ]
        ]
      }
    },
    {
      "type": "Feature",
      "properties": {
        "id": "train_048_BND_007",
        "parcel_id": "train_048_P_002",
        "boundary_type": "VISIBLE",
        "confidence": 0.951,
        "length_m": 62.66,
        "evidence_sources": [
          "Drone_RGB_Edge",
          "DSM_Breakline"
        ]
      },
      "geometry": {
        "type": "LineString",
        "coordinates": [
          [
            77.6316498,
            13.0002014
          ],
          [
            77.6310726,
            13.0002035
          ]
        ]
      }
    },
    {
      "type": "Feature",
      "properties": {
        "id": "train_048_BND_008",
        "parcel_id": "train_048_P_002",
        "boundary_type": "VISIBLE",
        "confidence": 0.936,
        "length_m": 61.65,
        "evidence_sources": [
          "Drone_RGB_Edge",
          "DSM_Breakline"
        ]
      },
      "geometry": {
        "type": "LineString",
        "coordinates": [
          [
            77.6310726,
            13.0002035
          ],
          [
            77.63106,
            13.0007603
          ]
        ]
      }
    },
    {
      "type": "Feature",
      "properties": {
        "id": "train_048_BND_009",
        "parcel_id": "train_048_P_003",
        "boundary_type": "VISIBLE",
        "confidence": 0.894,
        "length_m": 63.15,
        "evidence_sources": [
          "Drone_RGB_Edge",
          "DSM_Breakline"
        ]
      },
      "geometry": {
        "type": "LineString",
        "coordinates": [
          [
            77.6316685,
            13.0013382
          ],
          [
            77.6322502,
            13.0013329
          ]
        ]
      }
    },
    {
      "type": "Feature",
      "properties": {
        "id": "train_048_BND_010",
        "parcel_id": "train_048_P_003",
        "boundary_type": "VISIBLE",
        "confidence": 0.927,
        "length_m": 60.89,
        "evidence_sources": [
          "Drone_RGB_Edge",
          "DSM_Breakline"
        ]
      },
      "geometry": {
        "type": "LineString",
        "coordinates": [
          [
            77.6322502,
            13.0013329
          ],
          [
            77.6322451,
            13.0007829
          ]
        ]
      }
    },
    {
      "type": "Feature",
      "properties": {
        "id": "train_048_BND_011",
        "parcel_id": "train_048_P_003",
        "boundary_type": "VISIBLE",
        "confidence": 0.84,
        "length_m": 62.36,
        "evidence_sources": [
          "Drone_RGB_Edge",
          "DSM_Breakline"
        ]
      },
      "geometry": {
        "type": "LineString",
        "coordinates": [
          [
            77.6322451,
            13.0007829
          ],
          [
            77.6316707,
            13.0007729
          ]
        ]
      }
    },
    {
      "type": "Feature",
      "properties": {
        "id": "train_048_BND_012",
        "parcel_id": "train_048_P_003",
        "boundary_type": "VISIBLE",
        "confidence": 0.912,
        "length_m": 62.58,
        "evidence_sources": [
          "Drone_RGB_Edge",
          "DSM_Breakline"
        ]
      },
      "geometry": {
        "type": "LineString",
        "coordinates": [
          [
            77.6316707,
            13.0007729
          ],
          [
            77.6316685,
            13.0013382
          ]
        ]
      }
    },
    {
      "type": "Feature",
      "properties": {
        "id": "train_048_BND_013",
        "parcel_id": "train_048_P_004",
        "boundary_type": "INFERRED",
        "confidence": 0.751,
        "length_m": 62.47,
        "evidence_sources": [
          "Road_Corridor_Offset",
          "Adjacent_Parcel_Topology"
        ]
      },
      "geometry": {
        "type": "LineString",
        "coordinates": [
          [
            77.6316586,
            13.0007665
          ],
          [
            77.6322341,
            13.0007711
          ]
        ]
      }
    },
    {
      "type": "Feature",
      "properties": {
        "id": "train_048_BND_014",
        "parcel_id": "train_048_P_004",
        "boundary_type": "VISIBLE",
        "confidence": 0.933,
        "length_m": 61.03,
        "evidence_sources": [
          "Drone_RGB_Edge",
          "DSM_Breakline"
        ]
      },
      "geometry": {
        "type": "LineString",
        "coordinates": [
          [
            77.6322341,
            13.0007711
          ],
          [
            77.63225,
            13.00022
          ]
        ]
      }
    },
    {
      "type": "Feature",
      "properties": {
        "id": "train_048_BND_015",
        "parcel_id": "train_048_P_004",
        "boundary_type": "VISIBLE",
        "confidence": 0.932,
        "length_m": 64.28,
        "evidence_sources": [
          "Drone_RGB_Edge",
          "DSM_Breakline"
        ]
      },
      "geometry": {
        "type": "LineString",
        "coordinates": [
          [
            77.63225,
            13.00022
          ],
          [
            77.6316581,
            13.0002023
          ]
        ]
      }
    },
    {
      "type": "Feature",
      "properties": {
        "id": "train_048_BND_016",
        "parcel_id": "train_048_P_004",
        "boundary_type": "VISIBLE",
        "confidence": 0.826,
        "length_m": 62.46,
        "evidence_sources": [
          "Drone_RGB_Edge",
          "DSM_Breakline"
        ]
      },
      "geometry": {
        "type": "LineString",
        "coordinates": [
          [
            77.6316581,
            13.0002023
          ],
          [
            77.6316586,
            13.0007665
          ]
        ]
      }
    },
    {
      "type": "Feature",
      "properties": {
        "id": "train_048_BND_017",
        "parcel_id": "train_048_P_005",
        "boundary_type": "VISIBLE",
        "confidence": 0.922,
        "length_m": 47.85,
        "evidence_sources": [
          "Drone_RGB_Edge",
          "DSM_Breakline"
        ]
      },
      "geometry": {
        "type": "LineString",
        "coordinates": [
          [
            77.6324199,
            13.0013395
          ],
          [
            77.6328607,
            13.0013344
          ]
        ]
      }
    },
    {
      "type": "Feature",
      "properties": {
        "id": "train_048_BND_018",
        "parcel_id": "train_048_P_005",
        "boundary_type": "INFERRED",
        "confidence": 0.634,
        "length_m": 61.51,
        "evidence_sources": [
          "Road_Corridor_Offset",
          "Adjacent_Parcel_Topology"
        ]
      },
      "geometry": {
        "type": "LineString",
        "coordinates": [
          [
            77.6328607,
            13.0013344
          ],
          [
            77.6328534,
            13.0007788
          ]
        ]
      }
    },
    {
      "type": "Feature",
      "properties": {
        "id": "train_048_BND_019",
        "parcel_id": "train_048_P_005",
        "boundary_type": "VISIBLE",
        "confidence": 0.878,
        "length_m": 46.86,
        "evidence_sources": [
          "Drone_RGB_Edge",
          "DSM_Breakline"
        ]
      },
      "geometry": {
        "type": "LineString",
        "coordinates": [
          [
            77.6328534,
            13.0007788
          ],
          [
            77.6324217,
            13.0007746
          ]
        ]
      }
    },
    {
      "type": "Feature",
      "properties": {
        "id": "train_048_BND_020",
        "parcel_id": "train_048_P_005",
        "boundary_type": "VISIBLE",
        "confidence": 0.916,
        "length_m": 62.53,
        "evidence_sources": [
          "Drone_RGB_Edge",
          "DSM_Breakline"
        ]
      },
      "geometry": {
        "type": "LineString",
        "coordinates": [
          [
            77.6324217,
            13.0007746
          ],
          [
            77.6324199,
            13.0013395
          ]
        ]
      }
    },
    {
      "type": "Feature",
      "properties": {
        "id": "train_048_BND_021",
        "parcel_id": "train_048_P_006",
        "boundary_type": "VISIBLE",
        "confidence": 0.952,
        "length_m": 47.89,
        "evidence_sources": [
          "Drone_RGB_Edge",
          "DSM_Breakline"
        ]
      },
      "geometry": {
        "type": "LineString",
        "coordinates": [
          [
            77.632413,
            13.0007557
          ],
          [
            77.6328542,
            13.0007546
          ]
        ]
      }
    },
    {
      "type": "Feature",
      "properties": {
        "id": "train_048_BND_022",
        "parcel_id": "train_048_P_006",
        "boundary_type": "VISIBLE",
        "confidence": 0.883,
        "length_m": 59.56,
        "evidence_sources": [
          "Drone_RGB_Edge",
          "DSM_Breakline"
        ]
      },
      "geometry": {
        "type": "LineString",
        "coordinates": [
          [
            77.6328542,
            13.0007546
          ],
          [
            77.6328594,
            13.0002166
          ]
        ]
      }
    },
    {
      "type": "Feature",
      "properties": {
        "id": "train_048_BND_023",
        "parcel_id": "train_048_P_006",
        "boundary_type": "VISIBLE",
        "confidence": 0.867,
        "length_m": 47.09,
        "evidence_sources": [
          "Drone_RGB_Edge",
          "DSM_Breakline"
        ]
      },
      "geometry": {
        "type": "LineString",
        "coordinates": [
          [
            77.6328594,
            13.0002166
          ],
          [
            77.6324256,
            13.0002155
          ]
        ]
      }
    },
    {
      "type": "Feature",
      "properties": {
        "id": "train_048_BND_024",
        "parcel_id": "train_048_P_006",
        "boundary_type": "VISIBLE",
        "confidence": 0.821,
        "length_m": 59.81,
        "evidence_sources": [
          "Drone_RGB_Edge",
          "DSM_Breakline"
        ]
      },
      "geometry": {
        "type": "LineString",
        "coordinates": [
          [
            77.6324256,
            13.0002155
          ],
          [
            77.632413,
            13.0007557
          ]
        ]
      }
    },
    {
      "type": "Feature",
      "properties": {
        "id": "train_048_BND_025",
        "parcel_id": "train_048_P_007",
        "boundary_type": "VISIBLE",
        "confidence": 0.863,
        "length_m": 48.04,
        "evidence_sources": [
          "Drone_RGB_Edge",
          "DSM_Breakline"
        ]
      },
      "geometry": {
        "type": "LineString",
        "coordinates": [
          [
            77.6328658,
            13.001334
          ],
          [
            77.6333083,
            13.0013264
          ]
        ]
      }
    },
    {
      "type": "Feature",
      "properties": {
        "id": "train_048_BND_026",
        "parcel_id": "train_048_P_007",
        "boundary_type": "VISIBLE",
        "confidence": 0.881,
        "length_m": 61.31,
        "evidence_sources": [
          "Drone_RGB_Edge",
          "DSM_Breakline"
        ]
      },
      "geometry": {
        "type": "LineString",
        "coordinates": [
          [
            77.6333083,
            13.0013264
          ],
          [
            77.6333184,
            13.0007726
          ]
        ]
      }
    },
    {
      "type": "Feature",
      "properties": {
        "id": "train_048_BND_027",
        "parcel_id": "train_048_P_007",
        "boundary_type": "VISIBLE",
        "confidence": 0.946,
        "length_m": 47.89,
        "evidence_sources": [
          "Drone_RGB_Edge",
          "DSM_Breakline"
        ]
      },
      "geometry": {
        "type": "LineString",
        "coordinates": [
          [
            77.6333184,
            13.0007726
          ],
          [
            77.6328774,
            13.0007845
          ]
        ]
      }
    },
    {
      "type": "Feature",
      "properties": {
        "id": "train_048_BND_028",
        "parcel_id": "train_048_P_007",
        "boundary_type": "VISIBLE",
        "confidence": 0.906,
        "length_m": 60.84,
        "evidence_sources": [
          "Drone_RGB_Edge",
          "DSM_Breakline"
        ]
      },
      "geometry": {
        "type": "LineString",
        "coordinates": [
          [
            77.6328774,
            13.0007845
          ],
          [
            77.6328658,
            13.001334
          ]
        ]
      }
    },
    {
      "type": "Feature",
      "properties": {
        "id": "train_048_BND_029",
        "parcel_id": "train_048_P_008",
        "boundary_type": "INFERRED",
        "confidence": 0.611,
        "length_m": 48.55,
        "evidence_sources": [
          "Road_Corridor_Offset",
          "Adjacent_Parcel_Topology"
        ]
      },
      "geometry": {
        "type": "LineString",
        "coordinates": [
          [
            77.6328748,
            13.0007626
          ],
          [
            77.633322,
            13.000755
          ]
        ]
      }
    },
    {
      "type": "Feature",
      "properties": {
        "id": "train_048_BND_030",
        "parcel_id": "train_048_P_008",
        "boundary_type": "INFERRED",
        "confidence": 0.71,
        "length_m": 60.33,
        "evidence_sources": [
          "Road_Corridor_Offset",
          "Adjacent_Parcel_Topology"
        ]
      },
      "geometry": {
        "type": "LineString",
        "coordinates": [
          [
            77.633322,
            13.000755
          ],
          [
            77.6333119,
            13.0002101
          ]
        ]
      }
    },
    {
      "type": "Feature",
      "properties": {
        "id": "train_048_BND_031",
        "parcel_id": "train_048_P_008",
        "boundary_type": "INFERRED",
        "confidence": 0.788,
        "length_m": 46.06,
        "evidence_sources": [
          "Road_Corridor_Offset",
          "Adjacent_Parcel_Topology"
        ]
      },
      "geometry": {
        "type": "LineString",
        "coordinates": [
          [
            77.6333119,
            13.0002101
          ],
          [
            77.6328876,
            13.0002034
          ]
        ]
      }
    },
    {
      "type": "Feature",
      "properties": {
        "id": "train_048_BND_032",
        "parcel_id": "train_048_P_008",
        "boundary_type": "VISIBLE",
        "confidence": 0.914,
        "length_m": 61.92,
        "evidence_sources": [
          "Drone_RGB_Edge",
          "DSM_Breakline"
        ]
      },
      "geometry": {
        "type": "LineString",
        "coordinates": [
          [
            77.6328876,
            13.0002034
          ],
          [
            77.6328748,
            13.0007626
          ]
        ]
      }
    },
    {
      "type": "Feature",
      "properties": {
        "id": "train_048_BND_033",
        "parcel_id": "train_048_P_009",
        "boundary_type": "VISIBLE",
        "confidence": 0.874,
        "length_m": 63.34,
        "evidence_sources": [
          "Drone_RGB_Edge",
          "DSM_Breakline"
        ]
      },
      "geometry": {
        "type": "LineString",
        "coordinates": [
          [
            77.6310596,
            12.9999275
          ],
          [
            77.631643,
            12.9999162
          ]
        ]
      }
    },
    {
      "type": "Feature",
      "properties": {
        "id": "train_048_BND_034",
        "parcel_id": "train_048_P_009",
        "boundary_type": "VISIBLE",
        "confidence": 0.825,
        "length_m": 45.27,
        "evidence_sources": [
          "Drone_RGB_Edge",
          "DSM_Breakline"
        ]
      },
      "geometry": {
        "type": "LineString",
        "coordinates": [
          [
            77.631643,
            12.9999162
          ],
          [
            77.6316389,
            12.9995073
          ]
        ]
      }
    },
    {
      "type": "Feature",
      "properties": {
        "id": "train_048_BND_035",
        "parcel_id": "train_048_P_009",
        "boundary_type": "VISIBLE",
        "confidence": 0.924,
        "length_m": 62.17,
        "evidence_sources": [
          "Drone_RGB_Edge",
          "DSM_Breakline"
        ]
      },
      "geometry": {
        "type": "LineString",
        "coordinates": [
          [
            77.6316389,
            12.9995073
          ],
          [
            77.6310664,
            12.9995246
          ]
        ]
      }
    },
    {
      "type": "Feature",
      "properties": {
        "id": "train_048_BND_036",
        "parcel_id": "train_048_P_009",
        "boundary_type": "INFERRED",
        "confidence": 0.62,
        "length_m": 44.61,
        "evidence_sources": [
          "Road_Corridor_Offset",
          "Adjacent_Parcel_Topology"
        ]
      },
      "geometry": {
        "type": "LineString",
        "coordinates": [
          [
            77.6310664,
            12.9995246
          ],
          [
            77.6310596,
            12.9999275
          ]
        ]
      }
    },
    {
      "type": "Feature",
      "properties": {
        "id": "train_048_BND_037",
        "parcel_id": "train_048_P_010",
        "boundary_type": "VISIBLE",
        "confidence": 0.932,
        "length_m": 63.63,
        "evidence_sources": [
          "Drone_RGB_Edge",
          "DSM_Breakline"
        ]
      },
      "geometry": {
        "type": "LineString",
        "coordinates": [
          [
            77.6310609,
            12.9994956
          ],
          [
            77.6316471,
            12.9994958
          ]
        ]
      }
    },
    {
      "type": "Feature",
      "properties": {
        "id": "train_048_BND_038",
        "parcel_id": "train_048_P_010",
        "boundary_type": "VISIBLE",
        "confidence": 0.859,
        "length_m": 46.15,
        "evidence_sources": [
          "Drone_RGB_Edge",
          "DSM_Breakline"
        ]
      },
      "geometry": {
        "type": "LineString",
        "coordinates": [
          [
            77.6316471,
            12.9994958
          ],
          [
            77.6316386,
            12.999079
          ]
        ]
      }
    },
    {
      "type": "Feature",
      "properties": {
        "id": "train_048_BND_039",
        "parcel_id": "train_048_P_010",
        "boundary_type": "VISIBLE",
        "confidence": 0.868,
        "length_m": 61.86,
        "evidence_sources": [
          "Drone_RGB_Edge",
          "DSM_Breakline"
        ]
      },
      "geometry": {
        "type": "LineString",
        "coordinates": [
          [
            77.6316386,
            12.999079
          ],
          [
            77.6310689,
            12.9990932
          ]
        ]
      }
    },
    {
      "type": "Feature",
      "properties": {
        "id": "train_048_BND_040",
        "parcel_id": "train_048_P_010",
        "boundary_type": "VISIBLE",
        "confidence": 0.952,
        "length_m": 44.55,
        "evidence_sources": [
          "Drone_RGB_Edge",
          "DSM_Breakline"
        ]
      },
      "geometry": {
        "type": "LineString",
        "coordinates": [
          [
            77.6310689,
            12.9990932
          ],
          [
            77.6310609,
            12.9994956
          ]
        ]
      }
    },
    {
      "type": "Feature",
      "properties": {
        "id": "train_048_BND_041",
        "parcel_id": "train_048_P_011",
        "boundary_type": "VISIBLE",
        "confidence": 0.845,
        "length_m": 64.24,
        "evidence_sources": [
          "Drone_RGB_Edge",
          "DSM_Breakline"
        ]
      },
      "geometry": {
        "type": "LineString",
        "coordinates": [
          [
            77.6316612,
            12.9999295
          ],
          [
            77.632253,
            12.9999252
          ]
        ]
      }
    },
    {
      "type": "Feature",
      "properties": {
        "id": "train_048_BND_042",
        "parcel_id": "train_048_P_011",
        "boundary_type": "INFERRED",
        "confidence": 0.65,
        "length_m": 44.79,
        "evidence_sources": [
          "Road_Corridor_Offset",
          "Adjacent_Parcel_Topology"
        ]
      },
      "geometry": {
        "type": "LineString",
        "coordinates": [
          [
            77.632253,
            12.9999252
          ],
          [
            77.6322538,
            12.9995206
          ]
        ]
      }
    },
    {
      "type": "Feature",
      "properties": {
        "id": "train_048_BND_043",
        "parcel_id": "train_048_P_011",
        "boundary_type": "VISIBLE",
        "confidence": 0.849,
        "length_m": 62.77,
        "evidence_sources": [
          "Drone_RGB_Edge",
          "DSM_Breakline"
        ]
      },
      "geometry": {
        "type": "LineString",
        "coordinates": [
          [
            77.6322538,
            12.9995206
          ],
          [
            77.6316757,
            12.9995072
          ]
        ]
      }
    },
    {
      "type": "Feature",
      "properties": {
        "id": "train_048_BND_044",
        "parcel_id": "train_048_P_011",
        "boundary_type": "VISIBLE",
        "confidence": 0.858,
        "length_m": 46.77,
        "evidence_sources": [
          "Drone_RGB_Edge",
          "DSM_Breakline"
        ]
      },
      "geometry": {
        "type": "LineString",
        "coordinates": [
          [
            77.6316757,
            12.9995072
          ],
          [
            77.6316612,
            12.9999295
          ]
        ]
      }
    },
    {
      "type": "Feature",
      "properties": {
        "id": "train_048_BND_045",
        "parcel_id": "train_048_P_012",
        "boundary_type": "VISIBLE",
        "confidence": 0.905,
        "length_m": 62.74,
        "evidence_sources": [
          "Drone_RGB_Edge",
          "DSM_Breakline"
        ]
      },
      "geometry": {
        "type": "LineString",
        "coordinates": [
          [
            77.6316658,
            12.9994973
          ],
          [
            77.6322437,
            12.9995047
          ]
        ]
      }
    },
    {
      "type": "Feature",
      "properties": {
        "id": "train_048_BND_046",
        "parcel_id": "train_048_P_012",
        "boundary_type": "VISIBLE",
        "confidence": 0.865,
        "length_m": 46.43,
        "evidence_sources": [
          "Drone_RGB_Edge",
          "DSM_Breakline"
        ]
      },
      "geometry": {
        "type": "LineString",
        "coordinates": [
          [
            77.6322437,
            12.9995047
          ],
          [
            77.632243,
            12.9990853
          ]
        ]
      }
    },
    {
      "type": "Feature",
      "properties": {
        "id": "train_048_BND_047",
        "parcel_id": "train_048_P_012",
        "boundary_type": "VISIBLE",
        "confidence": 0.909,
        "length_m": 62.23,
        "evidence_sources": [
          "Drone_RGB_Edge",
          "DSM_Breakline"
        ]
      },
      "geometry": {
        "type": "LineString",
        "coordinates": [
          [
            77.632243,
            12.9990853
          ],
          [
            77.6316698,
            12.9990762
          ]
        ]
      }
    },
    {
      "type": "Feature",
      "properties": {
        "id": "train_048_BND_048",
        "parcel_id": "train_048_P_012",
        "boundary_type": "INFERRED",
        "confidence": 0.707,
        "length_m": 46.62,
        "evidence_sources": [
          "Road_Corridor_Offset",
          "Adjacent_Parcel_Topology"
        ]
      },
      "geometry": {
        "type": "LineString",
        "coordinates": [
          [
            77.6316698,
            12.9990762
          ],
          [
            77.6316658,
            12.9994973
          ]
        ]
      }
    },
    {
      "type": "Feature",
      "properties": {
        "id": "train_048_BND_049",
        "parcel_id": "train_048_P_013",
        "boundary_type": "VISIBLE",
        "confidence": 0.917,
        "length_m": 47.68,
        "evidence_sources": [
          "Drone_RGB_Edge",
          "DSM_Breakline"
        ]
      },
      "geometry": {
        "type": "LineString",
        "coordinates": [
          [
            77.632419,
            12.9999243
          ],
          [
            77.632858,
            12.9999374
          ]
        ]
      }
    },
    {
      "type": "Feature",
      "properties": {
        "id": "train_048_BND_050",
        "parcel_id": "train_048_P_013",
        "boundary_type": "VISIBLE",
        "confidence": 0.93,
        "length_m": 46.78,
        "evidence_sources": [
          "Drone_RGB_Edge",
          "DSM_Breakline"
        ]
      },
      "geometry": {
        "type": "LineString",
        "coordinates": [
          [
            77.632858,
            12.9999374
          ],
          [
            77.6328483,
            12.9995149
          ]
        ]
      }
    },
    {
      "type": "Feature",
      "properties": {
        "id": "train_048_BND_051",
        "parcel_id": "train_048_P_013",
        "boundary_type": "VISIBLE",
        "confidence": 0.95,
        "length_m": 45.8,
        "evidence_sources": [
          "Drone_RGB_Edge",
          "DSM_Breakline"
        ]
      },
      "geometry": {
        "type": "LineString",
        "coordinates": [
          [
            77.6328483,
            12.9995149
          ],
          [
            77.6324264,
            12.9995198
          ]
        ]
      }
    },
    {
      "type": "Feature",
      "properties": {
        "id": "train_048_BND_052",
        "parcel_id": "train_048_P_013",
        "boundary_type": "INFERRED",
        "confidence": 0.672,
        "length_m": 44.78,
        "evidence_sources": [
          "Road_Corridor_Offset",
          "Adjacent_Parcel_Topology"
        ]
      },
      "geometry": {
        "type": "LineString",
        "coordinates": [
          [
            77.6324264,
            12.9995198
          ],
          [
            77.632419,
            12.9999243
          ]
        ]
      }
    },
    {
      "type": "Feature",
      "properties": {
        "id": "train_048_BND_053",
        "parcel_id": "train_048_P_014",
        "boundary_type": "VISIBLE",
        "confidence": 0.958,
        "length_m": 48.35,
        "evidence_sources": [
          "Drone_RGB_Edge",
          "DSM_Breakline"
        ]
      },
      "geometry": {
        "type": "LineString",
        "coordinates": [
          [
            77.6324194,
            12.9994967
          ],
          [
            77.6328647,
            12.999488
          ]
        ]
      }
    },
    {
      "type": "Feature",
      "properties": {
        "id": "train_048_BND_054",
        "parcel_id": "train_048_P_014",
        "boundary_type": "VISIBLE",
        "confidence": 0.847,
        "length_m": 45.1,
        "evidence_sources": [
          "Drone_RGB_Edge",
          "DSM_Breakline"
        ]
      },
      "geometry": {
        "type": "LineString",
        "coordinates": [
          [
            77.6328647,
            12.999488
          ],
          [
            77.6328541,
            12.9990807
          ]
        ]
      }
    },
    {
      "type": "Feature",
      "properties": {
        "id": "train_048_BND_055",
        "parcel_id": "train_048_P_014",
        "boundary_type": "INFERRED",
        "confidence": 0.711,
        "length_m": 46.51,
        "evidence_sources": [
          "Road_Corridor_Offset",
          "Adjacent_Parcel_Topology"
        ]
      },
      "geometry": {
        "type": "LineString",
        "coordinates": [
          [
            77.6328541,
            12.9990807
          ],
          [
            77.6324257,
            12.9990858
          ]
        ]
      }
    },
    {
      "type": "Feature",
      "properties": {
        "id": "train_048_BND_056",
        "parcel_id": "train_048_P_014",
        "boundary_type": "VISIBLE",
        "confidence": 0.884,
        "length_m": 45.49,
        "evidence_sources": [
          "Drone_RGB_Edge",
          "DSM_Breakline"
        ]
      },
      "geometry": {
        "type": "LineString",
        "coordinates": [
          [
            77.6324257,
            12.9990858
          ],
          [
            77.6324194,
            12.9994967
          ]
        ]
      }
    },
    {
      "type": "Feature",
      "properties": {
        "id": "train_048_BND_057",
        "parcel_id": "train_048_P_015",
        "boundary_type": "VISIBLE",
        "confidence": 0.859,
        "length_m": 47.15,
        "evidence_sources": [
          "Drone_RGB_Edge",
          "DSM_Breakline"
        ]
      },
      "geometry": {
        "type": "LineString",
        "coordinates": [
          [
            77.632883,
            12.9999228
          ],
          [
            77.6333174,
            12.9999245
          ]
        ]
      }
    },
    {
      "type": "Feature",
      "properties": {
        "id": "train_048_BND_058",
        "parcel_id": "train_048_P_015",
        "boundary_type": "VISIBLE",
        "confidence": 0.877,
        "length_m": 45.07,
        "evidence_sources": [
          "Drone_RGB_Edge",
          "DSM_Breakline"
        ]
      },
      "geometry": {
        "type": "LineString",
        "coordinates": [
          [
            77.6333174,
            12.9999245
          ],
          [
            77.6333052,
            12.9995175
          ]
        ]
      }
    },
    {
      "type": "Feature",
      "properties": {
        "id": "train_048_BND_059",
        "parcel_id": "train_048_P_015",
        "boundary_type": "VISIBLE",
        "confidence": 0.868,
        "length_m": 47.7,
        "evidence_sources": [
          "Drone_RGB_Edge",
          "DSM_Breakline"
        ]
      },
      "geometry": {
        "type": "LineString",
        "coordinates": [
          [
            77.6333052,
            12.9995175
          ],
          [
            77.6328658,
            12.9995115
          ]
        ]
      }
    },
    {
      "type": "Feature",
      "properties": {
        "id": "train_048_BND_060",
        "parcel_id": "train_048_P_015",
        "boundary_type": "INFERRED",
        "confidence": 0.74,
        "length_m": 45.57,
        "evidence_sources": [
          "Road_Corridor_Offset",
          "Adjacent_Parcel_Topology"
        ]
      },
      "geometry": {
        "type": "LineString",
        "coordinates": [
          [
            77.6328658,
            12.9995115
          ],
          [
            77.632883,
            12.9999228
          ]
        ]
      }
    },
    {
      "type": "Feature",
      "properties": {
        "id": "train_048_BND_061",
        "parcel_id": "train_048_P_016",
        "boundary_type": "INFERRED",
        "confidence": 0.696,
        "length_m": 45.98,
        "evidence_sources": [
          "Road_Corridor_Offset",
          "Adjacent_Parcel_Topology"
        ]
      },
      "geometry": {
        "type": "LineString",
        "coordinates": [
          [
            77.6328876,
            12.9994975
          ],
          [
            77.6333111,
            12.9994885
          ]
        ]
      }
    },
    {
      "type": "Feature",
      "properties": {
        "id": "train_048_BND_062",
        "parcel_id": "train_048_P_016",
        "boundary_type": "VISIBLE",
        "confidence": 0.954,
        "length_m": 44.14,
        "evidence_sources": [
          "Drone_RGB_Edge",
          "DSM_Breakline"
        ]
      },
      "geometry": {
        "type": "LineString",
        "coordinates": [
          [
            77.6333111,
            12.9994885
          ],
          [
            77.6333183,
            12.9990898
          ]
        ]
      }
    },
    {
      "type": "Feature",
      "properties": {
        "id": "train_048_BND_063",
        "parcel_id": "train_048_P_016",
        "boundary_type": "VISIBLE",
        "confidence": 0.857,
        "length_m": 47.42,
        "evidence_sources": [
          "Drone_RGB_Edge",
          "DSM_Breakline"
        ]
      },
      "geometry": {
        "type": "LineString",
        "coordinates": [
          [
            77.6333183,
            12.9990898
          ],
          [
            77.6328817,
            12.9990767
          ]
        ]
      }
    },
    {
      "type": "Feature",
      "properties": {
        "id": "train_048_BND_064",
        "parcel_id": "train_048_P_016",
        "boundary_type": "VISIBLE",
        "confidence": 0.825,
        "length_m": 46.59,
        "evidence_sources": [
          "Drone_RGB_Edge",
          "DSM_Breakline"
        ]
      },
      "geometry": {
        "type": "LineString",
        "coordinates": [
          [
            77.6328817,
            12.9990767
          ],
          [
            77.6328876,
            12.9994975
          ]
        ]
      }
    }
  ]
}