{
  "type": "FeatureCollection",
  "crs": {
    "type": "name",
    "properties": {
      "name": "EPSG:4326"
    }
  },
  "features": [
    {
      "type": "Feature",
      "properties": {
        "id": "train_048_RD_001",
        "road_class": "MAIN_ROAD",
        "width_m": 5.5,
        "length_m": 258.48,
        "confidence": 0.94
      },
      "geometry": {
        "type": "LineString",
        "coordinates": [
          [
            77.631,
            13.0000687
          ],
          [
            77.6333812,
            13.0000687
          ]
        ]
      }
    },
    {
      "type": "Feature",
      "properties": {
        "id": "train_048_RD_002",
        "road_class": "NARROW_LANE",
        "width_m": 2.0,
        "length_m": 263.6,
        "confidence": 0.89
      },
      "geometry": {
        "type": "LineString",
        "coordinates": [
          [
            77.6323313,
            13.0014
          ],
          [
            77.6323313,
            12.9990187
          ]
        ]
      }
    }
  ]
}