{
  "type": "FeatureCollection",
  "crs": {
    "type": "name",
    "properties": {
      "name": "EPSG:4326"
    }
  },
  "features": [
    {
      "type": "Feature",
      "properties": {
        "id": "train_077_BND_001",
        "parcel_id": "train_077_P_001",
        "boundary_type": "VISIBLE",
        "confidence": 0.832,
        "length_m": 69.31,
        "evidence_sources": [
          "Drone_RGB_Edge",
          "DSM_Breakline"
        ]
      },
      "geometry": {
        "type": "LineString",
        "coordinates": [
          [
            77.6280615,
            13.0073278
          ],
          [
            77.6287,
            13.0073269
          ]
        ]
      }
    },
    {
      "type": "Feature",
      "properties": {
        "id": "train_077_BND_002",
        "parcel_id": "train_077_P_001",
        "boundary_type": "VISIBLE",
        "confidence": 0.885,
        "length_m": 60.25,
        "evidence_sources": [
          "Drone_RGB_Edge",
          "DSM_Breakline"
        ]
      },
      "geometry": {
        "type": "LineString",
        "coordinates": [
          [
            77.6287,
            13.0073269
          ],
          [
            77.6287013,
            13.0067826
          ]
        ]
      }
    },
    {
      "type": "Feature",
      "properties": {
        "id": "train_077_BND_003",
        "parcel_id": "train_077_P_001",
        "boundary_type": "VISIBLE",
        "confidence": 0.895,
        "length_m": 67.86,
        "evidence_sources": [
          "Drone_RGB_Edge",
          "DSM_Breakline"
        ]
      },
      "geometry": {
        "type": "LineString",
        "coordinates": [
          [
            77.6287013,
            13.0067826
          ],
          [
            77.6280761,
            13.0067831
          ]
        ]
      }
    },
    {
      "type": "Feature",
      "properties": {
        "id": "train_077_BND_004",
        "parcel_id": "train_077_P_001",
        "boundary_type": "VISIBLE",
        "confidence": 0.915,
        "length_m": 60.32,
        "evidence_sources": [
          "Drone_RGB_Edge",
          "DSM_Breakline"
        ]
      },
      "geometry": {
        "type": "LineString",
        "coordinates": [
          [
            77.6280761,
            13.0067831
          ],
          [
            77.6280615,
            13.0073278
          ]
        ]
      }
    },
    {
      "type": "Feature",
      "properties": {
        "id": "train_077_BND_005",
        "parcel_id": "train_077_P_002",
        "boundary_type": "VISIBLE",
        "confidence": 0.88,
        "length_m": 69.06,
        "evidence_sources": [
          "Drone_RGB_Edge",
          "DSM_Breakline"
        ]
      },
      "geometry": {
        "type": "LineString",
        "coordinates": [
          [
            77.6280672,
            13.0067533
          ],
          [
            77.6287032,
            13.0067679
          ]
        ]
      }
    },
    {
      "type": "Feature",
      "properties": {
        "id": "train_077_BND_006",
        "parcel_id": "train_077_P_002",
        "boundary_type": "VISIBLE",
        "confidence": 0.944,
        "length_m": 62.37,
        "evidence_sources": [
          "Drone_RGB_Edge",
          "DSM_Breakline"
        ]
      },
      "geometry": {
        "type": "LineString",
        "coordinates": [
          [
            77.6287032,
            13.0067679
          ],
          [
            77.6287152,
            13.0062046
          ]
        ]
      }
    },
    {
      "type": "Feature",
      "properties": {
        "id": "train_077_BND_007",
        "parcel_id": "train_077_P_002",
        "boundary_type": "VISIBLE",
        "confidence": 0.835,
        "length_m": 71.27,
        "evidence_sources": [
          "Drone_RGB_Edge",
          "DSM_Breakline"
        ]
      },
      "geometry": {
        "type": "LineString",
        "coordinates": [
          [
            77.6287152,
            13.0062046
          ],
          [
            77.6280587,
            13.0062164
          ]
        ]
      }
    },
    {
      "type": "Feature",
      "properties": {
        "id": "train_077_BND_008",
        "parcel_id": "train_077_P_002",
        "boundary_type": "VISIBLE",
        "confidence": 0.913,
        "length_m": 59.44,
        "evidence_sources": [
          "Drone_RGB_Edge",
          "DSM_Breakline"
        ]
      },
      "geometry": {
        "type": "LineString",
        "coordinates": [
          [
            77.6280587,
            13.0062164
          ],
          [
            77.6280672,
            13.0067533
          ]
        ]
      }
    },
    {
      "type": "Feature",
      "properties": {
        "id": "train_077_BND_009",
        "parcel_id": "train_077_P_003",
        "boundary_type": "INFERRED",
        "confidence": 0.707,
        "length_m": 69.58,
        "evidence_sources": [
          "Road_Corridor_Offset",
          "Adjacent_Parcel_Topology"
        ]
      },
      "geometry": {
        "type": "LineString",
        "coordinates": [
          [
            77.6287331,
            13.007331
          ],
          [
            77.6293741,
            13.0073272
          ]
        ]
      }
    },
    {
      "type": "Feature",
      "properties": {
        "id": "train_077_BND_010",
        "parcel_id": "train_077_P_003",
        "boundary_type": "VISIBLE",
        "confidence": 0.892,
        "length_m": 60.21,
        "evidence_sources": [
          "Drone_RGB_Edge",
          "DSM_Breakline"
        ]
      },
      "geometry": {
        "type": "LineString",
        "coordinates": [
          [
            77.6293741,
            13.0073272
          ],
          [
            77.6293783,
            13.0067833
          ]
        ]
      }
    },
    {
      "type": "Feature",
      "properties": {
        "id": "train_077_BND_011",
        "parcel_id": "train_077_P_003",
        "boundary_type": "INFERRED",
        "confidence": 0.637,
        "length_m": 69.92,
        "evidence_sources": [
          "Road_Corridor_Offset",
          "Adjacent_Parcel_Topology"
        ]
      },
      "geometry": {
        "type": "LineString",
        "coordinates": [
          [
            77.6293783,
            13.0067833
          ],
          [
            77.6287342,
            13.0067765
          ]
        ]
      }
    },
    {
      "type": "Feature",
      "properties": {
        "id": "train_077_BND_012",
        "parcel_id": "train_077_P_003",
        "boundary_type": "VISIBLE",
        "confidence": 0.915,
        "length_m": 61.38,
        "evidence_sources": [
          "Drone_RGB_Edge",
          "DSM_Breakline"
        ]
      },
      "geometry": {
        "type": "LineString",
        "coordinates": [
          [
            77.6287342,
            13.0067765
          ],
          [
            77.6287331,
            13.007331
          ]
        ]
      }
    },
    {
      "type": "Feature",
      "properties": {
        "id": "train_077_BND_013",
        "parcel_id": "train_077_P_004",
        "boundary_type": "INFERRED",
        "confidence": 0.683,
        "length_m": 70.86,
        "evidence_sources": [
          "Road_Corridor_Offset",
          "Adjacent_Parcel_Topology"
        ]
      },
      "geometry": {
        "type": "LineString",
        "coordinates": [
          [
            77.6287225,
            13.0067607
          ],
          [
            77.6293753,
            13.0067572
          ]
        ]
      }
    },
    {
      "type": "Feature",
      "properties": {
        "id": "train_077_BND_014",
        "parcel_id": "train_077_P_004",
        "boundary_type": "VISIBLE",
        "confidence": 0.874,
        "length_m": 61.67,
        "evidence_sources": [
          "Drone_RGB_Edge",
          "DSM_Breakline"
        ]
      },
      "geometry": {
        "type": "LineString",
        "coordinates": [
          [
            77.6293753,
            13.0067572
          ],
          [
            77.6293721,
            13.0062001
          ]
        ]
      }
    },
    {
      "type": "Feature",
      "properties": {
        "id": "train_077_BND_015",
        "parcel_id": "train_077_P_004",
        "boundary_type": "INFERRED",
        "confidence": 0.789,
        "length_m": 69.92,
        "evidence_sources": [
          "Road_Corridor_Offset",
          "Adjacent_Parcel_Topology"
        ]
      },
      "geometry": {
        "type": "LineString",
        "coordinates": [
          [
            77.6293721,
            13.0062001
          ],
          [
            77.628728,
            13.0062007
          ]
        ]
      }
    },
    {
      "type": "Feature",
      "properties": {
        "id": "train_077_BND_016",
        "parcel_id": "train_077_P_004",
        "boundary_type": "VISIBLE",
        "confidence": 0.904,
        "length_m": 61.99,
        "evidence_sources": [
          "Drone_RGB_Edge",
          "DSM_Breakline"
        ]
      },
      "geometry": {
        "type": "LineString",
        "coordinates": [
          [
            77.628728,
            13.0062007
          ],
          [
            77.6287225,
            13.0067607
          ]
        ]
      }
    },
    {
      "type": "Feature",
      "properties": {
        "id": "train_077_BND_017",
        "parcel_id": "train_077_P_005",
        "boundary_type": "VISIBLE",
        "confidence": 0.873,
        "length_m": 39.92,
        "evidence_sources": [
          "Drone_RGB_Edge",
          "DSM_Breakline"
        ]
      },
      "geometry": {
        "type": "LineString",
        "coordinates": [
          [
            77.6295427,
            13.0073319
          ],
          [
            77.6299105,
            13.0073319
          ]
        ]
      }
    },
    {
      "type": "Feature",
      "properties": {
        "id": "train_077_BND_018",
        "parcel_id": "train_077_P_005",
        "boundary_type": "VISIBLE",
        "confidence": 0.891,
        "length_m": 61.07,
        "evidence_sources": [
          "Drone_RGB_Edge",
          "DSM_Breakline"
        ]
      },
      "geometry": {
        "type": "LineString",
        "coordinates": [
          [
            77.6299105,
            13.0073319
          ],
          [
            77.6299104,
            13.0067802
          ]
        ]
      }
    },
    {
      "type": "Feature",
      "properties": {
        "id": "train_077_BND_019",
        "parcel_id": "train_077_P_005",
        "boundary_type": "VISIBLE",
        "confidence": 0.898,
        "length_m": 40.4,
        "evidence_sources": [
          "Drone_RGB_Edge",
          "DSM_Breakline"
        ]
      },
      "geometry": {
        "type": "LineString",
        "coordinates": [
          [
            77.6299104,
            13.0067802
          ],
          [
            77.6295383,
            13.0067723
          ]
        ]
      }
    },
    {
      "type": "Feature",
      "properties": {
        "id": "train_077_BND_020",
        "parcel_id": "train_077_P_005",
        "boundary_type": "INFERRED",
        "confidence": 0.738,
        "length_m": 61.95,
        "evidence_sources": [
          "Road_Corridor_Offset",
          "Adjacent_Parcel_Topology"
        ]
      },
      "geometry": {
        "type": "LineString",
        "coordinates": [
          [
            77.6295383,
            13.0067723
          ],
          [
            77.6295427,
            13.0073319
          ]
        ]
      }
    },
    {
      "type": "Feature",
      "properties": {
        "id": "train_077_BND_021",
        "parcel_id": "train_077_P_006",
        "boundary_type": "VISIBLE",
        "confidence": 0.921,
        "length_m": 39.58,
        "evidence_sources": [
          "Drone_RGB_Edge",
          "DSM_Breakline"
        ]
      },
      "geometry": {
        "type": "LineString",
        "coordinates": [
          [
            77.6295565,
            13.006758
          ],
          [
            77.629921,
            13.0067674
          ]
        ]
      }
    },
    {
      "type": "Feature",
      "properties": {
        "id": "train_077_BND_022",
        "parcel_id": "train_077_P_006",
        "boundary_type": "VISIBLE",
        "confidence": 0.882,
        "length_m": 61.8,
        "evidence_sources": [
          "Drone_RGB_Edge",
          "DSM_Breakline"
        ]
      },
      "geometry": {
        "type": "LineString",
        "coordinates": [
          [
            77.629921,
            13.0067674
          ],
          [
            77.6299193,
            13.0062091
          ]
        ]
      }
    },
    {
      "type": "Feature",
      "properties": {
        "id": "train_077_BND_023",
        "parcel_id": "train_077_P_006",
        "boundary_type": "VISIBLE",
        "confidence": 0.879,
        "length_m": 41.07,
        "evidence_sources": [
          "Drone_RGB_Edge",
          "DSM_Breakline"
        ]
      },
      "geometry": {
        "type": "LineString",
        "coordinates": [
          [
            77.6299193,
            13.0062091
          ],
          [
            77.6295409,
            13.0062081
          ]
        ]
      }
    },
    {
      "type": "Feature",
      "properties": {
        "id": "train_077_BND_024",
        "parcel_id": "train_077_P_006",
        "boundary_type": "VISIBLE",
        "confidence": 0.85,
        "length_m": 60.9,
        "evidence_sources": [
          "Drone_RGB_Edge",
          "DSM_Breakline"
        ]
      },
      "geometry": {
        "type": "LineString",
        "coordinates": [
          [
            77.6295409,
            13.0062081
          ],
          [
            77.6295565,
            13.006758
          ]
        ]
      }
    },
    {
      "type": "Feature",
      "properties": {
        "id": "train_077_BND_025",
        "parcel_id": "train_077_P_007",
        "boundary_type": "VISIBLE",
        "confidence": 0.907,
        "length_m": 39.65,
        "evidence_sources": [
          "Drone_RGB_Edge",
          "DSM_Breakline"
        ]
      },
      "geometry": {
        "type": "LineString",
        "coordinates": [
          [
            77.6299436,
            13.0073344
          ],
          [
            77.6303089,
            13.0073372
          ]
        ]
      }
    },
    {
      "type": "Feature",
      "properties": {
        "id": "train_077_BND_026",
        "parcel_id": "train_077_P_007",
        "boundary_type": "VISIBLE",
        "confidence": 0.935,
        "length_m": 62.42,
        "evidence_sources": [
          "Drone_RGB_Edge",
          "DSM_Breakline"
        ]
      },
      "geometry": {
        "type": "LineString",
        "coordinates": [
          [
            77.6303089,
            13.0073372
          ],
          [
            77.6303186,
            13.0067734
          ]
        ]
      }
    },
    {
      "type": "Feature",
      "properties": {
        "id": "train_077_BND_027",
        "parcel_id": "train_077_P_007",
        "boundary_type": "VISIBLE",
        "confidence": 0.876,
        "length_m": 41.55,
        "evidence_sources": [
          "Drone_RGB_Edge",
          "DSM_Breakline"
        ]
      },
      "geometry": {
        "type": "LineString",
        "coordinates": [
          [
            77.6303186,
            13.0067734
          ],
          [
            77.629936,
            13.0067856
          ]
        ]
      }
    },
    {
      "type": "Feature",
      "properties": {
        "id": "train_077_BND_028",
        "parcel_id": "train_077_P_007",
        "boundary_type": "VISIBLE",
        "confidence": 0.88,
        "length_m": 60.76,
        "evidence_sources": [
          "Drone_RGB_Edge",
          "DSM_Breakline"
        ]
      },
      "geometry": {
        "type": "LineString",
        "coordinates": [
          [
            77.629936,
            13.0067856
          ],
          [
            77.6299436,
            13.0073344
          ]
        ]
      }
    },
    {
      "type": "Feature",
      "properties": {
        "id": "train_077_BND_029",
        "parcel_id": "train_077_P_008",
        "boundary_type": "VISIBLE",
        "confidence": 0.934,
        "length_m": 40.15,
        "evidence_sources": [
          "Drone_RGB_Edge",
          "DSM_Breakline"
        ]
      },
      "geometry": {
        "type": "LineString",
        "coordinates": [
          [
            77.6299382,
            13.0067588
          ],
          [
            77.6303079,
            13.0067706
          ]
        ]
      }
    },
    {
      "type": "Feature",
      "properties": {
        "id": "train_077_BND_030",
        "parcel_id": "train_077_P_008",
        "boundary_type": "INFERRED",
        "confidence": 0.718,
        "length_m": 62.15,
        "evidence_sources": [
          "Road_Corridor_Offset",
          "Adjacent_Parcel_Topology"
        ]
      },
      "geometry": {
        "type": "LineString",
        "coordinates": [
          [
            77.6303079,
            13.0067706
          ],
          [
            77.6303225,
            13.0062093
          ]
        ]
      }
    },
    {
      "type": "Feature",
      "properties": {
        "id": "train_077_BND_031",
        "parcel_id": "train_077_P_008",
        "boundary_type": "INFERRED",
        "confidence": 0.621,
        "length_m": 41.6,
        "evidence_sources": [
          "Road_Corridor_Offset",
          "Adjacent_Parcel_Topology"
        ]
      },
      "geometry": {
        "type": "LineString",
        "coordinates": [
          [
            77.6303225,
            13.0062093
          ],
          [
            77.6299393,
            13.0062124
          ]
        ]
      }
    },
    {
      "type": "Feature",
      "properties": {
        "id": "train_077_BND_032",
        "parcel_id": "train_077_P_008",
        "boundary_type": "VISIBLE",
        "confidence": 0.914,
        "length_m": 60.49,
        "evidence_sources": [
          "Drone_RGB_Edge",
          "DSM_Breakline"
        ]
      },
      "geometry": {
        "type": "LineString",
        "coordinates": [
          [
            77.6299393,
            13.0062124
          ],
          [
            77.6299382,
            13.0067588
          ]
        ]
      }
    },
    {
      "type": "Feature",
      "properties": {
        "id": "train_077_BND_033",
        "parcel_id": "train_077_P_009",
        "boundary_type": "INFERRED",
        "confidence": 0.701,
        "length_m": 68.53,
        "evidence_sources": [
          "Road_Corridor_Offset",
          "Adjacent_Parcel_Topology"
        ]
      },
      "geometry": {
        "type": "LineString",
        "coordinates": [
          [
            77.6280744,
            13.0059241
          ],
          [
            77.6287057,
            13.0059275
          ]
        ]
      }
    },
    {
      "type": "Feature",
      "properties": {
        "id": "train_077_BND_034",
        "parcel_id": "train_077_P_009",
        "boundary_type": "VISIBLE",
        "confidence": 0.842,
        "length_m": 44.78,
        "evidence_sources": [
          "Drone_RGB_Edge",
          "DSM_Breakline"
        ]
      },
      "geometry": {
        "type": "LineString",
        "coordinates": [
          [
            77.6287057,
            13.0059275
          ],
          [
            77.6287193,
            13.0055232
          ]
        ]
      }
    },
    {
      "type": "Feature",
      "properties": {
        "id": "train_077_BND_035",
        "parcel_id": "train_077_P_009",
        "boundary_type": "INFERRED",
        "confidence": 0.612,
        "length_m": 70.81,
        "evidence_sources": [
          "Road_Corridor_Offset",
          "Adjacent_Parcel_Topology"
        ]
      },
      "geometry": {
        "type": "LineString",
        "coordinates": [
          [
            77.6287193,
            13.0055232
          ],
          [
            77.628067,
            13.0055164
          ]
        ]
      }
    },
    {
      "type": "Feature",
      "properties": {
        "id": "train_077_BND_036",
        "parcel_id": "train_077_P_009",
        "boundary_type": "VISIBLE",
        "confidence": 0.904,
        "length_m": 45.14,
        "evidence_sources": [
          "Drone_RGB_Edge",
          "DSM_Breakline"
        ]
      },
      "geometry": {
        "type": "LineString",
        "coordinates": [
          [
            77.628067,
            13.0055164
          ],
          [
            77.6280744,
            13.0059241
          ]
        ]
      }
    },
    {
      "type": "Feature",
      "properties": {
        "id": "train_077_BND_037",
        "parcel_id": "train_077_P_010",
        "boundary_type": "INFERRED",
        "confidence": 0.677,
        "length_m": 70.69,
        "evidence_sources": [
          "Road_Corridor_Offset",
          "Adjacent_Parcel_Topology"
        ]
      },
      "geometry": {
        "type": "LineString",
        "coordinates": [
          [
            77.6280636,
            13.0055053
          ],
          [
            77.6287148,
            13.0054977
          ]
        ]
      }
    },
    {
      "type": "Feature",
      "properties": {
        "id": "train_077_BND_038",
        "parcel_id": "train_077_P_010",
        "boundary_type": "VISIBLE",
        "confidence": 0.855,
        "length_m": 46.49,
        "evidence_sources": [
          "Drone_RGB_Edge",
          "DSM_Breakline"
        ]
      },
      "geometry": {
        "type": "LineString",
        "coordinates": [
          [
            77.6287148,
            13.0054977
          ],
          [
            77.6287186,
            13.0050777
          ]
        ]
      }
    },
    {
      "type": "Feature",
      "properties": {
        "id": "train_077_BND_039",
        "parcel_id": "train_077_P_010",
        "boundary_type": "VISIBLE",
        "confidence": 0.848,
        "length_m": 70.08,
        "evidence_sources": [
          "Drone_RGB_Edge",
          "DSM_Breakline"
        ]
      },
      "geometry": {
        "type": "LineString",
        "coordinates": [
          [
            77.6287186,
            13.0050777
          ],
          [
            77.628073,
            13.0050792
          ]
        ]
      }
    },
    {
      "type": "Feature",
      "properties": {
        "id": "train_077_BND_040",
        "parcel_id": "train_077_P_010",
        "boundary_type": "VISIBLE",
        "confidence": 0.833,
        "length_m": 47.18,
        "evidence_sources": [
          "Drone_RGB_Edge",
          "DSM_Breakline"
        ]
      },
      "geometry": {
        "type": "LineString",
        "coordinates": [
          [
            77.628073,
            13.0050792
          ],
          [
            77.6280636,
            13.0055053
          ]
        ]
      }
    },
    {
      "type": "Feature",
      "properties": {
        "id": "train_077_BND_041",
        "parcel_id": "train_077_P_011",
        "boundary_type": "VISIBLE",
        "confidence": 0.879,
        "length_m": 68.72,
        "evidence_sources": [
          "Drone_RGB_Edge",
          "DSM_Breakline"
        ]
      },
      "geometry": {
        "type": "LineString",
        "coordinates": [
          [
            77.62874,
            13.0059215
          ],
          [
            77.6293731,
            13.0059237
          ]
        ]
      }
    },
    {
      "type": "Feature",
      "properties": {
        "id": "train_077_BND_042",
        "parcel_id": "train_077_P_011",
        "boundary_type": "VISIBLE",
        "confidence": 0.938,
        "length_m": 44.49,
        "evidence_sources": [
          "Drone_RGB_Edge",
          "DSM_Breakline"
        ]
      },
      "geometry": {
        "type": "LineString",
        "coordinates": [
          [
            77.6293731,
            13.0059237
          ],
          [
            77.6293657,
            13.0055219
          ]
        ]
      }
    },
    {
      "type": "Feature",
      "properties": {
        "id": "train_077_BND_043",
        "parcel_id": "train_077_P_011",
        "boundary_type": "VISIBLE",
        "confidence": 0.86,
        "length_m": 68.82,
        "evidence_sources": [
          "Drone_RGB_Edge",
          "DSM_Breakline"
        ]
      },
      "geometry": {
        "type": "LineString",
        "coordinates": [
          [
            77.6293657,
            13.0055219
          ],
          [
            77.6287317,
            13.0055231
          ]
        ]
      }
    },
    {
      "type": "Feature",
      "properties": {
        "id": "train_077_BND_044",
        "parcel_id": "train_077_P_011",
        "boundary_type": "VISIBLE",
        "confidence": 0.853,
        "length_m": 44.11,
        "evidence_sources": [
          "Drone_RGB_Edge",
          "DSM_Breakline"
        ]
      },
      "geometry": {
        "type": "LineString",
        "coordinates": [
          [
            77.6287317,
            13.0055231
          ],
          [
            77.62874,
            13.0059215
          ]
        ]
      }
    },
    {
      "type": "Feature",
      "properties": {
        "id": "train_077_BND_045",
        "parcel_id": "train_077_P_012",
        "boundary_type": "VISIBLE",
        "confidence": 0.821,
        "length_m": 68.99,
        "evidence_sources": [
          "Drone_RGB_Edge",
          "DSM_Breakline"
        ]
      },
      "geometry": {
        "type": "LineString",
        "coordinates": [
          [
            77.628731,
            13.0054854
          ],
          [
            77.6293663,
            13.0055045
          ]
        ]
      }
    },
    {
      "type": "Feature",
      "properties": {
        "id": "train_077_BND_046",
        "parcel_id": "train_077_P_012",
        "boundary_type": "VISIBLE",
        "confidence": 0.928,
        "length_m": 46.06,
        "evidence_sources": [
          "Drone_RGB_Edge",
          "DSM_Breakline"
        ]
      },
      "geometry": {
        "type": "LineString",
        "coordinates": [
          [
            77.6293663,
            13.0055045
          ],
          [
            77.6293729,
            13.0050885
          ]
        ]
      }
    },
    {
      "type": "Feature",
      "properties": {
        "id": "train_077_BND_047",
        "parcel_id": "train_077_P_012",
        "boundary_type": "VISIBLE",
        "confidence": 0.851,
        "length_m": 70.59,
        "evidence_sources": [
          "Drone_RGB_Edge",
          "DSM_Breakline"
        ]
      },
      "geometry": {
        "type": "LineString",
        "coordinates": [
          [
            77.6293729,
            13.0050885
          ],
          [
            77.6287226,
            13.0050827
          ]
        ]
      }
    },
    {
      "type": "Feature",
      "properties": {
        "id": "train_077_BND_048",
        "parcel_id": "train_077_P_012",
        "boundary_type": "VISIBLE",
        "confidence": 0.821,
        "length_m": 44.59,
        "evidence_sources": [
          "Drone_RGB_Edge",
          "DSM_Breakline"
        ]
      },
      "geometry": {
        "type": "LineString",
        "coordinates": [
          [
            77.6287226,
            13.0050827
          ],
          [
            77.628731,
            13.0054854
          ]
        ]
      }
    },
    {
      "type": "Feature",
      "properties": {
        "id": "train_077_BND_049",
        "parcel_id": "train_077_P_013",
        "boundary_type": "INFERRED",
        "confidence": 0.642,
        "length_m": 41.09,
        "evidence_sources": [
          "Road_Corridor_Offset",
          "Adjacent_Parcel_Topology"
        ]
      },
      "geometry": {
        "type": "LineString",
        "coordinates": [
          [
            77.6295455,
            13.0059258
          ],
          [
            77.6299239,
            13.0059366
          ]
        ]
      }
    },
    {
      "type": "Feature",
      "properties": {
        "id": "train_077_BND_050",
        "parcel_id": "train_077_P_013",
        "boundary_type": "INFERRED",
        "confidence": 0.783,
        "length_m": 46.35,
        "evidence_sources": [
          "Road_Corridor_Offset",
          "Adjacent_Parcel_Topology"
        ]
      },
      "geometry": {
        "type": "LineString",
        "coordinates": [
          [
            77.6299239,
            13.0059366
          ],
          [
            77.6299152,
            13.005518
          ]
        ]
      }
    },
    {
      "type": "Feature",
      "properties": {
        "id": "train_077_BND_051",
        "parcel_id": "train_077_P_013",
        "boundary_type": "VISIBLE",
        "confidence": 0.872,
        "length_m": 39.14,
        "evidence_sources": [
          "Drone_RGB_Edge",
          "DSM_Breakline"
        ]
      },
      "geometry": {
        "type": "LineString",
        "coordinates": [
          [
            77.6299152,
            13.005518
          ],
          [
            77.6295547,
            13.005509
          ]
        ]
      }
    },
    {
      "type": "Feature",
      "properties": {
        "id": "train_077_BND_052",
        "parcel_id": "train_077_P_013",
        "boundary_type": "VISIBLE",
        "confidence": 0.91,
        "length_m": 46.15,
        "evidence_sources": [
          "Drone_RGB_Edge",
          "DSM_Breakline"
        ]
      },
      "geometry": {
        "type": "LineString",
        "coordinates": [
          [
            77.6295547,
            13.005509
          ],
          [
            77.6295455,
            13.0059258
          ]
        ]
      }
    },
    {
      "type": "Feature",
      "properties": {
        "id": "train_077_BND_053",
        "parcel_id": "train_077_P_014",
        "boundary_type": "INFERRED",
        "confidence": 0.708,
        "length_m": 42.03,
        "evidence_sources": [
          "Road_Corridor_Offset",
          "Adjacent_Parcel_Topology"
        ]
      },
      "geometry": {
        "type": "LineString",
        "coordinates": [
          [
            77.629541,
            13.0054919
          ],
          [
            77.629928,
            13.005505
          ]
        ]
      }
    },
    {
      "type": "Feature",
      "properties": {
        "id": "train_077_BND_054",
        "parcel_id": "train_077_P_014",
        "boundary_type": "VISIBLE",
        "confidence": 0.861,
        "length_m": 45.91,
        "evidence_sources": [
          "Drone_RGB_Edge",
          "DSM_Breakline"
        ]
      },
      "geometry": {
        "type": "LineString",
        "coordinates": [
          [
            77.629928,
            13.005505
          ],
          [
            77.629921,
            13.0050903
          ]
        ]
      }
    },
    {
      "type": "Feature",
      "properties": {
        "id": "train_077_BND_055",
        "parcel_id": "train_077_P_014",
        "boundary_type": "VISIBLE",
        "confidence": 0.837,
        "length_m": 40.04,
        "evidence_sources": [
          "Drone_RGB_Edge",
          "DSM_Breakline"
        ]
      },
      "geometry": {
        "type": "LineString",
        "coordinates": [
          [
            77.629921,
            13.0050903
          ],
          [
            77.6295521,
            13.0050922
          ]
        ]
      }
    },
    {
      "type": "Feature",
      "properties": {
        "id": "train_077_BND_056",
        "parcel_id": "train_077_P_014",
        "boundary_type": "VISIBLE",
        "confidence": 0.851,
        "length_m": 44.26,
        "evidence_sources": [
          "Drone_RGB_Edge",
          "DSM_Breakline"
        ]
      },
      "geometry": {
        "type": "LineString",
        "coordinates": [
          [
            77.6295521,
            13.0050922
          ],
          [
            77.629541,
            13.0054919
          ]
        ]
      }
    },
    {
      "type": "Feature",
      "properties": {
        "id": "train_077_BND_057",
        "parcel_id": "train_077_P_015",
        "boundary_type": "VISIBLE",
        "confidence": 0.893,
        "length_m": 41.0,
        "evidence_sources": [
          "Drone_RGB_Edge",
          "DSM_Breakline"
        ]
      },
      "geometry": {
        "type": "LineString",
        "coordinates": [
          [
            77.6299455,
            13.0059265
          ],
          [
            77.6303232,
            13.0059253
          ]
        ]
      }
    },
    {
      "type": "Feature",
      "properties": {
        "id": "train_077_BND_058",
        "parcel_id": "train_077_P_015",
        "boundary_type": "VISIBLE",
        "confidence": 0.894,
        "length_m": 44.3,
        "evidence_sources": [
          "Drone_RGB_Edge",
          "DSM_Breakline"
        ]
      },
      "geometry": {
        "type": "LineString",
        "coordinates": [
          [
            77.6303232,
            13.0059253
          ],
          [
            77.6303141,
            13.0055252
          ]
        ]
      }
    },
    {
      "type": "Feature",
      "properties": {
        "id": "train_077_BND_059",
        "parcel_id": "train_077_P_015",
        "boundary_type": "VISIBLE",
        "confidence": 0.922,
        "length_m": 40.56,
        "evidence_sources": [
          "Drone_RGB_Edge",
          "DSM_Breakline"
        ]
      },
      "geometry": {
        "type": "LineString",
        "coordinates": [
          [
            77.6303141,
            13.0055252
          ],
          [
            77.6299405,
            13.0055199
          ]
        ]
      }
    },
    {
      "type": "Feature",
      "properties": {
        "id": "train_077_BND_060",
        "parcel_id": "train_077_P_015",
        "boundary_type": "VISIBLE",
        "confidence": 0.917,
        "length_m": 45.01,
        "evidence_sources": [
          "Drone_RGB_Edge",
          "DSM_Breakline"
        ]
      },
      "geometry": {
        "type": "LineString",
        "coordinates": [
          [
            77.6299405,
            13.0055199
          ],
          [
            77.6299455,
            13.0059265
          ]
        ]
      }
    },
    {
      "type": "Feature",
      "properties": {
        "id": "train_077_BND_061",
        "parcel_id": "train_077_P_016",
        "boundary_type": "VISIBLE",
        "confidence": 0.944,
        "length_m": 39.85,
        "evidence_sources": [
          "Drone_RGB_Edge",
          "DSM_Breakline"
        ]
      },
      "geometry": {
        "type": "LineString",
        "coordinates": [
          [
            77.6299383,
            13.0055062
          ],
          [
            77.6303054,
            13.0055043
          ]
        ]
      }
    },
    {
      "type": "Feature",
      "properties": {
        "id": "train_077_BND_062",
        "parcel_id": "train_077_P_016",
        "boundary_type": "INFERRED",
        "confidence": 0.725,
        "length_m": 46.66,
        "evidence_sources": [
          "Road_Corridor_Offset",
          "Adjacent_Parcel_Topology"
        ]
      },
      "geometry": {
        "type": "LineString",
        "coordinates": [
          [
            77.6303054,
            13.0055043
          ],
          [
            77.6303122,
            13.0050828
          ]
        ]
      }
    },
    {
      "type": "Feature",
      "properties": {
        "id": "train_077_BND_063",
        "parcel_id": "train_077_P_016",
        "boundary_type": "VISIBLE",
        "confidence": 0.918,
        "length_m": 39.63,
        "evidence_sources": [
          "Drone_RGB_Edge",
          "DSM_Breakline"
        ]
      },
      "geometry": {
        "type": "LineString",
        "coordinates": [
          [
            77.6303122,
            13.0050828
          ],
          [
            77.6299471,
            13.005078
          ]
        ]
      }
    },
    {
      "type": "Feature",
      "properties": {
        "id": "train_077_BND_064",
        "parcel_id": "train_077_P_016",
        "boundary_type": "VISIBLE",
        "confidence": 0.838,
        "length_m": 47.41,
        "evidence_sources": [
          "Drone_RGB_Edge",
          "DSM_Breakline"
        ]
      },
      "geometry": {
        "type": "LineString",
        "coordinates": [
          [
            77.6299471,
            13.005078
          ],
          [
            77.6299383,
            13.0055062
          ]
        ]
      }
    }
  ]
}