{
  "type": "FeatureCollection",
  "crs": {
    "type": "name",
    "properties": {
      "name": "EPSG:4326"
    }
  },
  "features": [
    {
      "type": "Feature",
      "properties": {
        "id": "train_097_BLDG_001",
        "parcel_id": "train_097_P_002",
        "area_sqm": 819.09,
        "perimeter_m": 115.39,
        "centroid_lon": 77.5982986,
        "centroid_lat": 13.0128094,
        "height_m": 7.91,
        "confidence": 0.813,
        "temporal_epoch": "T1"
      },
      "geometry": {
        "type": "Polygon",
        "coordinates": [
          [
            [
              77.5981491,
              13.0129234
            ],
            [
              77.5984481,
              13.0129234
            ],
            [
              77.5984481,
              13.0126954
            ],
            [
              77.5981491,
              13.0126954
            ],
            [
              77.5981491,
              13.0129234
            ]
          ]
        ]
      }
    },
    {
      "type": "Feature",
      "properties": {
        "id": "train_097_BLDG_002",
        "parcel_id": "train_097_P_003",
        "area_sqm": 1286.72,
        "perimeter_m": 152.44,
        "centroid_lon": 77.5988995,
        "centroid_lat": 13.0131656,
        "height_m": 9.23,
        "confidence": 0.851,
        "temporal_epoch": "T1"
      },
      "geometry": {
        "type": "Polygon",
        "coordinates": [
          [
            [
              77.5986647,
              13.0132796
            ],
            [
              77.5991344,
              13.0132796
            ],
            [
              77.5991344,
              13.0130516
            ],
            [
              77.5986647,
              13.0130516
            ],
            [
              77.5986647,
              13.0132796
            ]
          ]
        ]
      }
    },
    {
      "type": "Feature",
      "properties": {
        "id": "train_097_BLDG_003",
        "parcel_id": "train_097_P_004",
        "area_sqm": 819.09,
        "perimeter_m": 115.39,
        "centroid_lon": 77.5988142,
        "centroid_lat": 13.0128094,
        "height_m": 8.99,
        "confidence": 0.925,
        "temporal_epoch": "T1"
      },
      "geometry": {
        "type": "Polygon",
        "coordinates": [
          [
            [
              77.5986647,
              13.0129234
            ],
            [
              77.5989637,
              13.0129234
            ],
            [
              77.5989637,
              13.0126954
            ],
            [
              77.5986647,
              13.0126954
            ],
            [
              77.5986647,
              13.0129234
            ]
          ]
        ]
      }
    },
    {
      "type": "Feature",
      "properties": {
        "id": "train_097_BLDG_004",
        "parcel_id": "train_097_P_005",
        "area_sqm": 863.75,
        "perimeter_m": 118.92,
        "centroid_lon": 77.5994931,
        "centroid_lat": 13.0131656,
        "height_m": 5.17,
        "confidence": 0.864,
        "temporal_epoch": "T1"
      },
      "geometry": {
        "type": "Polygon",
        "coordinates": [
          [
            [
              77.5993354,
              13.0132796
            ],
            [
              77.5996507,
              13.0132796
            ],
            [
              77.5996507,
              13.0130516
            ],
            [
              77.5993354,
              13.0130516
            ],
            [
              77.5993354,
              13.0132796
            ]
          ]
        ]
      }
    },
    {
      "type": "Feature",
      "properties": {
        "id": "train_097_BLDG_005",
        "parcel_id": "train_097_P_006",
        "area_sqm": 863.75,
        "perimeter_m": 118.92,
        "centroid_lon": 77.5994931,
        "centroid_lat": 13.0128094,
        "height_m": 7.17,
        "confidence": 0.829,
        "temporal_epoch": "T1"
      },
      "geometry": {
        "type": "Polygon",
        "coordinates": [
          [
            [
              77.5993354,
              13.0129234
            ],
            [
              77.5996507,
              13.0129234
            ],
            [
              77.5996507,
              13.0126954
            ],
            [
              77.5993354,
              13.0126954
            ],
            [
              77.5993354,
              13.0129234
            ]
          ]
        ]
      }
    },
    {
      "type": "Feature",
      "properties": {
        "id": "train_097_BLDG_006",
        "parcel_id": "train_097_P_007",
        "area_sqm": 864.02,
        "perimeter_m": 118.95,
        "centroid_lon": 77.6000368,
        "centroid_lat": 13.0131656,
        "height_m": 10.31,
        "confidence": 0.783,
        "temporal_epoch": "T1"
      },
      "geometry": {
        "type": "Polygon",
        "coordinates": [
          [
            [
              77.5998791,
              13.0132796
            ],
            [
              77.6001945,
              13.0132796
            ],
            [
              77.6001945,
              13.0130516
            ],
            [
              77.5998791,
              13.0130516
            ],
            [
              77.5998791,
              13.0132796
            ]
          ]
        ]
      }
    },
    {
      "type": "Feature",
      "properties": {
        "id": "train_097_BLDG_007",
        "parcel_id": "train_097_P_012",
        "area_sqm": 1487.31,
        "perimeter_m": 156.56,
        "centroid_lon": 77.5988142,
        "centroid_lat": 13.0113984,
        "height_m": 8.05,
        "confidence": 0.835,
        "temporal_epoch": "T1"
      },
      "geometry": {
        "type": "Polygon",
        "coordinates": [
          [
            [
              77.5986647,
              13.0116054
            ],
            [
              77.5989637,
              13.0116054
            ],
            [
              77.5989637,
              13.0111914
            ],
            [
              77.5986647,
              13.0111914
            ],
            [
              77.5986647,
              13.0116054
            ]
          ]
        ]
      }
    },
    {
      "type": "Feature",
      "properties": {
        "id": "train_097_BLDG_008",
        "parcel_id": "train_097_P_014",
        "area_sqm": 1568.39,
        "perimeter_m": 160.1,
        "centroid_lon": 77.5994931,
        "centroid_lat": 13.0113984,
        "height_m": 8.89,
        "confidence": 0.886,
        "temporal_epoch": "T1"
      },
      "geometry": {
        "type": "Polygon",
        "coordinates": [
          [
            [
              77.5993354,
              13.0116054
            ],
            [
              77.5996507,
              13.0116054
            ],
            [
              77.5996507,
              13.0111914
            ],
            [
              77.5993354,
              13.0111914
            ],
            [
              77.5993354,
              13.0116054
            ]
          ]
        ]
      }
    },
    {
      "type": "Feature",
      "properties": {
        "id": "train_097_BLDG_009",
        "parcel_id": "train_097_P_015",
        "area_sqm": 1568.89,
        "perimeter_m": 160.12,
        "centroid_lon": 77.6000368,
        "centroid_lat": 13.0120453,
        "height_m": 4.69,
        "confidence": 0.791,
        "temporal_epoch": "T1"
      },
      "geometry": {
        "type": "Polygon",
        "coordinates": [
          [
            [
              77.5998791,
              13.0122523
            ],
            [
              77.6001945,
              13.0122523
            ],
            [
              77.6001945,
              13.0118383
            ],
            [
              77.5998791,
              13.0118383
            ],
            [
              77.5998791,
              13.0122523
            ]
          ]
        ]
      }
    },
    {
      "type": "Feature",
      "properties": {
        "id": "train_097_BLDG_010",
        "parcel_id": "train_097_P_016",
        "area_sqm": 1568.89,
        "perimeter_m": 160.12,
        "centroid_lon": 77.6000368,
        "centroid_lat": 13.0113984,
        "height_m": 11.13,
        "confidence": 0.884,
        "temporal_epoch": "T1"
      },
      "geometry": {
        "type": "Polygon",
        "coordinates": [
          [
            [
              77.5998791,
              13.0116054
            ],
            [
              77.6001945,
              13.0116054
            ],
            [
              77.6001945,
              13.0111914
            ],
            [
              77.5998791,
              13.0111914
            ],
            [
              77.5998791,
              13.0116054
            ]
          ]
        ]
      }
    }
  ]
}