{
  "type": "FeatureCollection",
  "crs": {
    "type": "name",
    "properties": {
      "name": "EPSG:4326"
    }
  },
  "features": [
    {
      "type": "Feature",
      "properties": {
        "id": "train_097_REF_001",
        "parcel_id": "train_097_P_001",
        "parcel_layer": "REFERENCE",
        "boundary_representation": "REFERENCE",
        "land_use_class": "vegetation",
        "area_sqm": 1961.95,
        "perimeter_m": 180.23,
        "source": "Synthetic Legacy Cadastral Map (Non-Authoritative Demo)"
      },
      "geometry": {
        "type": "Polygon",
        "coordinates": [
          [
            [
              77.5980674,
              13.0133447
            ],
            [
              77.598555,
              13.0133325
            ],
            [
              77.5985676,
              13.0130048
            ],
            [
              77.5980754,
              13.0130055
            ],
            [
              77.5980674,
              13.0133447
            ]
          ]
        ]
      }
    },
    {
      "type": "Feature",
      "properties": {
        "id": "train_097_REF_002",
        "parcel_id": "train_097_P_002",
        "parcel_layer": "REFERENCE",
        "boundary_representation": "REFERENCE",
        "land_use_class": "industrial",
        "area_sqm": 2006.88,
        "perimeter_m": 182.06,
        "source": "Synthetic Legacy Cadastral Map (Non-Authoritative Demo)"
      },
      "geometry": {
        "type": "Polygon",
        "coordinates": [
          [
            [
              77.5980788,
              13.0129796
            ],
            [
              77.5985704,
              13.0129705
            ],
            [
              77.5985701,
              13.0126345
            ],
            [
              77.5980749,
              13.0126386
            ],
            [
              77.5980788,
              13.0129796
            ]
          ]
        ]
      }
    },
    {
      "type": "Feature",
      "properties": {
        "id": "train_097_REF_003",
        "parcel_id": "train_097_P_003",
        "parcel_layer": "REFERENCE",
        "boundary_representation": "REFERENCE",
        "land_use_class": "industrial",
        "area_sqm": 2011.7,
        "perimeter_m": 181.55,
        "source": "Synthetic Legacy Cadastral Map (Non-Authoritative Demo)"
      },
      "geometry": {
        "type": "Polygon",
        "coordinates": [
          [
            [
              77.5985988,
              13.0133432
            ],
            [
              77.599074,
              13.0133455
            ],
            [
              77.5990871,
              13.0129905
            ],
            [
              77.5986,
              13.0130021
            ],
            [
              77.5985988,
              13.0133432
            ]
          ]
        ]
      }
    },
    {
      "type": "Feature",
      "properties": {
        "id": "train_097_REF_004",
        "parcel_id": "train_097_P_004",
        "parcel_layer": "REFERENCE",
        "boundary_representation": "REFERENCE",
        "land_use_class": "residential",
        "area_sqm": 1959.68,
        "perimeter_m": 180.28,
        "source": "Synthetic Legacy Cadastral Map (Non-Authoritative Demo)"
      },
      "geometry": {
        "type": "Polygon",
        "coordinates": [
          [
            [
              77.5986247,
              13.0129891
            ],
            [
              77.5991113,
              13.0129984
            ],
            [
              77.5991178,
              13.0126612
            ],
            [
              77.5986186,
              13.0126645
            ],
            [
              77.5986247,
              13.0129891
            ]
          ]
        ]
      }
    },
    {
      "type": "Feature",
      "properties": {
        "id": "train_097_REF_005",
        "parcel_id": "train_097_P_005",
        "parcel_layer": "REFERENCE",
        "boundary_representation": "REFERENCE",
        "land_use_class": "residential",
        "area_sqm": 2136.55,
        "perimeter_m": 189.04,
        "source": "Synthetic Legacy Cadastral Map (Non-Authoritative Demo)"
      },
      "geometry": {
        "type": "Polygon",
        "coordinates": [
          [
            [
              77.5992576,
              13.0133335
            ],
            [
              77.5997703,
              13.013343
            ],
            [
              77.599786,
              13.0130061
            ],
            [
              77.5992481,
              13.0129935
            ],
            [
              77.5992576,
              13.0133335
            ]
          ]
        ]
      }
    },
    {
      "type": "Feature",
      "properties": {
        "id": "train_097_REF_006",
        "parcel_id": "train_097_P_006",
        "parcel_layer": "REFERENCE",
        "boundary_representation": "REFERENCE",
        "land_use_class": "commercial",
        "area_sqm": 2112.36,
        "perimeter_m": 188.45,
        "source": "Synthetic Legacy Cadastral Map (Non-Authoritative Demo)"
      },
      "geometry": {
        "type": "Polygon",
        "coordinates": [
          [
            [
              77.5992558,
              13.0129805
            ],
            [
              77.5997792,
              13.0129759
            ],
            [
              77.5997803,
              13.0126513
            ],
            [
              77.5992458,
              13.0126403
            ],
            [
              77.5992558,
              13.0129805
            ]
          ]
        ]
      }
    },
    {
      "type": "Feature",
      "properties": {
        "id": "train_097_REF_007",
        "parcel_id": "train_097_P_007",
        "parcel_layer": "REFERENCE",
        "boundary_representation": "REFERENCE",
        "land_use_class": "commercial",
        "area_sqm": 2030.02,
        "perimeter_m": 184.5,
        "source": "Synthetic Legacy Cadastral Map (Non-Authoritative Demo)"
      },
      "geometry": {
        "type": "Polygon",
        "coordinates": [
          [
            [
              77.5998071,
              13.0133265
            ],
            [
              77.6003156,
              13.0133252
            ],
            [
              77.6003213,
              13.0129916
            ],
            [
              77.5997987,
              13.0130047
            ],
            [
              77.5998071,
              13.0133265
            ]
          ]
        ]
      }
    },
    {
      "type": "Feature",
      "properties": {
        "id": "train_097_REF_008",
        "parcel_id": "train_097_P_008",
        "parcel_layer": "REFERENCE",
        "boundary_representation": "REFERENCE",
        "land_use_class": "vegetation",
        "area_sqm": 2160.34,
        "perimeter_m": 189.93,
        "source": "Synthetic Legacy Cadastral Map (Non-Authoritative Demo)"
      },
      "geometry": {
        "type": "Polygon",
        "coordinates": [
          [
            [
              77.5998374,
              13.013006
            ],
            [
              77.6003501,
              13.013001
            ],
            [
              77.6003621,
              13.0126659
            ],
            [
              77.5998227,
              13.0126575
            ],
            [
              77.5998374,
              13.013006
            ]
          ]
        ]
      }
    },
    {
      "type": "Feature",
      "properties": {
        "id": "train_097_REF_009",
        "parcel_id": "train_097_P_009",
        "parcel_layer": "REFERENCE",
        "boundary_representation": "REFERENCE",
        "land_use_class": "vegetation",
        "area_sqm": 3751.92,
        "perimeter_m": 246.91,
        "source": "Synthetic Legacy Cadastral Map (Non-Authoritative Demo)"
      },
      "geometry": {
        "type": "Polygon",
        "coordinates": [
          [
            [
              77.5980707,
              13.0123575
            ],
            [
              77.5985592,
              13.0123652
            ],
            [
              77.5985769,
              13.0117264
            ],
            [
              77.5980653,
              13.0117472
            ],
            [
              77.5980707,
              13.0123575
            ]
          ]
        ]
      }
    },
    {
      "type": "Feature",
      "properties": {
        "id": "train_097_REF_010",
        "parcel_id": "train_097_P_010",
        "parcel_layer": "REFERENCE",
        "boundary_representation": "REFERENCE",
        "land_use_class": "vegetation",
        "area_sqm": 3768.26,
        "perimeter_m": 247.65,
        "source": "Synthetic Legacy Cadastral Map (Non-Authoritative Demo)"
      },
      "geometry": {
        "type": "Polygon",
        "coordinates": [
          [
            [
              77.5980718,
              13.0117114
            ],
            [
              77.5985591,
              13.0117229
            ],
            [
              77.5985714,
              13.0110803
            ],
            [
              77.5980648,
              13.0110918
            ],
            [
              77.5980718,
              13.0117114
            ]
          ]
        ]
      }
    },
    {
      "type": "Feature",
      "properties": {
        "id": "train_097_REF_011",
        "parcel_id": "train_097_P_011",
        "parcel_layer": "REFERENCE",
        "boundary_representation": "REFERENCE",
        "land_use_class": "vegetation",
        "area_sqm": 3791.57,
        "perimeter_m": 247.9,
        "source": "Synthetic Legacy Cadastral Map (Non-Authoritative Demo)"
      },
      "geometry": {
        "type": "Polygon",
        "coordinates": [
          [
            [
              77.5985815,
              13.0123635
            ],
            [
              77.5990909,
              13.0123551
            ],
            [
              77.5990892,
              13.011738
            ],
            [
              77.5985857,
              13.0117344
            ],
            [
              77.5985815,
              13.0123635
            ]
          ]
        ]
      }
    },
    {
      "type": "Feature",
      "properties": {
        "id": "train_097_REF_012",
        "parcel_id": "train_097_P_012",
        "parcel_layer": "REFERENCE",
        "boundary_representation": "REFERENCE",
        "land_use_class": "industrial",
        "area_sqm": 3720.39,
        "perimeter_m": 246.31,
        "source": "Synthetic Legacy Cadastral Map (Non-Authoritative Demo)"
      },
      "geometry": {
        "type": "Polygon",
        "coordinates": [
          [
            [
              77.5986178,
              13.0117335
            ],
            [
              77.5991114,
              13.0117302
            ],
            [
              77.5991167,
              13.0110994
            ],
            [
              77.5986306,
              13.0111
            ],
            [
              77.5986178,
              13.0117335
            ]
          ]
        ]
      }
    },
    {
      "type": "Feature",
      "properties": {
        "id": "train_097_REF_013",
        "parcel_id": "train_097_P_013",
        "parcel_layer": "REFERENCE",
        "boundary_representation": "REFERENCE",
        "land_use_class": "vegetation",
        "area_sqm": 3973.22,
        "perimeter_m": 253.29,
        "source": "Synthetic Legacy Cadastral Map (Non-Authoritative Demo)"
      },
      "geometry": {
        "type": "Polygon",
        "coordinates": [
          [
            [
              77.5992454,
              13.0123577
            ],
            [
              77.5997686,
              13.0123659
            ],
            [
              77.5997784,
              13.0117305
            ],
            [
              77.599245,
              13.0117412
            ],
            [
              77.5992454,
              13.0123577
            ]
          ]
        ]
      }
    },
    {
      "type": "Feature",
      "properties": {
        "id": "train_097_REF_014",
        "parcel_id": "train_097_P_014",
        "parcel_layer": "REFERENCE",
        "boundary_representation": "REFERENCE",
        "land_use_class": "residential",
        "area_sqm": 3945.75,
        "perimeter_m": 252.27,
        "source": "Synthetic Legacy Cadastral Map (Non-Authoritative Demo)"
      },
      "geometry": {
        "type": "Polygon",
        "coordinates": [
          [
            [
              77.5992435,
              13.0117113
            ],
            [
              77.5997708,
              13.0117136
            ],
            [
              77.5997818,
              13.011099
            ],
            [
              77.5992505,
              13.0110853
            ],
            [
              77.5992435,
              13.0117113
            ]
          ]
        ]
      }
    },
    {
      "type": "Feature",
      "properties": {
        "id": "train_097_REF_015",
        "parcel_id": "train_097_P_015",
        "parcel_layer": "REFERENCE",
        "boundary_representation": "REFERENCE",
        "land_use_class": "residential",
        "area_sqm": 3991.93,
        "perimeter_m": 253.92,
        "source": "Synthetic Legacy Cadastral Map (Non-Authoritative Demo)"
      },
      "geometry": {
        "type": "Polygon",
        "coordinates": [
          [
            [
              77.5997893,
              13.0123632
            ],
            [
              77.6003213,
              13.0123625
            ],
            [
              77.6003138,
              13.0117427
            ],
            [
              77.5997876,
              13.011727
            ],
            [
              77.5997893,
              13.0123632
            ]
          ]
        ]
      }
    },
    {
      "type": "Feature",
      "properties": {
        "id": "train_097_REF_016",
        "parcel_id": "train_097_P_016",
        "parcel_layer": "REFERENCE",
        "boundary_representation": "REFERENCE",
        "land_use_class": "commercial",
        "area_sqm": 3885.55,
        "perimeter_m": 251.19,
        "source": "Synthetic Legacy Cadastral Map (Non-Authoritative Demo)"
      },
      "geometry": {
        "type": "Polygon",
        "coordinates": [
          [
            [
              77.5998429,
              13.0117306
            ],
            [
              77.6003562,
              13.0117341
            ],
            [
              77.6003485,
              13.0110973
            ],
            [
              77.5998446,
              13.0110957
            ],
            [
              77.5998429,
              13.0117306
            ]
          ]
        ]
      }
    }
  ]
}