{
  "type": "FeatureCollection",
  "crs": {
    "type": "name",
    "properties": {
      "name": "EPSG:4326"
    }
  },
  "features": [
    {
      "type": "Feature",
      "properties": {
        "id": "train_004_REF_001",
        "parcel_id": "train_004_P_001",
        "parcel_layer": "REFERENCE",
        "boundary_representation": "REFERENCE",
        "land_use_class": "mixed_use",
        "area_sqm": 2377.8,
        "perimeter_m": 200.87,
        "source": "Synthetic Legacy Cadastral Map (Non-Authoritative Demo)"
      },
      "geometry": {
        "type": "Polygon",
        "coordinates": [
          [
            [
              77.634065,
              12.992338
            ],
            [
              77.6344135,
              12.9923277
            ],
            [
              77.6344247,
              12.9917685
            ],
            [
              77.634068,
              12.9917745
            ],
            [
              77.634065,
              12.992338
            ]
          ]
        ]
      }
    },
    {
      "type": "Feature",
      "properties": {
        "id": "train_004_REF_002",
        "parcel_id": "train_004_P_002",
        "parcel_layer": "REFERENCE",
        "boundary_representation": "REFERENCE",
        "land_use_class": "vegetation",
        "area_sqm": 2387.24,
        "perimeter_m": 202.47,
        "source": "Synthetic Legacy Cadastral Map (Non-Authoritative Demo)"
      },
      "geometry": {
        "type": "Polygon",
        "coordinates": [
          [
            [
              77.6340732,
              12.9917472
            ],
            [
              77.6344255,
              12.9917551
            ],
            [
              77.6344098,
              12.9911806
            ],
            [
              77.6340718,
              12.9911701
            ],
            [
              77.6340732,
              12.9917472
            ]
          ]
        ]
      }
    },
    {
      "type": "Feature",
      "properties": {
        "id": "train_004_REF_003",
        "parcel_id": "train_004_P_003",
        "parcel_layer": "REFERENCE",
        "boundary_representation": "REFERENCE",
        "land_use_class": "vegetation",
        "area_sqm": 2320.22,
        "perimeter_m": 199.28,
        "source": "Synthetic Legacy Cadastral Map (Non-Authoritative Demo)"
      },
      "geometry": {
        "type": "Polygon",
        "coordinates": [
          [
            [
              77.6344394,
              12.9923391
            ],
            [
              77.6347813,
              12.9923331
            ],
            [
              77.6347824,
              12.9917736
            ],
            [
              77.6344407,
              12.9917688
            ],
            [
              77.6344394,
              12.9923391
            ]
          ]
        ]
      }
    },
    {
      "type": "Feature",
      "properties": {
        "id": "train_004_REF_004",
        "parcel_id": "train_004_P_004",
        "parcel_layer": "REFERENCE",
        "boundary_representation": "REFERENCE",
        "land_use_class": "vacant",
        "area_sqm": 2355.42,
        "perimeter_m": 200.87,
        "source": "Synthetic Legacy Cadastral Map (Non-Authoritative Demo)"
      },
      "geometry": {
        "type": "Polygon",
        "coordinates": [
          [
            [
              77.6344633,
              12.9917672
            ],
            [
              77.6348188,
              12.9917611
            ],
            [
              77.6348112,
              12.9912048
            ],
            [
              77.634478,
              12.9911852
            ],
            [
              77.6344633,
              12.9917672
            ]
          ]
        ]
      }
    },
    {
      "type": "Feature",
      "properties": {
        "id": "train_004_REF_005",
        "parcel_id": "train_004_P_005",
        "parcel_layer": "REFERENCE",
        "boundary_representation": "REFERENCE",
        "land_use_class": "industrial",
        "area_sqm": 4549.79,
        "perimeter_m": 270.5,
        "source": "Synthetic Legacy Cadastral Map (Non-Authoritative Demo)"
      },
      "geometry": {
        "type": "Polygon",
        "coordinates": [
          [
            [
              77.6349643,
              12.9923274
            ],
            [
              77.6356309,
              12.9923418
            ],
            [
              77.6356323,
              12.9917678
            ],
            [
              77.6349647,
              12.9917663
            ],
            [
              77.6349643,
              12.9923274
            ]
          ]
        ]
      }
    },
    {
      "type": "Feature",
      "properties": {
        "id": "train_004_REF_006",
        "parcel_id": "train_004_P_006",
        "parcel_layer": "REFERENCE",
        "boundary_representation": "REFERENCE",
        "land_use_class": "residential",
        "area_sqm": 4618.61,
        "perimeter_m": 272.86,
        "source": "Synthetic Legacy Cadastral Map (Non-Authoritative Demo)"
      },
      "geometry": {
        "type": "Polygon",
        "coordinates": [
          [
            [
              77.6349553,
              12.9917459
            ],
            [
              77.6356348,
              12.991734
            ],
            [
              77.6356306,
              12.9911843
            ],
            [
              77.6349476,
              12.9911672
            ],
            [
              77.6349553,
              12.9917459
            ]
          ]
        ]
      }
    },
    {
      "type": "Feature",
      "properties": {
        "id": "train_004_REF_007",
        "parcel_id": "train_004_P_007",
        "parcel_layer": "REFERENCE",
        "boundary_representation": "REFERENCE",
        "land_use_class": "residential",
        "area_sqm": 4539.16,
        "perimeter_m": 270.35,
        "source": "Synthetic Legacy Cadastral Map (Non-Authoritative Demo)"
      },
      "geometry": {
        "type": "Polygon",
        "coordinates": [
          [
            [
              77.6356591,
              12.9923345
            ],
            [
              77.636324,
              12.9923368
            ],
            [
              77.6363265,
              12.9917762
            ],
            [
              77.6356484,
              12.99177
            ],
            [
              77.6356591,
              12.9923345
            ]
          ]
        ]
      }
    },
    {
      "type": "Feature",
      "properties": {
        "id": "train_004_REF_008",
        "parcel_id": "train_004_P_008",
        "parcel_layer": "REFERENCE",
        "boundary_representation": "REFERENCE",
        "land_use_class": "residential",
        "area_sqm": 4617.28,
        "perimeter_m": 272.34,
        "source": "Synthetic Legacy Cadastral Map (Non-Authoritative Demo)"
      },
      "geometry": {
        "type": "Polygon",
        "coordinates": [
          [
            [
              77.6356818,
              12.9917717
            ],
            [
              77.6363467,
              12.9917645
            ],
            [
              77.6363505,
              12.9911897
            ],
            [
              77.6356834,
              12.9911926
            ],
            [
              77.6356818,
              12.9917717
            ]
          ]
        ]
      }
    },
    {
      "type": "Feature",
      "properties": {
        "id": "train_004_REF_009",
        "parcel_id": "train_004_P_009",
        "parcel_layer": "REFERENCE",
        "boundary_representation": "REFERENCE",
        "land_use_class": "commercial",
        "area_sqm": 1746.07,
        "perimeter_m": 168.46,
        "source": "Synthetic Legacy Cadastral Map (Non-Authoritative Demo)"
      },
      "geometry": {
        "type": "Polygon",
        "coordinates": [
          [
            [
              77.6340805,
              12.9909666
            ],
            [
              77.6344208,
              12.9909612
            ],
            [
              77.6344202,
              12.9905352
            ],
            [
              77.6340812,
              12.990537
            ],
            [
              77.6340805,
              12.9909666
            ]
          ]
        ]
      }
    },
    {
      "type": "Feature",
      "properties": {
        "id": "train_004_REF_010",
        "parcel_id": "train_004_P_010",
        "parcel_layer": "REFERENCE",
        "boundary_representation": "REFERENCE",
        "land_use_class": "mixed_use",
        "area_sqm": 1671.64,
        "perimeter_m": 164.77,
        "source": "Synthetic Legacy Cadastral Map (Non-Authoritative Demo)"
      },
      "geometry": {
        "type": "Polygon",
        "coordinates": [
          [
            [
              77.6340748,
              12.9905061
            ],
            [
              77.6344203,
              12.9905078
            ],
            [
              77.634405,
              12.9900936
            ],
            [
              77.6340822,
              12.9900876
            ],
            [
              77.6340748,
              12.9905061
            ]
          ]
        ]
      }
    },
    {
      "type": "Feature",
      "properties": {
        "id": "train_004_REF_011",
        "parcel_id": "train_004_P_011",
        "parcel_layer": "REFERENCE",
        "boundary_representation": "REFERENCE",
        "land_use_class": "mixed_use",
        "area_sqm": 1831.77,
        "perimeter_m": 172.32,
        "source": "Synthetic Legacy Cadastral Map (Non-Authoritative Demo)"
      },
      "geometry": {
        "type": "Polygon",
        "coordinates": [
          [
            [
              77.6344324,
              12.9909684
            ],
            [
              77.634777,
              12.9909649
            ],
            [
              77.6347887,
              12.9905354
            ],
            [
              77.6344293,
              12.9905318
            ],
            [
              77.6344324,
              12.9909684
            ]
          ]
        ]
      }
    },
    {
      "type": "Feature",
      "properties": {
        "id": "train_004_REF_012",
        "parcel_id": "train_004_P_012",
        "parcel_layer": "REFERENCE",
        "boundary_representation": "REFERENCE",
        "land_use_class": "vegetation",
        "area_sqm": 1725.52,
        "perimeter_m": 167.28,
        "source": "Synthetic Legacy Cadastral Map (Non-Authoritative Demo)"
      },
      "geometry": {
        "type": "Polygon",
        "coordinates": [
          [
            [
              77.6344752,
              12.9905282
            ],
            [
              77.6348271,
              12.99054
            ],
            [
              77.6348161,
              12.9901124
            ],
            [
              77.6344847,
              12.9901152
            ],
            [
              77.6344752,
              12.9905282
            ]
          ]
        ]
      }
    },
    {
      "type": "Feature",
      "properties": {
        "id": "train_004_REF_013",
        "parcel_id": "train_004_P_013",
        "parcel_layer": "REFERENCE",
        "boundary_representation": "REFERENCE",
        "land_use_class": "vacant",
        "area_sqm": 3461.59,
        "perimeter_m": 240.32,
        "source": "Synthetic Legacy Cadastral Map (Non-Authoritative Demo)"
      },
      "geometry": {
        "type": "Polygon",
        "coordinates": [
          [
            [
              77.634955,
              12.9909691
            ],
            [
              77.6356281,
              12.9909678
            ],
            [
              77.635619,
              12.9905388
            ],
            [
              77.6349617,
              12.990532
            ],
            [
              77.634955,
              12.9909691
            ]
          ]
        ]
      }
    },
    {
      "type": "Feature",
      "properties": {
        "id": "train_004_REF_014",
        "parcel_id": "train_004_P_014",
        "parcel_layer": "REFERENCE",
        "boundary_representation": "REFERENCE",
        "land_use_class": "water",
        "area_sqm": 3404.29,
        "perimeter_m": 239.36,
        "source": "Synthetic Legacy Cadastral Map (Non-Authoritative Demo)"
      },
      "geometry": {
        "type": "Polygon",
        "coordinates": [
          [
            [
              77.6349496,
              12.9905082
            ],
            [
              77.6356336,
              12.9905089
            ],
            [
              77.6356241,
              12.9900967
            ],
            [
              77.6349622,
              12.9900785
            ],
            [
              77.6349496,
              12.9905082
            ]
          ]
        ]
      }
    },
    {
      "type": "Feature",
      "properties": {
        "id": "train_004_REF_015",
        "parcel_id": "train_004_P_015",
        "parcel_layer": "REFERENCE",
        "boundary_representation": "REFERENCE",
        "land_use_class": "industrial",
        "area_sqm": 3439.98,
        "perimeter_m": 241.2,
        "source": "Synthetic Legacy Cadastral Map (Non-Authoritative Demo)"
      },
      "geometry": {
        "type": "Polygon",
        "coordinates": [
          [
            [
              77.6356373,
              12.9909635
            ],
            [
              77.6363304,
              12.9909697
            ],
            [
              77.6363127,
              12.99055
            ],
            [
              77.6356382,
              12.9905458
            ],
            [
              77.6356373,
              12.9909635
            ]
          ]
        ]
      }
    },
    {
      "type": "Feature",
      "properties": {
        "id": "train_004_REF_016",
        "parcel_id": "train_004_P_016",
        "parcel_layer": "REFERENCE",
        "boundary_representation": "REFERENCE",
        "land_use_class": "agricultural",
        "area_sqm": 3399.73,
        "perimeter_m": 238.49,
        "source": "Synthetic Legacy Cadastral Map (Non-Authoritative Demo)"
      },
      "geometry": {
        "type": "Polygon",
        "coordinates": [
          [
            [
              77.6356874,
              12.9905431
            ],
            [
              77.6363449,
              12.9905271
            ],
            [
              77.6363585,
              12.9901167
            ],
            [
              77.6356898,
              12.9901002
            ],
            [
              77.6356874,
              12.9905431
            ]
          ]
        ]
      }
    }
  ]
}