{
  "type": "FeatureCollection",
  "crs": {
    "type": "name",
    "properties": {
      "name": "EPSG:4326"
    }
  },
  "features": [
    {
      "type": "Feature",
      "properties": {
        "id": "train_014_BND_001",
        "parcel_id": "train_014_P_001",
        "boundary_type": "VISIBLE",
        "confidence": 0.885,
        "length_m": 51.54,
        "evidence_sources": [
          "Drone_RGB_Edge",
          "DSM_Breakline"
        ]
      },
      "geometry": {
        "type": "LineString",
        "coordinates": [
          [
            77.6190765,
            12.9953214
          ],
          [
            77.619551,
            12.9953385
          ]
        ]
      }
    },
    {
      "type": "Feature",
      "properties": {
        "id": "train_014_BND_002",
        "parcel_id": "train_014_P_001",
        "boundary_type": "VISIBLE",
        "confidence": 0.894,
        "length_m": 56.97,
        "evidence_sources": [
          "Drone_RGB_Edge",
          "DSM_Breakline"
        ]
      },
      "geometry": {
        "type": "LineString",
        "coordinates": [
          [
            77.619551,
            12.9953385
          ],
          [
            77.6195435,
            12.9948239
          ]
        ]
      }
    },
    {
      "type": "Feature",
      "properties": {
        "id": "train_014_BND_003",
        "parcel_id": "train_014_P_001",
        "boundary_type": "VISIBLE",
        "confidence": 0.846,
        "length_m": 51.46,
        "evidence_sources": [
          "Drone_RGB_Edge",
          "DSM_Breakline"
        ]
      },
      "geometry": {
        "type": "LineString",
        "coordinates": [
          [
            77.6195435,
            12.9948239
          ],
          [
            77.6190694,
            12.9948221
          ]
        ]
      }
    },
    {
      "type": "Feature",
      "properties": {
        "id": "train_014_BND_004",
        "parcel_id": "train_014_P_001",
        "boundary_type": "VISIBLE",
        "confidence": 0.953,
        "length_m": 55.28,
        "evidence_sources": [
          "Drone_RGB_Edge",
          "DSM_Breakline"
        ]
      },
      "geometry": {
        "type": "LineString",
        "coordinates": [
          [
            77.6190694,
            12.9948221
          ],
          [
            77.6190765,
            12.9953214
          ]
        ]
      }
    },
    {
      "type": "Feature",
      "properties": {
        "id": "train_014_BND_005",
        "parcel_id": "train_014_P_002",
        "boundary_type": "INFERRED",
        "confidence": 0.69,
        "length_m": 53.48,
        "evidence_sources": [
          "Road_Corridor_Offset",
          "Adjacent_Parcel_Topology"
        ]
      },
      "geometry": {
        "type": "LineString",
        "coordinates": [
          [
            77.6190629,
            12.9947934
          ],
          [
            77.6195555,
            12.9947877
          ]
        ]
      }
    },
    {
      "type": "Feature",
      "properties": {
        "id": "train_014_BND_006",
        "parcel_id": "train_014_P_002",
        "boundary_type": "VISIBLE",
        "confidence": 0.882,
        "length_m": 56.75,
        "evidence_sources": [
          "Drone_RGB_Edge",
          "DSM_Breakline"
        ]
      },
      "geometry": {
        "type": "LineString",
        "coordinates": [
          [
            77.6195555,
            12.9947877
          ],
          [
            77.6195485,
            12.9942751
          ]
        ]
      }
    },
    {
      "type": "Feature",
      "properties": {
        "id": "train_014_BND_007",
        "parcel_id": "train_014_P_002",
        "boundary_type": "INFERRED",
        "confidence": 0.738,
        "length_m": 52.94,
        "evidence_sources": [
          "Road_Corridor_Offset",
          "Adjacent_Parcel_Topology"
        ]
      },
      "geometry": {
        "type": "LineString",
        "coordinates": [
          [
            77.6195485,
            12.9942751
          ],
          [
            77.6190608,
            12.9942795
          ]
        ]
      }
    },
    {
      "type": "Feature",
      "properties": {
        "id": "train_014_BND_008",
        "parcel_id": "train_014_P_002",
        "boundary_type": "VISIBLE",
        "confidence": 0.955,
        "length_m": 56.89,
        "evidence_sources": [
          "Drone_RGB_Edge",
          "DSM_Breakline"
        ]
      },
      "geometry": {
        "type": "LineString",
        "coordinates": [
          [
            77.6190608,
            12.9942795
          ],
          [
            77.6190629,
            12.9947934
          ]
        ]
      }
    },
    {
      "type": "Feature",
      "properties": {
        "id": "train_014_BND_009",
        "parcel_id": "train_014_P_003",
        "boundary_type": "VISIBLE",
        "confidence": 0.924,
        "length_m": 52.45,
        "evidence_sources": [
          "Drone_RGB_Edge",
          "DSM_Breakline"
        ]
      },
      "geometry": {
        "type": "LineString",
        "coordinates": [
          [
            77.6195733,
            12.9953218
          ],
          [
            77.6200562,
            12.9953389
          ]
        ]
      }
    },
    {
      "type": "Feature",
      "properties": {
        "id": "train_014_BND_010",
        "parcel_id": "train_014_P_003",
        "boundary_type": "VISIBLE",
        "confidence": 0.838,
        "length_m": 56.42,
        "evidence_sources": [
          "Drone_RGB_Edge",
          "DSM_Breakline"
        ]
      },
      "geometry": {
        "type": "LineString",
        "coordinates": [
          [
            77.6200562,
            12.9953389
          ],
          [
            77.6200531,
            12.9948292
          ]
        ]
      }
    },
    {
      "type": "Feature",
      "properties": {
        "id": "train_014_BND_011",
        "parcel_id": "train_014_P_003",
        "boundary_type": "VISIBLE",
        "confidence": 0.949,
        "length_m": 52.92,
        "evidence_sources": [
          "Drone_RGB_Edge",
          "DSM_Breakline"
        ]
      },
      "geometry": {
        "type": "LineString",
        "coordinates": [
          [
            77.6200531,
            12.9948292
          ],
          [
            77.6195657,
            12.9948208
          ]
        ]
      }
    },
    {
      "type": "Feature",
      "properties": {
        "id": "train_014_BND_012",
        "parcel_id": "train_014_P_003",
        "boundary_type": "VISIBLE",
        "confidence": 0.92,
        "length_m": 55.47,
        "evidence_sources": [
          "Drone_RGB_Edge",
          "DSM_Breakline"
        ]
      },
      "geometry": {
        "type": "LineString",
        "coordinates": [
          [
            77.6195657,
            12.9948208
          ],
          [
            77.6195733,
            12.9953218
          ]
        ]
      }
    },
    {
      "type": "Feature",
      "properties": {
        "id": "train_014_BND_013",
        "parcel_id": "train_014_P_004",
        "boundary_type": "VISIBLE",
        "confidence": 0.91,
        "length_m": 53.46,
        "evidence_sources": [
          "Drone_RGB_Edge",
          "DSM_Breakline"
        ]
      },
      "geometry": {
        "type": "LineString",
        "coordinates": [
          [
            77.6195683,
            12.9947889
          ],
          [
            77.6200605,
            12.994805
          ]
        ]
      }
    },
    {
      "type": "Feature",
      "properties": {
        "id": "train_014_BND_014",
        "parcel_id": "train_014_P_004",
        "boundary_type": "VISIBLE",
        "confidence": 0.886,
        "length_m": 58.43,
        "evidence_sources": [
          "Drone_RGB_Edge",
          "DSM_Breakline"
        ]
      },
      "geometry": {
        "type": "LineString",
        "coordinates": [
          [
            77.6200605,
            12.994805
          ],
          [
            77.6200684,
            12.9942772
          ]
        ]
      }
    },
    {
      "type": "Feature",
      "properties": {
        "id": "train_014_BND_015",
        "parcel_id": "train_014_P_004",
        "boundary_type": "VISIBLE",
        "confidence": 0.924,
        "length_m": 54.17,
        "evidence_sources": [
          "Drone_RGB_Edge",
          "DSM_Breakline"
        ]
      },
      "geometry": {
        "type": "LineString",
        "coordinates": [
          [
            77.6200684,
            12.9942772
          ],
          [
            77.6195694,
            12.9942763
          ]
        ]
      }
    },
    {
      "type": "Feature",
      "properties": {
        "id": "train_014_BND_016",
        "parcel_id": "train_014_P_004",
        "boundary_type": "VISIBLE",
        "confidence": 0.84,
        "length_m": 56.74,
        "evidence_sources": [
          "Drone_RGB_Edge",
          "DSM_Breakline"
        ]
      },
      "geometry": {
        "type": "LineString",
        "coordinates": [
          [
            77.6195694,
            12.9942763
          ],
          [
            77.6195683,
            12.9947889
          ]
        ]
      }
    },
    {
      "type": "Feature",
      "properties": {
        "id": "train_014_BND_017",
        "parcel_id": "train_014_P_005",
        "boundary_type": "VISIBLE",
        "confidence": 0.871,
        "length_m": 56.38,
        "evidence_sources": [
          "Drone_RGB_Edge",
          "DSM_Breakline"
        ]
      },
      "geometry": {
        "type": "LineString",
        "coordinates": [
          [
            77.6202316,
            12.9953401
          ],
          [
            77.6207508,
            12.9953266
          ]
        ]
      }
    },
    {
      "type": "Feature",
      "properties": {
        "id": "train_014_BND_018",
        "parcel_id": "train_014_P_005",
        "boundary_type": "INFERRED",
        "confidence": 0.765,
        "length_m": 57.11,
        "evidence_sources": [
          "Road_Corridor_Offset",
          "Adjacent_Parcel_Topology"
        ]
      },
      "geometry": {
        "type": "LineString",
        "coordinates": [
          [
            77.6207508,
            12.9953266
          ],
          [
            77.6207681,
            12.994811
          ]
        ]
      }
    },
    {
      "type": "Feature",
      "properties": {
        "id": "train_014_BND_019",
        "parcel_id": "train_014_P_005",
        "boundary_type": "VISIBLE",
        "confidence": 0.822,
        "length_m": 58.12,
        "evidence_sources": [
          "Drone_RGB_Edge",
          "DSM_Breakline"
        ]
      },
      "geometry": {
        "type": "LineString",
        "coordinates": [
          [
            77.6207681,
            12.994811
          ],
          [
            77.6202327,
            12.9948166
          ]
        ]
      }
    },
    {
      "type": "Feature",
      "properties": {
        "id": "train_014_BND_020",
        "parcel_id": "train_014_P_005",
        "boundary_type": "VISIBLE",
        "confidence": 0.895,
        "length_m": 57.95,
        "evidence_sources": [
          "Drone_RGB_Edge",
          "DSM_Breakline"
        ]
      },
      "geometry": {
        "type": "LineString",
        "coordinates": [
          [
            77.6202327,
            12.9948166
          ],
          [
            77.6202316,
            12.9953401
          ]
        ]
      }
    },
    {
      "type": "Feature",
      "properties": {
        "id": "train_014_BND_021",
        "parcel_id": "train_014_P_006",
        "boundary_type": "VISIBLE",
        "confidence": 0.933,
        "length_m": 59.44,
        "evidence_sources": [
          "Drone_RGB_Edge",
          "DSM_Breakline"
        ]
      },
      "geometry": {
        "type": "LineString",
        "coordinates": [
          [
            77.6202197,
            12.9947929
          ],
          [
            77.6207671,
            12.9948076
          ]
        ]
      }
    },
    {
      "type": "Feature",
      "properties": {
        "id": "train_014_BND_022",
        "parcel_id": "train_014_P_006",
        "boundary_type": "INFERRED",
        "confidence": 0.697,
        "length_m": 57.63,
        "evidence_sources": [
          "Road_Corridor_Offset",
          "Adjacent_Parcel_Topology"
        ]
      },
      "geometry": {
        "type": "LineString",
        "coordinates": [
          [
            77.6207671,
            12.9948076
          ],
          [
            77.6207701,
            12.994287
          ]
        ]
      }
    },
    {
      "type": "Feature",
      "properties": {
        "id": "train_014_BND_023",
        "parcel_id": "train_014_P_006",
        "boundary_type": "VISIBLE",
        "confidence": 0.91,
        "length_m": 59.81,
        "evidence_sources": [
          "Drone_RGB_Edge",
          "DSM_Breakline"
        ]
      },
      "geometry": {
        "type": "LineString",
        "coordinates": [
          [
            77.6207701,
            12.994287
          ],
          [
            77.6202191,
            12.9942919
          ]
        ]
      }
    },
    {
      "type": "Feature",
      "properties": {
        "id": "train_014_BND_024",
        "parcel_id": "train_014_P_006",
        "boundary_type": "VISIBLE",
        "confidence": 0.914,
        "length_m": 55.46,
        "evidence_sources": [
          "Drone_RGB_Edge",
          "DSM_Breakline"
        ]
      },
      "geometry": {
        "type": "LineString",
        "coordinates": [
          [
            77.6202191,
            12.9942919
          ],
          [
            77.6202197,
            12.9947929
          ]
        ]
      }
    },
    {
      "type": "Feature",
      "properties": {
        "id": "train_014_BND_025",
        "parcel_id": "train_014_P_007",
        "boundary_type": "INFERRED",
        "confidence": 0.692,
        "length_m": 59.5,
        "evidence_sources": [
          "Road_Corridor_Offset",
          "Adjacent_Parcel_Topology"
        ]
      },
      "geometry": {
        "type": "LineString",
        "coordinates": [
          [
            77.620774,
            12.9953322
          ],
          [
            77.6213221,
            12.9953404
          ]
        ]
      }
    },
    {
      "type": "Feature",
      "properties": {
        "id": "train_014_BND_026",
        "parcel_id": "train_014_P_007",
        "boundary_type": "INFERRED",
        "confidence": 0.65,
        "length_m": 56.66,
        "evidence_sources": [
          "Road_Corridor_Offset",
          "Adjacent_Parcel_Topology"
        ]
      },
      "geometry": {
        "type": "LineString",
        "coordinates": [
          [
            77.6213221,
            12.9953404
          ],
          [
            77.6213087,
            12.9948287
          ]
        ]
      }
    },
    {
      "type": "Feature",
      "properties": {
        "id": "train_014_BND_027",
        "parcel_id": "train_014_P_007",
        "boundary_type": "VISIBLE",
        "confidence": 0.886,
        "length_m": 56.8,
        "evidence_sources": [
          "Drone_RGB_Edge",
          "DSM_Breakline"
        ]
      },
      "geometry": {
        "type": "LineString",
        "coordinates": [
          [
            77.6213087,
            12.9948287
          ],
          [
            77.6207855,
            12.9948217
          ]
        ]
      }
    },
    {
      "type": "Feature",
      "properties": {
        "id": "train_014_BND_028",
        "parcel_id": "train_014_P_007",
        "boundary_type": "VISIBLE",
        "confidence": 0.95,
        "length_m": 56.52,
        "evidence_sources": [
          "Drone_RGB_Edge",
          "DSM_Breakline"
        ]
      },
      "geometry": {
        "type": "LineString",
        "coordinates": [
          [
            77.6207855,
            12.9948217
          ],
          [
            77.620774,
            12.9953322
          ]
        ]
      }
    },
    {
      "type": "Feature",
      "properties": {
        "id": "train_014_BND_029",
        "parcel_id": "train_014_P_008",
        "boundary_type": "VISIBLE",
        "confidence": 0.849,
        "length_m": 59.05,
        "evidence_sources": [
          "Drone_RGB_Edge",
          "DSM_Breakline"
        ]
      },
      "geometry": {
        "type": "LineString",
        "coordinates": [
          [
            77.6207765,
            12.9947922
          ],
          [
            77.6213203,
            12.9948068
          ]
        ]
      }
    },
    {
      "type": "Feature",
      "properties": {
        "id": "train_014_BND_030",
        "parcel_id": "train_014_P_008",
        "boundary_type": "VISIBLE",
        "confidence": 0.951,
        "length_m": 57.47,
        "evidence_sources": [
          "Drone_RGB_Edge",
          "DSM_Breakline"
        ]
      },
      "geometry": {
        "type": "LineString",
        "coordinates": [
          [
            77.6213203,
            12.9948068
          ],
          [
            77.6213031,
            12.9942879
          ]
        ]
      }
    },
    {
      "type": "Feature",
      "properties": {
        "id": "train_014_BND_031",
        "parcel_id": "train_014_P_008",
        "boundary_type": "VISIBLE",
        "confidence": 0.94,
        "length_m": 55.4,
        "evidence_sources": [
          "Drone_RGB_Edge",
          "DSM_Breakline"
        ]
      },
      "geometry": {
        "type": "LineString",
        "coordinates": [
          [
            77.6213031,
            12.9942879
          ],
          [
            77.6207929,
            12.9942757
          ]
        ]
      }
    },
    {
      "type": "Feature",
      "properties": {
        "id": "train_014_BND_032",
        "parcel_id": "train_014_P_008",
        "boundary_type": "VISIBLE",
        "confidence": 0.917,
        "length_m": 57.2,
        "evidence_sources": [
          "Drone_RGB_Edge",
          "DSM_Breakline"
        ]
      },
      "geometry": {
        "type": "LineString",
        "coordinates": [
          [
            77.6207929,
            12.9942757
          ],
          [
            77.6207765,
            12.9947922
          ]
        ]
      }
    },
    {
      "type": "Feature",
      "properties": {
        "id": "train_014_BND_033",
        "parcel_id": "train_014_P_009",
        "boundary_type": "VISIBLE",
        "confidence": 0.864,
        "length_m": 51.96,
        "evidence_sources": [
          "Drone_RGB_Edge",
          "DSM_Breakline"
        ]
      },
      "geometry": {
        "type": "LineString",
        "coordinates": [
          [
            77.6190732,
            12.9940294
          ],
          [
            77.6195516,
            12.9940445
          ]
        ]
      }
    },
    {
      "type": "Feature",
      "properties": {
        "id": "train_014_BND_034",
        "parcel_id": "train_014_P_009",
        "boundary_type": "INFERRED",
        "confidence": 0.702,
        "length_m": 51.36,
        "evidence_sources": [
          "Road_Corridor_Offset",
          "Adjacent_Parcel_Topology"
        ]
      },
      "geometry": {
        "type": "LineString",
        "coordinates": [
          [
            77.6195516,
            12.9940445
          ],
          [
            77.6195621,
            12.9935806
          ]
        ]
      }
    },
    {
      "type": "Feature",
      "properties": {
        "id": "train_014_BND_035",
        "parcel_id": "train_014_P_009",
        "boundary_type": "INFERRED",
        "confidence": 0.649,
        "length_m": 54.5,
        "evidence_sources": [
          "Road_Corridor_Offset",
          "Adjacent_Parcel_Topology"
        ]
      },
      "geometry": {
        "type": "LineString",
        "coordinates": [
          [
            77.6195621,
            12.9935806
          ],
          [
            77.6190603,
            12.9935659
          ]
        ]
      }
    },
    {
      "type": "Feature",
      "properties": {
        "id": "train_014_BND_036",
        "parcel_id": "train_014_P_009",
        "boundary_type": "INFERRED",
        "confidence": 0.645,
        "length_m": 51.33,
        "evidence_sources": [
          "Road_Corridor_Offset",
          "Adjacent_Parcel_Topology"
        ]
      },
      "geometry": {
        "type": "LineString",
        "coordinates": [
          [
            77.6190603,
            12.9935659
          ],
          [
            77.6190732,
            12.9940294
          ]
        ]
      }
    },
    {
      "type": "Feature",
      "properties": {
        "id": "train_014_BND_037",
        "parcel_id": "train_014_P_010",
        "boundary_type": "VISIBLE",
        "confidence": 0.88,
        "length_m": 52.58,
        "evidence_sources": [
          "Drone_RGB_Edge",
          "DSM_Breakline"
        ]
      },
      "geometry": {
        "type": "LineString",
        "coordinates": [
          [
            77.6190566,
            12.9935461
          ],
          [
            77.6195409,
            12.9935558
          ]
        ]
      }
    },
    {
      "type": "Feature",
      "properties": {
        "id": "train_014_BND_038",
        "parcel_id": "train_014_P_010",
        "boundary_type": "VISIBLE",
        "confidence": 0.909,
        "length_m": 53.11,
        "evidence_sources": [
          "Drone_RGB_Edge",
          "DSM_Breakline"
        ]
      },
      "geometry": {
        "type": "LineString",
        "coordinates": [
          [
            77.6195409,
            12.9935558
          ],
          [
            77.6195483,
            12.9930761
          ]
        ]
      }
    },
    {
      "type": "Feature",
      "properties": {
        "id": "train_014_BND_039",
        "parcel_id": "train_014_P_010",
        "boundary_type": "INFERRED",
        "confidence": 0.675,
        "length_m": 53.16,
        "evidence_sources": [
          "Road_Corridor_Offset",
          "Adjacent_Parcel_Topology"
        ]
      },
      "geometry": {
        "type": "LineString",
        "coordinates": [
          [
            77.6195483,
            12.9930761
          ],
          [
            77.6190587,
            12.9930865
          ]
        ]
      }
    },
    {
      "type": "Feature",
      "properties": {
        "id": "train_014_BND_040",
        "parcel_id": "train_014_P_010",
        "boundary_type": "VISIBLE",
        "confidence": 0.934,
        "length_m": 50.88,
        "evidence_sources": [
          "Drone_RGB_Edge",
          "DSM_Breakline"
        ]
      },
      "geometry": {
        "type": "LineString",
        "coordinates": [
          [
            77.6190587,
            12.9930865
          ],
          [
            77.6190566,
            12.9935461
          ]
        ]
      }
    },
    {
      "type": "Feature",
      "properties": {
        "id": "train_014_BND_041",
        "parcel_id": "train_014_P_011",
        "boundary_type": "VISIBLE",
        "confidence": 0.889,
        "length_m": 54.08,
        "evidence_sources": [
          "Drone_RGB_Edge",
          "DSM_Breakline"
        ]
      },
      "geometry": {
        "type": "LineString",
        "coordinates": [
          [
            77.619566,
            12.9940307
          ],
          [
            77.6200641,
            12.9940374
          ]
        ]
      }
    },
    {
      "type": "Feature",
      "properties": {
        "id": "train_014_BND_042",
        "parcel_id": "train_014_P_011",
        "boundary_type": "VISIBLE",
        "confidence": 0.836,
        "length_m": 51.25,
        "evidence_sources": [
          "Drone_RGB_Edge",
          "DSM_Breakline"
        ]
      },
      "geometry": {
        "type": "LineString",
        "coordinates": [
          [
            77.6200641,
            12.9940374
          ],
          [
            77.6200535,
            12.9935745
          ]
        ]
      }
    },
    {
      "type": "Feature",
      "properties": {
        "id": "train_014_BND_043",
        "parcel_id": "train_014_P_011",
        "boundary_type": "VISIBLE",
        "confidence": 0.887,
        "length_m": 53.28,
        "evidence_sources": [
          "Drone_RGB_Edge",
          "DSM_Breakline"
        ]
      },
      "geometry": {
        "type": "LineString",
        "coordinates": [
          [
            77.6200535,
            12.9935745
          ],
          [
            77.6195627,
            12.9935745
          ]
        ]
      }
    },
    {
      "type": "Feature",
      "properties": {
        "id": "train_014_BND_044",
        "parcel_id": "train_014_P_011",
        "boundary_type": "VISIBLE",
        "confidence": 0.822,
        "length_m": 50.5,
        "evidence_sources": [
          "Drone_RGB_Edge",
          "DSM_Breakline"
        ]
      },
      "geometry": {
        "type": "LineString",
        "coordinates": [
          [
            77.6195627,
            12.9935745
          ],
          [
            77.619566,
            12.9940307
          ]
        ]
      }
    },
    {
      "type": "Feature",
      "properties": {
        "id": "train_014_BND_045",
        "parcel_id": "train_014_P_012",
        "boundary_type": "INFERRED",
        "confidence": 0.621,
        "length_m": 51.64,
        "evidence_sources": [
          "Road_Corridor_Offset",
          "Adjacent_Parcel_Topology"
        ]
      },
      "geometry": {
        "type": "LineString",
        "coordinates": [
          [
            77.6195751,
            12.9935497
          ],
          [
            77.6200508,
            12.9935496
          ]
        ]
      }
    },
    {
      "type": "Feature",
      "properties": {
        "id": "train_014_BND_046",
        "parcel_id": "train_014_P_012",
        "boundary_type": "INFERRED",
        "confidence": 0.716,
        "length_m": 51.66,
        "evidence_sources": [
          "Road_Corridor_Offset",
          "Adjacent_Parcel_Topology"
        ]
      },
      "geometry": {
        "type": "LineString",
        "coordinates": [
          [
            77.6200508,
            12.9935496
          ],
          [
            77.6200472,
            12.9930829
          ]
        ]
      }
    },
    {
      "type": "Feature",
      "properties": {
        "id": "train_014_BND_047",
        "parcel_id": "train_014_P_012",
        "boundary_type": "VISIBLE",
        "confidence": 0.832,
        "length_m": 50.79,
        "evidence_sources": [
          "Drone_RGB_Edge",
          "DSM_Breakline"
        ]
      },
      "geometry": {
        "type": "LineString",
        "coordinates": [
          [
            77.6200472,
            12.9930829
          ],
          [
            77.6195793,
            12.9930808
          ]
        ]
      }
    },
    {
      "type": "Feature",
      "properties": {
        "id": "train_014_BND_048",
        "parcel_id": "train_014_P_012",
        "boundary_type": "VISIBLE",
        "confidence": 0.866,
        "length_m": 51.91,
        "evidence_sources": [
          "Drone_RGB_Edge",
          "DSM_Breakline"
        ]
      },
      "geometry": {
        "type": "LineString",
        "coordinates": [
          [
            77.6195793,
            12.9930808
          ],
          [
            77.6195751,
            12.9935497
          ]
        ]
      }
    },
    {
      "type": "Feature",
      "properties": {
        "id": "train_014_BND_049",
        "parcel_id": "train_014_P_013",
        "boundary_type": "INFERRED",
        "confidence": 0.651,
        "length_m": 58.02,
        "evidence_sources": [
          "Road_Corridor_Offset",
          "Adjacent_Parcel_Topology"
        ]
      },
      "geometry": {
        "type": "LineString",
        "coordinates": [
          [
            77.6202205,
            12.9940426
          ],
          [
            77.620755,
            12.9940475
          ]
        ]
      }
    },
    {
      "type": "Feature",
      "properties": {
        "id": "train_014_BND_050",
        "parcel_id": "train_014_P_013",
        "boundary_type": "INFERRED",
        "confidence": 0.748,
        "length_m": 52.41,
        "evidence_sources": [
          "Road_Corridor_Offset",
          "Adjacent_Parcel_Topology"
        ]
      },
      "geometry": {
        "type": "LineString",
        "coordinates": [
          [
            77.620755,
            12.9940475
          ],
          [
            77.6207706,
            12.9935743
          ]
        ]
      }
    },
    {
      "type": "Feature",
      "properties": {
        "id": "train_014_BND_051",
        "parcel_id": "train_014_P_013",
        "boundary_type": "VISIBLE",
        "confidence": 0.873,
        "length_m": 58.93,
        "evidence_sources": [
          "Drone_RGB_Edge",
          "DSM_Breakline"
        ]
      },
      "geometry": {
        "type": "LineString",
        "coordinates": [
          [
            77.6207706,
            12.9935743
          ],
          [
            77.6202278,
            12.9935673
          ]
        ]
      }
    },
    {
      "type": "Feature",
      "properties": {
        "id": "train_014_BND_052",
        "parcel_id": "train_014_P_013",
        "boundary_type": "VISIBLE",
        "confidence": 0.856,
        "length_m": 52.62,
        "evidence_sources": [
          "Drone_RGB_Edge",
          "DSM_Breakline"
        ]
      },
      "geometry": {
        "type": "LineString",
        "coordinates": [
          [
            77.6202278,
            12.9935673
          ],
          [
            77.6202205,
            12.9940426
          ]
        ]
      }
    },
    {
      "type": "Feature",
      "properties": {
        "id": "train_014_BND_053",
        "parcel_id": "train_014_P_014",
        "boundary_type": "INFERRED",
        "confidence": 0.728,
        "length_m": 57.45,
        "evidence_sources": [
          "Road_Corridor_Offset",
          "Adjacent_Parcel_Topology"
        ]
      },
      "geometry": {
        "type": "LineString",
        "coordinates": [
          [
            77.620229,
            12.9935552
          ],
          [
            77.6207581,
            12.9935444
          ]
        ]
      }
    },
    {
      "type": "Feature",
      "properties": {
        "id": "train_014_BND_054",
        "parcel_id": "train_014_P_014",
        "boundary_type": "INFERRED",
        "confidence": 0.693,
        "length_m": 51.24,
        "evidence_sources": [
          "Road_Corridor_Offset",
          "Adjacent_Parcel_Topology"
        ]
      },
      "geometry": {
        "type": "LineString",
        "coordinates": [
          [
            77.6207581,
            12.9935444
          ],
          [
            77.6207537,
            12.9930815
          ]
        ]
      }
    },
    {
      "type": "Feature",
      "properties": {
        "id": "train_014_BND_055",
        "parcel_id": "train_014_P_014",
        "boundary_type": "VISIBLE",
        "confidence": 0.948,
        "length_m": 56.34,
        "evidence_sources": [
          "Drone_RGB_Edge",
          "DSM_Breakline"
        ]
      },
      "geometry": {
        "type": "LineString",
        "coordinates": [
          [
            77.6207537,
            12.9930815
          ],
          [
            77.6202349,
            12.9930947
          ]
        ]
      }
    },
    {
      "type": "Feature",
      "properties": {
        "id": "train_014_BND_056",
        "parcel_id": "train_014_P_014",
        "boundary_type": "VISIBLE",
        "confidence": 0.904,
        "length_m": 50.98,
        "evidence_sources": [
          "Drone_RGB_Edge",
          "DSM_Breakline"
        ]
      },
      "geometry": {
        "type": "LineString",
        "coordinates": [
          [
            77.6202349,
            12.9930947
          ],
          [
            77.620229,
            12.9935552
          ]
        ]
      }
    },
    {
      "type": "Feature",
      "properties": {
        "id": "train_014_BND_057",
        "parcel_id": "train_014_P_015",
        "boundary_type": "VISIBLE",
        "confidence": 0.91,
        "length_m": 57.85,
        "evidence_sources": [
          "Drone_RGB_Edge",
          "DSM_Breakline"
        ]
      },
      "geometry": {
        "type": "LineString",
        "coordinates": [
          [
            77.6207847,
            12.9940455
          ],
          [
            77.6213176,
            12.9940432
          ]
        ]
      }
    },
    {
      "type": "Feature",
      "properties": {
        "id": "train_014_BND_058",
        "parcel_id": "train_014_P_015",
        "boundary_type": "VISIBLE",
        "confidence": 0.842,
        "length_m": 52.42,
        "evidence_sources": [
          "Drone_RGB_Edge",
          "DSM_Breakline"
        ]
      },
      "geometry": {
        "type": "LineString",
        "coordinates": [
          [
            77.6213176,
            12.9940432
          ],
          [
            77.6213072,
            12.9935698
          ]
        ]
      }
    },
    {
      "type": "Feature",
      "properties": {
        "id": "train_014_BND_059",
        "parcel_id": "train_014_P_015",
        "boundary_type": "VISIBLE",
        "confidence": 0.946,
        "length_m": 55.73,
        "evidence_sources": [
          "Drone_RGB_Edge",
          "DSM_Breakline"
        ]
      },
      "geometry": {
        "type": "LineString",
        "coordinates": [
          [
            77.6213072,
            12.9935698
          ],
          [
            77.6207939,
            12.9935781
          ]
        ]
      }
    },
    {
      "type": "Feature",
      "properties": {
        "id": "train_014_BND_060",
        "parcel_id": "train_014_P_015",
        "boundary_type": "VISIBLE",
        "confidence": 0.841,
        "length_m": 51.75,
        "evidence_sources": [
          "Drone_RGB_Edge",
          "DSM_Breakline"
        ]
      },
      "geometry": {
        "type": "LineString",
        "coordinates": [
          [
            77.6207939,
            12.9935781
          ],
          [
            77.6207847,
            12.9940455
          ]
        ]
      }
    },
    {
      "type": "Feature",
      "properties": {
        "id": "train_014_BND_061",
        "parcel_id": "train_014_P_016",
        "boundary_type": "INFERRED",
        "confidence": 0.756,
        "length_m": 57.41,
        "evidence_sources": [
          "Road_Corridor_Offset",
          "Adjacent_Parcel_Topology"
        ]
      },
      "geometry": {
        "type": "LineString",
        "coordinates": [
          [
            77.6207804,
            12.9935528
          ],
          [
            77.6213092,
            12.9935453
          ]
        ]
      }
    },
    {
      "type": "Feature",
      "properties": {
        "id": "train_014_BND_062",
        "parcel_id": "train_014_P_016",
        "boundary_type": "INFERRED",
        "confidence": 0.777,
        "length_m": 49.71,
        "evidence_sources": [
          "Road_Corridor_Offset",
          "Adjacent_Parcel_Topology"
        ]
      },
      "geometry": {
        "type": "LineString",
        "coordinates": [
          [
            77.6213092,
            12.9935453
          ],
          [
            77.6213204,
            12.9930964
          ]
        ]
      }
    },
    {
      "type": "Feature",
      "properties": {
        "id": "train_014_BND_063",
        "parcel_id": "train_014_P_016",
        "boundary_type": "VISIBLE",
        "confidence": 0.905,
        "length_m": 57.78,
        "evidence_sources": [
          "Drone_RGB_Edge",
          "DSM_Breakline"
        ]
      },
      "geometry": {
        "type": "LineString",
        "coordinates": [
          [
            77.6213204,
            12.9930964
          ],
          [
            77.6207885,
            12.993077
          ]
        ]
      }
    },
    {
      "type": "Feature",
      "properties": {
        "id": "train_014_BND_064",
        "parcel_id": "train_014_P_016",
        "boundary_type": "VISIBLE",
        "confidence": 0.863,
        "length_m": 52.68,
        "evidence_sources": [
          "Drone_RGB_Edge",
          "DSM_Breakline"
        ]
      },
      "geometry": {
        "type": "LineString",
        "coordinates": [
          [
            77.6207885,
            12.993077
          ],
          [
            77.6207804,
            12.9935528
          ]
        ]
      }
    }
  ]
}