{
  "type": "FeatureCollection",
  "crs": {
    "type": "name",
    "properties": {
      "name": "EPSG:4326"
    }
  },
  "features": [
    {
      "type": "Feature",
      "properties": {
        "id": "train_014_REF_001",
        "parcel_id": "train_014_P_001",
        "parcel_layer": "REFERENCE",
        "boundary_representation": "REFERENCE",
        "land_use_class": "industrial",
        "area_sqm": 2888.48,
        "perimeter_m": 215.25,
        "source": "Synthetic Legacy Cadastral Map (Non-Authoritative Demo)"
      },
      "geometry": {
        "type": "Polygon",
        "coordinates": [
          [
            [
              77.6190821,
              12.9953242
            ],
            [
              77.6195566,
              12.9953413
            ],
            [
              77.6195492,
              12.9948268
            ],
            [
              77.619075,
              12.9948249
            ],
            [
              77.6190821,
              12.9953242
            ]
          ]
        ]
      }
    },
    {
      "type": "Feature",
      "properties": {
        "id": "train_014_REF_002",
        "parcel_id": "train_014_P_002",
        "parcel_layer": "REFERENCE",
        "boundary_representation": "REFERENCE",
        "land_use_class": "residential",
        "area_sqm": 3022.92,
        "perimeter_m": 220.04,
        "source": "Synthetic Legacy Cadastral Map (Non-Authoritative Demo)"
      },
      "geometry": {
        "type": "Polygon",
        "coordinates": [
          [
            [
              77.6190685,
              12.9947962
            ],
            [
              77.6195611,
              12.9947905
            ],
            [
              77.6195542,
              12.994278
            ],
            [
              77.6190665,
              12.9942823
            ],
            [
              77.6190685,
              12.9947962
            ]
          ]
        ]
      }
    },
    {
      "type": "Feature",
      "properties": {
        "id": "train_014_REF_003",
        "parcel_id": "train_014_P_003",
        "parcel_layer": "REFERENCE",
        "boundary_representation": "REFERENCE",
        "land_use_class": "residential",
        "area_sqm": 2944.94,
        "perimeter_m": 217.25,
        "source": "Synthetic Legacy Cadastral Map (Non-Authoritative Demo)"
      },
      "geometry": {
        "type": "Polygon",
        "coordinates": [
          [
            [
              77.6195789,
              12.9953246
            ],
            [
              77.6200618,
              12.9953417
            ],
            [
              77.6200587,
              12.9948321
            ],
            [
              77.6195713,
              12.9948236
            ],
            [
              77.6195789,
              12.9953246
            ]
          ]
        ]
      }
    },
    {
      "type": "Feature",
      "properties": {
        "id": "train_014_REF_004",
        "parcel_id": "train_014_P_004",
        "parcel_layer": "REFERENCE",
        "boundary_representation": "REFERENCE",
        "land_use_class": "residential",
        "area_sqm": 3098.42,
        "perimeter_m": 222.8,
        "source": "Synthetic Legacy Cadastral Map (Non-Authoritative Demo)"
      },
      "geometry": {
        "type": "Polygon",
        "coordinates": [
          [
            [
              77.6196095,
              12.9948095
            ],
            [
              77.6201017,
              12.9948256
            ],
            [
              77.6201097,
              12.9942978
            ],
            [
              77.6196107,
              12.9942969
            ],
            [
              77.6196095,
              12.9948095
            ]
          ]
        ]
      }
    },
    {
      "type": "Feature",
      "properties": {
        "id": "train_014_REF_005",
        "parcel_id": "train_014_P_005",
        "parcel_layer": "REFERENCE",
        "boundary_representation": "REFERENCE",
        "land_use_class": "commercial",
        "area_sqm": 3291.24,
        "perimeter_m": 229.57,
        "source": "Synthetic Legacy Cadastral Map (Non-Authoritative Demo)"
      },
      "geometry": {
        "type": "Polygon",
        "coordinates": [
          [
            [
              77.6202372,
              12.9953429
            ],
            [
              77.6207564,
              12.9953294
            ],
            [
              77.6207738,
              12.9948138
            ],
            [
              77.6202383,
              12.9948194
            ],
            [
              77.6202372,
              12.9953429
            ]
          ]
        ]
      }
    },
    {
      "type": "Feature",
      "properties": {
        "id": "train_014_REF_006",
        "parcel_id": "train_014_P_006",
        "parcel_layer": "REFERENCE",
        "boundary_representation": "REFERENCE",
        "land_use_class": "mixed_use",
        "area_sqm": 3370.74,
        "perimeter_m": 232.34,
        "source": "Synthetic Legacy Cadastral Map (Non-Authoritative Demo)"
      },
      "geometry": {
        "type": "Polygon",
        "coordinates": [
          [
            [
              77.6202253,
              12.9947957
            ],
            [
              77.6207727,
              12.9948104
            ],
            [
              77.6207757,
              12.9942898
            ],
            [
              77.6202248,
              12.9942947
            ],
            [
              77.6202253,
              12.9947957
            ]
          ]
        ]
      }
    },
    {
      "type": "Feature",
      "properties": {
        "id": "train_014_REF_007",
        "parcel_id": "train_014_P_007",
        "parcel_layer": "REFERENCE",
        "boundary_representation": "REFERENCE",
        "land_use_class": "mixed_use",
        "area_sqm": 3289.94,
        "perimeter_m": 229.5,
        "source": "Synthetic Legacy Cadastral Map (Non-Authoritative Demo)"
      },
      "geometry": {
        "type": "Polygon",
        "coordinates": [
          [
            [
              77.6207796,
              12.995335
            ],
            [
              77.6213278,
              12.9953432
            ],
            [
              77.6213143,
              12.9948315
            ],
            [
              77.6207911,
              12.9948245
            ],
            [
              77.6207796,
              12.995335
            ]
          ]
        ]
      }
    },
    {
      "type": "Feature",
      "properties": {
        "id": "train_014_REF_008",
        "parcel_id": "train_014_P_008",
        "parcel_layer": "REFERENCE",
        "boundary_representation": "REFERENCE",
        "land_use_class": "vegetation",
        "area_sqm": 3278.98,
        "perimeter_m": 229.15,
        "source": "Synthetic Legacy Cadastral Map (Non-Authoritative Demo)"
      },
      "geometry": {
        "type": "Polygon",
        "coordinates": [
          [
            [
              77.6208177,
              12.9948128
            ],
            [
              77.6213616,
              12.9948275
            ],
            [
              77.6213444,
              12.9943085
            ],
            [
              77.6208342,
              12.9942963
            ],
            [
              77.6208177,
              12.9948128
            ]
          ]
        ]
      }
    },
    {
      "type": "Feature",
      "properties": {
        "id": "train_014_REF_009",
        "parcel_id": "train_014_P_009",
        "parcel_layer": "REFERENCE",
        "boundary_representation": "REFERENCE",
        "land_use_class": "vacant",
        "area_sqm": 2730.33,
        "perimeter_m": 209.14,
        "source": "Synthetic Legacy Cadastral Map (Non-Authoritative Demo)"
      },
      "geometry": {
        "type": "Polygon",
        "coordinates": [
          [
            [
              77.6190789,
              12.9940322
            ],
            [
              77.6195572,
              12.9940473
            ],
            [
              77.6195678,
              12.9935835
            ],
            [
              77.6190659,
              12.9935687
            ],
            [
              77.6190789,
              12.9940322
            ]
          ]
        ]
      }
    },
    {
      "type": "Feature",
      "properties": {
        "id": "train_014_REF_010",
        "parcel_id": "train_014_P_010",
        "parcel_layer": "REFERENCE",
        "boundary_representation": "REFERENCE",
        "land_use_class": "industrial",
        "area_sqm": 2748.38,
        "perimeter_m": 209.74,
        "source": "Synthetic Legacy Cadastral Map (Non-Authoritative Demo)"
      },
      "geometry": {
        "type": "Polygon",
        "coordinates": [
          [
            [
              77.6190622,
              12.993549
            ],
            [
              77.6195465,
              12.9935586
            ],
            [
              77.6195539,
              12.9930789
            ],
            [
              77.6190643,
              12.9930893
            ],
            [
              77.6190622,
              12.993549
            ]
          ]
        ]
      }
    },
    {
      "type": "Feature",
      "properties": {
        "id": "train_014_REF_011",
        "parcel_id": "train_014_P_011",
        "parcel_layer": "REFERENCE",
        "boundary_representation": "REFERENCE",
        "land_use_class": "industrial",
        "area_sqm": 2730.43,
        "perimeter_m": 209.12,
        "source": "Synthetic Legacy Cadastral Map (Non-Authoritative Demo)"
      },
      "geometry": {
        "type": "Polygon",
        "coordinates": [
          [
            [
              77.6195716,
              12.9940335
            ],
            [
              77.6200697,
              12.9940403
            ],
            [
              77.6200591,
              12.9935773
            ],
            [
              77.6195683,
              12.9935773
            ],
            [
              77.6195716,
              12.9940335
            ]
          ]
        ]
      }
    },
    {
      "type": "Feature",
      "properties": {
        "id": "train_014_REF_012",
        "parcel_id": "train_014_P_012",
        "parcel_layer": "REFERENCE",
        "boundary_representation": "REFERENCE",
        "land_use_class": "residential",
        "area_sqm": 2652.4,
        "perimeter_m": 206.01,
        "source": "Synthetic Legacy Cadastral Map (Non-Authoritative Demo)"
      },
      "geometry": {
        "type": "Polygon",
        "coordinates": [
          [
            [
              77.6196163,
              12.9935703
            ],
            [
              77.6200921,
              12.9935702
            ],
            [
              77.6200885,
              12.9931035
            ],
            [
              77.6196205,
              12.9931015
            ],
            [
              77.6196163,
              12.9935703
            ]
          ]
        ]
      }
    },
    {
      "type": "Feature",
      "properties": {
        "id": "train_014_REF_013",
        "parcel_id": "train_014_P_013",
        "parcel_layer": "REFERENCE",
        "boundary_representation": "REFERENCE",
        "land_use_class": "residential",
        "area_sqm": 3070.47,
        "perimeter_m": 221.98,
        "source": "Synthetic Legacy Cadastral Map (Non-Authoritative Demo)"
      },
      "geometry": {
        "type": "Polygon",
        "coordinates": [
          [
            [
              77.6202261,
              12.9940454
            ],
            [
              77.6207606,
              12.9940503
            ],
            [
              77.6207762,
              12.9935771
            ],
            [
              77.6202334,
              12.9935701
            ],
            [
              77.6202261,
              12.9940454
            ]
          ]
        ]
      }
    },
    {
      "type": "Feature",
      "properties": {
        "id": "train_014_REF_014",
        "parcel_id": "train_014_P_014",
        "parcel_layer": "REFERENCE",
        "boundary_representation": "REFERENCE",
        "land_use_class": "water",
        "area_sqm": 2906.76,
        "perimeter_m": 216.01,
        "source": "Synthetic Legacy Cadastral Map (Non-Authoritative Demo)"
      },
      "geometry": {
        "type": "Polygon",
        "coordinates": [
          [
            [
              77.6202346,
              12.993558
            ],
            [
              77.6207637,
              12.9935472
            ],
            [
              77.6207593,
              12.9930843
            ],
            [
              77.6202405,
              12.9930975
            ],
            [
              77.6202346,
              12.993558
            ]
          ]
        ]
      }
    },
    {
      "type": "Feature",
      "properties": {
        "id": "train_014_REF_015",
        "parcel_id": "train_014_P_015",
        "parcel_layer": "REFERENCE",
        "boundary_representation": "REFERENCE",
        "land_use_class": "commercial",
        "area_sqm": 2956.87,
        "perimeter_m": 217.74,
        "source": "Synthetic Legacy Cadastral Map (Non-Authoritative Demo)"
      },
      "geometry": {
        "type": "Polygon",
        "coordinates": [
          [
            [
              77.6207903,
              12.9940483
            ],
            [
              77.6213232,
              12.994046
            ],
            [
              77.6213128,
              12.9935726
            ],
            [
              77.6207995,
              12.9935809
            ],
            [
              77.6207903,
              12.9940483
            ]
          ]
        ]
      }
    },
    {
      "type": "Feature",
      "properties": {
        "id": "train_014_REF_016",
        "parcel_id": "train_014_P_016",
        "parcel_layer": "REFERENCE",
        "boundary_representation": "REFERENCE",
        "land_use_class": "agricultural",
        "area_sqm": 2947.17,
        "perimeter_m": 217.57,
        "source": "Synthetic Legacy Cadastral Map (Non-Authoritative Demo)"
      },
      "geometry": {
        "type": "Polygon",
        "coordinates": [
          [
            [
              77.6208216,
              12.9935734
            ],
            [
              77.6213505,
              12.9935659
            ],
            [
              77.6213617,
              12.993117
            ],
            [
              77.6208298,
              12.9930977
            ],
            [
              77.6208216,
              12.9935734
            ]
          ]
        ]
      }
    }
  ]
}