{
  "type": "FeatureCollection",
  "crs": {
    "type": "name",
    "properties": {
      "name": "EPSG:4326"
    }
  },
  "features": [
    {
      "type": "Feature",
      "properties": {
        "id": "train_030_BND_001",
        "parcel_id": "train_030_P_001",
        "boundary_type": "VISIBLE",
        "confidence": 0.924,
        "length_m": 43.43,
        "evidence_sources": [
          "Drone_RGB_Edge",
          "DSM_Breakline"
        ]
      },
      "geometry": {
        "type": "LineString",
        "coordinates": [
          [
            77.6220745,
            12.9983308
          ],
          [
            77.6224746,
            12.9983281
          ]
        ]
      }
    },
    {
      "type": "Feature",
      "properties": {
        "id": "train_030_BND_002",
        "parcel_id": "train_030_P_001",
        "boundary_type": "VISIBLE",
        "confidence": 0.846,
        "length_m": 48.01,
        "evidence_sources": [
          "Drone_RGB_Edge",
          "DSM_Breakline"
        ]
      },
      "geometry": {
        "type": "LineString",
        "coordinates": [
          [
            77.6224746,
            12.9983281
          ],
          [
            77.6224902,
            12.9978947
          ]
        ]
      }
    },
    {
      "type": "Feature",
      "properties": {
        "id": "train_030_BND_003",
        "parcel_id": "train_030_P_001",
        "boundary_type": "VISIBLE",
        "confidence": 0.881,
        "length_m": 47.08,
        "evidence_sources": [
          "Drone_RGB_Edge",
          "DSM_Breakline"
        ]
      },
      "geometry": {
        "type": "LineString",
        "coordinates": [
          [
            77.6224902,
            12.9978947
          ],
          [
            77.6220565,
            12.997897
          ]
        ]
      }
    },
    {
      "type": "Feature",
      "properties": {
        "id": "train_030_BND_004",
        "parcel_id": "train_030_P_001",
        "boundary_type": "VISIBLE",
        "confidence": 0.931,
        "length_m": 48.06,
        "evidence_sources": [
          "Drone_RGB_Edge",
          "DSM_Breakline"
        ]
      },
      "geometry": {
        "type": "LineString",
        "coordinates": [
          [
            77.6220565,
            12.997897
          ],
          [
            77.6220745,
            12.9983308
          ]
        ]
      }
    },
    {
      "type": "Feature",
      "properties": {
        "id": "train_030_BND_005",
        "parcel_id": "train_030_P_002",
        "boundary_type": "VISIBLE",
        "confidence": 0.953,
        "length_m": 44.77,
        "evidence_sources": [
          "Drone_RGB_Edge",
          "DSM_Breakline"
        ]
      },
      "geometry": {
        "type": "LineString",
        "coordinates": [
          [
            77.6220658,
            12.9978886
          ],
          [
            77.6224782,
            12.997887
          ]
        ]
      }
    },
    {
      "type": "Feature",
      "properties": {
        "id": "train_030_BND_006",
        "parcel_id": "train_030_P_002",
        "boundary_type": "INFERRED",
        "confidence": 0.749,
        "length_m": 47.0,
        "evidence_sources": [
          "Road_Corridor_Offset",
          "Adjacent_Parcel_Topology"
        ]
      },
      "geometry": {
        "type": "LineString",
        "coordinates": [
          [
            77.6224782,
            12.997887
          ],
          [
            77.6224877,
            12.9974625
          ]
        ]
      }
    },
    {
      "type": "Feature",
      "properties": {
        "id": "train_030_BND_007",
        "parcel_id": "train_030_P_002",
        "boundary_type": "VISIBLE",
        "confidence": 0.932,
        "length_m": 46.06,
        "evidence_sources": [
          "Drone_RGB_Edge",
          "DSM_Breakline"
        ]
      },
      "geometry": {
        "type": "LineString",
        "coordinates": [
          [
            77.6224877,
            12.9974625
          ],
          [
            77.6220635,
            12.9974534
          ]
        ]
      }
    },
    {
      "type": "Feature",
      "properties": {
        "id": "train_030_BND_008",
        "parcel_id": "train_030_P_002",
        "boundary_type": "VISIBLE",
        "confidence": 0.93,
        "length_m": 48.18,
        "evidence_sources": [
          "Drone_RGB_Edge",
          "DSM_Breakline"
        ]
      },
      "geometry": {
        "type": "LineString",
        "coordinates": [
          [
            77.6220635,
            12.9974534
          ],
          [
            77.6220658,
            12.9978886
          ]
        ]
      }
    },
    {
      "type": "Feature",
      "properties": {
        "id": "train_030_BND_009",
        "parcel_id": "train_030_P_003",
        "boundary_type": "VISIBLE",
        "confidence": 0.827,
        "length_m": 46.6,
        "evidence_sources": [
          "Drone_RGB_Edge",
          "DSM_Breakline"
        ]
      },
      "geometry": {
        "type": "LineString",
        "coordinates": [
          [
            77.6225021,
            12.998331
          ],
          [
            77.6229314,
            12.9983285
          ]
        ]
      }
    },
    {
      "type": "Feature",
      "properties": {
        "id": "train_030_BND_010",
        "parcel_id": "train_030_P_003",
        "boundary_type": "INFERRED",
        "confidence": 0.662,
        "length_m": 47.22,
        "evidence_sources": [
          "Road_Corridor_Offset",
          "Adjacent_Parcel_Topology"
        ]
      },
      "geometry": {
        "type": "LineString",
        "coordinates": [
          [
            77.6229314,
            12.9983285
          ],
          [
            77.6229164,
            12.9979022
          ]
        ]
      }
    },
    {
      "type": "Feature",
      "properties": {
        "id": "train_030_BND_011",
        "parcel_id": "train_030_P_003",
        "boundary_type": "VISIBLE",
        "confidence": 0.848,
        "length_m": 45.2,
        "evidence_sources": [
          "Drone_RGB_Edge",
          "DSM_Breakline"
        ]
      },
      "geometry": {
        "type": "LineString",
        "coordinates": [
          [
            77.6229164,
            12.9979022
          ],
          [
            77.6225002,
            12.9979144
          ]
        ]
      }
    },
    {
      "type": "Feature",
      "properties": {
        "id": "train_030_BND_012",
        "parcel_id": "train_030_P_003",
        "boundary_type": "VISIBLE",
        "confidence": 0.883,
        "length_m": 46.12,
        "evidence_sources": [
          "Drone_RGB_Edge",
          "DSM_Breakline"
        ]
      },
      "geometry": {
        "type": "LineString",
        "coordinates": [
          [
            77.6225002,
            12.9979144
          ],
          [
            77.6225021,
            12.998331
          ]
        ]
      }
    },
    {
      "type": "Feature",
      "properties": {
        "id": "train_030_BND_013",
        "parcel_id": "train_030_P_004",
        "boundary_type": "VISIBLE",
        "confidence": 0.851,
        "length_m": 43.55,
        "evidence_sources": [
          "Drone_RGB_Edge",
          "DSM_Breakline"
        ]
      },
      "geometry": {
        "type": "LineString",
        "coordinates": [
          [
            77.622516,
            12.9978778
          ],
          [
            77.6229172,
            12.9978792
          ]
        ]
      }
    },
    {
      "type": "Feature",
      "properties": {
        "id": "train_030_BND_014",
        "parcel_id": "train_030_P_004",
        "boundary_type": "VISIBLE",
        "confidence": 0.932,
        "length_m": 46.92,
        "evidence_sources": [
          "Drone_RGB_Edge",
          "DSM_Breakline"
        ]
      },
      "geometry": {
        "type": "LineString",
        "coordinates": [
          [
            77.6229172,
            12.9978792
          ],
          [
            77.6229354,
            12.9974557
          ]
        ]
      }
    },
    {
      "type": "Feature",
      "properties": {
        "id": "train_030_BND_015",
        "parcel_id": "train_030_P_004",
        "boundary_type": "VISIBLE",
        "confidence": 0.829,
        "length_m": 46.04,
        "evidence_sources": [
          "Drone_RGB_Edge",
          "DSM_Breakline"
        ]
      },
      "geometry": {
        "type": "LineString",
        "coordinates": [
          [
            77.6229354,
            12.9974557
          ],
          [
            77.6225113,
            12.9974526
          ]
        ]
      }
    },
    {
      "type": "Feature",
      "properties": {
        "id": "train_030_BND_016",
        "parcel_id": "train_030_P_004",
        "boundary_type": "VISIBLE",
        "confidence": 0.839,
        "length_m": 47.07,
        "evidence_sources": [
          "Drone_RGB_Edge",
          "DSM_Breakline"
        ]
      },
      "geometry": {
        "type": "LineString",
        "coordinates": [
          [
            77.6225113,
            12.9974526
          ],
          [
            77.622516,
            12.9978778
          ]
        ]
      }
    },
    {
      "type": "Feature",
      "properties": {
        "id": "train_030_BND_017",
        "parcel_id": "train_030_P_005",
        "boundary_type": "VISIBLE",
        "confidence": 0.941,
        "length_m": 63.33,
        "evidence_sources": [
          "Drone_RGB_Edge",
          "DSM_Breakline"
        ]
      },
      "geometry": {
        "type": "LineString",
        "coordinates": [
          [
            77.6231052,
            12.9983355
          ],
          [
            77.6236886,
            12.9983339
          ]
        ]
      }
    },
    {
      "type": "Feature",
      "properties": {
        "id": "train_030_BND_018",
        "parcel_id": "train_030_P_005",
        "boundary_type": "VISIBLE",
        "confidence": 0.856,
        "length_m": 46.73,
        "evidence_sources": [
          "Drone_RGB_Edge",
          "DSM_Breakline"
        ]
      },
      "geometry": {
        "type": "LineString",
        "coordinates": [
          [
            77.6236886,
            12.9983339
          ],
          [
            77.6236862,
            12.9979118
          ]
        ]
      }
    },
    {
      "type": "Feature",
      "properties": {
        "id": "train_030_BND_019",
        "parcel_id": "train_030_P_005",
        "boundary_type": "VISIBLE",
        "confidence": 0.83,
        "length_m": 64.49,
        "evidence_sources": [
          "Drone_RGB_Edge",
          "DSM_Breakline"
        ]
      },
      "geometry": {
        "type": "LineString",
        "coordinates": [
          [
            77.6236862,
            12.9979118
          ],
          [
            77.6230922,
            12.9978995
          ]
        ]
      }
    },
    {
      "type": "Feature",
      "properties": {
        "id": "train_030_BND_020",
        "parcel_id": "train_030_P_005",
        "boundary_type": "VISIBLE",
        "confidence": 0.93,
        "length_m": 48.28,
        "evidence_sources": [
          "Drone_RGB_Edge",
          "DSM_Breakline"
        ]
      },
      "geometry": {
        "type": "LineString",
        "coordinates": [
          [
            77.6230922,
            12.9978995
          ],
          [
            77.6231052,
            12.9983355
          ]
        ]
      }
    },
    {
      "type": "Feature",
      "properties": {
        "id": "train_030_BND_021",
        "parcel_id": "train_030_P_006",
        "boundary_type": "VISIBLE",
        "confidence": 0.89,
        "length_m": 66.35,
        "evidence_sources": [
          "Drone_RGB_Edge",
          "DSM_Breakline"
        ]
      },
      "geometry": {
        "type": "LineString",
        "coordinates": [
          [
            77.6230889,
            12.9978866
          ],
          [
            77.6237001,
            12.997885
          ]
        ]
      }
    },
    {
      "type": "Feature",
      "properties": {
        "id": "train_030_BND_022",
        "parcel_id": "train_030_P_006",
        "boundary_type": "VISIBLE",
        "confidence": 0.913,
        "length_m": 46.78,
        "evidence_sources": [
          "Drone_RGB_Edge",
          "DSM_Breakline"
        ]
      },
      "geometry": {
        "type": "LineString",
        "coordinates": [
          [
            77.6237001,
            12.997885
          ],
          [
            77.6236912,
            12.9974625
          ]
        ]
      }
    },
    {
      "type": "Feature",
      "properties": {
        "id": "train_030_BND_023",
        "parcel_id": "train_030_P_006",
        "boundary_type": "INFERRED",
        "confidence": 0.703,
        "length_m": 64.12,
        "evidence_sources": [
          "Road_Corridor_Offset",
          "Adjacent_Parcel_Topology"
        ]
      },
      "geometry": {
        "type": "LineString",
        "coordinates": [
          [
            77.6236912,
            12.9974625
          ],
          [
            77.6231006,
            12.9974526
          ]
        ]
      }
    },
    {
      "type": "Feature",
      "properties": {
        "id": "train_030_BND_024",
        "parcel_id": "train_030_P_006",
        "boundary_type": "VISIBLE",
        "confidence": 0.934,
        "length_m": 48.06,
        "evidence_sources": [
          "Drone_RGB_Edge",
          "DSM_Breakline"
        ]
      },
      "geometry": {
        "type": "LineString",
        "coordinates": [
          [
            77.6231006,
            12.9974526
          ],
          [
            77.6230889,
            12.9978866
          ]
        ]
      }
    },
    {
      "type": "Feature",
      "properties": {
        "id": "train_030_BND_025",
        "parcel_id": "train_030_P_007",
        "boundary_type": "VISIBLE",
        "confidence": 0.906,
        "length_m": 65.3,
        "evidence_sources": [
          "Drone_RGB_Edge",
          "DSM_Breakline"
        ]
      },
      "geometry": {
        "type": "LineString",
        "coordinates": [
          [
            77.6237081,
            12.9983286
          ],
          [
            77.6243096,
            12.9983231
          ]
        ]
      }
    },
    {
      "type": "Feature",
      "properties": {
        "id": "train_030_BND_026",
        "parcel_id": "train_030_P_007",
        "boundary_type": "INFERRED",
        "confidence": 0.666,
        "length_m": 47.19,
        "evidence_sources": [
          "Road_Corridor_Offset",
          "Adjacent_Parcel_Topology"
        ]
      },
      "geometry": {
        "type": "LineString",
        "coordinates": [
          [
            77.6243096,
            12.9983231
          ],
          [
            77.6243039,
            12.9978968
          ]
        ]
      }
    },
    {
      "type": "Feature",
      "properties": {
        "id": "train_030_BND_027",
        "parcel_id": "train_030_P_007",
        "boundary_type": "VISIBLE",
        "confidence": 0.856,
        "length_m": 63.88,
        "evidence_sources": [
          "Drone_RGB_Edge",
          "DSM_Breakline"
        ]
      },
      "geometry": {
        "type": "LineString",
        "coordinates": [
          [
            77.6243039,
            12.9978968
          ],
          [
            77.6237154,
            12.9978978
          ]
        ]
      }
    },
    {
      "type": "Feature",
      "properties": {
        "id": "train_030_BND_028",
        "parcel_id": "train_030_P_007",
        "boundary_type": "INFERRED",
        "confidence": 0.734,
        "length_m": 47.69,
        "evidence_sources": [
          "Road_Corridor_Offset",
          "Adjacent_Parcel_Topology"
        ]
      },
      "geometry": {
        "type": "LineString",
        "coordinates": [
          [
            77.6237154,
            12.9978978
          ],
          [
            77.6237081,
            12.9983286
          ]
        ]
      }
    },
    {
      "type": "Feature",
      "properties": {
        "id": "train_030_BND_029",
        "parcel_id": "train_030_P_008",
        "boundary_type": "VISIBLE",
        "confidence": 0.851,
        "length_m": 65.05,
        "evidence_sources": [
          "Drone_RGB_Edge",
          "DSM_Breakline"
        ]
      },
      "geometry": {
        "type": "LineString",
        "coordinates": [
          [
            77.6237251,
            12.9978822
          ],
          [
            77.6243243,
            12.9978773
          ]
        ]
      }
    },
    {
      "type": "Feature",
      "properties": {
        "id": "train_030_BND_030",
        "parcel_id": "train_030_P_008",
        "boundary_type": "VISIBLE",
        "confidence": 0.837,
        "length_m": 46.29,
        "evidence_sources": [
          "Drone_RGB_Edge",
          "DSM_Breakline"
        ]
      },
      "geometry": {
        "type": "LineString",
        "coordinates": [
          [
            77.6243243,
            12.9978773
          ],
          [
            77.6243034,
            12.9974596
          ]
        ]
      }
    },
    {
      "type": "Feature",
      "properties": {
        "id": "train_030_BND_031",
        "parcel_id": "train_030_P_008",
        "boundary_type": "VISIBLE",
        "confidence": 0.93,
        "length_m": 63.65,
        "evidence_sources": [
          "Drone_RGB_Edge",
          "DSM_Breakline"
        ]
      },
      "geometry": {
        "type": "LineString",
        "coordinates": [
          [
            77.6243034,
            12.9974596
          ],
          [
            77.6237171,
            12.9974503
          ]
        ]
      }
    },
    {
      "type": "Feature",
      "properties": {
        "id": "train_030_BND_032",
        "parcel_id": "train_030_P_008",
        "boundary_type": "INFERRED",
        "confidence": 0.619,
        "length_m": 47.82,
        "evidence_sources": [
          "Road_Corridor_Offset",
          "Adjacent_Parcel_Topology"
        ]
      },
      "geometry": {
        "type": "LineString",
        "coordinates": [
          [
            77.6237171,
            12.9974503
          ],
          [
            77.6237251,
            12.9978822
          ]
        ]
      }
    },
    {
      "type": "Feature",
      "properties": {
        "id": "train_030_BND_033",
        "parcel_id": "train_030_P_009",
        "boundary_type": "VISIBLE",
        "confidence": 0.827,
        "length_m": 43.98,
        "evidence_sources": [
          "Drone_RGB_Edge",
          "DSM_Breakline"
        ]
      },
      "geometry": {
        "type": "LineString",
        "coordinates": [
          [
            77.6220758,
            12.9971607
          ],
          [
            77.6224808,
            12.997172
          ]
        ]
      }
    },
    {
      "type": "Feature",
      "properties": {
        "id": "train_030_BND_034",
        "parcel_id": "train_030_P_009",
        "boundary_type": "VISIBLE",
        "confidence": 0.83,
        "length_m": 58.5,
        "evidence_sources": [
          "Drone_RGB_Edge",
          "DSM_Breakline"
        ]
      },
      "geometry": {
        "type": "LineString",
        "coordinates": [
          [
            77.6224808,
            12.997172
          ],
          [
            77.6224933,
            12.9966437
          ]
        ]
      }
    },
    {
      "type": "Feature",
      "properties": {
        "id": "train_030_BND_035",
        "parcel_id": "train_030_P_009",
        "boundary_type": "INFERRED",
        "confidence": 0.637,
        "length_m": 46.9,
        "evidence_sources": [
          "Road_Corridor_Offset",
          "Adjacent_Parcel_Topology"
        ]
      },
      "geometry": {
        "type": "LineString",
        "coordinates": [
          [
            77.6224933,
            12.9966437
          ],
          [
            77.6220613,
            12.9966359
          ]
        ]
      }
    },
    {
      "type": "Feature",
      "properties": {
        "id": "train_030_BND_036",
        "parcel_id": "train_030_P_009",
        "boundary_type": "INFERRED",
        "confidence": 0.754,
        "length_m": 58.12,
        "evidence_sources": [
          "Road_Corridor_Offset",
          "Adjacent_Parcel_Topology"
        ]
      },
      "geometry": {
        "type": "LineString",
        "coordinates": [
          [
            77.6220613,
            12.9966359
          ],
          [
            77.6220758,
            12.9971607
          ]
        ]
      }
    },
    {
      "type": "Feature",
      "properties": {
        "id": "train_030_BND_037",
        "parcel_id": "train_030_P_010",
        "boundary_type": "VISIBLE",
        "confidence": 0.826,
        "length_m": 45.39,
        "evidence_sources": [
          "Drone_RGB_Edge",
          "DSM_Breakline"
        ]
      },
      "geometry": {
        "type": "LineString",
        "coordinates": [
          [
            77.6220584,
            12.9966063
          ],
          [
            77.6224764,
            12.9966158
          ]
        ]
      }
    },
    {
      "type": "Feature",
      "properties": {
        "id": "train_030_BND_038",
        "parcel_id": "train_030_P_010",
        "boundary_type": "VISIBLE",
        "confidence": 0.925,
        "length_m": 58.2,
        "evidence_sources": [
          "Drone_RGB_Edge",
          "DSM_Breakline"
        ]
      },
      "geometry": {
        "type": "LineString",
        "coordinates": [
          [
            77.6224764,
            12.9966158
          ],
          [
            77.6224953,
            12.9960904
          ]
        ]
      }
    },
    {
      "type": "Feature",
      "properties": {
        "id": "train_030_BND_039",
        "parcel_id": "train_030_P_010",
        "boundary_type": "INFERRED",
        "confidence": 0.757,
        "length_m": 47.51,
        "evidence_sources": [
          "Road_Corridor_Offset",
          "Adjacent_Parcel_Topology"
        ]
      },
      "geometry": {
        "type": "LineString",
        "coordinates": [
          [
            77.6224953,
            12.9960904
          ],
          [
            77.6220576,
            12.9960915
          ]
        ]
      }
    },
    {
      "type": "Feature",
      "properties": {
        "id": "train_030_BND_040",
        "parcel_id": "train_030_P_010",
        "boundary_type": "VISIBLE",
        "confidence": 0.839,
        "length_m": 56.99,
        "evidence_sources": [
          "Drone_RGB_Edge",
          "DSM_Breakline"
        ]
      },
      "geometry": {
        "type": "LineString",
        "coordinates": [
          [
            77.6220576,
            12.9960915
          ],
          [
            77.6220584,
            12.9966063
          ]
        ]
      }
    },
    {
      "type": "Feature",
      "properties": {
        "id": "train_030_BND_041",
        "parcel_id": "train_030_P_011",
        "boundary_type": "INFERRED",
        "confidence": 0.635,
        "length_m": 47.08,
        "evidence_sources": [
          "Road_Corridor_Offset",
          "Adjacent_Parcel_Topology"
        ]
      },
      "geometry": {
        "type": "LineString",
        "coordinates": [
          [
            77.6225017,
            12.9971598
          ],
          [
            77.622935,
            12.9971785
          ]
        ]
      }
    },
    {
      "type": "Feature",
      "properties": {
        "id": "train_030_BND_042",
        "parcel_id": "train_030_P_011",
        "boundary_type": "INFERRED",
        "confidence": 0.671,
        "length_m": 59.59,
        "evidence_sources": [
          "Road_Corridor_Offset",
          "Adjacent_Parcel_Topology"
        ]
      },
      "geometry": {
        "type": "LineString",
        "coordinates": [
          [
            77.622935,
            12.9971785
          ],
          [
            77.6229311,
            12.9966402
          ]
        ]
      }
    },
    {
      "type": "Feature",
      "properties": {
        "id": "train_030_BND_043",
        "parcel_id": "train_030_P_011",
        "boundary_type": "VISIBLE",
        "confidence": 0.891,
        "length_m": 46.45,
        "evidence_sources": [
          "Drone_RGB_Edge",
          "DSM_Breakline"
        ]
      },
      "geometry": {
        "type": "LineString",
        "coordinates": [
          [
            77.6229311,
            12.9966402
          ],
          [
            77.6225033,
            12.9966482
          ]
        ]
      }
    },
    {
      "type": "Feature",
      "properties": {
        "id": "train_030_BND_044",
        "parcel_id": "train_030_P_011",
        "boundary_type": "INFERRED",
        "confidence": 0.681,
        "length_m": 56.63,
        "evidence_sources": [
          "Road_Corridor_Offset",
          "Adjacent_Parcel_Topology"
        ]
      },
      "geometry": {
        "type": "LineString",
        "coordinates": [
          [
            77.6225033,
            12.9966482
          ],
          [
            77.6225017,
            12.9971598
          ]
        ]
      }
    },
    {
      "type": "Feature",
      "properties": {
        "id": "train_030_BND_045",
        "parcel_id": "train_030_P_012",
        "boundary_type": "VISIBLE",
        "confidence": 0.904,
        "length_m": 44.74,
        "evidence_sources": [
          "Drone_RGB_Edge",
          "DSM_Breakline"
        ]
      },
      "geometry": {
        "type": "LineString",
        "coordinates": [
          [
            77.6225075,
            12.9966237
          ],
          [
            77.6229195,
            12.9966138
          ]
        ]
      }
    },
    {
      "type": "Feature",
      "properties": {
        "id": "train_030_BND_046",
        "parcel_id": "train_030_P_012",
        "boundary_type": "INFERRED",
        "confidence": 0.744,
        "length_m": 58.86,
        "evidence_sources": [
          "Road_Corridor_Offset",
          "Adjacent_Parcel_Topology"
        ]
      },
      "geometry": {
        "type": "LineString",
        "coordinates": [
          [
            77.6229195,
            12.9966138
          ],
          [
            77.6229224,
            12.9960821
          ]
        ]
      }
    },
    {
      "type": "Feature",
      "properties": {
        "id": "train_030_BND_047",
        "parcel_id": "train_030_P_012",
        "boundary_type": "VISIBLE",
        "confidence": 0.888,
        "length_m": 44.61,
        "evidence_sources": [
          "Drone_RGB_Edge",
          "DSM_Breakline"
        ]
      },
      "geometry": {
        "type": "LineString",
        "coordinates": [
          [
            77.6229224,
            12.9960821
          ],
          [
            77.6225114,
            12.9960823
          ]
        ]
      }
    },
    {
      "type": "Feature",
      "properties": {
        "id": "train_030_BND_048",
        "parcel_id": "train_030_P_012",
        "boundary_type": "VISIBLE",
        "confidence": 0.858,
        "length_m": 59.93,
        "evidence_sources": [
          "Drone_RGB_Edge",
          "DSM_Breakline"
        ]
      },
      "geometry": {
        "type": "LineString",
        "coordinates": [
          [
            77.6225114,
            12.9960823
          ],
          [
            77.6225075,
            12.9966237
          ]
        ]
      }
    },
    {
      "type": "Feature",
      "properties": {
        "id": "train_030_BND_049",
        "parcel_id": "train_030_P_013",
        "boundary_type": "INFERRED",
        "confidence": 0.68,
        "length_m": 65.48,
        "evidence_sources": [
          "Road_Corridor_Offset",
          "Adjacent_Parcel_Topology"
        ]
      },
      "geometry": {
        "type": "LineString",
        "coordinates": [
          [
            77.6230913,
            12.997177
          ],
          [
            77.6236945,
            12.997181
          ]
        ]
      }
    },
    {
      "type": "Feature",
      "properties": {
        "id": "train_030_BND_050",
        "parcel_id": "train_030_P_013",
        "boundary_type": "INFERRED",
        "confidence": 0.656,
        "length_m": 61.16,
        "evidence_sources": [
          "Road_Corridor_Offset",
          "Adjacent_Parcel_Topology"
        ]
      },
      "geometry": {
        "type": "LineString",
        "coordinates": [
          [
            77.6236945,
            12.997181
          ],
          [
            77.6237051,
            12.9966286
          ]
        ]
      }
    },
    {
      "type": "Feature",
      "properties": {
        "id": "train_030_BND_051",
        "parcel_id": "train_030_P_013",
        "boundary_type": "VISIBLE",
        "confidence": 0.902,
        "length_m": 66.41,
        "evidence_sources": [
          "Drone_RGB_Edge",
          "DSM_Breakline"
        ]
      },
      "geometry": {
        "type": "LineString",
        "coordinates": [
          [
            77.6237051,
            12.9966286
          ],
          [
            77.6230934,
            12.9966376
          ]
        ]
      }
    },
    {
      "type": "Feature",
      "properties": {
        "id": "train_030_BND_052",
        "parcel_id": "train_030_P_013",
        "boundary_type": "VISIBLE",
        "confidence": 0.919,
        "length_m": 59.71,
        "evidence_sources": [
          "Drone_RGB_Edge",
          "DSM_Breakline"
        ]
      },
      "geometry": {
        "type": "LineString",
        "coordinates": [
          [
            77.6230934,
            12.9966376
          ],
          [
            77.6230913,
            12.997177
          ]
        ]
      }
    },
    {
      "type": "Feature",
      "properties": {
        "id": "train_030_BND_053",
        "parcel_id": "train_030_P_014",
        "boundary_type": "VISIBLE",
        "confidence": 0.949,
        "length_m": 65.31,
        "evidence_sources": [
          "Drone_RGB_Edge",
          "DSM_Breakline"
        ]
      },
      "geometry": {
        "type": "LineString",
        "coordinates": [
          [
            77.6231034,
            12.9966178
          ],
          [
            77.6237049,
            12.996606
          ]
        ]
      }
    },
    {
      "type": "Feature",
      "properties": {
        "id": "train_030_BND_054",
        "parcel_id": "train_030_P_014",
        "boundary_type": "VISIBLE",
        "confidence": 0.877,
        "length_m": 57.06,
        "evidence_sources": [
          "Drone_RGB_Edge",
          "DSM_Breakline"
        ]
      },
      "geometry": {
        "type": "LineString",
        "coordinates": [
          [
            77.6237049,
            12.996606
          ],
          [
            77.6236997,
            12.9960906
          ]
        ]
      }
    },
    {
      "type": "Feature",
      "properties": {
        "id": "train_030_BND_055",
        "parcel_id": "train_030_P_014",
        "boundary_type": "VISIBLE",
        "confidence": 0.925,
        "length_m": 64.83,
        "evidence_sources": [
          "Drone_RGB_Edge",
          "DSM_Breakline"
        ]
      },
      "geometry": {
        "type": "LineString",
        "coordinates": [
          [
            77.6236997,
            12.9960906
          ],
          [
            77.6231025,
            12.9960901
          ]
        ]
      }
    },
    {
      "type": "Feature",
      "properties": {
        "id": "train_030_BND_056",
        "parcel_id": "train_030_P_014",
        "boundary_type": "VISIBLE",
        "confidence": 0.911,
        "length_m": 58.41,
        "evidence_sources": [
          "Drone_RGB_Edge",
          "DSM_Breakline"
        ]
      },
      "geometry": {
        "type": "LineString",
        "coordinates": [
          [
            77.6231025,
            12.9960901
          ],
          [
            77.6231034,
            12.9966178
          ]
        ]
      }
    },
    {
      "type": "Feature",
      "properties": {
        "id": "train_030_BND_057",
        "parcel_id": "train_030_P_015",
        "boundary_type": "VISIBLE",
        "confidence": 0.825,
        "length_m": 64.05,
        "evidence_sources": [
          "Drone_RGB_Edge",
          "DSM_Breakline"
        ]
      },
      "geometry": {
        "type": "LineString",
        "coordinates": [
          [
            77.6237271,
            12.9971812
          ],
          [
            77.6243171,
            12.9971755
          ]
        ]
      }
    },
    {
      "type": "Feature",
      "properties": {
        "id": "train_030_BND_058",
        "parcel_id": "train_030_P_015",
        "boundary_type": "VISIBLE",
        "confidence": 0.923,
        "length_m": 60.36,
        "evidence_sources": [
          "Drone_RGB_Edge",
          "DSM_Breakline"
        ]
      },
      "geometry": {
        "type": "LineString",
        "coordinates": [
          [
            77.6243171,
            12.9971755
          ],
          [
            77.6243115,
            12.9966303
          ]
        ]
      }
    },
    {
      "type": "Feature",
      "properties": {
        "id": "train_030_BND_059",
        "parcel_id": "train_030_P_015",
        "boundary_type": "VISIBLE",
        "confidence": 0.954,
        "length_m": 64.3,
        "evidence_sources": [
          "Drone_RGB_Edge",
          "DSM_Breakline"
        ]
      },
      "geometry": {
        "type": "LineString",
        "coordinates": [
          [
            77.6243115,
            12.9966303
          ],
          [
            77.6237193,
            12.9966418
          ]
        ]
      }
    },
    {
      "type": "Feature",
      "properties": {
        "id": "train_030_BND_060",
        "parcel_id": "train_030_P_015",
        "boundary_type": "INFERRED",
        "confidence": 0.726,
        "length_m": 59.72,
        "evidence_sources": [
          "Road_Corridor_Offset",
          "Adjacent_Parcel_Topology"
        ]
      },
      "geometry": {
        "type": "LineString",
        "coordinates": [
          [
            77.6237193,
            12.9966418
          ],
          [
            77.6237271,
            12.9971812
          ]
        ]
      }
    },
    {
      "type": "Feature",
      "properties": {
        "id": "train_030_BND_061",
        "parcel_id": "train_030_P_016",
        "boundary_type": "VISIBLE",
        "confidence": 0.899,
        "length_m": 63.62,
        "evidence_sources": [
          "Drone_RGB_Edge",
          "DSM_Breakline"
        ]
      },
      "geometry": {
        "type": "LineString",
        "coordinates": [
          [
            77.6237205,
            12.9966097
          ],
          [
            77.6243066,
            12.9966138
          ]
        ]
      }
    },
    {
      "type": "Feature",
      "properties": {
        "id": "train_030_BND_062",
        "parcel_id": "train_030_P_016",
        "boundary_type": "VISIBLE",
        "confidence": 0.852,
        "length_m": 57.63,
        "evidence_sources": [
          "Drone_RGB_Edge",
          "DSM_Breakline"
        ]
      },
      "geometry": {
        "type": "LineString",
        "coordinates": [
          [
            77.6243066,
            12.9966138
          ],
          [
            77.6243239,
            12.9960935
          ]
        ]
      }
    },
    {
      "type": "Feature",
      "properties": {
        "id": "train_030_BND_063",
        "parcel_id": "train_030_P_016",
        "boundary_type": "VISIBLE",
        "confidence": 0.864,
        "length_m": 65.64,
        "evidence_sources": [
          "Drone_RGB_Edge",
          "DSM_Breakline"
        ]
      },
      "geometry": {
        "type": "LineString",
        "coordinates": [
          [
            77.6243239,
            12.9960935
          ],
          [
            77.6237193,
            12.996086
          ]
        ]
      }
    },
    {
      "type": "Feature",
      "properties": {
        "id": "train_030_BND_064",
        "parcel_id": "train_030_P_016",
        "boundary_type": "VISIBLE",
        "confidence": 0.823,
        "length_m": 57.97,
        "evidence_sources": [
          "Drone_RGB_Edge",
          "DSM_Breakline"
        ]
      },
      "geometry": {
        "type": "LineString",
        "coordinates": [
          [
            77.6237193,
            12.996086
          ],
          [
            77.6237205,
            12.9966097
          ]
        ]
      }
    }
  ]
}