{
  "type": "FeatureCollection",
  "crs": {
    "type": "name",
    "properties": {
      "name": "EPSG:4326"
    }
  },
  "features": [
    {
      "type": "Feature",
      "properties": {
        "id": "train_069_BND_001",
        "parcel_id": "train_069_P_001",
        "boundary_type": "VISIBLE",
        "confidence": 0.92,
        "length_m": 70.87,
        "evidence_sources": [
          "Drone_RGB_Edge",
          "DSM_Breakline"
        ]
      },
      "geometry": {
        "type": "LineString",
        "coordinates": [
          [
            77.6040598,
            13.0073382
          ],
          [
            77.6047127,
            13.0073305
          ]
        ]
      }
    },
    {
      "type": "Feature",
      "properties": {
        "id": "train_069_BND_002",
        "parcel_id": "train_069_P_001",
        "boundary_type": "INFERRED",
        "confidence": 0.704,
        "length_m": 55.6,
        "evidence_sources": [
          "Road_Corridor_Offset",
          "Adjacent_Parcel_Topology"
        ]
      },
      "geometry": {
        "type": "LineString",
        "coordinates": [
          [
            77.6047127,
            13.0073305
          ],
          [
            77.6047142,
            13.0068282
          ]
        ]
      }
    },
    {
      "type": "Feature",
      "properties": {
        "id": "train_069_BND_003",
        "parcel_id": "train_069_P_001",
        "boundary_type": "VISIBLE",
        "confidence": 0.954,
        "length_m": 70.57,
        "evidence_sources": [
          "Drone_RGB_Edge",
          "DSM_Breakline"
        ]
      },
      "geometry": {
        "type": "LineString",
        "coordinates": [
          [
            77.6047142,
            13.0068282
          ],
          [
            77.6040641,
            13.0068342
          ]
        ]
      }
    },
    {
      "type": "Feature",
      "properties": {
        "id": "train_069_BND_004",
        "parcel_id": "train_069_P_001",
        "boundary_type": "VISIBLE",
        "confidence": 0.924,
        "length_m": 55.79,
        "evidence_sources": [
          "Drone_RGB_Edge",
          "DSM_Breakline"
        ]
      },
      "geometry": {
        "type": "LineString",
        "coordinates": [
          [
            77.6040641,
            13.0068342
          ],
          [
            77.6040598,
            13.0073382
          ]
        ]
      }
    },
    {
      "type": "Feature",
      "properties": {
        "id": "train_069_BND_005",
        "parcel_id": "train_069_P_002",
        "boundary_type": "INFERRED",
        "confidence": 0.744,
        "length_m": 72.36,
        "evidence_sources": [
          "Road_Corridor_Offset",
          "Adjacent_Parcel_Topology"
        ]
      },
      "geometry": {
        "type": "LineString",
        "coordinates": [
          [
            77.6040637,
            13.0068085
          ],
          [
            77.6047302,
            13.0068203
          ]
        ]
      }
    },
    {
      "type": "Feature",
      "properties": {
        "id": "train_069_BND_006",
        "parcel_id": "train_069_P_002",
        "boundary_type": "VISIBLE",
        "confidence": 0.835,
        "length_m": 54.23,
        "evidence_sources": [
          "Drone_RGB_Edge",
          "DSM_Breakline"
        ]
      },
      "geometry": {
        "type": "LineString",
        "coordinates": [
          [
            77.6047302,
            13.0068203
          ],
          [
            77.6047264,
            13.0063304
          ]
        ]
      }
    },
    {
      "type": "Feature",
      "properties": {
        "id": "train_069_BND_007",
        "parcel_id": "train_069_P_002",
        "boundary_type": "INFERRED",
        "confidence": 0.704,
        "length_m": 71.16,
        "evidence_sources": [
          "Road_Corridor_Offset",
          "Adjacent_Parcel_Topology"
        ]
      },
      "geometry": {
        "type": "LineString",
        "coordinates": [
          [
            77.6047264,
            13.0063304
          ],
          [
            77.6040708,
            13.0063264
          ]
        ]
      }
    },
    {
      "type": "Feature",
      "properties": {
        "id": "train_069_BND_008",
        "parcel_id": "train_069_P_002",
        "boundary_type": "VISIBLE",
        "confidence": 0.95,
        "length_m": 53.37,
        "evidence_sources": [
          "Drone_RGB_Edge",
          "DSM_Breakline"
        ]
      },
      "geometry": {
        "type": "LineString",
        "coordinates": [
          [
            77.6040708,
            13.0063264
          ],
          [
            77.6040637,
            13.0068085
          ]
        ]
      }
    },
    {
      "type": "Feature",
      "properties": {
        "id": "train_069_BND_009",
        "parcel_id": "train_069_P_003",
        "boundary_type": "INFERRED",
        "confidence": 0.742,
        "length_m": 71.5,
        "evidence_sources": [
          "Road_Corridor_Offset",
          "Adjacent_Parcel_Topology"
        ]
      },
      "geometry": {
        "type": "LineString",
        "coordinates": [
          [
            77.6047456,
            13.0073333
          ],
          [
            77.6054043,
            13.0073284
          ]
        ]
      }
    },
    {
      "type": "Feature",
      "properties": {
        "id": "train_069_BND_010",
        "parcel_id": "train_069_P_003",
        "boundary_type": "VISIBLE",
        "confidence": 0.9,
        "length_m": 54.92,
        "evidence_sources": [
          "Drone_RGB_Edge",
          "DSM_Breakline"
        ]
      },
      "geometry": {
        "type": "LineString",
        "coordinates": [
          [
            77.6054043,
            13.0073284
          ],
          [
            77.6053967,
            13.0068323
          ]
        ]
      }
    },
    {
      "type": "Feature",
      "properties": {
        "id": "train_069_BND_011",
        "parcel_id": "train_069_P_003",
        "boundary_type": "INFERRED",
        "confidence": 0.713,
        "length_m": 71.2,
        "evidence_sources": [
          "Road_Corridor_Offset",
          "Adjacent_Parcel_Topology"
        ]
      },
      "geometry": {
        "type": "LineString",
        "coordinates": [
          [
            77.6053967,
            13.0068323
          ],
          [
            77.6047408,
            13.0068297
          ]
        ]
      }
    },
    {
      "type": "Feature",
      "properties": {
        "id": "train_069_BND_012",
        "parcel_id": "train_069_P_003",
        "boundary_type": "INFERRED",
        "confidence": 0.7,
        "length_m": 55.75,
        "evidence_sources": [
          "Road_Corridor_Offset",
          "Adjacent_Parcel_Topology"
        ]
      },
      "geometry": {
        "type": "LineString",
        "coordinates": [
          [
            77.6047408,
            13.0068297
          ],
          [
            77.6047456,
            13.0073333
          ]
        ]
      }
    },
    {
      "type": "Feature",
      "properties": {
        "id": "train_069_BND_013",
        "parcel_id": "train_069_P_004",
        "boundary_type": "VISIBLE",
        "confidence": 0.846,
        "length_m": 70.09,
        "evidence_sources": [
          "Drone_RGB_Edge",
          "DSM_Breakline"
        ]
      },
      "geometry": {
        "type": "LineString",
        "coordinates": [
          [
            77.604747,
            13.0068058
          ],
          [
            77.6053927,
            13.0068119
          ]
        ]
      }
    },
    {
      "type": "Feature",
      "properties": {
        "id": "train_069_BND_014",
        "parcel_id": "train_069_P_004",
        "boundary_type": "VISIBLE",
        "confidence": 0.855,
        "length_m": 54.28,
        "evidence_sources": [
          "Drone_RGB_Edge",
          "DSM_Breakline"
        ]
      },
      "geometry": {
        "type": "LineString",
        "coordinates": [
          [
            77.6053927,
            13.0068119
          ],
          [
            77.6053867,
            13.0063216
          ]
        ]
      }
    },
    {
      "type": "Feature",
      "properties": {
        "id": "train_069_BND_015",
        "parcel_id": "train_069_P_004",
        "boundary_type": "VISIBLE",
        "confidence": 0.906,
        "length_m": 70.89,
        "evidence_sources": [
          "Drone_RGB_Edge",
          "DSM_Breakline"
        ]
      },
      "geometry": {
        "type": "LineString",
        "coordinates": [
          [
            77.6053867,
            13.0063216
          ],
          [
            77.6047336,
            13.0063219
          ]
        ]
      }
    },
    {
      "type": "Feature",
      "properties": {
        "id": "train_069_BND_016",
        "parcel_id": "train_069_P_004",
        "boundary_type": "VISIBLE",
        "confidence": 0.888,
        "length_m": 53.59,
        "evidence_sources": [
          "Drone_RGB_Edge",
          "DSM_Breakline"
        ]
      },
      "geometry": {
        "type": "LineString",
        "coordinates": [
          [
            77.6047336,
            13.0063219
          ],
          [
            77.604747,
            13.0068058
          ]
        ]
      }
    },
    {
      "type": "Feature",
      "properties": {
        "id": "train_069_BND_017",
        "parcel_id": "train_069_P_005",
        "boundary_type": "VISIBLE",
        "confidence": 0.889,
        "length_m": 36.78,
        "evidence_sources": [
          "Drone_RGB_Edge",
          "DSM_Breakline"
        ]
      },
      "geometry": {
        "type": "LineString",
        "coordinates": [
          [
            77.6056046,
            13.0073397
          ],
          [
            77.6059433,
            13.0073315
          ]
        ]
      }
    },
    {
      "type": "Feature",
      "properties": {
        "id": "train_069_BND_018",
        "parcel_id": "train_069_P_005",
        "boundary_type": "INFERRED",
        "confidence": 0.65,
        "length_m": 54.41,
        "evidence_sources": [
          "Road_Corridor_Offset",
          "Adjacent_Parcel_Topology"
        ]
      },
      "geometry": {
        "type": "LineString",
        "coordinates": [
          [
            77.6059433,
            13.0073315
          ],
          [
            77.6059442,
            13.00684
          ]
        ]
      }
    },
    {
      "type": "Feature",
      "properties": {
        "id": "train_069_BND_019",
        "parcel_id": "train_069_P_005",
        "boundary_type": "VISIBLE",
        "confidence": 0.876,
        "length_m": 37.18,
        "evidence_sources": [
          "Drone_RGB_Edge",
          "DSM_Breakline"
        ]
      },
      "geometry": {
        "type": "LineString",
        "coordinates": [
          [
            77.6059442,
            13.00684
          ],
          [
            77.6056017,
            13.0068442
          ]
        ]
      }
    },
    {
      "type": "Feature",
      "properties": {
        "id": "train_069_BND_020",
        "parcel_id": "train_069_P_005",
        "boundary_type": "VISIBLE",
        "confidence": 0.954,
        "length_m": 54.85,
        "evidence_sources": [
          "Drone_RGB_Edge",
          "DSM_Breakline"
        ]
      },
      "geometry": {
        "type": "LineString",
        "coordinates": [
          [
            77.6056017,
            13.0068442
          ],
          [
            77.6056046,
            13.0073397
          ]
        ]
      }
    },
    {
      "type": "Feature",
      "properties": {
        "id": "train_069_BND_021",
        "parcel_id": "train_069_P_006",
        "boundary_type": "VISIBLE",
        "confidence": 0.935,
        "length_m": 36.91,
        "evidence_sources": [
          "Drone_RGB_Edge",
          "DSM_Breakline"
        ]
      },
      "geometry": {
        "type": "LineString",
        "coordinates": [
          [
            77.6056113,
            13.0068082
          ],
          [
            77.6059513,
            13.0068057
          ]
        ]
      }
    },
    {
      "type": "Feature",
      "properties": {
        "id": "train_069_BND_022",
        "parcel_id": "train_069_P_006",
        "boundary_type": "INFERRED",
        "confidence": 0.756,
        "length_m": 53.19,
        "evidence_sources": [
          "Road_Corridor_Offset",
          "Adjacent_Parcel_Topology"
        ]
      },
      "geometry": {
        "type": "LineString",
        "coordinates": [
          [
            77.6059513,
            13.0068057
          ],
          [
            77.6059571,
            13.0063252
          ]
        ]
      }
    },
    {
      "type": "Feature",
      "properties": {
        "id": "train_069_BND_023",
        "parcel_id": "train_069_P_006",
        "boundary_type": "VISIBLE",
        "confidence": 0.912,
        "length_m": 38.97,
        "evidence_sources": [
          "Drone_RGB_Edge",
          "DSM_Breakline"
        ]
      },
      "geometry": {
        "type": "LineString",
        "coordinates": [
          [
            77.6059571,
            13.0063252
          ],
          [
            77.6055981,
            13.0063258
          ]
        ]
      }
    },
    {
      "type": "Feature",
      "properties": {
        "id": "train_069_BND_024",
        "parcel_id": "train_069_P_006",
        "boundary_type": "VISIBLE",
        "confidence": 0.839,
        "length_m": 53.42,
        "evidence_sources": [
          "Drone_RGB_Edge",
          "DSM_Breakline"
        ]
      },
      "geometry": {
        "type": "LineString",
        "coordinates": [
          [
            77.6055981,
            13.0063258
          ],
          [
            77.6056113,
            13.0068082
          ]
        ]
      }
    },
    {
      "type": "Feature",
      "properties": {
        "id": "train_069_BND_025",
        "parcel_id": "train_069_P_007",
        "boundary_type": "VISIBLE",
        "confidence": 0.94,
        "length_m": 36.24,
        "evidence_sources": [
          "Drone_RGB_Edge",
          "DSM_Breakline"
        ]
      },
      "geometry": {
        "type": "LineString",
        "coordinates": [
          [
            77.6059773,
            13.007323
          ],
          [
            77.606311,
            13.0073326
          ]
        ]
      }
    },
    {
      "type": "Feature",
      "properties": {
        "id": "train_069_BND_026",
        "parcel_id": "train_069_P_007",
        "boundary_type": "VISIBLE",
        "confidence": 0.927,
        "length_m": 54.75,
        "evidence_sources": [
          "Drone_RGB_Edge",
          "DSM_Breakline"
        ]
      },
      "geometry": {
        "type": "LineString",
        "coordinates": [
          [
            77.606311,
            13.0073326
          ],
          [
            77.606322,
            13.0068381
          ]
        ]
      }
    },
    {
      "type": "Feature",
      "properties": {
        "id": "train_069_BND_027",
        "parcel_id": "train_069_P_007",
        "boundary_type": "VISIBLE",
        "confidence": 0.947,
        "length_m": 39.02,
        "evidence_sources": [
          "Drone_RGB_Edge",
          "DSM_Breakline"
        ]
      },
      "geometry": {
        "type": "LineString",
        "coordinates": [
          [
            77.606322,
            13.0068381
          ],
          [
            77.6059625,
            13.0068409
          ]
        ]
      }
    },
    {
      "type": "Feature",
      "properties": {
        "id": "train_069_BND_028",
        "parcel_id": "train_069_P_007",
        "boundary_type": "INFERRED",
        "confidence": 0.741,
        "length_m": 53.39,
        "evidence_sources": [
          "Road_Corridor_Offset",
          "Adjacent_Parcel_Topology"
        ]
      },
      "geometry": {
        "type": "LineString",
        "coordinates": [
          [
            77.6059625,
            13.0068409
          ],
          [
            77.6059773,
            13.007323
          ]
        ]
      }
    },
    {
      "type": "Feature",
      "properties": {
        "id": "train_069_BND_029",
        "parcel_id": "train_069_P_008",
        "boundary_type": "VISIBLE",
        "confidence": 0.885,
        "length_m": 37.82,
        "evidence_sources": [
          "Drone_RGB_Edge",
          "DSM_Breakline"
        ]
      },
      "geometry": {
        "type": "LineString",
        "coordinates": [
          [
            77.605966,
            13.0068107
          ],
          [
            77.6063144,
            13.0068167
          ]
        ]
      }
    },
    {
      "type": "Feature",
      "properties": {
        "id": "train_069_BND_030",
        "parcel_id": "train_069_P_008",
        "boundary_type": "INFERRED",
        "confidence": 0.783,
        "length_m": 53.8,
        "evidence_sources": [
          "Road_Corridor_Offset",
          "Adjacent_Parcel_Topology"
        ]
      },
      "geometry": {
        "type": "LineString",
        "coordinates": [
          [
            77.6063144,
            13.0068167
          ],
          [
            77.6063036,
            13.0063308
          ]
        ]
      }
    },
    {
      "type": "Feature",
      "properties": {
        "id": "train_069_BND_031",
        "parcel_id": "train_069_P_008",
        "boundary_type": "INFERRED",
        "confidence": 0.714,
        "length_m": 36.41,
        "evidence_sources": [
          "Road_Corridor_Offset",
          "Adjacent_Parcel_Topology"
        ]
      },
      "geometry": {
        "type": "LineString",
        "coordinates": [
          [
            77.6063036,
            13.0063308
          ],
          [
            77.6059683,
            13.0063232
          ]
        ]
      }
    },
    {
      "type": "Feature",
      "properties": {
        "id": "train_069_BND_032",
        "parcel_id": "train_069_P_008",
        "boundary_type": "INFERRED",
        "confidence": 0.612,
        "length_m": 53.96,
        "evidence_sources": [
          "Road_Corridor_Offset",
          "Adjacent_Parcel_Topology"
        ]
      },
      "geometry": {
        "type": "LineString",
        "coordinates": [
          [
            77.6059683,
            13.0063232
          ],
          [
            77.605966,
            13.0068107
          ]
        ]
      }
    },
    {
      "type": "Feature",
      "properties": {
        "id": "train_069_BND_033",
        "parcel_id": "train_069_P_009",
        "boundary_type": "VISIBLE",
        "confidence": 0.843,
        "length_m": 71.02,
        "evidence_sources": [
          "Drone_RGB_Edge",
          "DSM_Breakline"
        ]
      },
      "geometry": {
        "type": "LineString",
        "coordinates": [
          [
            77.6040739,
            13.0060713
          ],
          [
            77.604728,
            13.0060852
          ]
        ]
      }
    },
    {
      "type": "Feature",
      "properties": {
        "id": "train_069_BND_034",
        "parcel_id": "train_069_P_009",
        "boundary_type": "INFERRED",
        "confidence": 0.628,
        "length_m": 54.49,
        "evidence_sources": [
          "Road_Corridor_Offset",
          "Adjacent_Parcel_Topology"
        ]
      },
      "geometry": {
        "type": "LineString",
        "coordinates": [
          [
            77.604728,
            13.0060852
          ],
          [
            77.6047101,
            13.0055933
          ]
        ]
      }
    },
    {
      "type": "Feature",
      "properties": {
        "id": "train_069_BND_035",
        "parcel_id": "train_069_P_009",
        "boundary_type": "INFERRED",
        "confidence": 0.67,
        "length_m": 68.81,
        "evidence_sources": [
          "Road_Corridor_Offset",
          "Adjacent_Parcel_Topology"
        ]
      },
      "geometry": {
        "type": "LineString",
        "coordinates": [
          [
            77.6047101,
            13.0055933
          ],
          [
            77.6040762,
            13.0056003
          ]
        ]
      }
    },
    {
      "type": "Feature",
      "properties": {
        "id": "train_069_BND_036",
        "parcel_id": "train_069_P_009",
        "boundary_type": "VISIBLE",
        "confidence": 0.927,
        "length_m": 52.14,
        "evidence_sources": [
          "Drone_RGB_Edge",
          "DSM_Breakline"
        ]
      },
      "geometry": {
        "type": "LineString",
        "coordinates": [
          [
            77.6040762,
            13.0056003
          ],
          [
            77.6040739,
            13.0060713
          ]
        ]
      }
    },
    {
      "type": "Feature",
      "properties": {
        "id": "train_069_BND_037",
        "parcel_id": "train_069_P_010",
        "boundary_type": "INFERRED",
        "confidence": 0.669,
        "length_m": 69.72,
        "evidence_sources": [
          "Road_Corridor_Offset",
          "Adjacent_Parcel_Topology"
        ]
      },
      "geometry": {
        "type": "LineString",
        "coordinates": [
          [
            77.6040685,
            13.0055811
          ],
          [
            77.6047108,
            13.0055762
          ]
        ]
      }
    },
    {
      "type": "Feature",
      "properties": {
        "id": "train_069_BND_038",
        "parcel_id": "train_069_P_010",
        "boundary_type": "VISIBLE",
        "confidence": 0.889,
        "length_m": 53.41,
        "evidence_sources": [
          "Drone_RGB_Edge",
          "DSM_Breakline"
        ]
      },
      "geometry": {
        "type": "LineString",
        "coordinates": [
          [
            77.6047108,
            13.0055762
          ],
          [
            77.6047234,
            13.0050939
          ]
        ]
      }
    },
    {
      "type": "Feature",
      "properties": {
        "id": "train_069_BND_039",
        "parcel_id": "train_069_P_010",
        "boundary_type": "VISIBLE",
        "confidence": 0.824,
        "length_m": 71.04,
        "evidence_sources": [
          "Drone_RGB_Edge",
          "DSM_Breakline"
        ]
      },
      "geometry": {
        "type": "LineString",
        "coordinates": [
          [
            77.6047234,
            13.0050939
          ],
          [
            77.6040689,
            13.0050969
          ]
        ]
      }
    },
    {
      "type": "Feature",
      "properties": {
        "id": "train_069_BND_040",
        "parcel_id": "train_069_P_010",
        "boundary_type": "VISIBLE",
        "confidence": 0.828,
        "length_m": 53.6,
        "evidence_sources": [
          "Drone_RGB_Edge",
          "DSM_Breakline"
        ]
      },
      "geometry": {
        "type": "LineString",
        "coordinates": [
          [
            77.6040689,
            13.0050969
          ],
          [
            77.6040685,
            13.0055811
          ]
        ]
      }
    },
    {
      "type": "Feature",
      "properties": {
        "id": "train_069_BND_041",
        "parcel_id": "train_069_P_011",
        "boundary_type": "INFERRED",
        "confidence": 0.726,
        "length_m": 70.71,
        "evidence_sources": [
          "Road_Corridor_Offset",
          "Adjacent_Parcel_Topology"
        ]
      },
      "geometry": {
        "type": "LineString",
        "coordinates": [
          [
            77.6047475,
            13.0060655
          ],
          [
            77.6053987,
            13.0060821
          ]
        ]
      }
    },
    {
      "type": "Feature",
      "properties": {
        "id": "train_069_BND_042",
        "parcel_id": "train_069_P_011",
        "boundary_type": "INFERRED",
        "confidence": 0.689,
        "length_m": 53.61,
        "evidence_sources": [
          "Road_Corridor_Offset",
          "Adjacent_Parcel_Topology"
        ]
      },
      "geometry": {
        "type": "LineString",
        "coordinates": [
          [
            77.6053987,
            13.0060821
          ],
          [
            77.605393,
            13.0055978
          ]
        ]
      }
    },
    {
      "type": "Feature",
      "properties": {
        "id": "train_069_BND_043",
        "parcel_id": "train_069_P_011",
        "boundary_type": "VISIBLE",
        "confidence": 0.897,
        "length_m": 70.99,
        "evidence_sources": [
          "Drone_RGB_Edge",
          "DSM_Breakline"
        ]
      },
      "geometry": {
        "type": "LineString",
        "coordinates": [
          [
            77.605393,
            13.0055978
          ],
          [
            77.604739,
            13.0055901
          ]
        ]
      }
    },
    {
      "type": "Feature",
      "properties": {
        "id": "train_069_BND_044",
        "parcel_id": "train_069_P_011",
        "boundary_type": "INFERRED",
        "confidence": 0.647,
        "length_m": 52.63,
        "evidence_sources": [
          "Road_Corridor_Offset",
          "Adjacent_Parcel_Topology"
        ]
      },
      "geometry": {
        "type": "LineString",
        "coordinates": [
          [
            77.604739,
            13.0055901
          ],
          [
            77.6047475,
            13.0060655
          ]
        ]
      }
    },
    {
      "type": "Feature",
      "properties": {
        "id": "train_069_BND_045",
        "parcel_id": "train_069_P_012",
        "boundary_type": "VISIBLE",
        "confidence": 0.912,
        "length_m": 71.46,
        "evidence_sources": [
          "Drone_RGB_Edge",
          "DSM_Breakline"
        ]
      },
      "geometry": {
        "type": "LineString",
        "coordinates": [
          [
            77.6047415,
            13.0055732
          ],
          [
            77.6053998,
            13.0055727
          ]
        ]
      }
    },
    {
      "type": "Feature",
      "properties": {
        "id": "train_069_BND_046",
        "parcel_id": "train_069_P_012",
        "boundary_type": "VISIBLE",
        "confidence": 0.842,
        "length_m": 54.4,
        "evidence_sources": [
          "Drone_RGB_Edge",
          "DSM_Breakline"
        ]
      },
      "geometry": {
        "type": "LineString",
        "coordinates": [
          [
            77.6053998,
            13.0055727
          ],
          [
            77.6053879,
            13.0050814
          ]
        ]
      }
    },
    {
      "type": "Feature",
      "properties": {
        "id": "train_069_BND_047",
        "parcel_id": "train_069_P_012",
        "boundary_type": "VISIBLE",
        "confidence": 0.946,
        "length_m": 69.36,
        "evidence_sources": [
          "Drone_RGB_Edge",
          "DSM_Breakline"
        ]
      },
      "geometry": {
        "type": "LineString",
        "coordinates": [
          [
            77.6053879,
            13.0050814
          ],
          [
            77.604749,
            13.0050916
          ]
        ]
      }
    },
    {
      "type": "Feature",
      "properties": {
        "id": "train_069_BND_048",
        "parcel_id": "train_069_P_012",
        "boundary_type": "VISIBLE",
        "confidence": 0.923,
        "length_m": 53.32,
        "evidence_sources": [
          "Drone_RGB_Edge",
          "DSM_Breakline"
        ]
      },
      "geometry": {
        "type": "LineString",
        "coordinates": [
          [
            77.604749,
            13.0050916
          ],
          [
            77.6047415,
            13.0055732
          ]
        ]
      }
    },
    {
      "type": "Feature",
      "properties": {
        "id": "train_069_BND_049",
        "parcel_id": "train_069_P_013",
        "boundary_type": "INFERRED",
        "confidence": 0.773,
        "length_m": 36.94,
        "evidence_sources": [
          "Road_Corridor_Offset",
          "Adjacent_Parcel_Topology"
        ]
      },
      "geometry": {
        "type": "LineString",
        "coordinates": [
          [
            77.6055988,
            13.006077
          ],
          [
            77.605939,
            13.0060866
          ]
        ]
      }
    },
    {
      "type": "Feature",
      "properties": {
        "id": "train_069_BND_050",
        "parcel_id": "train_069_P_013",
        "boundary_type": "VISIBLE",
        "confidence": 0.862,
        "length_m": 55.27,
        "evidence_sources": [
          "Drone_RGB_Edge",
          "DSM_Breakline"
        ]
      },
      "geometry": {
        "type": "LineString",
        "coordinates": [
          [
            77.605939,
            13.0060866
          ],
          [
            77.6059571,
            13.0055876
          ]
        ]
      }
    },
    {
      "type": "Feature",
      "properties": {
        "id": "train_069_BND_051",
        "parcel_id": "train_069_P_013",
        "boundary_type": "VISIBLE",
        "confidence": 0.901,
        "length_m": 37.18,
        "evidence_sources": [
          "Drone_RGB_Edge",
          "DSM_Breakline"
        ]
      },
      "geometry": {
        "type": "LineString",
        "coordinates": [
          [
            77.6059571,
            13.0055876
          ],
          [
            77.6056146,
            13.0055836
          ]
        ]
      }
    },
    {
      "type": "Feature",
      "properties": {
        "id": "train_069_BND_052",
        "parcel_id": "train_069_P_013",
        "boundary_type": "INFERRED",
        "confidence": 0.77,
        "length_m": 54.64,
        "evidence_sources": [
          "Road_Corridor_Offset",
          "Adjacent_Parcel_Topology"
        ]
      },
      "geometry": {
        "type": "LineString",
        "coordinates": [
          [
            77.6056146,
            13.0055836
          ],
          [
            77.6055988,
            13.006077
          ]
        ]
      }
    },
    {
      "type": "Feature",
      "properties": {
        "id": "train_069_BND_053",
        "parcel_id": "train_069_P_014",
        "boundary_type": "VISIBLE",
        "confidence": 0.869,
        "length_m": 35.64,
        "evidence_sources": [
          "Drone_RGB_Edge",
          "DSM_Breakline"
        ]
      },
      "geometry": {
        "type": "LineString",
        "coordinates": [
          [
            77.6056155,
            13.0055775
          ],
          [
            77.6059437,
            13.0055672
          ]
        ]
      }
    },
    {
      "type": "Feature",
      "properties": {
        "id": "train_069_BND_054",
        "parcel_id": "train_069_P_014",
        "boundary_type": "INFERRED",
        "confidence": 0.662,
        "length_m": 53.46,
        "evidence_sources": [
          "Road_Corridor_Offset",
          "Adjacent_Parcel_Topology"
        ]
      },
      "geometry": {
        "type": "LineString",
        "coordinates": [
          [
            77.6059437,
            13.0055672
          ],
          [
            77.6059374,
            13.0050843
          ]
        ]
      }
    },
    {
      "type": "Feature",
      "properties": {
        "id": "train_069_BND_055",
        "parcel_id": "train_069_P_014",
        "boundary_type": "INFERRED",
        "confidence": 0.664,
        "length_m": 36.06,
        "evidence_sources": [
          "Road_Corridor_Offset",
          "Adjacent_Parcel_Topology"
        ]
      },
      "geometry": {
        "type": "LineString",
        "coordinates": [
          [
            77.6059374,
            13.0050843
          ],
          [
            77.6056052,
            13.005088
          ]
        ]
      }
    },
    {
      "type": "Feature",
      "properties": {
        "id": "train_069_BND_056",
        "parcel_id": "train_069_P_014",
        "boundary_type": "VISIBLE",
        "confidence": 0.828,
        "length_m": 54.2,
        "evidence_sources": [
          "Drone_RGB_Edge",
          "DSM_Breakline"
        ]
      },
      "geometry": {
        "type": "LineString",
        "coordinates": [
          [
            77.6056052,
            13.005088
          ],
          [
            77.6056155,
            13.0055775
          ]
        ]
      }
    },
    {
      "type": "Feature",
      "properties": {
        "id": "train_069_BND_057",
        "parcel_id": "train_069_P_015",
        "boundary_type": "VISIBLE",
        "confidence": 0.88,
        "length_m": 36.62,
        "evidence_sources": [
          "Drone_RGB_Edge",
          "DSM_Breakline"
        ]
      },
      "geometry": {
        "type": "LineString",
        "coordinates": [
          [
            77.6059715,
            13.006081
          ],
          [
            77.6063089,
            13.0060791
          ]
        ]
      }
    },
    {
      "type": "Feature",
      "properties": {
        "id": "train_069_BND_058",
        "parcel_id": "train_069_P_015",
        "boundary_type": "VISIBLE",
        "confidence": 0.861,
        "length_m": 54.81,
        "evidence_sources": [
          "Drone_RGB_Edge",
          "DSM_Breakline"
        ]
      },
      "geometry": {
        "type": "LineString",
        "coordinates": [
          [
            77.6063089,
            13.0060791
          ],
          [
            77.6063131,
            13.005584
          ]
        ]
      }
    },
    {
      "type": "Feature",
      "properties": {
        "id": "train_069_BND_059",
        "parcel_id": "train_069_P_015",
        "boundary_type": "VISIBLE",
        "confidence": 0.883,
        "length_m": 36.36,
        "evidence_sources": [
          "Drone_RGB_Edge",
          "DSM_Breakline"
        ]
      },
      "geometry": {
        "type": "LineString",
        "coordinates": [
          [
            77.6063131,
            13.005584
          ],
          [
            77.6059786,
            13.0056013
          ]
        ]
      }
    },
    {
      "type": "Feature",
      "properties": {
        "id": "train_069_BND_060",
        "parcel_id": "train_069_P_015",
        "boundary_type": "VISIBLE",
        "confidence": 0.863,
        "length_m": 53.11,
        "evidence_sources": [
          "Drone_RGB_Edge",
          "DSM_Breakline"
        ]
      },
      "geometry": {
        "type": "LineString",
        "coordinates": [
          [
            77.6059786,
            13.0056013
          ],
          [
            77.6059715,
            13.006081
          ]
        ]
      }
    },
    {
      "type": "Feature",
      "properties": {
        "id": "train_069_BND_061",
        "parcel_id": "train_069_P_016",
        "boundary_type": "VISIBLE",
        "confidence": 0.894,
        "length_m": 35.98,
        "evidence_sources": [
          "Drone_RGB_Edge",
          "DSM_Breakline"
        ]
      },
      "geometry": {
        "type": "LineString",
        "coordinates": [
          [
            77.6059772,
            13.005567
          ],
          [
            77.6063087,
            13.0055661
          ]
        ]
      }
    },
    {
      "type": "Feature",
      "properties": {
        "id": "train_069_BND_062",
        "parcel_id": "train_069_P_016",
        "boundary_type": "INFERRED",
        "confidence": 0.648,
        "length_m": 52.83,
        "evidence_sources": [
          "Road_Corridor_Offset",
          "Adjacent_Parcel_Topology"
        ]
      },
      "geometry": {
        "type": "LineString",
        "coordinates": [
          [
            77.6063087,
            13.0055661
          ],
          [
            77.6063244,
            13.0050891
          ]
        ]
      }
    },
    {
      "type": "Feature",
      "properties": {
        "id": "train_069_BND_063",
        "parcel_id": "train_069_P_016",
        "boundary_type": "INFERRED",
        "confidence": 0.686,
        "length_m": 38.5,
        "evidence_sources": [
          "Road_Corridor_Offset",
          "Adjacent_Parcel_Topology"
        ]
      },
      "geometry": {
        "type": "LineString",
        "coordinates": [
          [
            77.6063244,
            13.0050891
          ],
          [
            77.6059698,
            13.0050956
          ]
        ]
      }
    },
    {
      "type": "Feature",
      "properties": {
        "id": "train_069_BND_064",
        "parcel_id": "train_069_P_016",
        "boundary_type": "VISIBLE",
        "confidence": 0.955,
        "length_m": 52.19,
        "evidence_sources": [
          "Drone_RGB_Edge",
          "DSM_Breakline"
        ]
      },
      "geometry": {
        "type": "LineString",
        "coordinates": [
          [
            77.6059698,
            13.0050956
          ],
          [
            77.6059772,
            13.005567
          ]
        ]
      }
    }
  ]
}