{
  "type": "FeatureCollection",
  "crs": {
    "type": "name",
    "properties": {
      "name": "EPSG:4326"
    }
  },
  "features": [
    {
      "type": "Feature",
      "properties": {
        "id": "train_069_REF_001",
        "parcel_id": "train_069_P_001",
        "parcel_layer": "REFERENCE",
        "boundary_representation": "REFERENCE",
        "land_use_class": "vacant",
        "area_sqm": 3938.47,
        "perimeter_m": 252.84,
        "source": "Synthetic Legacy Cadastral Map (Non-Authoritative Demo)"
      },
      "geometry": {
        "type": "Polygon",
        "coordinates": [
          [
            [
              77.6040654,
              13.007341
            ],
            [
              77.6047183,
              13.0073333
            ],
            [
              77.6047198,
              13.006831
            ],
            [
              77.6040697,
              13.006837
            ],
            [
              77.6040654,
              13.007341
            ]
          ]
        ]
      }
    },
    {
      "type": "Feature",
      "properties": {
        "id": "train_069_REF_002",
        "parcel_id": "train_069_P_002",
        "parcel_layer": "REFERENCE",
        "boundary_representation": "REFERENCE",
        "land_use_class": "industrial",
        "area_sqm": 3860.67,
        "perimeter_m": 251.14,
        "source": "Synthetic Legacy Cadastral Map (Non-Authoritative Demo)"
      },
      "geometry": {
        "type": "Polygon",
        "coordinates": [
          [
            [
              77.6040693,
              13.0068113
            ],
            [
              77.6047359,
              13.0068231
            ],
            [
              77.604732,
              13.0063332
            ],
            [
              77.6040764,
              13.0063292
            ],
            [
              77.6040693,
              13.0068113
            ]
          ]
        ]
      }
    },
    {
      "type": "Feature",
      "properties": {
        "id": "train_069_REF_003",
        "parcel_id": "train_069_P_003",
        "parcel_layer": "REFERENCE",
        "boundary_representation": "REFERENCE",
        "land_use_class": "industrial",
        "area_sqm": 3947.4,
        "perimeter_m": 253.36,
        "source": "Synthetic Legacy Cadastral Map (Non-Authoritative Demo)"
      },
      "geometry": {
        "type": "Polygon",
        "coordinates": [
          [
            [
              77.6047512,
              13.0073361
            ],
            [
              77.6054099,
              13.0073312
            ],
            [
              77.6054023,
              13.0068352
            ],
            [
              77.6047464,
              13.0068325
            ],
            [
              77.6047512,
              13.0073361
            ]
          ]
        ]
      }
    },
    {
      "type": "Feature",
      "properties": {
        "id": "train_069_REF_004",
        "parcel_id": "train_069_P_004",
        "parcel_layer": "REFERENCE",
        "boundary_representation": "REFERENCE",
        "land_use_class": "residential",
        "area_sqm": 3800.06,
        "perimeter_m": 248.83,
        "source": "Synthetic Legacy Cadastral Map (Non-Authoritative Demo)"
      },
      "geometry": {
        "type": "Polygon",
        "coordinates": [
          [
            [
              77.6047883,
              13.0068264
            ],
            [
              77.605434,
              13.0068325
            ],
            [
              77.605428,
              13.0063422
            ],
            [
              77.6047749,
              13.0063426
            ],
            [
              77.6047883,
              13.0068264
            ]
          ]
        ]
      }
    },
    {
      "type": "Feature",
      "properties": {
        "id": "train_069_REF_005",
        "parcel_id": "train_069_P_005",
        "parcel_layer": "REFERENCE",
        "boundary_representation": "REFERENCE",
        "land_use_class": "residential",
        "area_sqm": 2020.21,
        "perimeter_m": 183.24,
        "source": "Synthetic Legacy Cadastral Map (Non-Authoritative Demo)"
      },
      "geometry": {
        "type": "Polygon",
        "coordinates": [
          [
            [
              77.6056102,
              13.0073426
            ],
            [
              77.6059489,
              13.0073343
            ],
            [
              77.6059499,
              13.0068428
            ],
            [
              77.6056073,
              13.006847
            ],
            [
              77.6056102,
              13.0073426
            ]
          ]
        ]
      }
    },
    {
      "type": "Feature",
      "properties": {
        "id": "train_069_REF_006",
        "parcel_id": "train_069_P_006",
        "parcel_layer": "REFERENCE",
        "boundary_representation": "REFERENCE",
        "land_use_class": "commercial",
        "area_sqm": 2021.89,
        "perimeter_m": 182.49,
        "source": "Synthetic Legacy Cadastral Map (Non-Authoritative Demo)"
      },
      "geometry": {
        "type": "Polygon",
        "coordinates": [
          [
            [
              77.6056169,
              13.006811
            ],
            [
              77.6059569,
              13.0068085
            ],
            [
              77.6059627,
              13.006328
            ],
            [
              77.6056037,
              13.0063286
            ],
            [
              77.6056169,
              13.006811
            ]
          ]
        ]
      }
    },
    {
      "type": "Feature",
      "properties": {
        "id": "train_069_REF_007",
        "parcel_id": "train_069_P_007",
        "parcel_layer": "REFERENCE",
        "boundary_representation": "REFERENCE",
        "land_use_class": "commercial",
        "area_sqm": 2033.48,
        "perimeter_m": 183.4,
        "source": "Synthetic Legacy Cadastral Map (Non-Authoritative Demo)"
      },
      "geometry": {
        "type": "Polygon",
        "coordinates": [
          [
            [
              77.605983,
              13.0073258
            ],
            [
              77.6063167,
              13.0073354
            ],
            [
              77.6063276,
              13.0068409
            ],
            [
              77.6059681,
              13.0068437
            ],
            [
              77.605983,
              13.0073258
            ]
          ]
        ]
      }
    },
    {
      "type": "Feature",
      "properties": {
        "id": "train_069_REF_008",
        "parcel_id": "train_069_P_008",
        "parcel_layer": "REFERENCE",
        "boundary_representation": "REFERENCE",
        "land_use_class": "mixed_use",
        "area_sqm": 1998.78,
        "perimeter_m": 181.99,
        "source": "Synthetic Legacy Cadastral Map (Non-Authoritative Demo)"
      },
      "geometry": {
        "type": "Polygon",
        "coordinates": [
          [
            [
              77.6060072,
              13.0068313
            ],
            [
              77.6063557,
              13.0068373
            ],
            [
              77.6063448,
              13.0063514
            ],
            [
              77.6060096,
              13.0063438
            ],
            [
              77.6060072,
              13.0068313
            ]
          ]
        ]
      }
    },
    {
      "type": "Feature",
      "properties": {
        "id": "train_069_REF_009",
        "parcel_id": "train_069_P_009",
        "parcel_layer": "REFERENCE",
        "boundary_representation": "REFERENCE",
        "land_use_class": "vegetation",
        "area_sqm": 3725.14,
        "perimeter_m": 246.45,
        "source": "Synthetic Legacy Cadastral Map (Non-Authoritative Demo)"
      },
      "geometry": {
        "type": "Polygon",
        "coordinates": [
          [
            [
              77.6040796,
              13.0060741
            ],
            [
              77.6047337,
              13.006088
            ],
            [
              77.6047157,
              13.0055961
            ],
            [
              77.6040818,
              13.0056031
            ],
            [
              77.6040796,
              13.0060741
            ]
          ]
        ]
      }
    },
    {
      "type": "Feature",
      "properties": {
        "id": "train_069_REF_010",
        "parcel_id": "train_069_P_010",
        "parcel_layer": "REFERENCE",
        "boundary_representation": "REFERENCE",
        "land_use_class": "vacant",
        "area_sqm": 3764.36,
        "perimeter_m": 247.76,
        "source": "Synthetic Legacy Cadastral Map (Non-Authoritative Demo)"
      },
      "geometry": {
        "type": "Polygon",
        "coordinates": [
          [
            [
              77.6040742,
              13.0055839
            ],
            [
              77.6047164,
              13.005579
            ],
            [
              77.604729,
              13.0050967
            ],
            [
              77.6040745,
              13.0050997
            ],
            [
              77.6040742,
              13.0055839
            ]
          ]
        ]
      }
    },
    {
      "type": "Feature",
      "properties": {
        "id": "train_069_REF_011",
        "parcel_id": "train_069_P_011",
        "parcel_layer": "REFERENCE",
        "boundary_representation": "REFERENCE",
        "land_use_class": "vacant",
        "area_sqm": 3761.64,
        "perimeter_m": 247.95,
        "source": "Synthetic Legacy Cadastral Map (Non-Authoritative Demo)"
      },
      "geometry": {
        "type": "Polygon",
        "coordinates": [
          [
            [
              77.6047531,
              13.0060683
            ],
            [
              77.6054043,
              13.0060849
            ],
            [
              77.6053986,
              13.0056006
            ],
            [
              77.6047446,
              13.0055929
            ],
            [
              77.6047531,
              13.0060683
            ]
          ]
        ]
      }
    },
    {
      "type": "Feature",
      "properties": {
        "id": "train_069_REF_012",
        "parcel_id": "train_069_P_012",
        "parcel_layer": "REFERENCE",
        "boundary_representation": "REFERENCE",
        "land_use_class": "industrial",
        "area_sqm": 3791.2,
        "perimeter_m": 248.53,
        "source": "Synthetic Legacy Cadastral Map (Non-Authoritative Demo)"
      },
      "geometry": {
        "type": "Polygon",
        "coordinates": [
          [
            [
              77.6047828,
              13.0055938
            ],
            [
              77.605441,
              13.0055933
            ],
            [
              77.6054292,
              13.005102
            ],
            [
              77.6047902,
              13.0051122
            ],
            [
              77.6047828,
              13.0055938
            ]
          ]
        ]
      }
    },
    {
      "type": "Feature",
      "properties": {
        "id": "train_069_REF_013",
        "parcel_id": "train_069_P_013",
        "parcel_layer": "REFERENCE",
        "boundary_representation": "REFERENCE",
        "land_use_class": "residential",
        "area_sqm": 2036.26,
        "perimeter_m": 184.03,
        "source": "Synthetic Legacy Cadastral Map (Non-Authoritative Demo)"
      },
      "geometry": {
        "type": "Polygon",
        "coordinates": [
          [
            [
              77.6056045,
              13.0060798
            ],
            [
              77.6059446,
              13.0060894
            ],
            [
              77.6059627,
              13.0055904
            ],
            [
              77.6056202,
              13.0055864
            ],
            [
              77.6056045,
              13.0060798
            ]
          ]
        ]
      }
    },
    {
      "type": "Feature",
      "properties": {
        "id": "train_069_REF_014",
        "parcel_id": "train_069_P_014",
        "parcel_layer": "REFERENCE",
        "boundary_representation": "REFERENCE",
        "land_use_class": "water",
        "area_sqm": 1929.63,
        "perimeter_m": 179.36,
        "source": "Synthetic Legacy Cadastral Map (Non-Authoritative Demo)"
      },
      "geometry": {
        "type": "Polygon",
        "coordinates": [
          [
            [
              77.6056211,
              13.0055804
            ],
            [
              77.6059493,
              13.00557
            ],
            [
              77.605943,
              13.0050871
            ],
            [
              77.6056109,
              13.0050908
            ],
            [
              77.6056211,
              13.0055804
            ]
          ]
        ]
      }
    },
    {
      "type": "Feature",
      "properties": {
        "id": "train_069_REF_015",
        "parcel_id": "train_069_P_015",
        "parcel_layer": "REFERENCE",
        "boundary_representation": "REFERENCE",
        "land_use_class": "residential",
        "area_sqm": 1966.51,
        "perimeter_m": 180.89,
        "source": "Synthetic Legacy Cadastral Map (Non-Authoritative Demo)"
      },
      "geometry": {
        "type": "Polygon",
        "coordinates": [
          [
            [
              77.6059771,
              13.0060838
            ],
            [
              77.6063145,
              13.0060819
            ],
            [
              77.6063187,
              13.0055868
            ],
            [
              77.6059843,
              13.0056041
            ],
            [
              77.6059771,
              13.0060838
            ]
          ]
        ]
      }
    },
    {
      "type": "Feature",
      "properties": {
        "id": "train_069_REF_016",
        "parcel_id": "train_069_P_016",
        "parcel_layer": "REFERENCE",
        "boundary_representation": "REFERENCE",
        "land_use_class": "agricultural",
        "area_sqm": 1954.08,
        "perimeter_m": 179.49,
        "source": "Synthetic Legacy Cadastral Map (Non-Authoritative Demo)"
      },
      "geometry": {
        "type": "Polygon",
        "coordinates": [
          [
            [
              77.6060185,
              13.0055877
            ],
            [
              77.6063499,
              13.0055867
            ],
            [
              77.6063656,
              13.0051097
            ],
            [
              77.6060111,
              13.0051162
            ],
            [
              77.6060185,
              13.0055877
            ]
          ]
        ]
      }
    }
  ]
}