{
  "type": "FeatureCollection",
  "crs": {
    "type": "name",
    "properties": {
      "name": "EPSG:4326"
    }
  },
  "features": [
    {
      "type": "Feature",
      "properties": {
        "id": "train_022_BLDG_001",
        "parcel_id": "train_022_P_002",
        "area_sqm": 997.95,
        "perimeter_m": 133.85,
        "centroid_lon": 77.5982237,
        "centroid_lat": 12.9974016,
        "height_m": 8.29,
        "confidence": 0.792,
        "temporal_epoch": "T1"
      },
      "geometry": {
        "type": "Polygon",
        "coordinates": [
          [
            [
              77.5981204,
              12.9976026
            ],
            [
              77.598327,
              12.9976026
            ],
            [
              77.598327,
              12.9972006
            ],
            [
              77.5981204,
              12.9972006
            ],
            [
              77.5981204,
              12.9976026
            ]
          ]
        ]
      }
    },
    {
      "type": "Feature",
      "properties": {
        "id": "train_022_BLDG_002",
        "parcel_id": "train_022_P_003",
        "area_sqm": 1637.49,
        "perimeter_m": 162.59,
        "centroid_lon": 77.5986461,
        "centroid_lat": 12.9980297,
        "height_m": 5.65,
        "confidence": 0.86,
        "temporal_epoch": "T1"
      },
      "geometry": {
        "type": "Polygon",
        "coordinates": [
          [
            [
              77.5984766,
              12.9982307
            ],
            [
              77.5988156,
              12.9982307
            ],
            [
              77.5988156,
              12.9978287
            ],
            [
              77.5984766,
              12.9978287
            ],
            [
              77.5984766,
              12.9982307
            ]
          ]
        ]
      }
    },
    {
      "type": "Feature",
      "properties": {
        "id": "train_022_BLDG_003",
        "parcel_id": "train_022_P_004",
        "area_sqm": 997.95,
        "perimeter_m": 133.85,
        "centroid_lon": 77.5985799,
        "centroid_lat": 12.9974016,
        "height_m": 10.14,
        "confidence": 0.781,
        "temporal_epoch": "T1"
      },
      "geometry": {
        "type": "Polygon",
        "coordinates": [
          [
            [
              77.5984766,
              12.9976026
            ],
            [
              77.5986832,
              12.9976026
            ],
            [
              77.5986832,
              12.9972006
            ],
            [
              77.5984766,
              12.9972006
            ],
            [
              77.5984766,
              12.9976026
            ]
          ]
        ]
      }
    },
    {
      "type": "Feature",
      "properties": {
        "id": "train_022_BLDG_004",
        "parcel_id": "train_022_P_005",
        "area_sqm": 1917.65,
        "perimeter_m": 175.19,
        "centroid_lon": 77.5992779,
        "centroid_lat": 12.9980297,
        "height_m": 7.78,
        "confidence": 0.914,
        "temporal_epoch": "T1"
      },
      "geometry": {
        "type": "Polygon",
        "coordinates": [
          [
            [
              77.5990794,
              12.9982307
            ],
            [
              77.5994764,
              12.9982307
            ],
            [
              77.5994764,
              12.9978287
            ],
            [
              77.5990794,
              12.9978287
            ],
            [
              77.5990794,
              12.9982307
            ]
          ]
        ]
      }
    },
    {
      "type": "Feature",
      "properties": {
        "id": "train_022_BLDG_005",
        "parcel_id": "train_022_P_009",
        "area_sqm": 625.58,
        "perimeter_m": 100.64,
        "centroid_lon": 77.5982237,
        "centroid_lat": 12.9966656,
        "height_m": 5.15,
        "confidence": 0.853,
        "temporal_epoch": "T1"
      },
      "geometry": {
        "type": "Polygon",
        "coordinates": [
          [
            [
              77.5981204,
              12.9967916
            ],
            [
              77.598327,
              12.9967916
            ],
            [
              77.598327,
              12.9965396
            ],
            [
              77.5981204,
              12.9965396
            ],
            [
              77.5981204,
              12.9967916
            ]
          ]
        ]
      }
    },
    {
      "type": "Feature",
      "properties": {
        "id": "train_022_BLDG_006",
        "parcel_id": "train_022_P_012",
        "area_sqm": 625.59,
        "perimeter_m": 100.64,
        "centroid_lon": 77.5985799,
        "centroid_lat": 12.9962719,
        "height_m": 5.99,
        "confidence": 0.932,
        "temporal_epoch": "T1"
      },
      "geometry": {
        "type": "Polygon",
        "coordinates": [
          [
            [
              77.5984766,
              12.9963979
            ],
            [
              77.5986832,
              12.9963979
            ],
            [
              77.5986832,
              12.9961459
            ],
            [
              77.5984766,
              12.9961459
            ],
            [
              77.5984766,
              12.9963979
            ]
          ]
        ]
      }
    },
    {
      "type": "Feature",
      "properties": {
        "id": "train_022_BLDG_007",
        "parcel_id": "train_022_P_014",
        "area_sqm": 1202.12,
        "perimeter_m": 141.98,
        "centroid_lon": 77.5992779,
        "centroid_lat": 12.9962719,
        "height_m": 11.2,
        "confidence": 0.935,
        "temporal_epoch": "T1"
      },
      "geometry": {
        "type": "Polygon",
        "coordinates": [
          [
            [
              77.5990794,
              12.9963979
            ],
            [
              77.5994764,
              12.9963979
            ],
            [
              77.5994764,
              12.9961459
            ],
            [
              77.5990794,
              12.9961459
            ],
            [
              77.5990794,
              12.9963979
            ]
          ]
        ]
      }
    },
    {
      "type": "Feature",
      "properties": {
        "id": "train_022_BLDG_008",
        "parcel_id": "train_022_P_015",
        "area_sqm": 1202.12,
        "perimeter_m": 141.98,
        "centroid_lon": 77.5999623,
        "centroid_lat": 12.9966656,
        "height_m": 10.32,
        "confidence": 0.897,
        "temporal_epoch": "T1"
      },
      "geometry": {
        "type": "Polygon",
        "coordinates": [
          [
            [
              77.5997638,
              12.9967916
            ],
            [
              77.6001608,
              12.9967916
            ],
            [
              77.6001608,
              12.9965396
            ],
            [
              77.5997638,
              12.9965396
            ],
            [
              77.5997638,
              12.9967916
            ]
          ]
        ]
      }
    }
  ]
}