{
  "type": "FeatureCollection",
  "crs": {
    "type": "name",
    "properties": {
      "name": "EPSG:4326"
    }
  },
  "features": [
    {
      "type": "Feature",
      "properties": {
        "id": "train_022_REF_001",
        "parcel_id": "train_022_P_001",
        "parcel_layer": "REFERENCE",
        "boundary_representation": "REFERENCE",
        "land_use_class": "vegetation",
        "area_sqm": 2403.71,
        "perimeter_m": 205.21,
        "source": "Synthetic Legacy Cadastral Map (Non-Authoritative Demo)"
      },
      "geometry": {
        "type": "Polygon",
        "coordinates": [
          [
            [
              77.5980751,
              12.998332
            ],
            [
              77.5984066,
              12.9983299
            ],
            [
              77.5984004,
              12.997727
            ],
            [
              77.598065,
              12.9977353
            ],
            [
              77.5980751,
              12.998332
            ]
          ]
        ]
      }
    },
    {
      "type": "Feature",
      "properties": {
        "id": "train_022_REF_002",
        "parcel_id": "train_022_P_002",
        "parcel_layer": "REFERENCE",
        "boundary_representation": "REFERENCE",
        "land_use_class": "residential",
        "area_sqm": 2350.11,
        "perimeter_m": 203.96,
        "source": "Synthetic Legacy Cadastral Map (Non-Authoritative Demo)"
      },
      "geometry": {
        "type": "Polygon",
        "coordinates": [
          [
            [
              77.5980797,
              12.9977007
            ],
            [
              77.5983976,
              12.9977156
            ],
            [
              77.5984005,
              12.9971081
            ],
            [
              77.5980693,
              12.9971027
            ],
            [
              77.5980797,
              12.9977007
            ]
          ]
        ]
      }
    },
    {
      "type": "Feature",
      "properties": {
        "id": "train_022_REF_003",
        "parcel_id": "train_022_P_003",
        "parcel_layer": "REFERENCE",
        "boundary_representation": "REFERENCE",
        "land_use_class": "residential",
        "area_sqm": 2449.21,
        "perimeter_m": 206.85,
        "source": "Synthetic Legacy Cadastral Map (Non-Authoritative Demo)"
      },
      "geometry": {
        "type": "Polygon",
        "coordinates": [
          [
            [
              77.5984201,
              12.9983366
            ],
            [
              77.5987589,
              12.9983303
            ],
            [
              77.5987572,
              12.9977258
            ],
            [
              77.5984193,
              12.9977363
            ],
            [
              77.5984201,
              12.9983366
            ]
          ]
        ]
      }
    },
    {
      "type": "Feature",
      "properties": {
        "id": "train_022_REF_004",
        "parcel_id": "train_022_P_004",
        "parcel_layer": "REFERENCE",
        "boundary_representation": "REFERENCE",
        "land_use_class": "commercial",
        "area_sqm": 2437.45,
        "perimeter_m": 206.97,
        "source": "Synthetic Legacy Cadastral Map (Non-Authoritative Demo)"
      },
      "geometry": {
        "type": "Polygon",
        "coordinates": [
          [
            [
              77.5984741,
              12.9977246
            ],
            [
              77.5987971,
              12.9977304
            ],
            [
              77.5988093,
              12.9971303
            ],
            [
              77.5984634,
              12.9971117
            ],
            [
              77.5984741,
              12.9977246
            ]
          ]
        ]
      }
    },
    {
      "type": "Feature",
      "properties": {
        "id": "train_022_REF_005",
        "parcel_id": "train_022_P_005",
        "parcel_layer": "REFERENCE",
        "boundary_representation": "REFERENCE",
        "land_use_class": "mixed_use",
        "area_sqm": 4766.37,
        "perimeter_m": 276.34,
        "source": "Synthetic Legacy Cadastral Map (Non-Authoritative Demo)"
      },
      "geometry": {
        "type": "Polygon",
        "coordinates": [
          [
            [
              77.5989632,
              12.9983416
            ],
            [
              77.5996248,
              12.9983414
            ],
            [
              77.5996245,
              12.9977399
            ],
            [
              77.5989666,
              12.9977406
            ],
            [
              77.5989632,
              12.9983416
            ]
          ]
        ]
      }
    },
    {
      "type": "Feature",
      "properties": {
        "id": "train_022_REF_006",
        "parcel_id": "train_022_P_006",
        "parcel_layer": "REFERENCE",
        "boundary_representation": "REFERENCE",
        "land_use_class": "vegetation",
        "area_sqm": 4840.91,
        "perimeter_m": 278.44,
        "source": "Synthetic Legacy Cadastral Map (Non-Authoritative Demo)"
      },
      "geometry": {
        "type": "Polygon",
        "coordinates": [
          [
            [
              77.5989746,
              12.9977014
            ],
            [
              77.5996395,
              12.9977145
            ],
            [
              77.5996295,
              12.9970956
            ],
            [
              77.5989772,
              12.9970968
            ],
            [
              77.5989746,
              12.9977014
            ]
          ]
        ]
      }
    },
    {
      "type": "Feature",
      "properties": {
        "id": "train_022_REF_007",
        "parcel_id": "train_022_P_007",
        "parcel_layer": "REFERENCE",
        "boundary_representation": "REFERENCE",
        "land_use_class": "vegetation",
        "area_sqm": 4757.02,
        "perimeter_m": 276.16,
        "source": "Synthetic Legacy Cadastral Map (Non-Authoritative Demo)"
      },
      "geometry": {
        "type": "Polygon",
        "coordinates": [
          [
            [
              77.5996657,
              12.9983291
            ],
            [
              77.6003291,
              12.9983264
            ],
            [
              77.6003206,
              12.9977371
            ],
            [
              77.5996599,
              12.9977223
            ],
            [
              77.5996657,
              12.9983291
            ]
          ]
        ]
      }
    },
    {
      "type": "Feature",
      "properties": {
        "id": "train_022_REF_008",
        "parcel_id": "train_022_P_008",
        "parcel_layer": "REFERENCE",
        "boundary_representation": "REFERENCE",
        "land_use_class": "vegetation",
        "area_sqm": 4929.13,
        "perimeter_m": 280.95,
        "source": "Synthetic Legacy Cadastral Map (Non-Authoritative Demo)"
      },
      "geometry": {
        "type": "Polygon",
        "coordinates": [
          [
            [
              77.5996846,
              12.9977359
            ],
            [
              77.6003621,
              12.9977318
            ],
            [
              77.6003479,
              12.997117
            ],
            [
              77.5997018,
              12.997111
            ],
            [
              77.5996846,
              12.9977359
            ]
          ]
        ]
      }
    },
    {
      "type": "Feature",
      "properties": {
        "id": "train_022_REF_009",
        "parcel_id": "train_022_P_009",
        "parcel_layer": "REFERENCE",
        "boundary_representation": "REFERENCE",
        "land_use_class": "industrial",
        "area_sqm": 1475.64,
        "perimeter_m": 154.05,
        "source": "Synthetic Legacy Cadastral Map (Non-Authoritative Demo)"
      },
      "geometry": {
        "type": "Polygon",
        "coordinates": [
          [
            [
              77.5980656,
              12.9968567
            ],
            [
              77.5984117,
              12.9968627
            ],
            [
              77.5983965,
              12.9964869
            ],
            [
              77.5980794,
              12.9964918
            ],
            [
              77.5980656,
              12.9968567
            ]
          ]
        ]
      }
    },
    {
      "type": "Feature",
      "properties": {
        "id": "train_022_REF_010",
        "parcel_id": "train_022_P_010",
        "parcel_layer": "REFERENCE",
        "boundary_representation": "REFERENCE",
        "land_use_class": "vegetation",
        "area_sqm": 1463.43,
        "perimeter_m": 153.27,
        "source": "Synthetic Legacy Cadastral Map (Non-Authoritative Demo)"
      },
      "geometry": {
        "type": "Polygon",
        "coordinates": [
          [
            [
              77.5980786,
              12.9964577
            ],
            [
              77.5984159,
              12.9964514
            ],
            [
              77.5984054,
              12.9960853
            ],
            [
              77.5980765,
              12.9960928
            ],
            [
              77.5980786,
              12.9964577
            ]
          ]
        ]
      }
    },
    {
      "type": "Feature",
      "properties": {
        "id": "train_022_REF_011",
        "parcel_id": "train_022_P_011",
        "parcel_layer": "REFERENCE",
        "boundary_representation": "REFERENCE",
        "land_use_class": "vegetation",
        "area_sqm": 1484.05,
        "perimeter_m": 154.39,
        "source": "Synthetic Legacy Cadastral Map (Non-Authoritative Demo)"
      },
      "geometry": {
        "type": "Polygon",
        "coordinates": [
          [
            [
              77.5984382,
              12.9968461
            ],
            [
              77.5987727,
              12.996852
            ],
            [
              77.5987616,
              12.9964785
            ],
            [
              77.5984251,
              12.9964833
            ],
            [
              77.5984382,
              12.9968461
            ]
          ]
        ]
      }
    },
    {
      "type": "Feature",
      "properties": {
        "id": "train_022_REF_012",
        "parcel_id": "train_022_P_012",
        "parcel_layer": "REFERENCE",
        "boundary_representation": "REFERENCE",
        "land_use_class": "residential",
        "area_sqm": 1413.89,
        "perimeter_m": 150.89,
        "source": "Synthetic Legacy Cadastral Map (Non-Authoritative Demo)"
      },
      "geometry": {
        "type": "Polygon",
        "coordinates": [
          [
            [
              77.5984758,
              12.9964682
            ],
            [
              77.5987887,
              12.996482
            ],
            [
              77.5987972,
              12.9961068
            ],
            [
              77.5984671,
              12.9961114
            ],
            [
              77.5984758,
              12.9964682
            ]
          ]
        ]
      }
    },
    {
      "type": "Feature",
      "properties": {
        "id": "train_022_REF_013",
        "parcel_id": "train_022_P_013",
        "parcel_layer": "REFERENCE",
        "boundary_representation": "REFERENCE",
        "land_use_class": "vegetation",
        "area_sqm": 3007.21,
        "perimeter_m": 228.3,
        "source": "Synthetic Legacy Cadastral Map (Non-Authoritative Demo)"
      },
      "geometry": {
        "type": "Polygon",
        "coordinates": [
          [
            [
              77.5989621,
              12.9968569
            ],
            [
              77.5996441,
              12.9968523
            ],
            [
              77.5996246,
              12.9964744
            ],
            [
              77.5989644,
              12.9964892
            ],
            [
              77.5989621,
              12.9968569
            ]
          ]
        ]
      }
    },
    {
      "type": "Feature",
      "properties": {
        "id": "train_022_REF_014",
        "parcel_id": "train_022_P_014",
        "parcel_layer": "REFERENCE",
        "boundary_representation": "REFERENCE",
        "land_use_class": "mixed_use",
        "area_sqm": 2996.07,
        "perimeter_m": 227.95,
        "source": "Synthetic Legacy Cadastral Map (Non-Authoritative Demo)"
      },
      "geometry": {
        "type": "Polygon",
        "coordinates": [
          [
            [
              77.5989654,
              12.9964578
            ],
            [
              77.5996411,
              12.9964531
            ],
            [
              77.5996369,
              12.9960833
            ],
            [
              77.5989706,
              12.9960844
            ],
            [
              77.5989654,
              12.9964578
            ]
          ]
        ]
      }
    },
    {
      "type": "Feature",
      "properties": {
        "id": "train_022_REF_015",
        "parcel_id": "train_022_P_015",
        "parcel_layer": "REFERENCE",
        "boundary_representation": "REFERENCE",
        "land_use_class": "mixed_use",
        "area_sqm": 3017.02,
        "perimeter_m": 228.09,
        "source": "Synthetic Legacy Cadastral Map (Non-Authoritative Demo)"
      },
      "geometry": {
        "type": "Polygon",
        "coordinates": [
          [
            [
              77.5996543,
              12.9968621
            ],
            [
              77.6003178,
              12.9968511
            ],
            [
              77.6003178,
              12.9964768
            ],
            [
              77.5996487,
              12.9964828
            ],
            [
              77.5996543,
              12.9968621
            ]
          ]
        ]
      }
    },
    {
      "type": "Feature",
      "properties": {
        "id": "train_022_REF_016",
        "parcel_id": "train_022_P_016",
        "parcel_layer": "REFERENCE",
        "boundary_representation": "REFERENCE",
        "land_use_class": "vegetation",
        "area_sqm": 2951.72,
        "perimeter_m": 224.9,
        "source": "Synthetic Legacy Cadastral Map (Non-Authoritative Demo)"
      },
      "geometry": {
        "type": "Polygon",
        "coordinates": [
          [
            [
              77.5996934,
              12.9964756
            ],
            [
              77.6003467,
              12.9964864
            ],
            [
              77.6003507,
              12.9960984
            ],
            [
              77.5997022,
              12.9961088
            ],
            [
              77.5996934,
              12.9964756
            ]
          ]
        ]
      }
    }
  ]
}