{
  "type": "FeatureCollection",
  "crs": {
    "type": "name",
    "properties": {
      "name": "EPSG:4326"
    }
  },
  "features": [
    {
      "type": "Feature",
      "properties": {
        "id": "train_076_BND_001",
        "parcel_id": "train_076_P_001",
        "boundary_type": "INFERRED",
        "confidence": 0.744,
        "length_m": 40.81,
        "evidence_sources": [
          "Road_Corridor_Offset",
          "Adjacent_Parcel_Topology"
        ]
      },
      "geometry": {
        "type": "LineString",
        "coordinates": [
          [
            77.6251116,
            13.0073102
          ],
          [
            77.6254873,
            13.0072973
          ]
        ]
      }
    },
    {
      "type": "Feature",
      "properties": {
        "id": "train_076_BND_002",
        "parcel_id": "train_076_P_001",
        "boundary_type": "VISIBLE",
        "confidence": 0.942,
        "length_m": 47.24,
        "evidence_sources": [
          "Drone_RGB_Edge",
          "DSM_Breakline"
        ]
      },
      "geometry": {
        "type": "LineString",
        "coordinates": [
          [
            77.6254873,
            13.0072973
          ],
          [
            77.6255088,
            13.0068711
          ]
        ]
      }
    },
    {
      "type": "Feature",
      "properties": {
        "id": "train_076_BND_003",
        "parcel_id": "train_076_P_001",
        "boundary_type": "INFERRED",
        "confidence": 0.728,
        "length_m": 46.91,
        "evidence_sources": [
          "Road_Corridor_Offset",
          "Adjacent_Parcel_Topology"
        ]
      },
      "geometry": {
        "type": "LineString",
        "coordinates": [
          [
            77.6255088,
            13.0068711
          ],
          [
            77.6250766,
            13.0068692
          ]
        ]
      }
    },
    {
      "type": "Feature",
      "properties": {
        "id": "train_076_BND_004",
        "parcel_id": "train_076_P_001",
        "boundary_type": "INFERRED",
        "confidence": 0.781,
        "length_m": 48.97,
        "evidence_sources": [
          "Road_Corridor_Offset",
          "Adjacent_Parcel_Topology"
        ]
      },
      "geometry": {
        "type": "LineString",
        "coordinates": [
          [
            77.6250766,
            13.0068692
          ],
          [
            77.6251116,
            13.0073102
          ]
        ]
      }
    },
    {
      "type": "Feature",
      "properties": {
        "id": "train_076_BND_005",
        "parcel_id": "train_076_P_002",
        "boundary_type": "VISIBLE",
        "confidence": 0.953,
        "length_m": 42.75,
        "evidence_sources": [
          "Drone_RGB_Edge",
          "DSM_Breakline"
        ]
      },
      "geometry": {
        "type": "LineString",
        "coordinates": [
          [
            77.6251144,
            13.0067816
          ],
          [
            77.6255082,
            13.0067863
          ]
        ]
      }
    },
    {
      "type": "Feature",
      "properties": {
        "id": "train_076_BND_006",
        "parcel_id": "train_076_P_002",
        "boundary_type": "VISIBLE",
        "confidence": 0.906,
        "length_m": 47.08,
        "evidence_sources": [
          "Drone_RGB_Edge",
          "DSM_Breakline"
        ]
      },
      "geometry": {
        "type": "LineString",
        "coordinates": [
          [
            77.6255082,
            13.0067863
          ],
          [
            77.6255171,
            13.0063611
          ]
        ]
      }
    },
    {
      "type": "Feature",
      "properties": {
        "id": "train_076_BND_007",
        "parcel_id": "train_076_P_002",
        "boundary_type": "VISIBLE",
        "confidence": 0.949,
        "length_m": 43.58,
        "evidence_sources": [
          "Drone_RGB_Edge",
          "DSM_Breakline"
        ]
      },
      "geometry": {
        "type": "LineString",
        "coordinates": [
          [
            77.6255171,
            13.0063611
          ],
          [
            77.6251157,
            13.0063685
          ]
        ]
      }
    },
    {
      "type": "Feature",
      "properties": {
        "id": "train_076_BND_008",
        "parcel_id": "train_076_P_002",
        "boundary_type": "VISIBLE",
        "confidence": 0.891,
        "length_m": 45.73,
        "evidence_sources": [
          "Drone_RGB_Edge",
          "DSM_Breakline"
        ]
      },
      "geometry": {
        "type": "LineString",
        "coordinates": [
          [
            77.6251157,
            13.0063685
          ],
          [
            77.6251144,
            13.0067816
          ]
        ]
      }
    },
    {
      "type": "Feature",
      "properties": {
        "id": "train_076_BND_009",
        "parcel_id": "train_076_P_003",
        "boundary_type": "VISIBLE",
        "confidence": 0.909,
        "length_m": 43.25,
        "evidence_sources": [
          "Drone_RGB_Edge",
          "DSM_Breakline"
        ]
      },
      "geometry": {
        "type": "LineString",
        "coordinates": [
          [
            77.6255627,
            13.0072809
          ],
          [
            77.6259596,
            13.007315
          ]
        ]
      }
    },
    {
      "type": "Feature",
      "properties": {
        "id": "train_076_BND_010",
        "parcel_id": "train_076_P_003",
        "boundary_type": "INFERRED",
        "confidence": 0.744,
        "length_m": 47.84,
        "evidence_sources": [
          "Road_Corridor_Offset",
          "Adjacent_Parcel_Topology"
        ]
      },
      "geometry": {
        "type": "LineString",
        "coordinates": [
          [
            77.6259596,
            13.007315
          ],
          [
            77.6259784,
            13.0068832
          ]
        ]
      }
    },
    {
      "type": "Feature",
      "properties": {
        "id": "train_076_BND_011",
        "parcel_id": "train_076_P_003",
        "boundary_type": "VISIBLE",
        "confidence": 0.93,
        "length_m": 48.12,
        "evidence_sources": [
          "Drone_RGB_Edge",
          "DSM_Breakline"
        ]
      },
      "geometry": {
        "type": "LineString",
        "coordinates": [
          [
            77.6259784,
            13.0068832
          ],
          [
            77.6255352,
            13.0068728
          ]
        ]
      }
    },
    {
      "type": "Feature",
      "properties": {
        "id": "train_076_BND_012",
        "parcel_id": "train_076_P_003",
        "boundary_type": "INFERRED",
        "confidence": 0.668,
        "length_m": 45.27,
        "evidence_sources": [
          "Road_Corridor_Offset",
          "Adjacent_Parcel_Topology"
        ]
      },
      "geometry": {
        "type": "LineString",
        "coordinates": [
          [
            77.6255352,
            13.0068728
          ],
          [
            77.6255627,
            13.0072809
          ]
        ]
      }
    },
    {
      "type": "Feature",
      "properties": {
        "id": "train_076_BND_013",
        "parcel_id": "train_076_P_004",
        "boundary_type": "VISIBLE",
        "confidence": 0.906,
        "length_m": 44.71,
        "evidence_sources": [
          "Drone_RGB_Edge",
          "DSM_Breakline"
        ]
      },
      "geometry": {
        "type": "LineString",
        "coordinates": [
          [
            77.6255528,
            13.0067827
          ],
          [
            77.6259618,
            13.0068306
          ]
        ]
      }
    },
    {
      "type": "Feature",
      "properties": {
        "id": "train_076_BND_014",
        "parcel_id": "train_076_P_004",
        "boundary_type": "VISIBLE",
        "confidence": 0.837,
        "length_m": 53.9,
        "evidence_sources": [
          "Drone_RGB_Edge",
          "DSM_Breakline"
        ]
      },
      "geometry": {
        "type": "LineString",
        "coordinates": [
          [
            77.6259618,
            13.0068306
          ],
          [
            77.6259825,
            13.0063441
          ]
        ]
      }
    },
    {
      "type": "Feature",
      "properties": {
        "id": "train_076_BND_015",
        "parcel_id": "train_076_P_004",
        "boundary_type": "VISIBLE",
        "confidence": 0.885,
        "length_m": 47.59,
        "evidence_sources": [
          "Drone_RGB_Edge",
          "DSM_Breakline"
        ]
      },
      "geometry": {
        "type": "LineString",
        "coordinates": [
          [
            77.6259825,
            13.0063441
          ],
          [
            77.6255449,
            13.0063705
          ]
        ]
      }
    },
    {
      "type": "Feature",
      "properties": {
        "id": "train_076_BND_016",
        "parcel_id": "train_076_P_004",
        "boundary_type": "INFERRED",
        "confidence": 0.691,
        "length_m": 45.64,
        "evidence_sources": [
          "Road_Corridor_Offset",
          "Adjacent_Parcel_Topology"
        ]
      },
      "geometry": {
        "type": "LineString",
        "coordinates": [
          [
            77.6255449,
            13.0063705
          ],
          [
            77.6255528,
            13.0067827
          ]
        ]
      }
    },
    {
      "type": "Feature",
      "properties": {
        "id": "train_076_BND_017",
        "parcel_id": "train_076_P_005",
        "boundary_type": "VISIBLE",
        "confidence": 0.912,
        "length_m": 55.43,
        "evidence_sources": [
          "Drone_RGB_Edge",
          "DSM_Breakline"
        ]
      },
      "geometry": {
        "type": "LineString",
        "coordinates": [
          [
            77.6261995,
            13.0073295
          ],
          [
            77.6267098,
            13.0073115
          ]
        ]
      }
    },
    {
      "type": "Feature",
      "properties": {
        "id": "train_076_BND_018",
        "parcel_id": "train_076_P_005",
        "boundary_type": "VISIBLE",
        "confidence": 0.825,
        "length_m": 50.86,
        "evidence_sources": [
          "Drone_RGB_Edge",
          "DSM_Breakline"
        ]
      },
      "geometry": {
        "type": "LineString",
        "coordinates": [
          [
            77.6267098,
            13.0073115
          ],
          [
            77.6266852,
            13.0068527
          ]
        ]
      }
    },
    {
      "type": "Feature",
      "properties": {
        "id": "train_076_BND_019",
        "parcel_id": "train_076_P_005",
        "boundary_type": "VISIBLE",
        "confidence": 0.875,
        "length_m": 50.4,
        "evidence_sources": [
          "Drone_RGB_Edge",
          "DSM_Breakline"
        ]
      },
      "geometry": {
        "type": "LineString",
        "coordinates": [
          [
            77.6266852,
            13.0068527
          ],
          [
            77.6262209,
            13.006853
          ]
        ]
      }
    },
    {
      "type": "Feature",
      "properties": {
        "id": "train_076_BND_020",
        "parcel_id": "train_076_P_005",
        "boundary_type": "VISIBLE",
        "confidence": 0.939,
        "length_m": 52.8,
        "evidence_sources": [
          "Drone_RGB_Edge",
          "DSM_Breakline"
        ]
      },
      "geometry": {
        "type": "LineString",
        "coordinates": [
          [
            77.6262209,
            13.006853
          ],
          [
            77.6261995,
            13.0073295
          ]
        ]
      }
    },
    {
      "type": "Feature",
      "properties": {
        "id": "train_076_BND_021",
        "parcel_id": "train_076_P_006",
        "boundary_type": "INFERRED",
        "confidence": 0.733,
        "length_m": 55.23,
        "evidence_sources": [
          "Road_Corridor_Offset",
          "Adjacent_Parcel_Topology"
        ]
      },
      "geometry": {
        "type": "LineString",
        "coordinates": [
          [
            77.6261718,
            13.0067961
          ],
          [
            77.6266805,
            13.006806
          ]
        ]
      }
    },
    {
      "type": "Feature",
      "properties": {
        "id": "train_076_BND_022",
        "parcel_id": "train_076_P_006",
        "boundary_type": "VISIBLE",
        "confidence": 0.921,
        "length_m": 47.66,
        "evidence_sources": [
          "Drone_RGB_Edge",
          "DSM_Breakline"
        ]
      },
      "geometry": {
        "type": "LineString",
        "coordinates": [
          [
            77.6266805,
            13.006806
          ],
          [
            77.6267354,
            13.0063788
          ]
        ]
      }
    },
    {
      "type": "Feature",
      "properties": {
        "id": "train_076_BND_023",
        "parcel_id": "train_076_P_006",
        "boundary_type": "INFERRED",
        "confidence": 0.615,
        "length_m": 61.17,
        "evidence_sources": [
          "Road_Corridor_Offset",
          "Adjacent_Parcel_Topology"
        ]
      },
      "geometry": {
        "type": "LineString",
        "coordinates": [
          [
            77.6267354,
            13.0063788
          ],
          [
            77.6261719,
            13.0063866
          ]
        ]
      }
    },
    {
      "type": "Feature",
      "properties": {
        "id": "train_076_BND_024",
        "parcel_id": "train_076_P_006",
        "boundary_type": "VISIBLE",
        "confidence": 0.823,
        "length_m": 45.33,
        "evidence_sources": [
          "Drone_RGB_Edge",
          "DSM_Breakline"
        ]
      },
      "geometry": {
        "type": "LineString",
        "coordinates": [
          [
            77.6261719,
            13.0063866
          ],
          [
            77.6261718,
            13.0067961
          ]
        ]
      }
    },
    {
      "type": "Feature",
      "properties": {
        "id": "train_076_BND_025",
        "parcel_id": "train_076_P_007",
        "boundary_type": "VISIBLE",
        "confidence": 0.914,
        "length_m": 61.4,
        "evidence_sources": [
          "Drone_RGB_Edge",
          "DSM_Breakline"
        ]
      },
      "geometry": {
        "type": "LineString",
        "coordinates": [
          [
            77.6267458,
            13.00733
          ],
          [
            77.6273095,
            13.0072844
          ]
        ]
      }
    },
    {
      "type": "Feature",
      "properties": {
        "id": "train_076_BND_026",
        "parcel_id": "train_076_P_007",
        "boundary_type": "VISIBLE",
        "confidence": 0.909,
        "length_m": 45.62,
        "evidence_sources": [
          "Drone_RGB_Edge",
          "DSM_Breakline"
        ]
      },
      "geometry": {
        "type": "LineString",
        "coordinates": [
          [
            77.6273095,
            13.0072844
          ],
          [
            77.6272983,
            13.0068724
          ]
        ]
      }
    },
    {
      "type": "Feature",
      "properties": {
        "id": "train_076_BND_027",
        "parcel_id": "train_076_P_007",
        "boundary_type": "INFERRED",
        "confidence": 0.628,
        "length_m": 56.75,
        "evidence_sources": [
          "Road_Corridor_Offset",
          "Adjacent_Parcel_Topology"
        ]
      },
      "geometry": {
        "type": "LineString",
        "coordinates": [
          [
            77.6272983,
            13.0068724
          ],
          [
            77.6267758,
            13.0068536
          ]
        ]
      }
    },
    {
      "type": "Feature",
      "properties": {
        "id": "train_076_BND_028",
        "parcel_id": "train_076_P_007",
        "boundary_type": "VISIBLE",
        "confidence": 0.862,
        "length_m": 52.84,
        "evidence_sources": [
          "Drone_RGB_Edge",
          "DSM_Breakline"
        ]
      },
      "geometry": {
        "type": "LineString",
        "coordinates": [
          [
            77.6267758,
            13.0068536
          ],
          [
            77.6267458,
            13.00733
          ]
        ]
      }
    },
    {
      "type": "Feature",
      "properties": {
        "id": "train_076_BND_029",
        "parcel_id": "train_076_P_008",
        "boundary_type": "VISIBLE",
        "confidence": 0.936,
        "length_m": 51.96,
        "evidence_sources": [
          "Drone_RGB_Edge",
          "DSM_Breakline"
        ]
      },
      "geometry": {
        "type": "LineString",
        "coordinates": [
          [
            77.626786,
            13.0068348
          ],
          [
            77.6272621,
            13.0067864
          ]
        ]
      }
    },
    {
      "type": "Feature",
      "properties": {
        "id": "train_076_BND_030",
        "parcel_id": "train_076_P_008",
        "boundary_type": "VISIBLE",
        "confidence": 0.877,
        "length_m": 43.25,
        "evidence_sources": [
          "Drone_RGB_Edge",
          "DSM_Breakline"
        ]
      },
      "geometry": {
        "type": "LineString",
        "coordinates": [
          [
            77.6272621,
            13.0067864
          ],
          [
            77.6272642,
            13.0063957
          ]
        ]
      }
    },
    {
      "type": "Feature",
      "properties": {
        "id": "train_076_BND_031",
        "parcel_id": "train_076_P_008",
        "boundary_type": "VISIBLE",
        "confidence": 0.907,
        "length_m": 53.29,
        "evidence_sources": [
          "Drone_RGB_Edge",
          "DSM_Breakline"
        ]
      },
      "geometry": {
        "type": "LineString",
        "coordinates": [
          [
            77.6272642,
            13.0063957
          ],
          [
            77.6267743,
            13.006364
          ]
        ]
      }
    },
    {
      "type": "Feature",
      "properties": {
        "id": "train_076_BND_032",
        "parcel_id": "train_076_P_008",
        "boundary_type": "INFERRED",
        "confidence": 0.611,
        "length_m": 52.13,
        "evidence_sources": [
          "Road_Corridor_Offset",
          "Adjacent_Parcel_Topology"
        ]
      },
      "geometry": {
        "type": "LineString",
        "coordinates": [
          [
            77.6267743,
            13.006364
          ],
          [
            77.626786,
            13.0068348
          ]
        ]
      }
    },
    {
      "type": "Feature",
      "properties": {
        "id": "train_076_BND_033",
        "parcel_id": "train_076_P_009",
        "boundary_type": "VISIBLE",
        "confidence": 0.877,
        "length_m": 40.87,
        "evidence_sources": [
          "Drone_RGB_Edge",
          "DSM_Breakline"
        ]
      },
      "geometry": {
        "type": "LineString",
        "coordinates": [
          [
            77.625111,
            13.0061058
          ],
          [
            77.6254875,
            13.0061068
          ]
        ]
      }
    },
    {
      "type": "Feature",
      "properties": {
        "id": "train_076_BND_034",
        "parcel_id": "train_076_P_009",
        "boundary_type": "INFERRED",
        "confidence": 0.767,
        "length_m": 52.13,
        "evidence_sources": [
          "Road_Corridor_Offset",
          "Adjacent_Parcel_Topology"
        ]
      },
      "geometry": {
        "type": "LineString",
        "coordinates": [
          [
            77.6254875,
            13.0061068
          ],
          [
            77.625522,
            13.0056371
          ]
        ]
      }
    },
    {
      "type": "Feature",
      "properties": {
        "id": "train_076_BND_035",
        "parcel_id": "train_076_P_009",
        "boundary_type": "VISIBLE",
        "confidence": 0.949,
        "length_m": 48.57,
        "evidence_sources": [
          "Drone_RGB_Edge",
          "DSM_Breakline"
        ]
      },
      "geometry": {
        "type": "LineString",
        "coordinates": [
          [
            77.625522,
            13.0056371
          ],
          [
            77.6250747,
            13.005649
          ]
        ]
      }
    },
    {
      "type": "Feature",
      "properties": {
        "id": "train_076_BND_036",
        "parcel_id": "train_076_P_009",
        "boundary_type": "INFERRED",
        "confidence": 0.758,
        "length_m": 50.72,
        "evidence_sources": [
          "Road_Corridor_Offset",
          "Adjacent_Parcel_Topology"
        ]
      },
      "geometry": {
        "type": "LineString",
        "coordinates": [
          [
            77.6250747,
            13.005649
          ],
          [
            77.625111,
            13.0061058
          ]
        ]
      }
    },
    {
      "type": "Feature",
      "properties": {
        "id": "train_076_BND_037",
        "parcel_id": "train_076_P_010",
        "boundary_type": "VISIBLE",
        "confidence": 0.943,
        "length_m": 47.59,
        "evidence_sources": [
          "Drone_RGB_Edge",
          "DSM_Breakline"
        ]
      },
      "geometry": {
        "type": "LineString",
        "coordinates": [
          [
            77.6250607,
            13.0056088
          ],
          [
            77.6254987,
            13.0055908
          ]
        ]
      }
    },
    {
      "type": "Feature",
      "properties": {
        "id": "train_076_BND_038",
        "parcel_id": "train_076_P_010",
        "boundary_type": "VISIBLE",
        "confidence": 0.859,
        "length_m": 55.22,
        "evidence_sources": [
          "Drone_RGB_Edge",
          "DSM_Breakline"
        ]
      },
      "geometry": {
        "type": "LineString",
        "coordinates": [
          [
            77.6254987,
            13.0055908
          ],
          [
            77.625479,
            13.0050923
          ]
        ]
      }
    },
    {
      "type": "Feature",
      "properties": {
        "id": "train_076_BND_039",
        "parcel_id": "train_076_P_010",
        "boundary_type": "INFERRED",
        "confidence": 0.641,
        "length_m": 45.79,
        "evidence_sources": [
          "Road_Corridor_Offset",
          "Adjacent_Parcel_Topology"
        ]
      },
      "geometry": {
        "type": "LineString",
        "coordinates": [
          [
            77.625479,
            13.0050923
          ],
          [
            77.6250576,
            13.0051106
          ]
        ]
      }
    },
    {
      "type": "Feature",
      "properties": {
        "id": "train_076_BND_040",
        "parcel_id": "train_076_P_010",
        "boundary_type": "VISIBLE",
        "confidence": 0.939,
        "length_m": 55.15,
        "evidence_sources": [
          "Drone_RGB_Edge",
          "DSM_Breakline"
        ]
      },
      "geometry": {
        "type": "LineString",
        "coordinates": [
          [
            77.6250576,
            13.0051106
          ],
          [
            77.6250607,
            13.0056088
          ]
        ]
      }
    },
    {
      "type": "Feature",
      "properties": {
        "id": "train_076_BND_041",
        "parcel_id": "train_076_P_011",
        "boundary_type": "INFERRED",
        "confidence": 0.752,
        "length_m": 49.96,
        "evidence_sources": [
          "Road_Corridor_Offset",
          "Adjacent_Parcel_Topology"
        ]
      },
      "geometry": {
        "type": "LineString",
        "coordinates": [
          [
            77.6255512,
            13.0061368
          ],
          [
            77.6260112,
            13.0061223
          ]
        ]
      }
    },
    {
      "type": "Feature",
      "properties": {
        "id": "train_076_BND_042",
        "parcel_id": "train_076_P_011",
        "boundary_type": "INFERRED",
        "confidence": 0.709,
        "length_m": 54.64,
        "evidence_sources": [
          "Road_Corridor_Offset",
          "Adjacent_Parcel_Topology"
        ]
      },
      "geometry": {
        "type": "LineString",
        "coordinates": [
          [
            77.6260112,
            13.0061223
          ],
          [
            77.6259767,
            13.0056299
          ]
        ]
      }
    },
    {
      "type": "Feature",
      "properties": {
        "id": "train_076_BND_043",
        "parcel_id": "train_076_P_011",
        "boundary_type": "VISIBLE",
        "confidence": 0.936,
        "length_m": 41.86,
        "evidence_sources": [
          "Drone_RGB_Edge",
          "DSM_Breakline"
        ]
      },
      "geometry": {
        "type": "LineString",
        "coordinates": [
          [
            77.6259767,
            13.0056299
          ],
          [
            77.6255914,
            13.0056467
          ]
        ]
      }
    },
    {
      "type": "Feature",
      "properties": {
        "id": "train_076_BND_044",
        "parcel_id": "train_076_P_011",
        "boundary_type": "INFERRED",
        "confidence": 0.662,
        "length_m": 54.43,
        "evidence_sources": [
          "Road_Corridor_Offset",
          "Adjacent_Parcel_Topology"
        ]
      },
      "geometry": {
        "type": "LineString",
        "coordinates": [
          [
            77.6255914,
            13.0056467
          ],
          [
            77.6255512,
            13.0061368
          ]
        ]
      }
    },
    {
      "type": "Feature",
      "properties": {
        "id": "train_076_BND_045",
        "parcel_id": "train_076_P_012",
        "boundary_type": "VISIBLE",
        "confidence": 0.905,
        "length_m": 43.41,
        "evidence_sources": [
          "Drone_RGB_Edge",
          "DSM_Breakline"
        ]
      },
      "geometry": {
        "type": "LineString",
        "coordinates": [
          [
            77.625549,
            13.0055971
          ],
          [
            77.6259489,
            13.005603
          ]
        ]
      }
    },
    {
      "type": "Feature",
      "properties": {
        "id": "train_076_BND_046",
        "parcel_id": "train_076_P_012",
        "boundary_type": "INFERRED",
        "confidence": 0.631,
        "length_m": 57.62,
        "evidence_sources": [
          "Road_Corridor_Offset",
          "Adjacent_Parcel_Topology"
        ]
      },
      "geometry": {
        "type": "LineString",
        "coordinates": [
          [
            77.6259489,
            13.005603
          ],
          [
            77.6259728,
            13.005083
          ]
        ]
      }
    },
    {
      "type": "Feature",
      "properties": {
        "id": "train_076_BND_047",
        "parcel_id": "train_076_P_012",
        "boundary_type": "VISIBLE",
        "confidence": 0.885,
        "length_m": 44.85,
        "evidence_sources": [
          "Drone_RGB_Edge",
          "DSM_Breakline"
        ]
      },
      "geometry": {
        "type": "LineString",
        "coordinates": [
          [
            77.6259728,
            13.005083
          ],
          [
            77.6255597,
            13.0050754
          ]
        ]
      }
    },
    {
      "type": "Feature",
      "properties": {
        "id": "train_076_BND_048",
        "parcel_id": "train_076_P_012",
        "boundary_type": "INFERRED",
        "confidence": 0.736,
        "length_m": 57.76,
        "evidence_sources": [
          "Road_Corridor_Offset",
          "Adjacent_Parcel_Topology"
        ]
      },
      "geometry": {
        "type": "LineString",
        "coordinates": [
          [
            77.6255597,
            13.0050754
          ],
          [
            77.625549,
            13.0055971
          ]
        ]
      }
    },
    {
      "type": "Feature",
      "properties": {
        "id": "train_076_BND_049",
        "parcel_id": "train_076_P_013",
        "boundary_type": "VISIBLE",
        "confidence": 0.851,
        "length_m": 56.03,
        "evidence_sources": [
          "Drone_RGB_Edge",
          "DSM_Breakline"
        ]
      },
      "geometry": {
        "type": "LineString",
        "coordinates": [
          [
            77.6261653,
            13.0060888
          ],
          [
            77.6266808,
            13.0061143
          ]
        ]
      }
    },
    {
      "type": "Feature",
      "properties": {
        "id": "train_076_BND_050",
        "parcel_id": "train_076_P_013",
        "boundary_type": "VISIBLE",
        "confidence": 0.947,
        "length_m": 55.91,
        "evidence_sources": [
          "Drone_RGB_Edge",
          "DSM_Breakline"
        ]
      },
      "geometry": {
        "type": "LineString",
        "coordinates": [
          [
            77.6266808,
            13.0061143
          ],
          [
            77.6267377,
            13.0056123
          ]
        ]
      }
    },
    {
      "type": "Feature",
      "properties": {
        "id": "train_076_BND_051",
        "parcel_id": "train_076_P_013",
        "boundary_type": "VISIBLE",
        "confidence": 0.867,
        "length_m": 62.53,
        "evidence_sources": [
          "Drone_RGB_Edge",
          "DSM_Breakline"
        ]
      },
      "geometry": {
        "type": "LineString",
        "coordinates": [
          [
            77.6267377,
            13.0056123
          ],
          [
            77.6261631,
            13.0056519
          ]
        ]
      }
    },
    {
      "type": "Feature",
      "properties": {
        "id": "train_076_BND_052",
        "parcel_id": "train_076_P_013",
        "boundary_type": "VISIBLE",
        "confidence": 0.918,
        "length_m": 48.36,
        "evidence_sources": [
          "Drone_RGB_Edge",
          "DSM_Breakline"
        ]
      },
      "geometry": {
        "type": "LineString",
        "coordinates": [
          [
            77.6261631,
            13.0056519
          ],
          [
            77.6261653,
            13.0060888
          ]
        ]
      }
    },
    {
      "type": "Feature",
      "properties": {
        "id": "train_076_BND_053",
        "parcel_id": "train_076_P_014",
        "boundary_type": "VISIBLE",
        "confidence": 0.948,
        "length_m": 53.35,
        "evidence_sources": [
          "Drone_RGB_Edge",
          "DSM_Breakline"
        ]
      },
      "geometry": {
        "type": "LineString",
        "coordinates": [
          [
            77.6262083,
            13.0055901
          ],
          [
            77.6266992,
            13.005567
          ]
        ]
      }
    },
    {
      "type": "Feature",
      "properties": {
        "id": "train_076_BND_054",
        "parcel_id": "train_076_P_014",
        "boundary_type": "VISIBLE",
        "confidence": 0.884,
        "length_m": 50.72,
        "evidence_sources": [
          "Drone_RGB_Edge",
          "DSM_Breakline"
        ]
      },
      "geometry": {
        "type": "LineString",
        "coordinates": [
          [
            77.6266992,
            13.005567
          ],
          [
            77.6267318,
            13.0051099
          ]
        ]
      }
    },
    {
      "type": "Feature",
      "properties": {
        "id": "train_076_BND_055",
        "parcel_id": "train_076_P_014",
        "boundary_type": "VISIBLE",
        "confidence": 0.873,
        "length_m": 60.11,
        "evidence_sources": [
          "Drone_RGB_Edge",
          "DSM_Breakline"
        ]
      },
      "geometry": {
        "type": "LineString",
        "coordinates": [
          [
            77.6267318,
            13.0051099
          ],
          [
            77.6261783,
            13.0051276
          ]
        ]
      }
    },
    {
      "type": "Feature",
      "properties": {
        "id": "train_076_BND_056",
        "parcel_id": "train_076_P_014",
        "boundary_type": "INFERRED",
        "confidence": 0.61,
        "length_m": 51.3,
        "evidence_sources": [
          "Road_Corridor_Offset",
          "Adjacent_Parcel_Topology"
        ]
      },
      "geometry": {
        "type": "LineString",
        "coordinates": [
          [
            77.6261783,
            13.0051276
          ],
          [
            77.6262083,
            13.0055901
          ]
        ]
      }
    },
    {
      "type": "Feature",
      "properties": {
        "id": "train_076_BND_057",
        "parcel_id": "train_076_P_015",
        "boundary_type": "VISIBLE",
        "confidence": 0.951,
        "length_m": 58.02,
        "evidence_sources": [
          "Drone_RGB_Edge",
          "DSM_Breakline"
        ]
      },
      "geometry": {
        "type": "LineString",
        "coordinates": [
          [
            77.6267711,
            13.0061027
          ],
          [
            77.6273051,
            13.0060795
          ]
        ]
      }
    },
    {
      "type": "Feature",
      "properties": {
        "id": "train_076_BND_058",
        "parcel_id": "train_076_P_015",
        "boundary_type": "VISIBLE",
        "confidence": 0.872,
        "length_m": 46.83,
        "evidence_sources": [
          "Drone_RGB_Edge",
          "DSM_Breakline"
        ]
      },
      "geometry": {
        "type": "LineString",
        "coordinates": [
          [
            77.6273051,
            13.0060795
          ],
          [
            77.6273074,
            13.0056565
          ]
        ]
      }
    },
    {
      "type": "Feature",
      "properties": {
        "id": "train_076_BND_059",
        "parcel_id": "train_076_P_015",
        "boundary_type": "INFERRED",
        "confidence": 0.659,
        "length_m": 61.07,
        "evidence_sources": [
          "Road_Corridor_Offset",
          "Adjacent_Parcel_Topology"
        ]
      },
      "geometry": {
        "type": "LineString",
        "coordinates": [
          [
            77.6273074,
            13.0056565
          ],
          [
            77.6267457,
            13.0056254
          ]
        ]
      }
    },
    {
      "type": "Feature",
      "properties": {
        "id": "train_076_BND_060",
        "parcel_id": "train_076_P_015",
        "boundary_type": "VISIBLE",
        "confidence": 0.906,
        "length_m": 52.91,
        "evidence_sources": [
          "Drone_RGB_Edge",
          "DSM_Breakline"
        ]
      },
      "geometry": {
        "type": "LineString",
        "coordinates": [
          [
            77.6267457,
            13.0056254
          ],
          [
            77.6267711,
            13.0061027
          ]
        ]
      }
    },
    {
      "type": "Feature",
      "properties": {
        "id": "train_076_BND_061",
        "parcel_id": "train_076_P_016",
        "boundary_type": "VISIBLE",
        "confidence": 0.92,
        "length_m": 58.2,
        "evidence_sources": [
          "Drone_RGB_Edge",
          "DSM_Breakline"
        ]
      },
      "geometry": {
        "type": "LineString",
        "coordinates": [
          [
            77.6267782,
            13.0056014
          ],
          [
            77.627314,
            13.0055811
          ]
        ]
      }
    },
    {
      "type": "Feature",
      "properties": {
        "id": "train_076_BND_062",
        "parcel_id": "train_076_P_016",
        "boundary_type": "INFERRED",
        "confidence": 0.618,
        "length_m": 54.12,
        "evidence_sources": [
          "Road_Corridor_Offset",
          "Adjacent_Parcel_Topology"
        ]
      },
      "geometry": {
        "type": "LineString",
        "coordinates": [
          [
            77.627314,
            13.0055811
          ],
          [
            77.6273035,
            13.0050923
          ]
        ]
      }
    },
    {
      "type": "Feature",
      "properties": {
        "id": "train_076_BND_063",
        "parcel_id": "train_076_P_016",
        "boundary_type": "VISIBLE",
        "confidence": 0.944,
        "length_m": 60.06,
        "evidence_sources": [
          "Drone_RGB_Edge",
          "DSM_Breakline"
        ]
      },
      "geometry": {
        "type": "LineString",
        "coordinates": [
          [
            77.6273035,
            13.0050923
          ],
          [
            77.626752,
            13.0051358
          ]
        ]
      }
    },
    {
      "type": "Feature",
      "properties": {
        "id": "train_076_BND_064",
        "parcel_id": "train_076_P_016",
        "boundary_type": "VISIBLE",
        "confidence": 0.889,
        "length_m": 51.62,
        "evidence_sources": [
          "Drone_RGB_Edge",
          "DSM_Breakline"
        ]
      },
      "geometry": {
        "type": "LineString",
        "coordinates": [
          [
            77.626752,
            13.0051358
          ],
          [
            77.6267782,
            13.0056014
          ]
        ]
      }
    }
  ]
}