{
  "type": "FeatureCollection",
  "crs": {
    "type": "name",
    "properties": {
      "name": "EPSG:4326"
    }
  },
  "features": [
    {
      "type": "Feature",
      "properties": {
        "id": "train_089_REF_001",
        "parcel_id": "train_089_P_001",
        "parcel_layer": "REFERENCE",
        "boundary_representation": "REFERENCE",
        "land_use_class": "vegetation",
        "area_sqm": 1611.8,
        "perimeter_m": 160.79,
        "source": "Synthetic Legacy Cadastral Map (Non-Authoritative Demo)"
      },
      "geometry": {
        "type": "Polygon",
        "coordinates": [
          [
            [
              77.6190753,
              13.0103427
            ],
            [
              77.6194278,
              13.0103408
            ],
            [
              77.6194335,
              13.0099616
            ],
            [
              77.6190809,
              13.0099609
            ],
            [
              77.6190753,
              13.0103427
            ]
          ]
        ]
      }
    },
    {
      "type": "Feature",
      "properties": {
        "id": "train_089_REF_002",
        "parcel_id": "train_089_P_002",
        "parcel_layer": "REFERENCE",
        "boundary_representation": "REFERENCE",
        "land_use_class": "vacant",
        "area_sqm": 1586.68,
        "perimeter_m": 159.38,
        "source": "Synthetic Legacy Cadastral Map (Non-Authoritative Demo)"
      },
      "geometry": {
        "type": "Polygon",
        "coordinates": [
          [
            [
              77.619063,
              13.0099369
            ],
            [
              77.6194271,
              13.009936
            ],
            [
              77.6194397,
              13.0095758
            ],
            [
              77.6190672,
              13.0095799
            ],
            [
              77.619063,
              13.0099369
            ]
          ]
        ]
      }
    },
    {
      "type": "Feature",
      "properties": {
        "id": "train_089_REF_003",
        "parcel_id": "train_089_P_003",
        "parcel_layer": "REFERENCE",
        "boundary_representation": "REFERENCE",
        "land_use_class": "vacant",
        "area_sqm": 1548.33,
        "perimeter_m": 157.46,
        "source": "Synthetic Legacy Cadastral Map (Non-Authoritative Demo)"
      },
      "geometry": {
        "type": "Polygon",
        "coordinates": [
          [
            [
              77.6194633,
              13.0103342
            ],
            [
              77.6198207,
              13.0103317
            ],
            [
              77.6198165,
              13.0099692
            ],
            [
              77.6194684,
              13.0099661
            ],
            [
              77.6194633,
              13.0103342
            ]
          ]
        ]
      }
    },
    {
      "type": "Feature",
      "properties": {
        "id": "train_089_REF_004",
        "parcel_id": "train_089_P_004",
        "parcel_layer": "REFERENCE",
        "boundary_representation": "REFERENCE",
        "land_use_class": "industrial",
        "area_sqm": 1612.08,
        "perimeter_m": 160.85,
        "source": "Synthetic Legacy Cadastral Map (Non-Authoritative Demo)"
      },
      "geometry": {
        "type": "Polygon",
        "coordinates": [
          [
            [
              77.6194978,
              13.0099633
            ],
            [
              77.6198459,
              13.009969
            ],
            [
              77.6198514,
              13.009582
            ],
            [
              77.6194993,
              13.0095839
            ],
            [
              77.6194978,
              13.0099633
            ]
          ]
        ]
      }
    },
    {
      "type": "Feature",
      "properties": {
        "id": "train_089_REF_005",
        "parcel_id": "train_089_P_005",
        "parcel_layer": "REFERENCE",
        "boundary_representation": "REFERENCE",
        "land_use_class": "residential",
        "area_sqm": 2809.47,
        "perimeter_m": 219.33,
        "source": "Synthetic Legacy Cadastral Map (Non-Authoritative Demo)"
      },
      "geometry": {
        "type": "Polygon",
        "coordinates": [
          [
            [
              77.6200263,
              13.0103345
            ],
            [
              77.6206615,
              13.0103305
            ],
            [
              77.6206635,
              13.0099711
            ],
            [
              77.6200301,
              13.0099567
            ],
            [
              77.6200263,
              13.0103345
            ]
          ]
        ]
      }
    },
    {
      "type": "Feature",
      "properties": {
        "id": "train_089_REF_006",
        "parcel_id": "train_089_P_006",
        "parcel_layer": "REFERENCE",
        "boundary_representation": "REFERENCE",
        "land_use_class": "residential",
        "area_sqm": 2854.48,
        "perimeter_m": 221.05,
        "source": "Synthetic Legacy Cadastral Map (Non-Authoritative Demo)"
      },
      "geometry": {
        "type": "Polygon",
        "coordinates": [
          [
            [
              77.6200375,
              13.0099496
            ],
            [
              77.6206688,
              13.0099344
            ],
            [
              77.6206684,
              13.0095591
            ],
            [
              77.6200224,
              13.0095814
            ],
            [
              77.6200375,
              13.0099496
            ]
          ]
        ]
      }
    },
    {
      "type": "Feature",
      "properties": {
        "id": "train_089_REF_007",
        "parcel_id": "train_089_P_007",
        "parcel_layer": "REFERENCE",
        "boundary_representation": "REFERENCE",
        "land_use_class": "residential",
        "area_sqm": 2775.17,
        "perimeter_m": 218.22,
        "source": "Synthetic Legacy Cadastral Map (Non-Authoritative Demo)"
      },
      "geometry": {
        "type": "Polygon",
        "coordinates": [
          [
            [
              77.62068,
              13.01033
            ],
            [
              77.621315,
              13.010343
            ],
            [
              77.6213117,
              13.009969
            ],
            [
              77.6206806,
              13.0099743
            ],
            [
              77.62068,
              13.01033
            ]
          ]
        ]
      }
    },
    {
      "type": "Feature",
      "properties": {
        "id": "train_089_REF_008",
        "parcel_id": "train_089_P_008",
        "parcel_layer": "REFERENCE",
        "boundary_representation": "REFERENCE",
        "land_use_class": "commercial",
        "area_sqm": 2870.51,
        "perimeter_m": 220.6,
        "source": "Synthetic Legacy Cadastral Map (Non-Authoritative Demo)"
      },
      "geometry": {
        "type": "Polygon",
        "coordinates": [
          [
            [
              77.6207293,
              13.0099703
            ],
            [
              77.6213516,
              13.009949
            ],
            [
              77.6213445,
              13.0095798
            ],
            [
              77.6207108,
              13.0095791
            ],
            [
              77.6207293,
              13.0099703
            ]
          ]
        ]
      }
    },
    {
      "type": "Feature",
      "properties": {
        "id": "train_089_REF_009",
        "parcel_id": "train_089_P_009",
        "parcel_layer": "REFERENCE",
        "boundary_representation": "REFERENCE",
        "land_use_class": "mixed_use",
        "area_sqm": 2668.66,
        "perimeter_m": 212.32,
        "source": "Synthetic Legacy Cadastral Map (Non-Authoritative Demo)"
      },
      "geometry": {
        "type": "Polygon",
        "coordinates": [
          [
            [
              77.6190647,
              13.0092925
            ],
            [
              77.6194429,
              13.0092931
            ],
            [
              77.6194431,
              13.0087004
            ],
            [
              77.6190679,
              13.008706
            ],
            [
              77.6190647,
              13.0092925
            ]
          ]
        ]
      }
    },
    {
      "type": "Feature",
      "properties": {
        "id": "train_089_REF_010",
        "parcel_id": "train_089_P_010",
        "parcel_layer": "REFERENCE",
        "boundary_representation": "REFERENCE",
        "land_use_class": "vegetation",
        "area_sqm": 2561.43,
        "perimeter_m": 208.41,
        "source": "Synthetic Legacy Cadastral Map (Non-Authoritative Demo)"
      },
      "geometry": {
        "type": "Polygon",
        "coordinates": [
          [
            [
              77.6190799,
              13.0086746
            ],
            [
              77.6194366,
              13.0086779
            ],
            [
              77.6194418,
              13.0080972
            ],
            [
              77.619066,
              13.0080911
            ],
            [
              77.6190799,
              13.0086746
            ]
          ]
        ]
      }
    },
    {
      "type": "Feature",
      "properties": {
        "id": "train_089_REF_011",
        "parcel_id": "train_089_P_011",
        "parcel_layer": "REFERENCE",
        "boundary_representation": "REFERENCE",
        "land_use_class": "vegetation",
        "area_sqm": 2581.73,
        "perimeter_m": 209.6,
        "source": "Synthetic Legacy Cadastral Map (Non-Authoritative Demo)"
      },
      "geometry": {
        "type": "Polygon",
        "coordinates": [
          [
            [
              77.619452,
              13.0092923
            ],
            [
              77.6198168,
              13.0092777
            ],
            [
              77.6198205,
              13.0087033
            ],
            [
              77.6194549,
              13.00869
            ],
            [
              77.619452,
              13.0092923
            ]
          ]
        ]
      }
    },
    {
      "type": "Feature",
      "properties": {
        "id": "train_089_REF_012",
        "parcel_id": "train_089_P_012",
        "parcel_layer": "REFERENCE",
        "boundary_representation": "REFERENCE",
        "land_use_class": "vacant",
        "area_sqm": 2556.96,
        "perimeter_m": 209.09,
        "source": "Synthetic Legacy Cadastral Map (Non-Authoritative Demo)"
      },
      "geometry": {
        "type": "Polygon",
        "coordinates": [
          [
            [
              77.6194987,
              13.0086828
            ],
            [
              77.6198474,
              13.0086986
            ],
            [
              77.6198553,
              13.0081032
            ],
            [
              77.6194836,
              13.0080964
            ],
            [
              77.6194987,
              13.0086828
            ]
          ]
        ]
      }
    },
    {
      "type": "Feature",
      "properties": {
        "id": "train_089_REF_013",
        "parcel_id": "train_089_P_013",
        "parcel_layer": "REFERENCE",
        "boundary_representation": "REFERENCE",
        "land_use_class": "industrial",
        "area_sqm": 4375.17,
        "perimeter_m": 264.71,
        "source": "Synthetic Legacy Cadastral Map (Non-Authoritative Demo)"
      },
      "geometry": {
        "type": "Polygon",
        "coordinates": [
          [
            [
              77.6200371,
              13.0092862
            ],
            [
              77.6206607,
              13.0092805
            ],
            [
              77.6206677,
              13.0087063
            ],
            [
              77.6200356,
              13.0087005
            ],
            [
              77.6200371,
              13.0092862
            ]
          ]
        ]
      }
    },
    {
      "type": "Feature",
      "properties": {
        "id": "train_089_REF_014",
        "parcel_id": "train_089_P_014",
        "parcel_layer": "REFERENCE",
        "boundary_representation": "REFERENCE",
        "land_use_class": "water",
        "area_sqm": 4446.56,
        "perimeter_m": 266.87,
        "source": "Synthetic Legacy Cadastral Map (Non-Authoritative Demo)"
      },
      "geometry": {
        "type": "Polygon",
        "coordinates": [
          [
            [
              77.6200313,
              13.0086719
            ],
            [
              77.6206522,
              13.0086739
            ],
            [
              77.6206698,
              13.0080821
            ],
            [
              77.6200289,
              13.0080905
            ],
            [
              77.6200313,
              13.0086719
            ]
          ]
        ]
      }
    },
    {
      "type": "Feature",
      "properties": {
        "id": "train_089_REF_015",
        "parcel_id": "train_089_P_015",
        "parcel_layer": "REFERENCE",
        "boundary_representation": "REFERENCE",
        "land_use_class": "residential",
        "area_sqm": 4503.21,
        "perimeter_m": 268.57,
        "source": "Synthetic Legacy Cadastral Map (Non-Authoritative Demo)"
      },
      "geometry": {
        "type": "Polygon",
        "coordinates": [
          [
            [
              77.6206766,
              13.0092797
            ],
            [
              77.6213106,
              13.0092945
            ],
            [
              77.6213257,
              13.0086929
            ],
            [
              77.6206892,
              13.0087015
            ],
            [
              77.6206766,
              13.0092797
            ]
          ]
        ]
      }
    },
    {
      "type": "Feature",
      "properties": {
        "id": "train_089_REF_016",
        "parcel_id": "train_089_P_016",
        "parcel_layer": "REFERENCE",
        "boundary_representation": "REFERENCE",
        "land_use_class": "agricultural",
        "area_sqm": 4450.38,
        "perimeter_m": 267.01,
        "source": "Synthetic Legacy Cadastral Map (Non-Authoritative Demo)"
      },
      "geometry": {
        "type": "Polygon",
        "coordinates": [
          [
            [
              77.6207268,
              13.0087028
            ],
            [
              77.6213644,
              13.0086905
            ],
            [
              77.6213508,
              13.008118
            ],
            [
              77.6207231,
              13.0081044
            ],
            [
              77.6207268,
              13.0087028
            ]
          ]
        ]
      }
    }
  ]
}