{
  "type": "FeatureCollection",
  "crs": {
    "type": "name",
    "properties": {
      "name": "EPSG:4326"
    }
  },
  "features": [
    {
      "type": "Feature",
      "properties": {
        "id": "train_062_BND_001",
        "parcel_id": "train_062_P_001",
        "boundary_type": "VISIBLE",
        "confidence": 0.821,
        "length_m": 58.0,
        "evidence_sources": [
          "Drone_RGB_Edge",
          "DSM_Breakline"
        ]
      },
      "geometry": {
        "type": "LineString",
        "coordinates": [
          [
            77.6280734,
            13.0043358
          ],
          [
            77.6286077,
            13.004343
          ]
        ]
      }
    },
    {
      "type": "Feature",
      "properties": {
        "id": "train_062_BND_002",
        "parcel_id": "train_062_P_001",
        "boundary_type": "INFERRED",
        "confidence": 0.68,
        "length_m": 67.13,
        "evidence_sources": [
          "Road_Corridor_Offset",
          "Adjacent_Parcel_Topology"
        ]
      },
      "geometry": {
        "type": "LineString",
        "coordinates": [
          [
            77.6286077,
            13.004343
          ],
          [
            77.6286058,
            13.0037366
          ]
        ]
      }
    },
    {
      "type": "Feature",
      "properties": {
        "id": "train_062_BND_003",
        "parcel_id": "train_062_P_001",
        "boundary_type": "VISIBLE",
        "confidence": 0.914,
        "length_m": 57.78,
        "evidence_sources": [
          "Drone_RGB_Edge",
          "DSM_Breakline"
        ]
      },
      "geometry": {
        "type": "LineString",
        "coordinates": [
          [
            77.6286058,
            13.0037366
          ],
          [
            77.6280735,
            13.0037417
          ]
        ]
      }
    },
    {
      "type": "Feature",
      "properties": {
        "id": "train_062_BND_004",
        "parcel_id": "train_062_P_001",
        "boundary_type": "INFERRED",
        "confidence": 0.753,
        "length_m": 65.77,
        "evidence_sources": [
          "Road_Corridor_Offset",
          "Adjacent_Parcel_Topology"
        ]
      },
      "geometry": {
        "type": "LineString",
        "coordinates": [
          [
            77.6280735,
            13.0037417
          ],
          [
            77.6280734,
            13.0043358
          ]
        ]
      }
    },
    {
      "type": "Feature",
      "properties": {
        "id": "train_062_BND_005",
        "parcel_id": "train_062_P_002",
        "boundary_type": "INFERRED",
        "confidence": 0.651,
        "length_m": 59.6,
        "evidence_sources": [
          "Road_Corridor_Offset",
          "Adjacent_Parcel_Topology"
        ]
      },
      "geometry": {
        "type": "LineString",
        "coordinates": [
          [
            77.628062,
            13.0037236
          ],
          [
            77.6286111,
            13.0037228
          ]
        ]
      }
    },
    {
      "type": "Feature",
      "properties": {
        "id": "train_062_BND_006",
        "parcel_id": "train_062_P_002",
        "boundary_type": "VISIBLE",
        "confidence": 0.95,
        "length_m": 65.9,
        "evidence_sources": [
          "Drone_RGB_Edge",
          "DSM_Breakline"
        ]
      },
      "geometry": {
        "type": "LineString",
        "coordinates": [
          [
            77.6286111,
            13.0037228
          ],
          [
            77.6286208,
            13.0031276
          ]
        ]
      }
    },
    {
      "type": "Feature",
      "properties": {
        "id": "train_062_BND_007",
        "parcel_id": "train_062_P_002",
        "boundary_type": "VISIBLE",
        "confidence": 0.843,
        "length_m": 59.54,
        "evidence_sources": [
          "Drone_RGB_Edge",
          "DSM_Breakline"
        ]
      },
      "geometry": {
        "type": "LineString",
        "coordinates": [
          [
            77.6286208,
            13.0031276
          ],
          [
            77.6280725,
            13.0031418
          ]
        ]
      }
    },
    {
      "type": "Feature",
      "properties": {
        "id": "train_062_BND_008",
        "parcel_id": "train_062_P_002",
        "boundary_type": "VISIBLE",
        "confidence": 0.888,
        "length_m": 64.41,
        "evidence_sources": [
          "Drone_RGB_Edge",
          "DSM_Breakline"
        ]
      },
      "geometry": {
        "type": "LineString",
        "coordinates": [
          [
            77.6280725,
            13.0031418
          ],
          [
            77.628062,
            13.0037236
          ]
        ]
      }
    },
    {
      "type": "Feature",
      "properties": {
        "id": "train_062_BND_009",
        "parcel_id": "train_062_P_003",
        "boundary_type": "VISIBLE",
        "confidence": 0.844,
        "length_m": 58.57,
        "evidence_sources": [
          "Drone_RGB_Edge",
          "DSM_Breakline"
        ]
      },
      "geometry": {
        "type": "LineString",
        "coordinates": [
          [
            77.6286419,
            13.0043294
          ],
          [
            77.6291814,
            13.0043387
          ]
        ]
      }
    },
    {
      "type": "Feature",
      "properties": {
        "id": "train_062_BND_010",
        "parcel_id": "train_062_P_003",
        "boundary_type": "INFERRED",
        "confidence": 0.659,
        "length_m": 65.07,
        "evidence_sources": [
          "Road_Corridor_Offset",
          "Adjacent_Parcel_Topology"
        ]
      },
      "geometry": {
        "type": "LineString",
        "coordinates": [
          [
            77.6291814,
            13.0043387
          ],
          [
            77.6291781,
            13.0037509
          ]
        ]
      }
    },
    {
      "type": "Feature",
      "properties": {
        "id": "train_062_BND_011",
        "parcel_id": "train_062_P_003",
        "boundary_type": "VISIBLE",
        "confidence": 0.907,
        "length_m": 58.93,
        "evidence_sources": [
          "Drone_RGB_Edge",
          "DSM_Breakline"
        ]
      },
      "geometry": {
        "type": "LineString",
        "coordinates": [
          [
            77.6291781,
            13.0037509
          ],
          [
            77.6286353,
            13.0037439
          ]
        ]
      }
    },
    {
      "type": "Feature",
      "properties": {
        "id": "train_062_BND_012",
        "parcel_id": "train_062_P_003",
        "boundary_type": "INFERRED",
        "confidence": 0.712,
        "length_m": 64.82,
        "evidence_sources": [
          "Road_Corridor_Offset",
          "Adjacent_Parcel_Topology"
        ]
      },
      "geometry": {
        "type": "LineString",
        "coordinates": [
          [
            77.6286353,
            13.0037439
          ],
          [
            77.6286419,
            13.0043294
          ]
        ]
      }
    },
    {
      "type": "Feature",
      "properties": {
        "id": "train_062_BND_013",
        "parcel_id": "train_062_P_004",
        "boundary_type": "VISIBLE",
        "confidence": 0.911,
        "length_m": 60.12,
        "evidence_sources": [
          "Drone_RGB_Edge",
          "DSM_Breakline"
        ]
      },
      "geometry": {
        "type": "LineString",
        "coordinates": [
          [
            77.6286421,
            13.0037168
          ],
          [
            77.6291959,
            13.0037215
          ]
        ]
      }
    },
    {
      "type": "Feature",
      "properties": {
        "id": "train_062_BND_014",
        "parcel_id": "train_062_P_004",
        "boundary_type": "VISIBLE",
        "confidence": 0.943,
        "length_m": 65.91,
        "evidence_sources": [
          "Drone_RGB_Edge",
          "DSM_Breakline"
        ]
      },
      "geometry": {
        "type": "LineString",
        "coordinates": [
          [
            77.6291959,
            13.0037215
          ],
          [
            77.6291785,
            13.0031263
          ]
        ]
      }
    },
    {
      "type": "Feature",
      "properties": {
        "id": "train_062_BND_015",
        "parcel_id": "train_062_P_004",
        "boundary_type": "VISIBLE",
        "confidence": 0.908,
        "length_m": 57.66,
        "evidence_sources": [
          "Drone_RGB_Edge",
          "DSM_Breakline"
        ]
      },
      "geometry": {
        "type": "LineString",
        "coordinates": [
          [
            77.6291785,
            13.0031263
          ],
          [
            77.6286475,
            13.0031402
          ]
        ]
      }
    },
    {
      "type": "Feature",
      "properties": {
        "id": "train_062_BND_016",
        "parcel_id": "train_062_P_004",
        "boundary_type": "VISIBLE",
        "confidence": 0.885,
        "length_m": 63.83,
        "evidence_sources": [
          "Drone_RGB_Edge",
          "DSM_Breakline"
        ]
      },
      "geometry": {
        "type": "LineString",
        "coordinates": [
          [
            77.6286475,
            13.0031402
          ],
          [
            77.6286421,
            13.0037168
          ]
        ]
      }
    },
    {
      "type": "Feature",
      "properties": {
        "id": "train_062_BND_017",
        "parcel_id": "train_062_P_005",
        "boundary_type": "INFERRED",
        "confidence": 0.694,
        "length_m": 49.88,
        "evidence_sources": [
          "Road_Corridor_Offset",
          "Adjacent_Parcel_Topology"
        ]
      },
      "geometry": {
        "type": "LineString",
        "coordinates": [
          [
            77.6293722,
            13.0043282
          ],
          [
            77.6298317,
            13.0043245
          ]
        ]
      }
    },
    {
      "type": "Feature",
      "properties": {
        "id": "train_062_BND_018",
        "parcel_id": "train_062_P_005",
        "boundary_type": "INFERRED",
        "confidence": 0.651,
        "length_m": 63.89,
        "evidence_sources": [
          "Road_Corridor_Offset",
          "Adjacent_Parcel_Topology"
        ]
      },
      "geometry": {
        "type": "LineString",
        "coordinates": [
          [
            77.6298317,
            13.0043245
          ],
          [
            77.6298168,
            13.0037475
          ]
        ]
      }
    },
    {
      "type": "Feature",
      "properties": {
        "id": "train_062_BND_019",
        "parcel_id": "train_062_P_005",
        "boundary_type": "VISIBLE",
        "confidence": 0.839,
        "length_m": 50.02,
        "evidence_sources": [
          "Drone_RGB_Edge",
          "DSM_Breakline"
        ]
      },
      "geometry": {
        "type": "LineString",
        "coordinates": [
          [
            77.6298168,
            13.0037475
          ],
          [
            77.6293561,
            13.0037554
          ]
        ]
      }
    },
    {
      "type": "Feature",
      "properties": {
        "id": "train_062_BND_020",
        "parcel_id": "train_062_P_005",
        "boundary_type": "INFERRED",
        "confidence": 0.74,
        "length_m": 63.43,
        "evidence_sources": [
          "Road_Corridor_Offset",
          "Adjacent_Parcel_Topology"
        ]
      },
      "geometry": {
        "type": "LineString",
        "coordinates": [
          [
            77.6293561,
            13.0037554
          ],
          [
            77.6293722,
            13.0043282
          ]
        ]
      }
    },
    {
      "type": "Feature",
      "properties": {
        "id": "train_062_BND_021",
        "parcel_id": "train_062_P_006",
        "boundary_type": "VISIBLE",
        "confidence": 0.828,
        "length_m": 50.06,
        "evidence_sources": [
          "Drone_RGB_Edge",
          "DSM_Breakline"
        ]
      },
      "geometry": {
        "type": "LineString",
        "coordinates": [
          [
            77.6293682,
            13.003729
          ],
          [
            77.6298292,
            13.0037183
          ]
        ]
      }
    },
    {
      "type": "Feature",
      "properties": {
        "id": "train_062_BND_022",
        "parcel_id": "train_062_P_006",
        "boundary_type": "INFERRED",
        "confidence": 0.628,
        "length_m": 65.05,
        "evidence_sources": [
          "Road_Corridor_Offset",
          "Adjacent_Parcel_Topology"
        ]
      },
      "geometry": {
        "type": "LineString",
        "coordinates": [
          [
            77.6298292,
            13.0037183
          ],
          [
            77.6298309,
            13.0031307
          ]
        ]
      }
    },
    {
      "type": "Feature",
      "properties": {
        "id": "train_062_BND_023",
        "parcel_id": "train_062_P_006",
        "boundary_type": "VISIBLE",
        "confidence": 0.836,
        "length_m": 50.93,
        "evidence_sources": [
          "Drone_RGB_Edge",
          "DSM_Breakline"
        ]
      },
      "geometry": {
        "type": "LineString",
        "coordinates": [
          [
            77.6298309,
            13.0031307
          ],
          [
            77.6293617,
            13.0031329
          ]
        ]
      }
    },
    {
      "type": "Feature",
      "properties": {
        "id": "train_062_BND_024",
        "parcel_id": "train_062_P_006",
        "boundary_type": "VISIBLE",
        "confidence": 0.899,
        "length_m": 65.99,
        "evidence_sources": [
          "Drone_RGB_Edge",
          "DSM_Breakline"
        ]
      },
      "geometry": {
        "type": "LineString",
        "coordinates": [
          [
            77.6293617,
            13.0031329
          ],
          [
            77.6293682,
            13.003729
          ]
        ]
      }
    },
    {
      "type": "Feature",
      "properties": {
        "id": "train_062_BND_025",
        "parcel_id": "train_062_P_007",
        "boundary_type": "VISIBLE",
        "confidence": 0.944,
        "length_m": 51.21,
        "evidence_sources": [
          "Drone_RGB_Edge",
          "DSM_Breakline"
        ]
      },
      "geometry": {
        "type": "LineString",
        "coordinates": [
          [
            77.6298503,
            13.0043316
          ],
          [
            77.630322,
            13.0043405
          ]
        ]
      }
    },
    {
      "type": "Feature",
      "properties": {
        "id": "train_062_BND_026",
        "parcel_id": "train_062_P_007",
        "boundary_type": "VISIBLE",
        "confidence": 0.925,
        "length_m": 66.66,
        "evidence_sources": [
          "Drone_RGB_Edge",
          "DSM_Breakline"
        ]
      },
      "geometry": {
        "type": "LineString",
        "coordinates": [
          [
            77.630322,
            13.0043405
          ],
          [
            77.6303089,
            13.0037385
          ]
        ]
      }
    },
    {
      "type": "Feature",
      "properties": {
        "id": "train_062_BND_027",
        "parcel_id": "train_062_P_007",
        "boundary_type": "VISIBLE",
        "confidence": 0.877,
        "length_m": 50.82,
        "evidence_sources": [
          "Drone_RGB_Edge",
          "DSM_Breakline"
        ]
      },
      "geometry": {
        "type": "LineString",
        "coordinates": [
          [
            77.6303089,
            13.0037385
          ],
          [
            77.6298407,
            13.0037388
          ]
        ]
      }
    },
    {
      "type": "Feature",
      "properties": {
        "id": "train_062_BND_028",
        "parcel_id": "train_062_P_007",
        "boundary_type": "INFERRED",
        "confidence": 0.772,
        "length_m": 65.63,
        "evidence_sources": [
          "Road_Corridor_Offset",
          "Adjacent_Parcel_Topology"
        ]
      },
      "geometry": {
        "type": "LineString",
        "coordinates": [
          [
            77.6298407,
            13.0037388
          ],
          [
            77.6298503,
            13.0043316
          ]
        ]
      }
    },
    {
      "type": "Feature",
      "properties": {
        "id": "train_062_BND_029",
        "parcel_id": "train_062_P_008",
        "boundary_type": "VISIBLE",
        "confidence": 0.864,
        "length_m": 49.42,
        "evidence_sources": [
          "Drone_RGB_Edge",
          "DSM_Breakline"
        ]
      },
      "geometry": {
        "type": "LineString",
        "coordinates": [
          [
            77.6298505,
            13.0037222
          ],
          [
            77.6303058,
            13.0037211
          ]
        ]
      }
    },
    {
      "type": "Feature",
      "properties": {
        "id": "train_062_BND_030",
        "parcel_id": "train_062_P_008",
        "boundary_type": "VISIBLE",
        "confidence": 0.867,
        "length_m": 65.1,
        "evidence_sources": [
          "Drone_RGB_Edge",
          "DSM_Breakline"
        ]
      },
      "geometry": {
        "type": "LineString",
        "coordinates": [
          [
            77.6303058,
            13.0037211
          ],
          [
            77.6303168,
            13.0031331
          ]
        ]
      }
    },
    {
      "type": "Feature",
      "properties": {
        "id": "train_062_BND_031",
        "parcel_id": "train_062_P_008",
        "boundary_type": "VISIBLE",
        "confidence": 0.872,
        "length_m": 51.56,
        "evidence_sources": [
          "Drone_RGB_Edge",
          "DSM_Breakline"
        ]
      },
      "geometry": {
        "type": "LineString",
        "coordinates": [
          [
            77.6303168,
            13.0031331
          ],
          [
            77.629842,
            13.0031453
          ]
        ]
      }
    },
    {
      "type": "Feature",
      "properties": {
        "id": "train_062_BND_032",
        "parcel_id": "train_062_P_008",
        "boundary_type": "INFERRED",
        "confidence": 0.632,
        "length_m": 63.87,
        "evidence_sources": [
          "Road_Corridor_Offset",
          "Adjacent_Parcel_Topology"
        ]
      },
      "geometry": {
        "type": "LineString",
        "coordinates": [
          [
            77.629842,
            13.0031453
          ],
          [
            77.6298505,
            13.0037222
          ]
        ]
      }
    },
    {
      "type": "Feature",
      "properties": {
        "id": "train_062_BND_033",
        "parcel_id": "train_062_P_009",
        "boundary_type": "VISIBLE",
        "confidence": 0.915,
        "length_m": 59.44,
        "evidence_sources": [
          "Drone_RGB_Edge",
          "DSM_Breakline"
        ]
      },
      "geometry": {
        "type": "LineString",
        "coordinates": [
          [
            77.6280637,
            13.0028409
          ],
          [
            77.6286112,
            13.0028514
          ]
        ]
      }
    },
    {
      "type": "Feature",
      "properties": {
        "id": "train_062_BND_034",
        "parcel_id": "train_062_P_009",
        "boundary_type": "VISIBLE",
        "confidence": 0.912,
        "length_m": 40.4,
        "evidence_sources": [
          "Drone_RGB_Edge",
          "DSM_Breakline"
        ]
      },
      "geometry": {
        "type": "LineString",
        "coordinates": [
          [
            77.6286112,
            13.0028514
          ],
          [
            77.6286181,
            13.0024865
          ]
        ]
      }
    },
    {
      "type": "Feature",
      "properties": {
        "id": "train_062_BND_035",
        "parcel_id": "train_062_P_009",
        "boundary_type": "VISIBLE",
        "confidence": 0.879,
        "length_m": 59.61,
        "evidence_sources": [
          "Drone_RGB_Edge",
          "DSM_Breakline"
        ]
      },
      "geometry": {
        "type": "LineString",
        "coordinates": [
          [
            77.6286181,
            13.0024865
          ],
          [
            77.628069,
            13.0024764
          ]
        ]
      }
    },
    {
      "type": "Feature",
      "properties": {
        "id": "train_062_BND_036",
        "parcel_id": "train_062_P_009",
        "boundary_type": "VISIBLE",
        "confidence": 0.87,
        "length_m": 40.35,
        "evidence_sources": [
          "Drone_RGB_Edge",
          "DSM_Breakline"
        ]
      },
      "geometry": {
        "type": "LineString",
        "coordinates": [
          [
            77.628069,
            13.0024764
          ],
          [
            77.6280637,
            13.0028409
          ]
        ]
      }
    },
    {
      "type": "Feature",
      "properties": {
        "id": "train_062_BND_037",
        "parcel_id": "train_062_P_010",
        "boundary_type": "VISIBLE",
        "confidence": 0.921,
        "length_m": 59.31,
        "evidence_sources": [
          "Drone_RGB_Edge",
          "DSM_Breakline"
        ]
      },
      "geometry": {
        "type": "LineString",
        "coordinates": [
          [
            77.6280653,
            13.0024621
          ],
          [
            77.6286116,
            13.0024545
          ]
        ]
      }
    },
    {
      "type": "Feature",
      "properties": {
        "id": "train_062_BND_038",
        "parcel_id": "train_062_P_010",
        "boundary_type": "INFERRED",
        "confidence": 0.721,
        "length_m": 41.28,
        "evidence_sources": [
          "Road_Corridor_Offset",
          "Adjacent_Parcel_Topology"
        ]
      },
      "geometry": {
        "type": "LineString",
        "coordinates": [
          [
            77.6286116,
            13.0024545
          ],
          [
            77.6286119,
            13.0020816
          ]
        ]
      }
    },
    {
      "type": "Feature",
      "properties": {
        "id": "train_062_BND_039",
        "parcel_id": "train_062_P_010",
        "boundary_type": "VISIBLE",
        "confidence": 0.887,
        "length_m": 60.18,
        "evidence_sources": [
          "Drone_RGB_Edge",
          "DSM_Breakline"
        ]
      },
      "geometry": {
        "type": "LineString",
        "coordinates": [
          [
            77.6286119,
            13.0020816
          ],
          [
            77.6280575,
            13.0020878
          ]
        ]
      }
    },
    {
      "type": "Feature",
      "properties": {
        "id": "train_062_BND_040",
        "parcel_id": "train_062_P_010",
        "boundary_type": "VISIBLE",
        "confidence": 0.889,
        "length_m": 41.44,
        "evidence_sources": [
          "Drone_RGB_Edge",
          "DSM_Breakline"
        ]
      },
      "geometry": {
        "type": "LineString",
        "coordinates": [
          [
            77.6280575,
            13.0020878
          ],
          [
            77.6280653,
            13.0024621
          ]
        ]
      }
    },
    {
      "type": "Feature",
      "properties": {
        "id": "train_062_BND_041",
        "parcel_id": "train_062_P_011",
        "boundary_type": "VISIBLE",
        "confidence": 0.939,
        "length_m": 59.28,
        "evidence_sources": [
          "Drone_RGB_Edge",
          "DSM_Breakline"
        ]
      },
      "geometry": {
        "type": "LineString",
        "coordinates": [
          [
            77.6286346,
            13.0028609
          ],
          [
            77.6291807,
            13.0028565
          ]
        ]
      }
    },
    {
      "type": "Feature",
      "properties": {
        "id": "train_062_BND_042",
        "parcel_id": "train_062_P_011",
        "boundary_type": "INFERRED",
        "confidence": 0.729,
        "length_m": 41.06,
        "evidence_sources": [
          "Road_Corridor_Offset",
          "Adjacent_Parcel_Topology"
        ]
      },
      "geometry": {
        "type": "LineString",
        "coordinates": [
          [
            77.6291807,
            13.0028565
          ],
          [
            77.6291856,
            13.0024856
          ]
        ]
      }
    },
    {
      "type": "Feature",
      "properties": {
        "id": "train_062_BND_043",
        "parcel_id": "train_062_P_011",
        "boundary_type": "VISIBLE",
        "confidence": 0.926,
        "length_m": 58.67,
        "evidence_sources": [
          "Drone_RGB_Edge",
          "DSM_Breakline"
        ]
      },
      "geometry": {
        "type": "LineString",
        "coordinates": [
          [
            77.6291856,
            13.0024856
          ],
          [
            77.6286451,
            13.00248
          ]
        ]
      }
    },
    {
      "type": "Feature",
      "properties": {
        "id": "train_062_BND_044",
        "parcel_id": "train_062_P_011",
        "boundary_type": "VISIBLE",
        "confidence": 0.845,
        "length_m": 42.18,
        "evidence_sources": [
          "Drone_RGB_Edge",
          "DSM_Breakline"
        ]
      },
      "geometry": {
        "type": "LineString",
        "coordinates": [
          [
            77.6286451,
            13.00248
          ],
          [
            77.6286346,
            13.0028609
          ]
        ]
      }
    },
    {
      "type": "Feature",
      "properties": {
        "id": "train_062_BND_045",
        "parcel_id": "train_062_P_012",
        "boundary_type": "INFERRED",
        "confidence": 0.713,
        "length_m": 59.82,
        "evidence_sources": [
          "Road_Corridor_Offset",
          "Adjacent_Parcel_Topology"
        ]
      },
      "geometry": {
        "type": "LineString",
        "coordinates": [
          [
            77.6286466,
            13.0024542
          ],
          [
            77.6291977,
            13.0024555
          ]
        ]
      }
    },
    {
      "type": "Feature",
      "properties": {
        "id": "train_062_BND_046",
        "parcel_id": "train_062_P_012",
        "boundary_type": "INFERRED",
        "confidence": 0.775,
        "length_m": 40.31,
        "evidence_sources": [
          "Road_Corridor_Offset",
          "Adjacent_Parcel_Topology"
        ]
      },
      "geometry": {
        "type": "LineString",
        "coordinates": [
          [
            77.6291977,
            13.0024555
          ],
          [
            77.6291864,
            13.0020915
          ]
        ]
      }
    },
    {
      "type": "Feature",
      "properties": {
        "id": "train_062_BND_047",
        "parcel_id": "train_062_P_012",
        "boundary_type": "VISIBLE",
        "confidence": 0.92,
        "length_m": 59.28,
        "evidence_sources": [
          "Drone_RGB_Edge",
          "DSM_Breakline"
        ]
      },
      "geometry": {
        "type": "LineString",
        "coordinates": [
          [
            77.6291864,
            13.0020915
          ],
          [
            77.6286403,
            13.0020902
          ]
        ]
      }
    },
    {
      "type": "Feature",
      "properties": {
        "id": "train_062_BND_048",
        "parcel_id": "train_062_P_012",
        "boundary_type": "VISIBLE",
        "confidence": 0.938,
        "length_m": 40.3,
        "evidence_sources": [
          "Drone_RGB_Edge",
          "DSM_Breakline"
        ]
      },
      "geometry": {
        "type": "LineString",
        "coordinates": [
          [
            77.6286403,
            13.0020902
          ],
          [
            77.6286466,
            13.0024542
          ]
        ]
      }
    },
    {
      "type": "Feature",
      "properties": {
        "id": "train_062_BND_049",
        "parcel_id": "train_062_P_013",
        "boundary_type": "INFERRED",
        "confidence": 0.663,
        "length_m": 49.24,
        "evidence_sources": [
          "Road_Corridor_Offset",
          "Adjacent_Parcel_Topology"
        ]
      },
      "geometry": {
        "type": "LineString",
        "coordinates": [
          [
            77.629368,
            13.0028446
          ],
          [
            77.6298216,
            13.0028437
          ]
        ]
      }
    },
    {
      "type": "Feature",
      "properties": {
        "id": "train_062_BND_050",
        "parcel_id": "train_062_P_013",
        "boundary_type": "VISIBLE",
        "confidence": 0.921,
        "length_m": 41.19,
        "evidence_sources": [
          "Drone_RGB_Edge",
          "DSM_Breakline"
        ]
      },
      "geometry": {
        "type": "LineString",
        "coordinates": [
          [
            77.6298216,
            13.0028437
          ],
          [
            77.6298365,
            13.0024719
          ]
        ]
      }
    },
    {
      "type": "Feature",
      "properties": {
        "id": "train_062_BND_051",
        "parcel_id": "train_062_P_013",
        "boundary_type": "VISIBLE",
        "confidence": 0.918,
        "length_m": 51.21,
        "evidence_sources": [
          "Drone_RGB_Edge",
          "DSM_Breakline"
        ]
      },
      "geometry": {
        "type": "LineString",
        "coordinates": [
          [
            77.6298365,
            13.0024719
          ],
          [
            77.6293648,
            13.0024777
          ]
        ]
      }
    },
    {
      "type": "Feature",
      "properties": {
        "id": "train_062_BND_052",
        "parcel_id": "train_062_P_013",
        "boundary_type": "VISIBLE",
        "confidence": 0.936,
        "length_m": 40.62,
        "evidence_sources": [
          "Drone_RGB_Edge",
          "DSM_Breakline"
        ]
      },
      "geometry": {
        "type": "LineString",
        "coordinates": [
          [
            77.6293648,
            13.0024777
          ],
          [
            77.629368,
            13.0028446
          ]
        ]
      }
    },
    {
      "type": "Feature",
      "properties": {
        "id": "train_062_BND_053",
        "parcel_id": "train_062_P_014",
        "boundary_type": "VISIBLE",
        "confidence": 0.951,
        "length_m": 51.37,
        "evidence_sources": [
          "Drone_RGB_Edge",
          "DSM_Breakline"
        ]
      },
      "geometry": {
        "type": "LineString",
        "coordinates": [
          [
            77.6293593,
            13.0024674
          ],
          [
            77.6298325,
            13.0024642
          ]
        ]
      }
    },
    {
      "type": "Feature",
      "properties": {
        "id": "train_062_BND_054",
        "parcel_id": "train_062_P_014",
        "boundary_type": "INFERRED",
        "confidence": 0.739,
        "length_m": 41.58,
        "evidence_sources": [
          "Road_Corridor_Offset",
          "Adjacent_Parcel_Topology"
        ]
      },
      "geometry": {
        "type": "LineString",
        "coordinates": [
          [
            77.6298325,
            13.0024642
          ],
          [
            77.6298336,
            13.0020886
          ]
        ]
      }
    },
    {
      "type": "Feature",
      "properties": {
        "id": "train_062_BND_055",
        "parcel_id": "train_062_P_014",
        "boundary_type": "VISIBLE",
        "confidence": 0.834,
        "length_m": 50.5,
        "evidence_sources": [
          "Drone_RGB_Edge",
          "DSM_Breakline"
        ]
      },
      "geometry": {
        "type": "LineString",
        "coordinates": [
          [
            77.6298336,
            13.0020886
          ],
          [
            77.6293684,
            13.0020883
          ]
        ]
      }
    },
    {
      "type": "Feature",
      "properties": {
        "id": "train_062_BND_056",
        "parcel_id": "train_062_P_014",
        "boundary_type": "INFERRED",
        "confidence": 0.618,
        "length_m": 41.98,
        "evidence_sources": [
          "Road_Corridor_Offset",
          "Adjacent_Parcel_Topology"
        ]
      },
      "geometry": {
        "type": "LineString",
        "coordinates": [
          [
            77.6293684,
            13.0020883
          ],
          [
            77.6293593,
            13.0024674
          ]
        ]
      }
    },
    {
      "type": "Feature",
      "properties": {
        "id": "train_062_BND_057",
        "parcel_id": "train_062_P_015",
        "boundary_type": "VISIBLE",
        "confidence": 0.87,
        "length_m": 50.19,
        "evidence_sources": [
          "Drone_RGB_Edge",
          "DSM_Breakline"
        ]
      },
      "geometry": {
        "type": "LineString",
        "coordinates": [
          [
            77.6298425,
            13.0028407
          ],
          [
            77.6303047,
            13.0028515
          ]
        ]
      }
    },
    {
      "type": "Feature",
      "properties": {
        "id": "train_062_BND_058",
        "parcel_id": "train_062_P_015",
        "boundary_type": "VISIBLE",
        "confidence": 0.893,
        "length_m": 41.36,
        "evidence_sources": [
          "Drone_RGB_Edge",
          "DSM_Breakline"
        ]
      },
      "geometry": {
        "type": "LineString",
        "coordinates": [
          [
            77.6303047,
            13.0028515
          ],
          [
            77.6303212,
            13.0024782
          ]
        ]
      }
    },
    {
      "type": "Feature",
      "properties": {
        "id": "train_062_BND_059",
        "parcel_id": "train_062_P_015",
        "boundary_type": "VISIBLE",
        "confidence": 0.936,
        "length_m": 51.55,
        "evidence_sources": [
          "Drone_RGB_Edge",
          "DSM_Breakline"
        ]
      },
      "geometry": {
        "type": "LineString",
        "coordinates": [
          [
            77.6303212,
            13.0024782
          ],
          [
            77.6298463,
            13.0024776
          ]
        ]
      }
    },
    {
      "type": "Feature",
      "properties": {
        "id": "train_062_BND_060",
        "parcel_id": "train_062_P_015",
        "boundary_type": "INFERRED",
        "confidence": 0.613,
        "length_m": 40.2,
        "evidence_sources": [
          "Road_Corridor_Offset",
          "Adjacent_Parcel_Topology"
        ]
      },
      "geometry": {
        "type": "LineString",
        "coordinates": [
          [
            77.6298463,
            13.0024776
          ],
          [
            77.6298425,
            13.0028407
          ]
        ]
      }
    },
    {
      "type": "Feature",
      "properties": {
        "id": "train_062_BND_061",
        "parcel_id": "train_062_P_016",
        "boundary_type": "INFERRED",
        "confidence": 0.662,
        "length_m": 50.83,
        "evidence_sources": [
          "Road_Corridor_Offset",
          "Adjacent_Parcel_Topology"
        ]
      },
      "geometry": {
        "type": "LineString",
        "coordinates": [
          [
            77.6298456,
            13.0024556
          ],
          [
            77.6303138,
            13.0024473
          ]
        ]
      }
    },
    {
      "type": "Feature",
      "properties": {
        "id": "train_062_BND_062",
        "parcel_id": "train_062_P_016",
        "boundary_type": "VISIBLE",
        "confidence": 0.903,
        "length_m": 41.2,
        "evidence_sources": [
          "Drone_RGB_Edge",
          "DSM_Breakline"
        ]
      },
      "geometry": {
        "type": "LineString",
        "coordinates": [
          [
            77.6303138,
            13.0024473
          ],
          [
            77.6303238,
            13.0020752
          ]
        ]
      }
    },
    {
      "type": "Feature",
      "properties": {
        "id": "train_062_BND_063",
        "parcel_id": "train_062_P_016",
        "boundary_type": "VISIBLE",
        "confidence": 0.931,
        "length_m": 51.89,
        "evidence_sources": [
          "Drone_RGB_Edge",
          "DSM_Breakline"
        ]
      },
      "geometry": {
        "type": "LineString",
        "coordinates": [
          [
            77.6303238,
            13.0020752
          ],
          [
            77.6298458,
            13.0020755
          ]
        ]
      }
    },
    {
      "type": "Feature",
      "properties": {
        "id": "train_062_BND_064",
        "parcel_id": "train_062_P_016",
        "boundary_type": "VISIBLE",
        "confidence": 0.951,
        "length_m": 42.08,
        "evidence_sources": [
          "Drone_RGB_Edge",
          "DSM_Breakline"
        ]
      },
      "geometry": {
        "type": "LineString",
        "coordinates": [
          [
            77.6298458,
            13.0020755
          ],
          [
            77.6298456,
            13.0024556
          ]
        ]
      }
    }
  ]
}