{
  "type": "FeatureCollection",
  "crs": {
    "type": "name",
    "properties": {
      "name": "EPSG:4326"
    }
  },
  "features": [
    {
      "type": "Feature",
      "properties": {
        "id": "train_082_BND_001",
        "parcel_id": "train_082_P_001",
        "boundary_type": "VISIBLE",
        "confidence": 0.858,
        "length_m": 62.1,
        "evidence_sources": [
          "Drone_RGB_Edge",
          "DSM_Breakline"
        ]
      },
      "geometry": {
        "type": "LineString",
        "coordinates": [
          [
            77.5980646,
            13.0103262
          ],
          [
            77.5986366,
            13.0103384
          ]
        ]
      }
    },
    {
      "type": "Feature",
      "properties": {
        "id": "train_082_BND_002",
        "parcel_id": "train_082_P_001",
        "boundary_type": "INFERRED",
        "confidence": 0.669,
        "length_m": 57.6,
        "evidence_sources": [
          "Road_Corridor_Offset",
          "Adjacent_Parcel_Topology"
        ]
      },
      "geometry": {
        "type": "LineString",
        "coordinates": [
          [
            77.5986366,
            13.0103384
          ],
          [
            77.5986454,
            13.0098181
          ]
        ]
      }
    },
    {
      "type": "Feature",
      "properties": {
        "id": "train_082_BND_003",
        "parcel_id": "train_082_P_001",
        "boundary_type": "VISIBLE",
        "confidence": 0.866,
        "length_m": 61.95,
        "evidence_sources": [
          "Drone_RGB_Edge",
          "DSM_Breakline"
        ]
      },
      "geometry": {
        "type": "LineString",
        "coordinates": [
          [
            77.5986454,
            13.0098181
          ],
          [
            77.5980747,
            13.0098195
          ]
        ]
      }
    },
    {
      "type": "Feature",
      "properties": {
        "id": "train_082_BND_004",
        "parcel_id": "train_082_P_001",
        "boundary_type": "VISIBLE",
        "confidence": 0.941,
        "length_m": 56.1,
        "evidence_sources": [
          "Drone_RGB_Edge",
          "DSM_Breakline"
        ]
      },
      "geometry": {
        "type": "LineString",
        "coordinates": [
          [
            77.5980747,
            13.0098195
          ],
          [
            77.5980646,
            13.0103262
          ]
        ]
      }
    },
    {
      "type": "Feature",
      "properties": {
        "id": "train_082_BND_005",
        "parcel_id": "train_082_P_002",
        "boundary_type": "INFERRED",
        "confidence": 0.697,
        "length_m": 62.68,
        "evidence_sources": [
          "Road_Corridor_Offset",
          "Adjacent_Parcel_Topology"
        ]
      },
      "geometry": {
        "type": "LineString",
        "coordinates": [
          [
            77.5980615,
            13.0097913
          ],
          [
            77.5986388,
            13.0097784
          ]
        ]
      }
    },
    {
      "type": "Feature",
      "properties": {
        "id": "train_082_BND_006",
        "parcel_id": "train_082_P_002",
        "boundary_type": "INFERRED",
        "confidence": 0.71,
        "length_m": 57.3,
        "evidence_sources": [
          "Road_Corridor_Offset",
          "Adjacent_Parcel_Topology"
        ]
      },
      "geometry": {
        "type": "LineString",
        "coordinates": [
          [
            77.5986388,
            13.0097784
          ],
          [
            77.5986313,
            13.0092608
          ]
        ]
      }
    },
    {
      "type": "Feature",
      "properties": {
        "id": "train_082_BND_007",
        "parcel_id": "train_082_P_002",
        "boundary_type": "VISIBLE",
        "confidence": 0.897,
        "length_m": 61.14,
        "evidence_sources": [
          "Drone_RGB_Edge",
          "DSM_Breakline"
        ]
      },
      "geometry": {
        "type": "LineString",
        "coordinates": [
          [
            77.5986313,
            13.0092608
          ],
          [
            77.598068,
            13.0092573
          ]
        ]
      }
    },
    {
      "type": "Feature",
      "properties": {
        "id": "train_082_BND_008",
        "parcel_id": "train_082_P_002",
        "boundary_type": "INFERRED",
        "confidence": 0.666,
        "length_m": 59.12,
        "evidence_sources": [
          "Road_Corridor_Offset",
          "Adjacent_Parcel_Topology"
        ]
      },
      "geometry": {
        "type": "LineString",
        "coordinates": [
          [
            77.598068,
            13.0092573
          ],
          [
            77.5980615,
            13.0097913
          ]
        ]
      }
    },
    {
      "type": "Feature",
      "properties": {
        "id": "train_082_BND_009",
        "parcel_id": "train_082_P_003",
        "boundary_type": "VISIBLE",
        "confidence": 0.919,
        "length_m": 62.41,
        "evidence_sources": [
          "Drone_RGB_Edge",
          "DSM_Breakline"
        ]
      },
      "geometry": {
        "type": "LineString",
        "coordinates": [
          [
            77.5986527,
            13.0103227
          ],
          [
            77.5992277,
            13.0103216
          ]
        ]
      }
    },
    {
      "type": "Feature",
      "properties": {
        "id": "train_082_BND_010",
        "parcel_id": "train_082_P_003",
        "boundary_type": "VISIBLE",
        "confidence": 0.912,
        "length_m": 56.56,
        "evidence_sources": [
          "Drone_RGB_Edge",
          "DSM_Breakline"
        ]
      },
      "geometry": {
        "type": "LineString",
        "coordinates": [
          [
            77.5992277,
            13.0103216
          ],
          [
            77.5992355,
            13.0098107
          ]
        ]
      }
    },
    {
      "type": "Feature",
      "properties": {
        "id": "train_082_BND_011",
        "parcel_id": "train_082_P_003",
        "boundary_type": "VISIBLE",
        "confidence": 0.935,
        "length_m": 61.73,
        "evidence_sources": [
          "Drone_RGB_Edge",
          "DSM_Breakline"
        ]
      },
      "geometry": {
        "type": "LineString",
        "coordinates": [
          [
            77.5992355,
            13.0098107
          ],
          [
            77.5986669,
            13.0098016
          ]
        ]
      }
    },
    {
      "type": "Feature",
      "properties": {
        "id": "train_082_BND_012",
        "parcel_id": "train_082_P_003",
        "boundary_type": "INFERRED",
        "confidence": 0.715,
        "length_m": 57.7,
        "evidence_sources": [
          "Road_Corridor_Offset",
          "Adjacent_Parcel_Topology"
        ]
      },
      "geometry": {
        "type": "LineString",
        "coordinates": [
          [
            77.5986669,
            13.0098016
          ],
          [
            77.5986527,
            13.0103227
          ]
        ]
      }
    },
    {
      "type": "Feature",
      "properties": {
        "id": "train_082_BND_013",
        "parcel_id": "train_082_P_004",
        "boundary_type": "VISIBLE",
        "confidence": 0.884,
        "length_m": 61.09,
        "evidence_sources": [
          "Drone_RGB_Edge",
          "DSM_Breakline"
        ]
      },
      "geometry": {
        "type": "LineString",
        "coordinates": [
          [
            77.5986529,
            13.0097958
          ],
          [
            77.5992156,
            13.0097841
          ]
        ]
      }
    },
    {
      "type": "Feature",
      "properties": {
        "id": "train_082_BND_014",
        "parcel_id": "train_082_P_004",
        "boundary_type": "VISIBLE",
        "confidence": 0.938,
        "length_m": 57.71,
        "evidence_sources": [
          "Drone_RGB_Edge",
          "DSM_Breakline"
        ]
      },
      "geometry": {
        "type": "LineString",
        "coordinates": [
          [
            77.5992156,
            13.0097841
          ],
          [
            77.5992359,
            13.0092631
          ]
        ]
      }
    },
    {
      "type": "Feature",
      "properties": {
        "id": "train_082_BND_015",
        "parcel_id": "train_082_P_004",
        "boundary_type": "INFERRED",
        "confidence": 0.733,
        "length_m": 62.77,
        "evidence_sources": [
          "Road_Corridor_Offset",
          "Adjacent_Parcel_Topology"
        ]
      },
      "geometry": {
        "type": "LineString",
        "coordinates": [
          [
            77.5992359,
            13.0092631
          ],
          [
            77.5986576,
            13.0092641
          ]
        ]
      }
    },
    {
      "type": "Feature",
      "properties": {
        "id": "train_082_BND_016",
        "parcel_id": "train_082_P_004",
        "boundary_type": "VISIBLE",
        "confidence": 0.939,
        "length_m": 58.86,
        "evidence_sources": [
          "Drone_RGB_Edge",
          "DSM_Breakline"
        ]
      },
      "geometry": {
        "type": "LineString",
        "coordinates": [
          [
            77.5986576,
            13.0092641
          ],
          [
            77.5986529,
            13.0097958
          ]
        ]
      }
    },
    {
      "type": "Feature",
      "properties": {
        "id": "train_082_BND_017",
        "parcel_id": "train_082_P_005",
        "boundary_type": "VISIBLE",
        "confidence": 0.889,
        "length_m": 47.93,
        "evidence_sources": [
          "Drone_RGB_Edge",
          "DSM_Breakline"
        ]
      },
      "geometry": {
        "type": "LineString",
        "coordinates": [
          [
            77.5993944,
            13.0103401
          ],
          [
            77.5998359,
            13.0103316
          ]
        ]
      }
    },
    {
      "type": "Feature",
      "properties": {
        "id": "train_082_BND_018",
        "parcel_id": "train_082_P_005",
        "boundary_type": "VISIBLE",
        "confidence": 0.861,
        "length_m": 56.39,
        "evidence_sources": [
          "Drone_RGB_Edge",
          "DSM_Breakline"
        ]
      },
      "geometry": {
        "type": "LineString",
        "coordinates": [
          [
            77.5998359,
            13.0103316
          ],
          [
            77.5998419,
            13.0098222
          ]
        ]
      }
    },
    {
      "type": "Feature",
      "properties": {
        "id": "train_082_BND_019",
        "parcel_id": "train_082_P_005",
        "boundary_type": "VISIBLE",
        "confidence": 0.946,
        "length_m": 47.36,
        "evidence_sources": [
          "Drone_RGB_Edge",
          "DSM_Breakline"
        ]
      },
      "geometry": {
        "type": "LineString",
        "coordinates": [
          [
            77.5998419,
            13.0098222
          ],
          [
            77.5994056,
            13.0098223
          ]
        ]
      }
    },
    {
      "type": "Feature",
      "properties": {
        "id": "train_082_BND_020",
        "parcel_id": "train_082_P_005",
        "boundary_type": "VISIBLE",
        "confidence": 0.854,
        "length_m": 57.33,
        "evidence_sources": [
          "Drone_RGB_Edge",
          "DSM_Breakline"
        ]
      },
      "geometry": {
        "type": "LineString",
        "coordinates": [
          [
            77.5994056,
            13.0098223
          ],
          [
            77.5993944,
            13.0103401
          ]
        ]
      }
    },
    {
      "type": "Feature",
      "properties": {
        "id": "train_082_BND_021",
        "parcel_id": "train_082_P_006",
        "boundary_type": "VISIBLE",
        "confidence": 0.904,
        "length_m": 47.21,
        "evidence_sources": [
          "Drone_RGB_Edge",
          "DSM_Breakline"
        ]
      },
      "geometry": {
        "type": "LineString",
        "coordinates": [
          [
            77.5994093,
            13.0097911
          ],
          [
            77.5998442,
            13.0097895
          ]
        ]
      }
    },
    {
      "type": "Feature",
      "properties": {
        "id": "train_082_BND_022",
        "parcel_id": "train_082_P_006",
        "boundary_type": "INFERRED",
        "confidence": 0.771,
        "length_m": 58.85,
        "evidence_sources": [
          "Road_Corridor_Offset",
          "Adjacent_Parcel_Topology"
        ]
      },
      "geometry": {
        "type": "LineString",
        "coordinates": [
          [
            77.5998442,
            13.0097895
          ],
          [
            77.5998556,
            13.009258
          ]
        ]
      }
    },
    {
      "type": "Feature",
      "properties": {
        "id": "train_082_BND_023",
        "parcel_id": "train_082_P_006",
        "boundary_type": "VISIBLE",
        "confidence": 0.845,
        "length_m": 49.64,
        "evidence_sources": [
          "Drone_RGB_Edge",
          "DSM_Breakline"
        ]
      },
      "geometry": {
        "type": "LineString",
        "coordinates": [
          [
            77.5998556,
            13.009258
          ],
          [
            77.5993983,
            13.0092644
          ]
        ]
      }
    },
    {
      "type": "Feature",
      "properties": {
        "id": "train_082_BND_024",
        "parcel_id": "train_082_P_006",
        "boundary_type": "VISIBLE",
        "confidence": 0.91,
        "length_m": 58.32,
        "evidence_sources": [
          "Drone_RGB_Edge",
          "DSM_Breakline"
        ]
      },
      "geometry": {
        "type": "LineString",
        "coordinates": [
          [
            77.5993983,
            13.0092644
          ],
          [
            77.5994093,
            13.0097911
          ]
        ]
      }
    },
    {
      "type": "Feature",
      "properties": {
        "id": "train_082_BND_025",
        "parcel_id": "train_082_P_007",
        "boundary_type": "INFERRED",
        "confidence": 0.774,
        "length_m": 47.23,
        "evidence_sources": [
          "Road_Corridor_Offset",
          "Adjacent_Parcel_Topology"
        ]
      },
      "geometry": {
        "type": "LineString",
        "coordinates": [
          [
            77.5998683,
            13.0103286
          ],
          [
            77.6003034,
            13.0103353
          ]
        ]
      }
    },
    {
      "type": "Feature",
      "properties": {
        "id": "train_082_BND_026",
        "parcel_id": "train_082_P_007",
        "boundary_type": "INFERRED",
        "confidence": 0.693,
        "length_m": 56.93,
        "evidence_sources": [
          "Road_Corridor_Offset",
          "Adjacent_Parcel_Topology"
        ]
      },
      "geometry": {
        "type": "LineString",
        "coordinates": [
          [
            77.6003034,
            13.0103353
          ],
          [
            77.6003094,
            13.009821
          ]
        ]
      }
    },
    {
      "type": "Feature",
      "properties": {
        "id": "train_082_BND_027",
        "parcel_id": "train_082_P_007",
        "boundary_type": "INFERRED",
        "confidence": 0.764,
        "length_m": 47.42,
        "evidence_sources": [
          "Road_Corridor_Offset",
          "Adjacent_Parcel_Topology"
        ]
      },
      "geometry": {
        "type": "LineString",
        "coordinates": [
          [
            77.6003094,
            13.009821
          ],
          [
            77.5998727,
            13.0098092
          ]
        ]
      }
    },
    {
      "type": "Feature",
      "properties": {
        "id": "train_082_BND_028",
        "parcel_id": "train_082_P_007",
        "boundary_type": "VISIBLE",
        "confidence": 0.875,
        "length_m": 57.5,
        "evidence_sources": [
          "Drone_RGB_Edge",
          "DSM_Breakline"
        ]
      },
      "geometry": {
        "type": "LineString",
        "coordinates": [
          [
            77.5998727,
            13.0098092
          ],
          [
            77.5998683,
            13.0103286
          ]
        ]
      }
    },
    {
      "type": "Feature",
      "properties": {
        "id": "train_082_BND_029",
        "parcel_id": "train_082_P_008",
        "boundary_type": "VISIBLE",
        "confidence": 0.838,
        "length_m": 46.28,
        "evidence_sources": [
          "Drone_RGB_Edge",
          "DSM_Breakline"
        ]
      },
      "geometry": {
        "type": "LineString",
        "coordinates": [
          [
            77.5998776,
            13.0097903
          ],
          [
            77.6003038,
            13.0097799
          ]
        ]
      }
    },
    {
      "type": "Feature",
      "properties": {
        "id": "train_082_BND_030",
        "parcel_id": "train_082_P_008",
        "boundary_type": "VISIBLE",
        "confidence": 0.865,
        "length_m": 56.83,
        "evidence_sources": [
          "Drone_RGB_Edge",
          "DSM_Breakline"
        ]
      },
      "geometry": {
        "type": "LineString",
        "coordinates": [
          [
            77.6003038,
            13.0097799
          ],
          [
            77.6003165,
            13.0092667
          ]
        ]
      }
    },
    {
      "type": "Feature",
      "properties": {
        "id": "train_082_BND_031",
        "parcel_id": "train_082_P_008",
        "boundary_type": "VISIBLE",
        "confidence": 0.873,
        "length_m": 48.62,
        "evidence_sources": [
          "Drone_RGB_Edge",
          "DSM_Breakline"
        ]
      },
      "geometry": {
        "type": "LineString",
        "coordinates": [
          [
            77.6003165,
            13.0092667
          ],
          [
            77.5998686,
            13.0092591
          ]
        ]
      }
    },
    {
      "type": "Feature",
      "properties": {
        "id": "train_082_BND_032",
        "parcel_id": "train_082_P_008",
        "boundary_type": "VISIBLE",
        "confidence": 0.883,
        "length_m": 58.81,
        "evidence_sources": [
          "Drone_RGB_Edge",
          "DSM_Breakline"
        ]
      },
      "geometry": {
        "type": "LineString",
        "coordinates": [
          [
            77.5998686,
            13.0092591
          ],
          [
            77.5998776,
            13.0097903
          ]
        ]
      }
    },
    {
      "type": "Feature",
      "properties": {
        "id": "train_082_BND_033",
        "parcel_id": "train_082_P_009",
        "boundary_type": "INFERRED",
        "confidence": 0.742,
        "length_m": 59.79,
        "evidence_sources": [
          "Road_Corridor_Offset",
          "Adjacent_Parcel_Topology"
        ]
      },
      "geometry": {
        "type": "LineString",
        "coordinates": [
          [
            77.598077,
            13.0090656
          ],
          [
            77.5986278,
            13.0090591
          ]
        ]
      }
    },
    {
      "type": "Feature",
      "properties": {
        "id": "train_082_BND_034",
        "parcel_id": "train_082_P_009",
        "boundary_type": "INFERRED",
        "confidence": 0.67,
        "length_m": 52.66,
        "evidence_sources": [
          "Road_Corridor_Offset",
          "Adjacent_Parcel_Topology"
        ]
      },
      "geometry": {
        "type": "LineString",
        "coordinates": [
          [
            77.5986278,
            13.0090591
          ],
          [
            77.5986422,
            13.0085836
          ]
        ]
      }
    },
    {
      "type": "Feature",
      "properties": {
        "id": "train_082_BND_035",
        "parcel_id": "train_082_P_009",
        "boundary_type": "VISIBLE",
        "confidence": 0.946,
        "length_m": 61.18,
        "evidence_sources": [
          "Drone_RGB_Edge",
          "DSM_Breakline"
        ]
      },
      "geometry": {
        "type": "LineString",
        "coordinates": [
          [
            77.5986422,
            13.0085836
          ],
          [
            77.5980786,
            13.008593
          ]
        ]
      }
    },
    {
      "type": "Feature",
      "properties": {
        "id": "train_082_BND_036",
        "parcel_id": "train_082_P_009",
        "boundary_type": "VISIBLE",
        "confidence": 0.862,
        "length_m": 52.31,
        "evidence_sources": [
          "Drone_RGB_Edge",
          "DSM_Breakline"
        ]
      },
      "geometry": {
        "type": "LineString",
        "coordinates": [
          [
            77.5980786,
            13.008593
          ],
          [
            77.598077,
            13.0090656
          ]
        ]
      }
    },
    {
      "type": "Feature",
      "properties": {
        "id": "train_082_BND_037",
        "parcel_id": "train_082_P_010",
        "boundary_type": "VISIBLE",
        "confidence": 0.839,
        "length_m": 59.85,
        "evidence_sources": [
          "Drone_RGB_Edge",
          "DSM_Breakline"
        ]
      },
      "geometry": {
        "type": "LineString",
        "coordinates": [
          [
            77.598077,
            13.0085506
          ],
          [
            77.5986283,
            13.008558
          ]
        ]
      }
    },
    {
      "type": "Feature",
      "properties": {
        "id": "train_082_BND_038",
        "parcel_id": "train_082_P_010",
        "boundary_type": "INFERRED",
        "confidence": 0.65,
        "length_m": 51.74,
        "evidence_sources": [
          "Road_Corridor_Offset",
          "Adjacent_Parcel_Topology"
        ]
      },
      "geometry": {
        "type": "LineString",
        "coordinates": [
          [
            77.5986283,
            13.008558
          ],
          [
            77.5986347,
            13.0080906
          ]
        ]
      }
    },
    {
      "type": "Feature",
      "properties": {
        "id": "train_082_BND_039",
        "parcel_id": "train_082_P_010",
        "boundary_type": "INFERRED",
        "confidence": 0.7,
        "length_m": 61.38,
        "evidence_sources": [
          "Road_Corridor_Offset",
          "Adjacent_Parcel_Topology"
        ]
      },
      "geometry": {
        "type": "LineString",
        "coordinates": [
          [
            77.5986347,
            13.0080906
          ],
          [
            77.5980693,
            13.0080813
          ]
        ]
      }
    },
    {
      "type": "Feature",
      "properties": {
        "id": "train_082_BND_040",
        "parcel_id": "train_082_P_010",
        "boundary_type": "INFERRED",
        "confidence": 0.736,
        "length_m": 51.96,
        "evidence_sources": [
          "Road_Corridor_Offset",
          "Adjacent_Parcel_Topology"
        ]
      },
      "geometry": {
        "type": "LineString",
        "coordinates": [
          [
            77.5980693,
            13.0080813
          ],
          [
            77.598077,
            13.0085506
          ]
        ]
      }
    },
    {
      "type": "Feature",
      "properties": {
        "id": "train_082_BND_041",
        "parcel_id": "train_082_P_011",
        "boundary_type": "INFERRED",
        "confidence": 0.775,
        "length_m": 61.08,
        "evidence_sources": [
          "Road_Corridor_Offset",
          "Adjacent_Parcel_Topology"
        ]
      },
      "geometry": {
        "type": "LineString",
        "coordinates": [
          [
            77.5986593,
            13.0090547
          ],
          [
            77.599222,
            13.0090592
          ]
        ]
      }
    },
    {
      "type": "Feature",
      "properties": {
        "id": "train_082_BND_042",
        "parcel_id": "train_082_P_011",
        "boundary_type": "VISIBLE",
        "confidence": 0.833,
        "length_m": 53.23,
        "evidence_sources": [
          "Drone_RGB_Edge",
          "DSM_Breakline"
        ]
      },
      "geometry": {
        "type": "LineString",
        "coordinates": [
          [
            77.599222,
            13.0090592
          ],
          [
            77.5992314,
            13.0085784
          ]
        ]
      }
    },
    {
      "type": "Feature",
      "properties": {
        "id": "train_082_BND_043",
        "parcel_id": "train_082_P_011",
        "boundary_type": "VISIBLE",
        "confidence": 0.884,
        "length_m": 62.82,
        "evidence_sources": [
          "Drone_RGB_Edge",
          "DSM_Breakline"
        ]
      },
      "geometry": {
        "type": "LineString",
        "coordinates": [
          [
            77.5992314,
            13.0085784
          ],
          [
            77.5986527,
            13.0085844
          ]
        ]
      }
    },
    {
      "type": "Feature",
      "properties": {
        "id": "train_082_BND_044",
        "parcel_id": "train_082_P_011",
        "boundary_type": "VISIBLE",
        "confidence": 0.916,
        "length_m": 52.06,
        "evidence_sources": [
          "Drone_RGB_Edge",
          "DSM_Breakline"
        ]
      },
      "geometry": {
        "type": "LineString",
        "coordinates": [
          [
            77.5986527,
            13.0085844
          ],
          [
            77.5986593,
            13.0090547
          ]
        ]
      }
    },
    {
      "type": "Feature",
      "properties": {
        "id": "train_082_BND_045",
        "parcel_id": "train_082_P_012",
        "boundary_type": "VISIBLE",
        "confidence": 0.822,
        "length_m": 61.11,
        "evidence_sources": [
          "Drone_RGB_Edge",
          "DSM_Breakline"
        ]
      },
      "geometry": {
        "type": "LineString",
        "coordinates": [
          [
            77.5986531,
            13.0085618
          ],
          [
            77.5992161,
            13.0085618
          ]
        ]
      }
    },
    {
      "type": "Feature",
      "properties": {
        "id": "train_082_BND_046",
        "parcel_id": "train_082_P_012",
        "boundary_type": "VISIBLE",
        "confidence": 0.952,
        "length_m": 53.11,
        "evidence_sources": [
          "Drone_RGB_Edge",
          "DSM_Breakline"
        ]
      },
      "geometry": {
        "type": "LineString",
        "coordinates": [
          [
            77.5992161,
            13.0085618
          ],
          [
            77.5992252,
            13.0080821
          ]
        ]
      }
    },
    {
      "type": "Feature",
      "properties": {
        "id": "train_082_BND_047",
        "parcel_id": "train_082_P_012",
        "boundary_type": "VISIBLE",
        "confidence": 0.946,
        "length_m": 61.69,
        "evidence_sources": [
          "Drone_RGB_Edge",
          "DSM_Breakline"
        ]
      },
      "geometry": {
        "type": "LineString",
        "coordinates": [
          [
            77.5992252,
            13.0080821
          ],
          [
            77.5986569,
            13.0080788
          ]
        ]
      }
    },
    {
      "type": "Feature",
      "properties": {
        "id": "train_082_BND_048",
        "parcel_id": "train_082_P_012",
        "boundary_type": "VISIBLE",
        "confidence": 0.883,
        "length_m": 53.47,
        "evidence_sources": [
          "Drone_RGB_Edge",
          "DSM_Breakline"
        ]
      },
      "geometry": {
        "type": "LineString",
        "coordinates": [
          [
            77.5986569,
            13.0080788
          ],
          [
            77.5986531,
            13.0085618
          ]
        ]
      }
    },
    {
      "type": "Feature",
      "properties": {
        "id": "train_082_BND_049",
        "parcel_id": "train_082_P_013",
        "boundary_type": "VISIBLE",
        "confidence": 0.924,
        "length_m": 46.32,
        "evidence_sources": [
          "Drone_RGB_Edge",
          "DSM_Breakline"
        ]
      },
      "geometry": {
        "type": "LineString",
        "coordinates": [
          [
            77.5994084,
            13.0090559
          ],
          [
            77.5998351,
            13.0090635
          ]
        ]
      }
    },
    {
      "type": "Feature",
      "properties": {
        "id": "train_082_BND_050",
        "parcel_id": "train_082_P_013",
        "boundary_type": "VISIBLE",
        "confidence": 0.828,
        "length_m": 54.22,
        "evidence_sources": [
          "Drone_RGB_Edge",
          "DSM_Breakline"
        ]
      },
      "geometry": {
        "type": "LineString",
        "coordinates": [
          [
            77.5998351,
            13.0090635
          ],
          [
            77.5998561,
            13.0085741
          ]
        ]
      }
    },
    {
      "type": "Feature",
      "properties": {
        "id": "train_082_BND_051",
        "parcel_id": "train_082_P_013",
        "boundary_type": "VISIBLE",
        "confidence": 0.842,
        "length_m": 49.01,
        "evidence_sources": [
          "Drone_RGB_Edge",
          "DSM_Breakline"
        ]
      },
      "geometry": {
        "type": "LineString",
        "coordinates": [
          [
            77.5998561,
            13.0085741
          ],
          [
            77.5994046,
            13.0085728
          ]
        ]
      }
    },
    {
      "type": "Feature",
      "properties": {
        "id": "train_082_BND_052",
        "parcel_id": "train_082_P_013",
        "boundary_type": "VISIBLE",
        "confidence": 0.892,
        "length_m": 53.48,
        "evidence_sources": [
          "Drone_RGB_Edge",
          "DSM_Breakline"
        ]
      },
      "geometry": {
        "type": "LineString",
        "coordinates": [
          [
            77.5994046,
            13.0085728
          ],
          [
            77.5994084,
            13.0090559
          ]
        ]
      }
    },
    {
      "type": "Feature",
      "properties": {
        "id": "train_082_BND_053",
        "parcel_id": "train_082_P_014",
        "boundary_type": "VISIBLE",
        "confidence": 0.885,
        "length_m": 48.41,
        "evidence_sources": [
          "Drone_RGB_Edge",
          "DSM_Breakline"
        ]
      },
      "geometry": {
        "type": "LineString",
        "coordinates": [
          [
            77.5994046,
            13.0085545
          ],
          [
            77.5998506,
            13.008558
          ]
        ]
      }
    },
    {
      "type": "Feature",
      "properties": {
        "id": "train_082_BND_054",
        "parcel_id": "train_082_P_014",
        "boundary_type": "INFERRED",
        "confidence": 0.715,
        "length_m": 52.3,
        "evidence_sources": [
          "Road_Corridor_Offset",
          "Adjacent_Parcel_Topology"
        ]
      },
      "geometry": {
        "type": "LineString",
        "coordinates": [
          [
            77.5998506,
            13.008558
          ],
          [
            77.5998426,
            13.0080856
          ]
        ]
      }
    },
    {
      "type": "Feature",
      "properties": {
        "id": "train_082_BND_055",
        "parcel_id": "train_082_P_014",
        "boundary_type": "VISIBLE",
        "confidence": 0.82,
        "length_m": 47.21,
        "evidence_sources": [
          "Drone_RGB_Edge",
          "DSM_Breakline"
        ]
      },
      "geometry": {
        "type": "LineString",
        "coordinates": [
          [
            77.5998426,
            13.0080856
          ],
          [
            77.5994077,
            13.0080866
          ]
        ]
      }
    },
    {
      "type": "Feature",
      "properties": {
        "id": "train_082_BND_056",
        "parcel_id": "train_082_P_014",
        "boundary_type": "VISIBLE",
        "confidence": 0.882,
        "length_m": 51.8,
        "evidence_sources": [
          "Drone_RGB_Edge",
          "DSM_Breakline"
        ]
      },
      "geometry": {
        "type": "LineString",
        "coordinates": [
          [
            77.5994077,
            13.0080866
          ],
          [
            77.5994046,
            13.0085545
          ]
        ]
      }
    },
    {
      "type": "Feature",
      "properties": {
        "id": "train_082_BND_057",
        "parcel_id": "train_082_P_015",
        "boundary_type": "VISIBLE",
        "confidence": 0.888,
        "length_m": 49.11,
        "evidence_sources": [
          "Drone_RGB_Edge",
          "DSM_Breakline"
        ]
      },
      "geometry": {
        "type": "LineString",
        "coordinates": [
          [
            77.5998648,
            13.0090536
          ],
          [
            77.6003172,
            13.0090467
          ]
        ]
      }
    },
    {
      "type": "Feature",
      "properties": {
        "id": "train_082_BND_058",
        "parcel_id": "train_082_P_015",
        "boundary_type": "VISIBLE",
        "confidence": 0.86,
        "length_m": 51.72,
        "evidence_sources": [
          "Drone_RGB_Edge",
          "DSM_Breakline"
        ]
      },
      "geometry": {
        "type": "LineString",
        "coordinates": [
          [
            77.6003172,
            13.0090467
          ],
          [
            77.6003245,
            13.0085795
          ]
        ]
      }
    },
    {
      "type": "Feature",
      "properties": {
        "id": "train_082_BND_059",
        "parcel_id": "train_082_P_015",
        "boundary_type": "VISIBLE",
        "confidence": 0.912,
        "length_m": 49.92,
        "evidence_sources": [
          "Drone_RGB_Edge",
          "DSM_Breakline"
        ]
      },
      "geometry": {
        "type": "LineString",
        "coordinates": [
          [
            77.6003245,
            13.0085795
          ],
          [
            77.5998646,
            13.008579
          ]
        ]
      }
    },
    {
      "type": "Feature",
      "properties": {
        "id": "train_082_BND_060",
        "parcel_id": "train_082_P_015",
        "boundary_type": "VISIBLE",
        "confidence": 0.907,
        "length_m": 52.54,
        "evidence_sources": [
          "Drone_RGB_Edge",
          "DSM_Breakline"
        ]
      },
      "geometry": {
        "type": "LineString",
        "coordinates": [
          [
            77.5998646,
            13.008579
          ],
          [
            77.5998648,
            13.0090536
          ]
        ]
      }
    },
    {
      "type": "Feature",
      "properties": {
        "id": "train_082_BND_061",
        "parcel_id": "train_082_P_016",
        "boundary_type": "VISIBLE",
        "confidence": 0.928,
        "length_m": 46.75,
        "evidence_sources": [
          "Drone_RGB_Edge",
          "DSM_Breakline"
        ]
      },
      "geometry": {
        "type": "LineString",
        "coordinates": [
          [
            77.5998729,
            13.0085588
          ],
          [
            77.6003036,
            13.0085554
          ]
        ]
      }
    },
    {
      "type": "Feature",
      "properties": {
        "id": "train_082_BND_062",
        "parcel_id": "train_082_P_016",
        "boundary_type": "VISIBLE",
        "confidence": 0.877,
        "length_m": 52.19,
        "evidence_sources": [
          "Drone_RGB_Edge",
          "DSM_Breakline"
        ]
      },
      "geometry": {
        "type": "LineString",
        "coordinates": [
          [
            77.6003036,
            13.0085554
          ],
          [
            77.6003031,
            13.0080839
          ]
        ]
      }
    },
    {
      "type": "Feature",
      "properties": {
        "id": "train_082_BND_063",
        "parcel_id": "train_082_P_016",
        "boundary_type": "VISIBLE",
        "confidence": 0.838,
        "length_m": 48.24,
        "evidence_sources": [
          "Drone_RGB_Edge",
          "DSM_Breakline"
        ]
      },
      "geometry": {
        "type": "LineString",
        "coordinates": [
          [
            77.6003031,
            13.0080839
          ],
          [
            77.5998587,
            13.0080883
          ]
        ]
      }
    },
    {
      "type": "Feature",
      "properties": {
        "id": "train_082_BND_064",
        "parcel_id": "train_082_P_016",
        "boundary_type": "INFERRED",
        "confidence": 0.667,
        "length_m": 52.1,
        "evidence_sources": [
          "Road_Corridor_Offset",
          "Adjacent_Parcel_Topology"
        ]
      },
      "geometry": {
        "type": "LineString",
        "coordinates": [
          [
            77.5998587,
            13.0080883
          ],
          [
            77.5998729,
            13.0085588
          ]
        ]
      }
    }
  ]
}