{
  "type": "FeatureCollection",
  "crs": {
    "type": "name",
    "properties": {
      "name": "EPSG:4326"
    }
  },
  "features": [
    {
      "type": "Feature",
      "properties": {
        "id": "train_063_BND_001",
        "parcel_id": "train_063_P_001",
        "boundary_type": "INFERRED",
        "confidence": 0.74,
        "length_m": 70.41,
        "evidence_sources": [
          "Road_Corridor_Offset",
          "Adjacent_Parcel_Topology"
        ]
      },
      "geometry": {
        "type": "LineString",
        "coordinates": [
          [
            77.631063,
            13.0043223
          ],
          [
            77.6317116,
            13.0043302
          ]
        ]
      }
    },
    {
      "type": "Feature",
      "properties": {
        "id": "train_063_BND_002",
        "parcel_id": "train_063_P_001",
        "boundary_type": "VISIBLE",
        "confidence": 0.932,
        "length_m": 51.24,
        "evidence_sources": [
          "Drone_RGB_Edge",
          "DSM_Breakline"
        ]
      },
      "geometry": {
        "type": "LineString",
        "coordinates": [
          [
            77.6317116,
            13.0043302
          ],
          [
            77.6317024,
            13.0038674
          ]
        ]
      }
    },
    {
      "type": "Feature",
      "properties": {
        "id": "train_063_BND_003",
        "parcel_id": "train_063_P_001",
        "boundary_type": "VISIBLE",
        "confidence": 0.888,
        "length_m": 68.11,
        "evidence_sources": [
          "Drone_RGB_Edge",
          "DSM_Breakline"
        ]
      },
      "geometry": {
        "type": "LineString",
        "coordinates": [
          [
            77.6317024,
            13.0038674
          ],
          [
            77.6310753,
            13.0038877
          ]
        ]
      }
    },
    {
      "type": "Feature",
      "properties": {
        "id": "train_063_BND_004",
        "parcel_id": "train_063_P_001",
        "boundary_type": "INFERRED",
        "confidence": 0.662,
        "length_m": 48.13,
        "evidence_sources": [
          "Road_Corridor_Offset",
          "Adjacent_Parcel_Topology"
        ]
      },
      "geometry": {
        "type": "LineString",
        "coordinates": [
          [
            77.6310753,
            13.0038877
          ],
          [
            77.631063,
            13.0043223
          ]
        ]
      }
    },
    {
      "type": "Feature",
      "properties": {
        "id": "train_063_BND_005",
        "parcel_id": "train_063_P_002",
        "boundary_type": "VISIBLE",
        "confidence": 0.892,
        "length_m": 72.08,
        "evidence_sources": [
          "Drone_RGB_Edge",
          "DSM_Breakline"
        ]
      },
      "geometry": {
        "type": "LineString",
        "coordinates": [
          [
            77.6310578,
            13.0038524
          ],
          [
            77.6317217,
            13.0038637
          ]
        ]
      }
    },
    {
      "type": "Feature",
      "properties": {
        "id": "train_063_BND_006",
        "parcel_id": "train_063_P_002",
        "boundary_type": "VISIBLE",
        "confidence": 0.858,
        "length_m": 50.8,
        "evidence_sources": [
          "Drone_RGB_Edge",
          "DSM_Breakline"
        ]
      },
      "geometry": {
        "type": "LineString",
        "coordinates": [
          [
            77.6317217,
            13.0038637
          ],
          [
            77.6317109,
            13.0034049
          ]
        ]
      }
    },
    {
      "type": "Feature",
      "properties": {
        "id": "train_063_BND_007",
        "parcel_id": "train_063_P_002",
        "boundary_type": "VISIBLE",
        "confidence": 0.895,
        "length_m": 69.46,
        "evidence_sources": [
          "Drone_RGB_Edge",
          "DSM_Breakline"
        ]
      },
      "geometry": {
        "type": "LineString",
        "coordinates": [
          [
            77.6317109,
            13.0034049
          ],
          [
            77.6310711,
            13.0033938
          ]
        ]
      }
    },
    {
      "type": "Feature",
      "properties": {
        "id": "train_063_BND_008",
        "parcel_id": "train_063_P_002",
        "boundary_type": "VISIBLE",
        "confidence": 0.939,
        "length_m": 50.79,
        "evidence_sources": [
          "Drone_RGB_Edge",
          "DSM_Breakline"
        ]
      },
      "geometry": {
        "type": "LineString",
        "coordinates": [
          [
            77.6310711,
            13.0033938
          ],
          [
            77.6310578,
            13.0038524
          ]
        ]
      }
    },
    {
      "type": "Feature",
      "properties": {
        "id": "train_063_BND_009",
        "parcel_id": "train_063_P_003",
        "boundary_type": "INFERRED",
        "confidence": 0.753,
        "length_m": 70.98,
        "evidence_sources": [
          "Road_Corridor_Offset",
          "Adjacent_Parcel_Topology"
        ]
      },
      "geometry": {
        "type": "LineString",
        "coordinates": [
          [
            77.6317279,
            13.0043221
          ],
          [
            77.6323815,
            13.0043402
          ]
        ]
      }
    },
    {
      "type": "Feature",
      "properties": {
        "id": "train_063_BND_010",
        "parcel_id": "train_063_P_003",
        "boundary_type": "INFERRED",
        "confidence": 0.732,
        "length_m": 50.27,
        "evidence_sources": [
          "Road_Corridor_Offset",
          "Adjacent_Parcel_Topology"
        ]
      },
      "geometry": {
        "type": "LineString",
        "coordinates": [
          [
            77.6323815,
            13.0043402
          ],
          [
            77.6323674,
            13.0038863
          ]
        ]
      }
    },
    {
      "type": "Feature",
      "properties": {
        "id": "train_063_BND_011",
        "parcel_id": "train_063_P_003",
        "boundary_type": "VISIBLE",
        "confidence": 0.85,
        "length_m": 67.65,
        "evidence_sources": [
          "Drone_RGB_Edge",
          "DSM_Breakline"
        ]
      },
      "geometry": {
        "type": "LineString",
        "coordinates": [
          [
            77.6323674,
            13.0038863
          ],
          [
            77.6317443,
            13.0038764
          ]
        ]
      }
    },
    {
      "type": "Feature",
      "properties": {
        "id": "train_063_BND_012",
        "parcel_id": "train_063_P_003",
        "boundary_type": "INFERRED",
        "confidence": 0.659,
        "length_m": 49.37,
        "evidence_sources": [
          "Road_Corridor_Offset",
          "Adjacent_Parcel_Topology"
        ]
      },
      "geometry": {
        "type": "LineString",
        "coordinates": [
          [
            77.6317443,
            13.0038764
          ],
          [
            77.6317279,
            13.0043221
          ]
        ]
      }
    },
    {
      "type": "Feature",
      "properties": {
        "id": "train_063_BND_013",
        "parcel_id": "train_063_P_004",
        "boundary_type": "INFERRED",
        "confidence": 0.739,
        "length_m": 70.04,
        "evidence_sources": [
          "Road_Corridor_Offset",
          "Adjacent_Parcel_Topology"
        ]
      },
      "geometry": {
        "type": "LineString",
        "coordinates": [
          [
            77.6317321,
            13.0038482
          ],
          [
            77.6323773,
            13.0038547
          ]
        ]
      }
    },
    {
      "type": "Feature",
      "properties": {
        "id": "train_063_BND_014",
        "parcel_id": "train_063_P_004",
        "boundary_type": "VISIBLE",
        "confidence": 0.859,
        "length_m": 49.27,
        "evidence_sources": [
          "Drone_RGB_Edge",
          "DSM_Breakline"
        ]
      },
      "geometry": {
        "type": "LineString",
        "coordinates": [
          [
            77.6323773,
            13.0038547
          ],
          [
            77.6323654,
            13.0034098
          ]
        ]
      }
    },
    {
      "type": "Feature",
      "properties": {
        "id": "train_063_BND_015",
        "parcel_id": "train_063_P_004",
        "boundary_type": "VISIBLE",
        "confidence": 0.862,
        "length_m": 68.79,
        "evidence_sources": [
          "Drone_RGB_Edge",
          "DSM_Breakline"
        ]
      },
      "geometry": {
        "type": "LineString",
        "coordinates": [
          [
            77.6323654,
            13.0034098
          ],
          [
            77.6317317,
            13.0034041
          ]
        ]
      }
    },
    {
      "type": "Feature",
      "properties": {
        "id": "train_063_BND_016",
        "parcel_id": "train_063_P_004",
        "boundary_type": "INFERRED",
        "confidence": 0.624,
        "length_m": 49.16,
        "evidence_sources": [
          "Road_Corridor_Offset",
          "Adjacent_Parcel_Topology"
        ]
      },
      "geometry": {
        "type": "LineString",
        "coordinates": [
          [
            77.6317317,
            13.0034041
          ],
          [
            77.6317321,
            13.0038482
          ]
        ]
      }
    },
    {
      "type": "Feature",
      "properties": {
        "id": "train_063_BND_017",
        "parcel_id": "train_063_P_005",
        "boundary_type": "VISIBLE",
        "confidence": 0.845,
        "length_m": 40.03,
        "evidence_sources": [
          "Drone_RGB_Edge",
          "DSM_Breakline"
        ]
      },
      "geometry": {
        "type": "LineString",
        "coordinates": [
          [
            77.6325775,
            13.004326
          ],
          [
            77.6329459,
            13.004343
          ]
        ]
      }
    },
    {
      "type": "Feature",
      "properties": {
        "id": "train_063_BND_018",
        "parcel_id": "train_063_P_005",
        "boundary_type": "VISIBLE",
        "confidence": 0.916,
        "length_m": 52.77,
        "evidence_sources": [
          "Drone_RGB_Edge",
          "DSM_Breakline"
        ]
      },
      "geometry": {
        "type": "LineString",
        "coordinates": [
          [
            77.6329459,
            13.004343
          ],
          [
            77.6329495,
            13.0038663
          ]
        ]
      }
    },
    {
      "type": "Feature",
      "properties": {
        "id": "train_063_BND_019",
        "parcel_id": "train_063_P_005",
        "boundary_type": "VISIBLE",
        "confidence": 0.891,
        "length_m": 38.96,
        "evidence_sources": [
          "Drone_RGB_Edge",
          "DSM_Breakline"
        ]
      },
      "geometry": {
        "type": "LineString",
        "coordinates": [
          [
            77.6329495,
            13.0038663
          ],
          [
            77.6325908,
            13.0038781
          ]
        ]
      }
    },
    {
      "type": "Feature",
      "properties": {
        "id": "train_063_BND_020",
        "parcel_id": "train_063_P_005",
        "boundary_type": "VISIBLE",
        "confidence": 0.849,
        "length_m": 49.6,
        "evidence_sources": [
          "Drone_RGB_Edge",
          "DSM_Breakline"
        ]
      },
      "geometry": {
        "type": "LineString",
        "coordinates": [
          [
            77.6325908,
            13.0038781
          ],
          [
            77.6325775,
            13.004326
          ]
        ]
      }
    },
    {
      "type": "Feature",
      "properties": {
        "id": "train_063_BND_021",
        "parcel_id": "train_063_P_006",
        "boundary_type": "VISIBLE",
        "confidence": 0.94,
        "length_m": 38.72,
        "evidence_sources": [
          "Drone_RGB_Edge",
          "DSM_Breakline"
        ]
      },
      "geometry": {
        "type": "LineString",
        "coordinates": [
          [
            77.6325848,
            13.0038649
          ],
          [
            77.6329415,
            13.0038594
          ]
        ]
      }
    },
    {
      "type": "Feature",
      "properties": {
        "id": "train_063_BND_022",
        "parcel_id": "train_063_P_006",
        "boundary_type": "INFERRED",
        "confidence": 0.63,
        "length_m": 51.9,
        "evidence_sources": [
          "Road_Corridor_Offset",
          "Adjacent_Parcel_Topology"
        ]
      },
      "geometry": {
        "type": "LineString",
        "coordinates": [
          [
            77.6329415,
            13.0038594
          ],
          [
            77.6329357,
            13.0033906
          ]
        ]
      }
    },
    {
      "type": "Feature",
      "properties": {
        "id": "train_063_BND_023",
        "parcel_id": "train_063_P_006",
        "boundary_type": "VISIBLE",
        "confidence": 0.914,
        "length_m": 37.16,
        "evidence_sources": [
          "Drone_RGB_Edge",
          "DSM_Breakline"
        ]
      },
      "geometry": {
        "type": "LineString",
        "coordinates": [
          [
            77.6329357,
            13.0033906
          ],
          [
            77.6325934,
            13.003392
          ]
        ]
      }
    },
    {
      "type": "Feature",
      "properties": {
        "id": "train_063_BND_024",
        "parcel_id": "train_063_P_006",
        "boundary_type": "VISIBLE",
        "confidence": 0.905,
        "length_m": 52.36,
        "evidence_sources": [
          "Drone_RGB_Edge",
          "DSM_Breakline"
        ]
      },
      "geometry": {
        "type": "LineString",
        "coordinates": [
          [
            77.6325934,
            13.003392
          ],
          [
            77.6325848,
            13.0038649
          ]
        ]
      }
    },
    {
      "type": "Feature",
      "properties": {
        "id": "train_063_BND_025",
        "parcel_id": "train_063_P_007",
        "boundary_type": "VISIBLE",
        "confidence": 0.882,
        "length_m": 38.69,
        "evidence_sources": [
          "Drone_RGB_Edge",
          "DSM_Breakline"
        ]
      },
      "geometry": {
        "type": "LineString",
        "coordinates": [
          [
            77.632952,
            13.0043244
          ],
          [
            77.6333084,
            13.0043289
          ]
        ]
      }
    },
    {
      "type": "Feature",
      "properties": {
        "id": "train_063_BND_026",
        "parcel_id": "train_063_P_007",
        "boundary_type": "INFERRED",
        "confidence": 0.709,
        "length_m": 50.9,
        "evidence_sources": [
          "Road_Corridor_Offset",
          "Adjacent_Parcel_Topology"
        ]
      },
      "geometry": {
        "type": "LineString",
        "coordinates": [
          [
            77.6333084,
            13.0043289
          ],
          [
            77.6333058,
            13.0038691
          ]
        ]
      }
    },
    {
      "type": "Feature",
      "properties": {
        "id": "train_063_BND_027",
        "parcel_id": "train_063_P_007",
        "boundary_type": "VISIBLE",
        "confidence": 0.83,
        "length_m": 38.31,
        "evidence_sources": [
          "Drone_RGB_Edge",
          "DSM_Breakline"
        ]
      },
      "geometry": {
        "type": "LineString",
        "coordinates": [
          [
            77.6333058,
            13.0038691
          ],
          [
            77.6329529,
            13.0038703
          ]
        ]
      }
    },
    {
      "type": "Feature",
      "properties": {
        "id": "train_063_BND_028",
        "parcel_id": "train_063_P_007",
        "boundary_type": "VISIBLE",
        "confidence": 0.945,
        "length_m": 50.27,
        "evidence_sources": [
          "Drone_RGB_Edge",
          "DSM_Breakline"
        ]
      },
      "geometry": {
        "type": "LineString",
        "coordinates": [
          [
            77.6329529,
            13.0038703
          ],
          [
            77.632952,
            13.0043244
          ]
        ]
      }
    },
    {
      "type": "Feature",
      "properties": {
        "id": "train_063_BND_029",
        "parcel_id": "train_063_P_008",
        "boundary_type": "VISIBLE",
        "confidence": 0.874,
        "length_m": 38.47,
        "evidence_sources": [
          "Drone_RGB_Edge",
          "DSM_Breakline"
        ]
      },
      "geometry": {
        "type": "LineString",
        "coordinates": [
          [
            77.6329563,
            13.0038588
          ],
          [
            77.6333107,
            13.0038638
          ]
        ]
      }
    },
    {
      "type": "Feature",
      "properties": {
        "id": "train_063_BND_030",
        "parcel_id": "train_063_P_008",
        "boundary_type": "VISIBLE",
        "confidence": 0.914,
        "length_m": 52.21,
        "evidence_sources": [
          "Drone_RGB_Edge",
          "DSM_Breakline"
        ]
      },
      "geometry": {
        "type": "LineString",
        "coordinates": [
          [
            77.6333107,
            13.0038638
          ],
          [
            77.633322,
            13.0033923
          ]
        ]
      }
    },
    {
      "type": "Feature",
      "properties": {
        "id": "train_063_BND_031",
        "parcel_id": "train_063_P_008",
        "boundary_type": "INFERRED",
        "confidence": 0.66,
        "length_m": 40.0,
        "evidence_sources": [
          "Road_Corridor_Offset",
          "Adjacent_Parcel_Topology"
        ]
      },
      "geometry": {
        "type": "LineString",
        "coordinates": [
          [
            77.633322,
            13.0033923
          ],
          [
            77.6329537,
            13.0034042
          ]
        ]
      }
    },
    {
      "type": "Feature",
      "properties": {
        "id": "train_063_BND_032",
        "parcel_id": "train_063_P_008",
        "boundary_type": "VISIBLE",
        "confidence": 0.953,
        "length_m": 50.32,
        "evidence_sources": [
          "Drone_RGB_Edge",
          "DSM_Breakline"
        ]
      },
      "geometry": {
        "type": "LineString",
        "coordinates": [
          [
            77.6329537,
            13.0034042
          ],
          [
            77.6329563,
            13.0038588
          ]
        ]
      }
    },
    {
      "type": "Feature",
      "properties": {
        "id": "train_063_BND_033",
        "parcel_id": "train_063_P_009",
        "boundary_type": "VISIBLE",
        "confidence": 0.876,
        "length_m": 70.27,
        "evidence_sources": [
          "Drone_RGB_Edge",
          "DSM_Breakline"
        ]
      },
      "geometry": {
        "type": "LineString",
        "coordinates": [
          [
            77.6310733,
            13.0031517
          ],
          [
            77.6317206,
            13.0031617
          ]
        ]
      }
    },
    {
      "type": "Feature",
      "properties": {
        "id": "train_063_BND_034",
        "parcel_id": "train_063_P_009",
        "boundary_type": "VISIBLE",
        "confidence": 0.911,
        "length_m": 59.8,
        "evidence_sources": [
          "Drone_RGB_Edge",
          "DSM_Breakline"
        ]
      },
      "geometry": {
        "type": "LineString",
        "coordinates": [
          [
            77.6317206,
            13.0031617
          ],
          [
            77.6317176,
            13.0026215
          ]
        ]
      }
    },
    {
      "type": "Feature",
      "properties": {
        "id": "train_063_BND_035",
        "parcel_id": "train_063_P_009",
        "boundary_type": "VISIBLE",
        "confidence": 0.841,
        "length_m": 70.81,
        "evidence_sources": [
          "Drone_RGB_Edge",
          "DSM_Breakline"
        ]
      },
      "geometry": {
        "type": "LineString",
        "coordinates": [
          [
            77.6317176,
            13.0026215
          ],
          [
            77.6310653,
            13.0026202
          ]
        ]
      }
    },
    {
      "type": "Feature",
      "properties": {
        "id": "train_063_BND_036",
        "parcel_id": "train_063_P_009",
        "boundary_type": "INFERRED",
        "confidence": 0.621,
        "length_m": 58.84,
        "evidence_sources": [
          "Road_Corridor_Offset",
          "Adjacent_Parcel_Topology"
        ]
      },
      "geometry": {
        "type": "LineString",
        "coordinates": [
          [
            77.6310653,
            13.0026202
          ],
          [
            77.6310733,
            13.0031517
          ]
        ]
      }
    },
    {
      "type": "Feature",
      "properties": {
        "id": "train_063_BND_037",
        "parcel_id": "train_063_P_010",
        "boundary_type": "INFERRED",
        "confidence": 0.662,
        "length_m": 71.71,
        "evidence_sources": [
          "Road_Corridor_Offset",
          "Adjacent_Parcel_Topology"
        ]
      },
      "geometry": {
        "type": "LineString",
        "coordinates": [
          [
            77.6310565,
            13.0026113
          ],
          [
            77.6317171,
            13.0026156
          ]
        ]
      }
    },
    {
      "type": "Feature",
      "properties": {
        "id": "train_063_BND_038",
        "parcel_id": "train_063_P_010",
        "boundary_type": "VISIBLE",
        "confidence": 0.927,
        "length_m": 57.96,
        "evidence_sources": [
          "Drone_RGB_Edge",
          "DSM_Breakline"
        ]
      },
      "geometry": {
        "type": "LineString",
        "coordinates": [
          [
            77.6317171,
            13.0026156
          ],
          [
            77.6316996,
            13.0020923
          ]
        ]
      }
    },
    {
      "type": "Feature",
      "properties": {
        "id": "train_063_BND_039",
        "parcel_id": "train_063_P_010",
        "boundary_type": "INFERRED",
        "confidence": 0.656,
        "length_m": 67.75,
        "evidence_sources": [
          "Road_Corridor_Offset",
          "Adjacent_Parcel_Topology"
        ]
      },
      "geometry": {
        "type": "LineString",
        "coordinates": [
          [
            77.6316996,
            13.0020923
          ],
          [
            77.6310755,
            13.0020946
          ]
        ]
      }
    },
    {
      "type": "Feature",
      "properties": {
        "id": "train_063_BND_040",
        "parcel_id": "train_063_P_010",
        "boundary_type": "VISIBLE",
        "confidence": 0.956,
        "length_m": 57.23,
        "evidence_sources": [
          "Drone_RGB_Edge",
          "DSM_Breakline"
        ]
      },
      "geometry": {
        "type": "LineString",
        "coordinates": [
          [
            77.6310755,
            13.0020946
          ],
          [
            77.6310565,
            13.0026113
          ]
        ]
      }
    },
    {
      "type": "Feature",
      "properties": {
        "id": "train_063_BND_041",
        "parcel_id": "train_063_P_011",
        "boundary_type": "VISIBLE",
        "confidence": 0.906,
        "length_m": 69.38,
        "evidence_sources": [
          "Drone_RGB_Edge",
          "DSM_Breakline"
        ]
      },
      "geometry": {
        "type": "LineString",
        "coordinates": [
          [
            77.6317362,
            13.0031429
          ],
          [
            77.6323754,
            13.0031441
          ]
        ]
      }
    },
    {
      "type": "Feature",
      "properties": {
        "id": "train_063_BND_042",
        "parcel_id": "train_063_P_011",
        "boundary_type": "VISIBLE",
        "confidence": 0.877,
        "length_m": 56.74,
        "evidence_sources": [
          "Drone_RGB_Edge",
          "DSM_Breakline"
        ]
      },
      "geometry": {
        "type": "LineString",
        "coordinates": [
          [
            77.6323754,
            13.0031441
          ],
          [
            77.6323689,
            13.0026316
          ]
        ]
      }
    },
    {
      "type": "Feature",
      "properties": {
        "id": "train_063_BND_043",
        "parcel_id": "train_063_P_011",
        "boundary_type": "VISIBLE",
        "confidence": 0.953,
        "length_m": 69.76,
        "evidence_sources": [
          "Drone_RGB_Edge",
          "DSM_Breakline"
        ]
      },
      "geometry": {
        "type": "LineString",
        "coordinates": [
          [
            77.6323689,
            13.0026316
          ],
          [
            77.6317262,
            13.0026321
          ]
        ]
      }
    },
    {
      "type": "Feature",
      "properties": {
        "id": "train_063_BND_044",
        "parcel_id": "train_063_P_011",
        "boundary_type": "VISIBLE",
        "confidence": 0.86,
        "length_m": 56.55,
        "evidence_sources": [
          "Drone_RGB_Edge",
          "DSM_Breakline"
        ]
      },
      "geometry": {
        "type": "LineString",
        "coordinates": [
          [
            77.6317262,
            13.0026321
          ],
          [
            77.6317362,
            13.0031429
          ]
        ]
      }
    },
    {
      "type": "Feature",
      "properties": {
        "id": "train_063_BND_045",
        "parcel_id": "train_063_P_012",
        "boundary_type": "VISIBLE",
        "confidence": 0.923,
        "length_m": 68.58,
        "evidence_sources": [
          "Drone_RGB_Edge",
          "DSM_Breakline"
        ]
      },
      "geometry": {
        "type": "LineString",
        "coordinates": [
          [
            77.6317409,
            13.0026024
          ],
          [
            77.6323727,
            13.002608
          ]
        ]
      }
    },
    {
      "type": "Feature",
      "properties": {
        "id": "train_063_BND_046",
        "parcel_id": "train_063_P_012",
        "boundary_type": "INFERRED",
        "confidence": 0.769,
        "length_m": 58.04,
        "evidence_sources": [
          "Road_Corridor_Offset",
          "Adjacent_Parcel_Topology"
        ]
      },
      "geometry": {
        "type": "LineString",
        "coordinates": [
          [
            77.6323727,
            13.002608
          ],
          [
            77.6323736,
            13.0020837
          ]
        ]
      }
    },
    {
      "type": "Feature",
      "properties": {
        "id": "train_063_BND_047",
        "parcel_id": "train_063_P_012",
        "boundary_type": "INFERRED",
        "confidence": 0.688,
        "length_m": 68.64,
        "evidence_sources": [
          "Road_Corridor_Offset",
          "Adjacent_Parcel_Topology"
        ]
      },
      "geometry": {
        "type": "LineString",
        "coordinates": [
          [
            77.6323736,
            13.0020837
          ],
          [
            77.6317413,
            13.0020924
          ]
        ]
      }
    },
    {
      "type": "Feature",
      "properties": {
        "id": "train_063_BND_048",
        "parcel_id": "train_063_P_012",
        "boundary_type": "VISIBLE",
        "confidence": 0.909,
        "length_m": 56.46,
        "evidence_sources": [
          "Drone_RGB_Edge",
          "DSM_Breakline"
        ]
      },
      "geometry": {
        "type": "LineString",
        "coordinates": [
          [
            77.6317413,
            13.0020924
          ],
          [
            77.6317409,
            13.0026024
          ]
        ]
      }
    },
    {
      "type": "Feature",
      "properties": {
        "id": "train_063_BND_049",
        "parcel_id": "train_063_P_013",
        "boundary_type": "INFERRED",
        "confidence": 0.754,
        "length_m": 36.11,
        "evidence_sources": [
          "Road_Corridor_Offset",
          "Adjacent_Parcel_Topology"
        ]
      },
      "geometry": {
        "type": "LineString",
        "coordinates": [
          [
            77.6325959,
            13.0031519
          ],
          [
            77.6329286,
            13.0031505
          ]
        ]
      }
    },
    {
      "type": "Feature",
      "properties": {
        "id": "train_063_BND_050",
        "parcel_id": "train_063_P_013",
        "boundary_type": "VISIBLE",
        "confidence": 0.838,
        "length_m": 58.16,
        "evidence_sources": [
          "Drone_RGB_Edge",
          "DSM_Breakline"
        ]
      },
      "geometry": {
        "type": "LineString",
        "coordinates": [
          [
            77.6329286,
            13.0031505
          ],
          [
            77.632943,
            13.0026253
          ]
        ]
      }
    },
    {
      "type": "Feature",
      "properties": {
        "id": "train_063_BND_051",
        "parcel_id": "train_063_P_013",
        "boundary_type": "VISIBLE",
        "confidence": 0.958,
        "length_m": 38.19,
        "evidence_sources": [
          "Drone_RGB_Edge",
          "DSM_Breakline"
        ]
      },
      "geometry": {
        "type": "LineString",
        "coordinates": [
          [
            77.632943,
            13.0026253
          ],
          [
            77.6325915,
            13.0026399
          ]
        ]
      }
    },
    {
      "type": "Feature",
      "properties": {
        "id": "train_063_BND_052",
        "parcel_id": "train_063_P_013",
        "boundary_type": "VISIBLE",
        "confidence": 0.948,
        "length_m": 56.68,
        "evidence_sources": [
          "Drone_RGB_Edge",
          "DSM_Breakline"
        ]
      },
      "geometry": {
        "type": "LineString",
        "coordinates": [
          [
            77.6325915,
            13.0026399
          ],
          [
            77.6325959,
            13.0031519
          ]
        ]
      }
    },
    {
      "type": "Feature",
      "properties": {
        "id": "train_063_BND_053",
        "parcel_id": "train_063_P_014",
        "boundary_type": "VISIBLE",
        "confidence": 0.842,
        "length_m": 37.66,
        "evidence_sources": [
          "Drone_RGB_Edge",
          "DSM_Breakline"
        ]
      },
      "geometry": {
        "type": "LineString",
        "coordinates": [
          [
            77.6325857,
            13.0026178
          ],
          [
            77.6329321,
            13.0025996
          ]
        ]
      }
    },
    {
      "type": "Feature",
      "properties": {
        "id": "train_063_BND_054",
        "parcel_id": "train_063_P_014",
        "boundary_type": "INFERRED",
        "confidence": 0.611,
        "length_m": 57.19,
        "evidence_sources": [
          "Road_Corridor_Offset",
          "Adjacent_Parcel_Topology"
        ]
      },
      "geometry": {
        "type": "LineString",
        "coordinates": [
          [
            77.6329321,
            13.0025996
          ],
          [
            77.6329448,
            13.0020831
          ]
        ]
      }
    },
    {
      "type": "Feature",
      "properties": {
        "id": "train_063_BND_055",
        "parcel_id": "train_063_P_014",
        "boundary_type": "VISIBLE",
        "confidence": 0.929,
        "length_m": 38.74,
        "evidence_sources": [
          "Drone_RGB_Edge",
          "DSM_Breakline"
        ]
      },
      "geometry": {
        "type": "LineString",
        "coordinates": [
          [
            77.6329448,
            13.0020831
          ],
          [
            77.6325879,
            13.0020832
          ]
        ]
      }
    },
    {
      "type": "Feature",
      "properties": {
        "id": "train_063_BND_056",
        "parcel_id": "train_063_P_014",
        "boundary_type": "INFERRED",
        "confidence": 0.647,
        "length_m": 59.18,
        "evidence_sources": [
          "Road_Corridor_Offset",
          "Adjacent_Parcel_Topology"
        ]
      },
      "geometry": {
        "type": "LineString",
        "coordinates": [
          [
            77.6325879,
            13.0020832
          ],
          [
            77.6325857,
            13.0026178
          ]
        ]
      }
    },
    {
      "type": "Feature",
      "properties": {
        "id": "train_063_BND_057",
        "parcel_id": "train_063_P_015",
        "boundary_type": "VISIBLE",
        "confidence": 0.888,
        "length_m": 39.18,
        "evidence_sources": [
          "Drone_RGB_Edge",
          "DSM_Breakline"
        ]
      },
      "geometry": {
        "type": "LineString",
        "coordinates": [
          [
            77.632951,
            13.0031541
          ],
          [
            77.6333119,
            13.0031493
          ]
        ]
      }
    },
    {
      "type": "Feature",
      "properties": {
        "id": "train_063_BND_058",
        "parcel_id": "train_063_P_015",
        "boundary_type": "VISIBLE",
        "confidence": 0.853,
        "length_m": 57.76,
        "evidence_sources": [
          "Drone_RGB_Edge",
          "DSM_Breakline"
        ]
      },
      "geometry": {
        "type": "LineString",
        "coordinates": [
          [
            77.6333119,
            13.0031493
          ],
          [
            77.6333108,
            13.0026275
          ]
        ]
      }
    },
    {
      "type": "Feature",
      "properties": {
        "id": "train_063_BND_059",
        "parcel_id": "train_063_P_015",
        "boundary_type": "VISIBLE",
        "confidence": 0.932,
        "length_m": 38.68,
        "evidence_sources": [
          "Drone_RGB_Edge",
          "DSM_Breakline"
        ]
      },
      "geometry": {
        "type": "LineString",
        "coordinates": [
          [
            77.6333108,
            13.0026275
          ],
          [
            77.6329547,
            13.0026404
          ]
        ]
      }
    },
    {
      "type": "Feature",
      "properties": {
        "id": "train_063_BND_060",
        "parcel_id": "train_063_P_015",
        "boundary_type": "VISIBLE",
        "confidence": 0.847,
        "length_m": 56.87,
        "evidence_sources": [
          "Drone_RGB_Edge",
          "DSM_Breakline"
        ]
      },
      "geometry": {
        "type": "LineString",
        "coordinates": [
          [
            77.6329547,
            13.0026404
          ],
          [
            77.632951,
            13.0031541
          ]
        ]
      }
    },
    {
      "type": "Feature",
      "properties": {
        "id": "train_063_BND_061",
        "parcel_id": "train_063_P_016",
        "boundary_type": "VISIBLE",
        "confidence": 0.93,
        "length_m": 37.45,
        "evidence_sources": [
          "Drone_RGB_Edge",
          "DSM_Breakline"
        ]
      },
      "geometry": {
        "type": "LineString",
        "coordinates": [
          [
            77.6329635,
            13.0026055
          ],
          [
            77.6333083,
            13.0026168
          ]
        ]
      }
    },
    {
      "type": "Feature",
      "properties": {
        "id": "train_063_BND_062",
        "parcel_id": "train_063_P_016",
        "boundary_type": "VISIBLE",
        "confidence": 0.911,
        "length_m": 59.14,
        "evidence_sources": [
          "Drone_RGB_Edge",
          "DSM_Breakline"
        ]
      },
      "geometry": {
        "type": "LineString",
        "coordinates": [
          [
            77.6333083,
            13.0026168
          ],
          [
            77.6333108,
            13.0020826
          ]
        ]
      }
    },
    {
      "type": "Feature",
      "properties": {
        "id": "train_063_BND_063",
        "parcel_id": "train_063_P_016",
        "boundary_type": "VISIBLE",
        "confidence": 0.868,
        "length_m": 38.1,
        "evidence_sources": [
          "Drone_RGB_Edge",
          "DSM_Breakline"
        ]
      },
      "geometry": {
        "type": "LineString",
        "coordinates": [
          [
            77.6333108,
            13.0020826
          ],
          [
            77.63296,
            13.0020931
          ]
        ]
      }
    },
    {
      "type": "Feature",
      "properties": {
        "id": "train_063_BND_064",
        "parcel_id": "train_063_P_016",
        "boundary_type": "VISIBLE",
        "confidence": 0.92,
        "length_m": 56.72,
        "evidence_sources": [
          "Drone_RGB_Edge",
          "DSM_Breakline"
        ]
      },
      "geometry": {
        "type": "LineString",
        "coordinates": [
          [
            77.63296,
            13.0020931
          ],
          [
            77.6329635,
            13.0026055
          ]
        ]
      }
    }
  ]
}