{
  "type": "FeatureCollection",
  "crs": {
    "type": "name",
    "properties": {
      "name": "EPSG:4326"
    }
  },
  "features": [
    {
      "type": "Feature",
      "properties": {
        "id": "train_063_REF_001",
        "parcel_id": "train_063_P_001",
        "parcel_layer": "REFERENCE",
        "boundary_representation": "REFERENCE",
        "land_use_class": "commercial",
        "area_sqm": 3439.21,
        "perimeter_m": 237.9,
        "source": "Synthetic Legacy Cadastral Map (Non-Authoritative Demo)"
      },
      "geometry": {
        "type": "Polygon",
        "coordinates": [
          [
            [
              77.6310686,
              13.0043251
            ],
            [
              77.6317173,
              13.004333
            ],
            [
              77.6317081,
              13.0038702
            ],
            [
              77.631081,
              13.0038905
            ],
            [
              77.6310686,
              13.0043251
            ]
          ]
        ]
      }
    },
    {
      "type": "Feature",
      "properties": {
        "id": "train_063_REF_002",
        "parcel_id": "train_063_P_002",
        "parcel_layer": "REFERENCE",
        "boundary_representation": "REFERENCE",
        "land_use_class": "residential",
        "area_sqm": 3593.31,
        "perimeter_m": 243.14,
        "source": "Synthetic Legacy Cadastral Map (Non-Authoritative Demo)"
      },
      "geometry": {
        "type": "Polygon",
        "coordinates": [
          [
            [
              77.6310635,
              13.0038552
            ],
            [
              77.6317274,
              13.0038665
            ],
            [
              77.6317166,
              13.0034077
            ],
            [
              77.6310767,
              13.0033966
            ],
            [
              77.6310635,
              13.0038552
            ]
          ]
        ]
      }
    },
    {
      "type": "Feature",
      "properties": {
        "id": "train_063_REF_003",
        "parcel_id": "train_063_P_003",
        "parcel_layer": "REFERENCE",
        "boundary_representation": "REFERENCE",
        "land_use_class": "mixed_use",
        "area_sqm": 3450.39,
        "perimeter_m": 238.26,
        "source": "Synthetic Legacy Cadastral Map (Non-Authoritative Demo)"
      },
      "geometry": {
        "type": "Polygon",
        "coordinates": [
          [
            [
              77.6317335,
              13.0043249
            ],
            [
              77.6323872,
              13.004343
            ],
            [
              77.632373,
              13.0038891
            ],
            [
              77.63175,
              13.0038792
            ],
            [
              77.6317335,
              13.0043249
            ]
          ]
        ]
      }
    },
    {
      "type": "Feature",
      "properties": {
        "id": "train_063_REF_004",
        "parcel_id": "train_063_P_004",
        "parcel_layer": "REFERENCE",
        "boundary_representation": "REFERENCE",
        "land_use_class": "residential",
        "area_sqm": 3414.59,
        "perimeter_m": 237.25,
        "source": "Synthetic Legacy Cadastral Map (Non-Authoritative Demo)"
      },
      "geometry": {
        "type": "Polygon",
        "coordinates": [
          [
            [
              77.6317733,
              13.0038688
            ],
            [
              77.6324185,
              13.0038753
            ],
            [
              77.6324067,
              13.0034305
            ],
            [
              77.631773,
              13.0034247
            ],
            [
              77.6317733,
              13.0038688
            ]
          ]
        ]
      }
    },
    {
      "type": "Feature",
      "properties": {
        "id": "train_063_REF_005",
        "parcel_id": "train_063_P_005",
        "parcel_layer": "REFERENCE",
        "boundary_representation": "REFERENCE",
        "land_use_class": "mixed_use",
        "area_sqm": 2019.48,
        "perimeter_m": 181.36,
        "source": "Synthetic Legacy Cadastral Map (Non-Authoritative Demo)"
      },
      "geometry": {
        "type": "Polygon",
        "coordinates": [
          [
            [
              77.6325832,
              13.0043288
            ],
            [
              77.6329515,
              13.0043459
            ],
            [
              77.6329551,
              13.0038691
            ],
            [
              77.6325965,
              13.0038809
            ],
            [
              77.6325832,
              13.0043288
            ]
          ]
        ]
      }
    },
    {
      "type": "Feature",
      "properties": {
        "id": "train_063_REF_006",
        "parcel_id": "train_063_P_006",
        "parcel_layer": "REFERENCE",
        "boundary_representation": "REFERENCE",
        "land_use_class": "mixed_use",
        "area_sqm": 1977.63,
        "perimeter_m": 180.15,
        "source": "Synthetic Legacy Cadastral Map (Non-Authoritative Demo)"
      },
      "geometry": {
        "type": "Polygon",
        "coordinates": [
          [
            [
              77.6325904,
              13.0038677
            ],
            [
              77.6329472,
              13.0038622
            ],
            [
              77.6329413,
              13.0033934
            ],
            [
              77.632599,
              13.0033948
            ],
            [
              77.6325904,
              13.0038677
            ]
          ]
        ]
      }
    },
    {
      "type": "Feature",
      "properties": {
        "id": "train_063_REF_007",
        "parcel_id": "train_063_P_007",
        "parcel_layer": "REFERENCE",
        "boundary_representation": "REFERENCE",
        "land_use_class": "commercial",
        "area_sqm": 1947.29,
        "perimeter_m": 178.17,
        "source": "Synthetic Legacy Cadastral Map (Non-Authoritative Demo)"
      },
      "geometry": {
        "type": "Polygon",
        "coordinates": [
          [
            [
              77.6329576,
              13.0043272
            ],
            [
              77.6333141,
              13.0043317
            ],
            [
              77.6333114,
              13.0038719
            ],
            [
              77.6329586,
              13.0038731
            ],
            [
              77.6329576,
              13.0043272
            ]
          ]
        ]
      }
    },
    {
      "type": "Feature",
      "properties": {
        "id": "train_063_REF_008",
        "parcel_id": "train_063_P_008",
        "parcel_layer": "REFERENCE",
        "boundary_representation": "REFERENCE",
        "land_use_class": "vegetation",
        "area_sqm": 2009.69,
        "perimeter_m": 180.97,
        "source": "Synthetic Legacy Cadastral Map (Non-Authoritative Demo)"
      },
      "geometry": {
        "type": "Polygon",
        "coordinates": [
          [
            [
              77.6329976,
              13.0038794
            ],
            [
              77.6333519,
              13.0038844
            ],
            [
              77.6333632,
              13.003413
            ],
            [
              77.6329949,
              13.0034249
            ],
            [
              77.6329976,
              13.0038794
            ]
          ]
        ]
      }
    },
    {
      "type": "Feature",
      "properties": {
        "id": "train_063_REF_009",
        "parcel_id": "train_063_P_009",
        "parcel_layer": "REFERENCE",
        "boundary_representation": "REFERENCE",
        "land_use_class": "commercial",
        "area_sqm": 4183.92,
        "perimeter_m": 259.73,
        "source": "Synthetic Legacy Cadastral Map (Non-Authoritative Demo)"
      },
      "geometry": {
        "type": "Polygon",
        "coordinates": [
          [
            [
              77.6310789,
              13.0031545
            ],
            [
              77.6317263,
              13.0031645
            ],
            [
              77.6317232,
              13.0026243
            ],
            [
              77.6310709,
              13.002623
            ],
            [
              77.6310789,
              13.0031545
            ]
          ]
        ]
      }
    },
    {
      "type": "Feature",
      "properties": {
        "id": "train_063_REF_010",
        "parcel_id": "train_063_P_010",
        "parcel_layer": "REFERENCE",
        "boundary_representation": "REFERENCE",
        "land_use_class": "industrial",
        "area_sqm": 4014.31,
        "perimeter_m": 254.67,
        "source": "Synthetic Legacy Cadastral Map (Non-Authoritative Demo)"
      },
      "geometry": {
        "type": "Polygon",
        "coordinates": [
          [
            [
              77.6310621,
              13.0026141
            ],
            [
              77.6317228,
              13.0026184
            ],
            [
              77.6317053,
              13.0020951
            ],
            [
              77.6310811,
              13.0020974
            ],
            [
              77.6310621,
              13.0026141
            ]
          ]
        ]
      }
    },
    {
      "type": "Feature",
      "properties": {
        "id": "train_063_REF_011",
        "parcel_id": "train_063_P_011",
        "parcel_layer": "REFERENCE",
        "boundary_representation": "REFERENCE",
        "land_use_class": "mixed_use",
        "area_sqm": 3939.89,
        "perimeter_m": 252.42,
        "source": "Synthetic Legacy Cadastral Map (Non-Authoritative Demo)"
      },
      "geometry": {
        "type": "Polygon",
        "coordinates": [
          [
            [
              77.6317419,
              13.0031457
            ],
            [
              77.632381,
              13.0031469
            ],
            [
              77.6323745,
              13.0026344
            ],
            [
              77.6317318,
              13.002635
            ],
            [
              77.6317419,
              13.0031457
            ]
          ]
        ]
      }
    },
    {
      "type": "Feature",
      "properties": {
        "id": "train_063_REF_012",
        "parcel_id": "train_063_P_012",
        "parcel_layer": "REFERENCE",
        "boundary_representation": "REFERENCE",
        "land_use_class": "residential",
        "area_sqm": 3927.29,
        "perimeter_m": 251.71,
        "source": "Synthetic Legacy Cadastral Map (Non-Authoritative Demo)"
      },
      "geometry": {
        "type": "Polygon",
        "coordinates": [
          [
            [
              77.6317821,
              13.002623
            ],
            [
              77.632414,
              13.0026286
            ],
            [
              77.6324148,
              13.0021044
            ],
            [
              77.6317826,
              13.002113
            ],
            [
              77.6317821,
              13.002623
            ]
          ]
        ]
      }
    },
    {
      "type": "Feature",
      "properties": {
        "id": "train_063_REF_013",
        "parcel_id": "train_063_P_013",
        "parcel_layer": "REFERENCE",
        "boundary_representation": "REFERENCE",
        "land_use_class": "mixed_use",
        "area_sqm": 2130.84,
        "perimeter_m": 189.12,
        "source": "Synthetic Legacy Cadastral Map (Non-Authoritative Demo)"
      },
      "geometry": {
        "type": "Polygon",
        "coordinates": [
          [
            [
              77.6326016,
              13.0031547
            ],
            [
              77.6329342,
              13.0031533
            ],
            [
              77.6329486,
              13.0026282
            ],
            [
              77.6325971,
              13.0026427
            ],
            [
              77.6326016,
              13.0031547
            ]
          ]
        ]
      }
    },
    {
      "type": "Feature",
      "properties": {
        "id": "train_063_REF_014",
        "parcel_id": "train_063_P_014",
        "parcel_layer": "REFERENCE",
        "boundary_representation": "REFERENCE",
        "land_use_class": "commercial",
        "area_sqm": 2219.69,
        "perimeter_m": 192.76,
        "source": "Synthetic Legacy Cadastral Map (Non-Authoritative Demo)"
      },
      "geometry": {
        "type": "Polygon",
        "coordinates": [
          [
            [
              77.6325913,
              13.0026206
            ],
            [
              77.6329377,
              13.0026024
            ],
            [
              77.6329504,
              13.002086
            ],
            [
              77.6325935,
              13.002086
            ],
            [
              77.6325913,
              13.0026206
            ]
          ]
        ]
      }
    },
    {
      "type": "Feature",
      "properties": {
        "id": "train_063_REF_015",
        "parcel_id": "train_063_P_015",
        "parcel_layer": "REFERENCE",
        "boundary_representation": "REFERENCE",
        "land_use_class": "commercial",
        "area_sqm": 2229.71,
        "perimeter_m": 192.47,
        "source": "Synthetic Legacy Cadastral Map (Non-Authoritative Demo)"
      },
      "geometry": {
        "type": "Polygon",
        "coordinates": [
          [
            [
              77.6329567,
              13.0031569
            ],
            [
              77.6333175,
              13.0031521
            ],
            [
              77.6333164,
              13.0026304
            ],
            [
              77.6329603,
              13.0026432
            ],
            [
              77.6329567,
              13.0031569
            ]
          ]
        ]
      }
    },
    {
      "type": "Feature",
      "properties": {
        "id": "train_063_REF_016",
        "parcel_id": "train_063_P_016",
        "parcel_layer": "REFERENCE",
        "boundary_representation": "REFERENCE",
        "land_use_class": "mixed_use",
        "area_sqm": 2187.0,
        "perimeter_m": 191.4,
        "source": "Synthetic Legacy Cadastral Map (Non-Authoritative Demo)"
      },
      "geometry": {
        "type": "Polygon",
        "coordinates": [
          [
            [
              77.6330047,
              13.0026261
            ],
            [
              77.6333495,
              13.0026375
            ],
            [
              77.633352,
              13.0021032
            ],
            [
              77.6330012,
              13.0021138
            ],
            [
              77.6330047,
              13.0026261
            ]
          ]
        ]
      }
    }
  ]
}