{
  "type": "FeatureCollection",
  "crs": {
    "type": "name",
    "properties": {
      "name": "EPSG:4326"
    }
  },
  "features": [
    {
      "type": "Feature",
      "properties": {
        "id": "train_078_BLDG_001",
        "parcel_id": "train_078_P_001",
        "area_sqm": 1838.46,
        "perimeter_m": 171.63,
        "centroid_lon": 77.6313647,
        "centroid_lat": 13.0070297,
        "height_m": 7.52,
        "confidence": 0.799,
        "temporal_epoch": "T1"
      },
      "geometry": {
        "type": "Polygon",
        "coordinates": [
          [
            [
              77.6311744,
              13.0072307
            ],
            [
              77.631555,
              13.0072307
            ],
            [
              77.631555,
              13.0068287
            ],
            [
              77.6311744,
              13.0068287
            ],
            [
              77.6311744,
              13.0072307
            ]
          ]
        ]
      }
    },
    {
      "type": "Feature",
      "properties": {
        "id": "train_078_BLDG_002",
        "parcel_id": "train_078_P_002",
        "area_sqm": 1838.47,
        "perimeter_m": 171.63,
        "centroid_lon": 77.6313647,
        "centroid_lat": 13.0064016,
        "height_m": 7.66,
        "confidence": 0.916,
        "temporal_epoch": "T1"
      },
      "geometry": {
        "type": "Polygon",
        "coordinates": [
          [
            [
              77.6311744,
              13.0066026
            ],
            [
              77.631555,
              13.0066026
            ],
            [
              77.631555,
              13.0062006
            ],
            [
              77.6311744,
              13.0062006
            ],
            [
              77.6311744,
              13.0066026
            ]
          ]
        ]
      }
    },
    {
      "type": "Feature",
      "properties": {
        "id": "train_078_BLDG_003",
        "parcel_id": "train_078_P_003",
        "area_sqm": 2825.8,
        "perimeter_m": 216.0,
        "centroid_lon": 77.6321231,
        "centroid_lat": 13.0070297,
        "height_m": 6.85,
        "confidence": 0.946,
        "temporal_epoch": "T1"
      },
      "geometry": {
        "type": "Polygon",
        "coordinates": [
          [
            [
              77.6318306,
              13.0072307
            ],
            [
              77.6324156,
              13.0072307
            ],
            [
              77.6324156,
              13.0068287
            ],
            [
              77.6318306,
              13.0068287
            ],
            [
              77.6318306,
              13.0072307
            ]
          ]
        ]
      }
    },
    {
      "type": "Feature",
      "properties": {
        "id": "train_078_BLDG_004",
        "parcel_id": "train_078_P_004",
        "area_sqm": 1838.47,
        "perimeter_m": 171.63,
        "centroid_lon": 77.6320209,
        "centroid_lat": 13.0064016,
        "height_m": 11.35,
        "confidence": 0.903,
        "temporal_epoch": "T1"
      },
      "geometry": {
        "type": "Polygon",
        "coordinates": [
          [
            [
              77.6318306,
              13.0066026
            ],
            [
              77.6322112,
              13.0066026
            ],
            [
              77.6322112,
              13.0062006
            ],
            [
              77.6318306,
              13.0062006
            ],
            [
              77.6318306,
              13.0066026
            ]
          ]
        ]
      }
    },
    {
      "type": "Feature",
      "properties": {
        "id": "train_078_BLDG_005",
        "parcel_id": "train_078_P_005",
        "area_sqm": 1129.36,
        "perimeter_m": 139.76,
        "centroid_lon": 77.6327082,
        "centroid_lat": 13.0070297,
        "height_m": 4.67,
        "confidence": 0.853,
        "temporal_epoch": "T1"
      },
      "geometry": {
        "type": "Polygon",
        "coordinates": [
          [
            [
              77.6325913,
              13.0072307
            ],
            [
              77.6328251,
              13.0072307
            ],
            [
              77.6328251,
              13.0068287
            ],
            [
              77.6325913,
              13.0068287
            ],
            [
              77.6325913,
              13.0072307
            ]
          ]
        ]
      }
    },
    {
      "type": "Feature",
      "properties": {
        "id": "train_078_BLDG_006",
        "parcel_id": "train_078_P_007",
        "area_sqm": 1129.84,
        "perimeter_m": 139.78,
        "centroid_lon": 77.6331113,
        "centroid_lat": 13.0070297,
        "height_m": 10.45,
        "confidence": 0.921,
        "temporal_epoch": "T1"
      },
      "geometry": {
        "type": "Polygon",
        "coordinates": [
          [
            [
              77.6329944,
              13.0072307
            ],
            [
              77.6332283,
              13.0072307
            ],
            [
              77.6332283,
              13.0068287
            ],
            [
              77.6329944,
              13.0068287
            ],
            [
              77.6329944,
              13.0072307
            ]
          ]
        ]
      }
    },
    {
      "type": "Feature",
      "properties": {
        "id": "train_078_BLDG_007",
        "parcel_id": "train_078_P_009",
        "area_sqm": 1097.59,
        "perimeter_m": 135.76,
        "centroid_lon": 77.6313647,
        "centroid_lat": 13.0056375,
        "height_m": 8.25,
        "confidence": 0.865,
        "temporal_epoch": "T1"
      },
      "geometry": {
        "type": "Polygon",
        "coordinates": [
          [
            [
              77.6311744,
              13.0057575
            ],
            [
              77.631555,
              13.0057575
            ],
            [
              77.631555,
              13.0055175
            ],
            [
              77.6311744,
              13.0055175
            ],
            [
              77.6311744,
              13.0057575
            ]
          ]
        ]
      }
    },
    {
      "type": "Feature",
      "properties": {
        "id": "train_078_BLDG_008",
        "parcel_id": "train_078_P_010",
        "area_sqm": 1097.6,
        "perimeter_m": 135.76,
        "centroid_lon": 77.6313647,
        "centroid_lat": 13.0052625,
        "height_m": 10.11,
        "confidence": 0.959,
        "temporal_epoch": "T1"
      },
      "geometry": {
        "type": "Polygon",
        "coordinates": [
          [
            [
              77.6311744,
              13.0053825
            ],
            [
              77.631555,
              13.0053825
            ],
            [
              77.631555,
              13.0051425
            ],
            [
              77.6311744,
              13.0051425
            ],
            [
              77.6311744,
              13.0053825
            ]
          ]
        ]
      }
    },
    {
      "type": "Feature",
      "properties": {
        "id": "train_078_BLDG_009",
        "parcel_id": "train_078_P_011",
        "area_sqm": 1097.6,
        "perimeter_m": 135.76,
        "centroid_lon": 77.6320209,
        "centroid_lat": 13.0056375,
        "height_m": 10.37,
        "confidence": 0.861,
        "temporal_epoch": "T1"
      },
      "geometry": {
        "type": "Polygon",
        "coordinates": [
          [
            [
              77.6318306,
              13.0057575
            ],
            [
              77.6322112,
              13.0057575
            ],
            [
              77.6322112,
              13.0055175
            ],
            [
              77.6318306,
              13.0055175
            ],
            [
              77.6318306,
              13.0057575
            ]
          ]
        ]
      }
    },
    {
      "type": "Feature",
      "properties": {
        "id": "train_078_BLDG_010",
        "parcel_id": "train_078_P_012",
        "area_sqm": 1097.6,
        "perimeter_m": 135.76,
        "centroid_lon": 77.6320209,
        "centroid_lat": 13.0052625,
        "height_m": 10.18,
        "confidence": 0.942,
        "temporal_epoch": "T1"
      },
      "geometry": {
        "type": "Polygon",
        "coordinates": [
          [
            [
              77.6318306,
              13.0053825
            ],
            [
              77.6322112,
              13.0053825
            ],
            [
              77.6322112,
              13.0051425
            ],
            [
              77.6318306,
              13.0051425
            ],
            [
              77.6318306,
              13.0053825
            ]
          ]
        ]
      }
    },
    {
      "type": "Feature",
      "properties": {
        "id": "train_078_BLDG_011",
        "parcel_id": "train_078_P_013",
        "area_sqm": 674.25,
        "perimeter_m": 103.89,
        "centroid_lon": 77.6327082,
        "centroid_lat": 13.0056375,
        "height_m": 9.95,
        "confidence": 0.895,
        "temporal_epoch": "T1"
      },
      "geometry": {
        "type": "Polygon",
        "coordinates": [
          [
            [
              77.6325913,
              13.0057575
            ],
            [
              77.6328251,
              13.0057575
            ],
            [
              77.6328251,
              13.0055175
            ],
            [
              77.6325913,
              13.0055175
            ],
            [
              77.6325913,
              13.0057575
            ]
          ]
        ]
      }
    },
    {
      "type": "Feature",
      "properties": {
        "id": "train_078_BLDG_012",
        "parcel_id": "train_078_P_014",
        "area_sqm": 674.25,
        "perimeter_m": 103.89,
        "centroid_lon": 77.6327082,
        "centroid_lat": 13.0052625,
        "height_m": 10.16,
        "confidence": 0.895,
        "temporal_epoch": "T1"
      },
      "geometry": {
        "type": "Polygon",
        "coordinates": [
          [
            [
              77.6325913,
              13.0053825
            ],
            [
              77.6328251,
              13.0053825
            ],
            [
              77.6328251,
              13.0051425
            ],
            [
              77.6325913,
              13.0051425
            ],
            [
              77.6325913,
              13.0053825
            ]
          ]
        ]
      }
    },
    {
      "type": "Feature",
      "properties": {
        "id": "train_078_BLDG_013",
        "parcel_id": "train_078_P_015",
        "area_sqm": 674.54,
        "perimeter_m": 103.91,
        "centroid_lon": 77.6331113,
        "centroid_lat": 13.0056375,
        "height_m": 11.39,
        "confidence": 0.919,
        "temporal_epoch": "T1"
      },
      "geometry": {
        "type": "Polygon",
        "coordinates": [
          [
            [
              77.6329944,
              13.0057575
            ],
            [
              77.6332283,
              13.0057575
            ],
            [
              77.6332283,
              13.0055175
            ],
            [
              77.6329944,
              13.0055175
            ],
            [
              77.6329944,
              13.0057575
            ]
          ]
        ]
      }
    }
  ]
}