{
  "type": "FeatureCollection",
  "crs": {
    "type": "name",
    "properties": {
      "name": "EPSG:4326"
    }
  },
  "features": [
    {
      "type": "Feature",
      "properties": {
        "id": "train_078_P_001",
        "parcel_layer": "CANDIDATE",
        "boundary_representation": "VISIBLE",
        "land_use_class": "commercial",
        "area_sqm": 4665.61,
        "perimeter_m": 273.31,
        "building_count": 1,
        "visible_edges": 3,
        "temporal_epoch": "T1",
        "data_label": "SYNTHETIC DEMO DATA"
      },
      "geometry": {
        "type": "Polygon",
        "coordinates": [
          [
            [
              77.6310588,
              13.0073351
            ],
            [
              77.631702,
              13.0073381
            ],
            [
              77.6317026,
              13.0067164
            ],
            [
              77.6310742,
              13.0067352
            ],
            [
              77.6310588,
              13.0073351
            ]
          ]
        ]
      }
    },
    {
      "type": "Feature",
      "properties": {
        "id": "train_078_P_002",
        "parcel_layer": "CANDIDATE",
        "boundary_representation": "INFERRED",
        "land_use_class": "residential",
        "area_sqm": 4550.69,
        "perimeter_m": 269.86,
        "building_count": 1,
        "visible_edges": 2,
        "temporal_epoch": "T1",
        "data_label": "SYNTHETIC DEMO DATA"
      },
      "geometry": {
        "type": "Polygon",
        "coordinates": [
          [
            [
              77.6310774,
              13.0066989
            ],
            [
              77.631711,
              13.006697
            ],
            [
              77.6317018,
              13.006093
            ],
            [
              77.6310753,
              13.0061008
            ],
            [
              77.6310774,
              13.0066989
            ]
          ]
        ]
      }
    },
    {
      "type": "Feature",
      "properties": {
        "id": "train_078_P_003",
        "parcel_layer": "CANDIDATE",
        "boundary_representation": "VISIBLE",
        "land_use_class": "mixed_use",
        "area_sqm": 4624.67,
        "perimeter_m": 272.09,
        "building_count": 1,
        "visible_edges": 3,
        "temporal_epoch": "T1",
        "data_label": "SYNTHETIC DEMO DATA"
      },
      "geometry": {
        "type": "Polygon",
        "coordinates": [
          [
            [
              77.6317183,
              13.0073219
            ],
            [
              77.6323674,
              13.0073334
            ],
            [
              77.6323579,
              13.0067259
            ],
            [
              77.6317335,
              13.0067206
            ],
            [
              77.6317183,
              13.0073219
            ]
          ]
        ]
      }
    },
    {
      "type": "Feature",
      "properties": {
        "id": "train_078_P_004",
        "parcel_layer": "CANDIDATE",
        "boundary_representation": "INFERRED",
        "land_use_class": "commercial",
        "area_sqm": 4599.24,
        "perimeter_m": 271.34,
        "building_count": 1,
        "visible_edges": 1,
        "temporal_epoch": "T1",
        "data_label": "SYNTHETIC DEMO DATA"
      },
      "geometry": {
        "type": "Polygon",
        "coordinates": [
          [
            [
              77.6317209,
              13.0066962
            ],
            [
              77.6323504,
              13.0067003
            ],
            [
              77.6323664,
              13.0061054
            ],
            [
              77.6317206,
              13.0060908
            ],
            [
              77.6317209,
              13.0066962
            ]
          ]
        ]
      }
    },
    {
      "type": "Feature",
      "properties": {
        "id": "train_078_P_005",
        "parcel_layer": "CANDIDATE",
        "boundary_representation": "VISIBLE",
        "land_use_class": "mixed_use",
        "area_sqm": 2775.0,
        "perimeter_m": 217.68,
        "building_count": 1,
        "visible_edges": 3,
        "temporal_epoch": "T1",
        "data_label": "SYNTHETIC DEMO DATA"
      },
      "geometry": {
        "type": "Polygon",
        "coordinates": [
          [
            [
              77.6325312,
              13.007339
            ],
            [
              77.6329216,
              13.0073402
            ],
            [
              77.6328998,
              13.0067353
            ],
            [
              77.6325372,
              13.0067167
            ],
            [
              77.6325312,
              13.007339
            ]
          ]
        ]
      }
    },
    {
      "type": "Feature",
      "properties": {
        "id": "train_078_P_006",
        "parcel_layer": "CANDIDATE",
        "boundary_representation": "VISIBLE",
        "land_use_class": "vegetation",
        "area_sqm": 2772.82,
        "perimeter_m": 217.56,
        "building_count": 0,
        "visible_edges": 4,
        "temporal_epoch": "T1",
        "data_label": "SYNTHETIC DEMO DATA"
      },
      "geometry": {
        "type": "Polygon",
        "coordinates": [
          [
            [
              77.6325346,
              13.0067108
            ],
            [
              77.6329039,
              13.0067044
            ],
            [
              77.6329076,
              13.0060947
            ],
            [
              77.6325255,
              13.0060921
            ],
            [
              77.6325346,
              13.0067108
            ]
          ]
        ]
      }
    },
    {
      "type": "Feature",
      "properties": {
        "id": "train_078_P_007",
        "parcel_layer": "CANDIDATE",
        "boundary_representation": "VISIBLE",
        "land_use_class": "commercial",
        "area_sqm": 2759.36,
        "perimeter_m": 217.02,
        "building_count": 1,
        "visible_edges": 4,
        "temporal_epoch": "T1",
        "data_label": "SYNTHETIC DEMO DATA"
      },
      "geometry": {
        "type": "Polygon",
        "coordinates": [
          [
            [
              77.632934,
              13.0073398
            ],
            [
              77.633304,
              13.0073244
            ],
            [
              77.6333157,
              13.0067229
            ],
            [
              77.6329352,
              13.0067172
            ],
            [
              77.632934,
              13.0073398
            ]
          ]
        ]
      }
    },
    {
      "type": "Feature",
      "properties": {
        "id": "train_078_P_008",
        "parcel_layer": "CANDIDATE",
        "boundary_representation": "VISIBLE",
        "land_use_class": "vacant",
        "area_sqm": 2611.83,
        "perimeter_m": 210.91,
        "building_count": 0,
        "visible_edges": 3,
        "temporal_epoch": "T1",
        "data_label": "SYNTHETIC DEMO DATA"
      },
      "geometry": {
        "type": "Polygon",
        "coordinates": [
          [
            [
              77.6329429,
              13.006697
            ],
            [
              77.6333147,
              13.0067025
            ],
            [
              77.6333041,
              13.0061082
            ],
            [
              77.6329431,
              13.0061047
            ],
            [
              77.6329429,
              13.006697
            ]
          ]
        ]
      }
    },
    {
      "type": "Feature",
      "properties": {
        "id": "train_078_P_009",
        "parcel_layer": "CANDIDATE",
        "boundary_representation": "VISIBLE",
        "land_use_class": "commercial",
        "area_sqm": 2607.08,
        "perimeter_m": 213.88,
        "building_count": 1,
        "visible_edges": 4,
        "temporal_epoch": "T1",
        "data_label": "SYNTHETIC DEMO DATA"
      },
      "geometry": {
        "type": "Polygon",
        "coordinates": [
          [
            [
              77.6310612,
              13.0058081
            ],
            [
              77.6317049,
              13.0058082
            ],
            [
              77.6317105,
              13.0054688
            ],
            [
              77.6310774,
              13.0054678
            ],
            [
              77.6310612,
              13.0058081
            ]
          ]
        ]
      }
    },
    {
      "type": "Feature",
      "properties": {
        "id": "train_078_P_010",
        "parcel_layer": "CANDIDATE",
        "boundary_representation": "VISIBLE",
        "land_use_class": "residential",
        "area_sqm": 2751.89,
        "perimeter_m": 218.16,
        "building_count": 1,
        "visible_edges": 4,
        "temporal_epoch": "T1",
        "data_label": "SYNTHETIC DEMO DATA"
      },
      "geometry": {
        "type": "Polygon",
        "coordinates": [
          [
            [
              77.6310726,
              13.0054431
            ],
            [
              77.6317044,
              13.0054318
            ],
            [
              77.6317085,
              13.0050826
            ],
            [
              77.6310611,
              13.0050762
            ],
            [
              77.6310726,
              13.0054431
            ]
          ]
        ]
      }
    },
    {
      "type": "Feature",
      "properties": {
        "id": "train_078_P_011",
        "parcel_layer": "CANDIDATE",
        "boundary_representation": "VISIBLE",
        "land_use_class": "mixed_use",
        "area_sqm": 2788.48,
        "perimeter_m": 218.75,
        "building_count": 1,
        "visible_edges": 3,
        "temporal_epoch": "T1",
        "data_label": "SYNTHETIC DEMO DATA"
      },
      "geometry": {
        "type": "Polygon",
        "coordinates": [
          [
            [
              77.6317293,
              13.0058207
            ],
            [
              77.6323588,
              13.0058144
            ],
            [
              77.6323521,
              13.0054501
            ],
            [
              77.6317126,
              13.0054537
            ],
            [
              77.6317293,
              13.0058207
            ]
          ]
        ]
      }
    },
    {
      "type": "Feature",
      "properties": {
        "id": "train_078_P_012",
        "parcel_layer": "CANDIDATE",
        "boundary_representation": "VISIBLE",
        "land_use_class": "residential",
        "area_sqm": 2676.51,
        "perimeter_m": 215.51,
        "building_count": 1,
        "visible_edges": 3,
        "temporal_epoch": "T1",
        "data_label": "SYNTHETIC DEMO DATA"
      },
      "geometry": {
        "type": "Polygon",
        "coordinates": [
          [
            [
              77.6317299,
              13.0054416
            ],
            [
              77.6323537,
              13.0054414
            ],
            [
              77.6323591,
              13.0050926
            ],
            [
              77.631714,
              13.0050882
            ],
            [
              77.6317299,
              13.0054416
            ]
          ]
        ]
      }
    },
    {
      "type": "Feature",
      "properties": {
        "id": "train_078_P_013",
        "parcel_layer": "CANDIDATE",
        "boundary_representation": "VISIBLE",
        "land_use_class": "mixed_use",
        "area_sqm": 1661.33,
        "perimeter_m": 163.28,
        "building_count": 1,
        "visible_edges": 4,
        "temporal_epoch": "T1",
        "data_label": "SYNTHETIC DEMO DATA"
      },
      "geometry": {
        "type": "Polygon",
        "coordinates": [
          [
            [
              77.632519,
              13.0058088
            ],
            [
              77.6329209,
              13.0058166
            ],
            [
              77.6329091,
              13.0054595
            ],
            [
              77.6325216,
              13.0054653
            ],
            [
              77.632519,
              13.0058088
            ]
          ]
        ]
      }
    },
    {
      "type": "Feature",
      "properties": {
        "id": "train_078_P_014",
        "parcel_layer": "CANDIDATE",
        "boundary_representation": "VISIBLE",
        "land_use_class": "mixed_use",
        "area_sqm": 1623.48,
        "perimeter_m": 161.24,
        "building_count": 1,
        "visible_edges": 3,
        "temporal_epoch": "T1",
        "data_label": "SYNTHETIC DEMO DATA"
      },
      "geometry": {
        "type": "Polygon",
        "coordinates": [
          [
            [
              77.6325351,
              13.0054495
            ],
            [
              77.6329022,
              13.0054359
            ],
            [
              77.632909,
              13.0050758
            ],
            [
              77.6325266,
              13.0050886
            ],
            [
              77.6325351,
              13.0054495
            ]
          ]
        ]
      }
    },
    {
      "type": "Feature",
      "properties": {
        "id": "train_078_P_015",
        "parcel_layer": "CANDIDATE",
        "boundary_representation": "INFERRED",
        "land_use_class": "commercial",
        "area_sqm": 1641.69,
        "perimeter_m": 162.21,
        "building_count": 1,
        "visible_edges": 2,
        "temporal_epoch": "T1",
        "data_label": "SYNTHETIC DEMO DATA"
      },
      "geometry": {
        "type": "Polygon",
        "coordinates": [
          [
            [
              77.6329322,
              13.0058151
            ],
            [
              77.6333096,
              13.0058222
            ],
            [
              77.6333241,
              13.0054648
            ],
            [
              77.6329275,
              13.0054665
            ],
            [
              77.6329322,
              13.0058151
            ]
          ]
        ]
      }
    },
    {
      "type": "Feature",
      "properties": {
        "id": "train_078_P_016",
        "parcel_layer": "CANDIDATE",
        "boundary_representation": "INFERRED",
        "land_use_class": "vegetation",
        "area_sqm": 1660.1,
        "perimeter_m": 163.18,
        "building_count": 0,
        "visible_edges": 2,
        "temporal_epoch": "T1",
        "data_label": "SYNTHETIC DEMO DATA"
      },
      "geometry": {
        "type": "Polygon",
        "coordinates": [
          [
            [
              77.632923,
              13.0054385
            ],
            [
              77.6333245,
              13.0054323
            ],
            [
              77.6333067,
              13.0050852
            ],
            [
              77.632926,
              13.0050791
            ],
            [
              77.632923,
              13.0054385
            ]
          ]
        ]
      }
    }
  ]
}