{
  "type": "FeatureCollection",
  "crs": {
    "type": "name",
    "properties": {
      "name": "EPSG:4326"
    }
  },
  "features": [
    {
      "type": "Feature",
      "properties": {
        "id": "train_049_BND_001",
        "parcel_id": "train_049_P_001",
        "boundary_type": "VISIBLE",
        "confidence": 0.886,
        "length_m": 45.92,
        "evidence_sources": [
          "Drone_RGB_Edge",
          "DSM_Breakline"
        ]
      },
      "geometry": {
        "type": "LineString",
        "coordinates": [
          [
            77.6340737,
            13.0013273
          ],
          [
            77.6344967,
            13.0013319
          ]
        ]
      }
    },
    {
      "type": "Feature",
      "properties": {
        "id": "train_049_BND_002",
        "parcel_id": "train_049_P_001",
        "boundary_type": "VISIBLE",
        "confidence": 0.861,
        "length_m": 66.96,
        "evidence_sources": [
          "Drone_RGB_Edge",
          "DSM_Breakline"
        ]
      },
      "geometry": {
        "type": "LineString",
        "coordinates": [
          [
            77.6344967,
            13.0013319
          ],
          [
            77.6344959,
            13.000727
          ]
        ]
      }
    },
    {
      "type": "Feature",
      "properties": {
        "id": "train_049_BND_003",
        "parcel_id": "train_049_P_001",
        "boundary_type": "VISIBLE",
        "confidence": 0.909,
        "length_m": 45.91,
        "evidence_sources": [
          "Drone_RGB_Edge",
          "DSM_Breakline"
        ]
      },
      "geometry": {
        "type": "LineString",
        "coordinates": [
          [
            77.6344959,
            13.000727
          ],
          [
            77.6340732,
            13.0007137
          ]
        ]
      }
    },
    {
      "type": "Feature",
      "properties": {
        "id": "train_049_BND_004",
        "parcel_id": "train_049_P_001",
        "boundary_type": "INFERRED",
        "confidence": 0.718,
        "length_m": 67.92,
        "evidence_sources": [
          "Road_Corridor_Offset",
          "Adjacent_Parcel_Topology"
        ]
      },
      "geometry": {
        "type": "LineString",
        "coordinates": [
          [
            77.6340732,
            13.0007137
          ],
          [
            77.6340737,
            13.0013273
          ]
        ]
      }
    },
    {
      "type": "Feature",
      "properties": {
        "id": "train_049_BND_005",
        "parcel_id": "train_049_P_002",
        "boundary_type": "VISIBLE",
        "confidence": 0.839,
        "length_m": 45.47,
        "evidence_sources": [
          "Drone_RGB_Edge",
          "DSM_Breakline"
        ]
      },
      "geometry": {
        "type": "LineString",
        "coordinates": [
          [
            77.6340722,
            13.0007024
          ],
          [
            77.6344911,
            13.0007052
          ]
        ]
      }
    },
    {
      "type": "Feature",
      "properties": {
        "id": "train_049_BND_006",
        "parcel_id": "train_049_P_002",
        "boundary_type": "VISIBLE",
        "confidence": 0.891,
        "length_m": 68.35,
        "evidence_sources": [
          "Drone_RGB_Edge",
          "DSM_Breakline"
        ]
      },
      "geometry": {
        "type": "LineString",
        "coordinates": [
          [
            77.6344911,
            13.0007052
          ],
          [
            77.6344895,
            13.0000878
          ]
        ]
      }
    },
    {
      "type": "Feature",
      "properties": {
        "id": "train_049_BND_007",
        "parcel_id": "train_049_P_002",
        "boundary_type": "VISIBLE",
        "confidence": 0.921,
        "length_m": 46.05,
        "evidence_sources": [
          "Drone_RGB_Edge",
          "DSM_Breakline"
        ]
      },
      "geometry": {
        "type": "LineString",
        "coordinates": [
          [
            77.6344895,
            13.0000878
          ],
          [
            77.6340653,
            13.0000819
          ]
        ]
      }
    },
    {
      "type": "Feature",
      "properties": {
        "id": "train_049_BND_008",
        "parcel_id": "train_049_P_002",
        "boundary_type": "VISIBLE",
        "confidence": 0.934,
        "length_m": 68.69,
        "evidence_sources": [
          "Drone_RGB_Edge",
          "DSM_Breakline"
        ]
      },
      "geometry": {
        "type": "LineString",
        "coordinates": [
          [
            77.6340653,
            13.0000819
          ],
          [
            77.6340722,
            13.0007024
          ]
        ]
      }
    },
    {
      "type": "Feature",
      "properties": {
        "id": "train_049_BND_009",
        "parcel_id": "train_049_P_003",
        "boundary_type": "VISIBLE",
        "confidence": 0.885,
        "length_m": 44.88,
        "evidence_sources": [
          "Drone_RGB_Edge",
          "DSM_Breakline"
        ]
      },
      "geometry": {
        "type": "LineString",
        "coordinates": [
          [
            77.6345258,
            13.001329
          ],
          [
            77.6349392,
            13.001322
          ]
        ]
      }
    },
    {
      "type": "Feature",
      "properties": {
        "id": "train_049_BND_010",
        "parcel_id": "train_049_P_003",
        "boundary_type": "VISIBLE",
        "confidence": 0.871,
        "length_m": 67.92,
        "evidence_sources": [
          "Drone_RGB_Edge",
          "DSM_Breakline"
        ]
      },
      "geometry": {
        "type": "LineString",
        "coordinates": [
          [
            77.6349392,
            13.001322
          ],
          [
            77.6349486,
            13.0007085
          ]
        ]
      }
    },
    {
      "type": "Feature",
      "properties": {
        "id": "train_049_BND_011",
        "parcel_id": "train_049_P_003",
        "boundary_type": "VISIBLE",
        "confidence": 0.85,
        "length_m": 46.21,
        "evidence_sources": [
          "Drone_RGB_Edge",
          "DSM_Breakline"
        ]
      },
      "geometry": {
        "type": "LineString",
        "coordinates": [
          [
            77.6349486,
            13.0007085
          ],
          [
            77.634523,
            13.0007171
          ]
        ]
      }
    },
    {
      "type": "Feature",
      "properties": {
        "id": "train_049_BND_012",
        "parcel_id": "train_049_P_003",
        "boundary_type": "VISIBLE",
        "confidence": 0.902,
        "length_m": 67.74,
        "evidence_sources": [
          "Drone_RGB_Edge",
          "DSM_Breakline"
        ]
      },
      "geometry": {
        "type": "LineString",
        "coordinates": [
          [
            77.634523,
            13.0007171
          ],
          [
            77.6345258,
            13.001329
          ]
        ]
      }
    },
    {
      "type": "Feature",
      "properties": {
        "id": "train_049_BND_013",
        "parcel_id": "train_049_P_004",
        "boundary_type": "VISIBLE",
        "confidence": 0.875,
        "length_m": 47.34,
        "evidence_sources": [
          "Drone_RGB_Edge",
          "DSM_Breakline"
        ]
      },
      "geometry": {
        "type": "LineString",
        "coordinates": [
          [
            77.6345075,
            13.0006961
          ],
          [
            77.6349435,
            13.0007048
          ]
        ]
      }
    },
    {
      "type": "Feature",
      "properties": {
        "id": "train_049_BND_014",
        "parcel_id": "train_049_P_004",
        "boundary_type": "INFERRED",
        "confidence": 0.766,
        "length_m": 69.25,
        "evidence_sources": [
          "Road_Corridor_Offset",
          "Adjacent_Parcel_Topology"
        ]
      },
      "geometry": {
        "type": "LineString",
        "coordinates": [
          [
            77.6349435,
            13.0007048
          ],
          [
            77.634953,
            13.0000793
          ]
        ]
      }
    },
    {
      "type": "Feature",
      "properties": {
        "id": "train_049_BND_015",
        "parcel_id": "train_049_P_004",
        "boundary_type": "VISIBLE",
        "confidence": 0.905,
        "length_m": 48.02,
        "evidence_sources": [
          "Drone_RGB_Edge",
          "DSM_Breakline"
        ]
      },
      "geometry": {
        "type": "LineString",
        "coordinates": [
          [
            77.634953,
            13.0000793
          ],
          [
            77.6345106,
            13.000083
          ]
        ]
      }
    },
    {
      "type": "Feature",
      "properties": {
        "id": "train_049_BND_016",
        "parcel_id": "train_049_P_004",
        "boundary_type": "VISIBLE",
        "confidence": 0.826,
        "length_m": 67.87,
        "evidence_sources": [
          "Drone_RGB_Edge",
          "DSM_Breakline"
        ]
      },
      "geometry": {
        "type": "LineString",
        "coordinates": [
          [
            77.6345106,
            13.000083
          ],
          [
            77.6345075,
            13.0006961
          ]
        ]
      }
    },
    {
      "type": "Feature",
      "properties": {
        "id": "train_049_BND_017",
        "parcel_id": "train_049_P_005",
        "boundary_type": "VISIBLE",
        "confidence": 0.885,
        "length_m": 61.57,
        "evidence_sources": [
          "Drone_RGB_Edge",
          "DSM_Breakline"
        ]
      },
      "geometry": {
        "type": "LineString",
        "coordinates": [
          [
            77.6351286,
            13.0013326
          ],
          [
            77.6356957,
            13.0013428
          ]
        ]
      }
    },
    {
      "type": "Feature",
      "properties": {
        "id": "train_049_BND_018",
        "parcel_id": "train_049_P_005",
        "boundary_type": "INFERRED",
        "confidence": 0.615,
        "length_m": 70.26,
        "evidence_sources": [
          "Road_Corridor_Offset",
          "Adjacent_Parcel_Topology"
        ]
      },
      "geometry": {
        "type": "LineString",
        "coordinates": [
          [
            77.6356957,
            13.0013428
          ],
          [
            77.6356936,
            13.0007081
          ]
        ]
      }
    },
    {
      "type": "Feature",
      "properties": {
        "id": "train_049_BND_019",
        "parcel_id": "train_049_P_005",
        "boundary_type": "INFERRED",
        "confidence": 0.67,
        "length_m": 61.77,
        "evidence_sources": [
          "Road_Corridor_Offset",
          "Adjacent_Parcel_Topology"
        ]
      },
      "geometry": {
        "type": "LineString",
        "coordinates": [
          [
            77.6356936,
            13.0007081
          ],
          [
            77.6351248,
            13.0007231
          ]
        ]
      }
    },
    {
      "type": "Feature",
      "properties": {
        "id": "train_049_BND_020",
        "parcel_id": "train_049_P_005",
        "boundary_type": "VISIBLE",
        "confidence": 0.862,
        "length_m": 67.47,
        "evidence_sources": [
          "Drone_RGB_Edge",
          "DSM_Breakline"
        ]
      },
      "geometry": {
        "type": "LineString",
        "coordinates": [
          [
            77.6351248,
            13.0007231
          ],
          [
            77.6351286,
            13.0013326
          ]
        ]
      }
    },
    {
      "type": "Feature",
      "properties": {
        "id": "train_049_BND_021",
        "parcel_id": "train_049_P_006",
        "boundary_type": "VISIBLE",
        "confidence": 0.91,
        "length_m": 63.8,
        "evidence_sources": [
          "Drone_RGB_Edge",
          "DSM_Breakline"
        ]
      },
      "geometry": {
        "type": "LineString",
        "coordinates": [
          [
            77.6351188,
            13.0007015
          ],
          [
            77.6357065,
            13.0007025
          ]
        ]
      }
    },
    {
      "type": "Feature",
      "properties": {
        "id": "train_049_BND_022",
        "parcel_id": "train_049_P_006",
        "boundary_type": "VISIBLE",
        "confidence": 0.88,
        "length_m": 69.56,
        "evidence_sources": [
          "Drone_RGB_Edge",
          "DSM_Breakline"
        ]
      },
      "geometry": {
        "type": "LineString",
        "coordinates": [
          [
            77.6357065,
            13.0007025
          ],
          [
            77.6356945,
            13.0000742
          ]
        ]
      }
    },
    {
      "type": "Feature",
      "properties": {
        "id": "train_049_BND_023",
        "parcel_id": "train_049_P_006",
        "boundary_type": "VISIBLE",
        "confidence": 0.853,
        "length_m": 62.55,
        "evidence_sources": [
          "Drone_RGB_Edge",
          "DSM_Breakline"
        ]
      },
      "geometry": {
        "type": "LineString",
        "coordinates": [
          [
            77.6356945,
            13.0000742
          ],
          [
            77.6351183,
            13.0000812
          ]
        ]
      }
    },
    {
      "type": "Feature",
      "properties": {
        "id": "train_049_BND_024",
        "parcel_id": "train_049_P_006",
        "boundary_type": "INFERRED",
        "confidence": 0.696,
        "length_m": 68.67,
        "evidence_sources": [
          "Road_Corridor_Offset",
          "Adjacent_Parcel_Topology"
        ]
      },
      "geometry": {
        "type": "LineString",
        "coordinates": [
          [
            77.6351183,
            13.0000812
          ],
          [
            77.6351188,
            13.0007015
          ]
        ]
      }
    },
    {
      "type": "Feature",
      "properties": {
        "id": "train_049_BND_025",
        "parcel_id": "train_049_P_007",
        "boundary_type": "VISIBLE",
        "confidence": 0.921,
        "length_m": 65.25,
        "evidence_sources": [
          "Drone_RGB_Edge",
          "DSM_Breakline"
        ]
      },
      "geometry": {
        "type": "LineString",
        "coordinates": [
          [
            77.6357163,
            13.0013417
          ],
          [
            77.6363172,
            13.0013267
          ]
        ]
      }
    },
    {
      "type": "Feature",
      "properties": {
        "id": "train_049_BND_026",
        "parcel_id": "train_049_P_007",
        "boundary_type": "VISIBLE",
        "confidence": 0.876,
        "length_m": 67.06,
        "evidence_sources": [
          "Drone_RGB_Edge",
          "DSM_Breakline"
        ]
      },
      "geometry": {
        "type": "LineString",
        "coordinates": [
          [
            77.6363172,
            13.0013267
          ],
          [
            77.6363034,
            13.0007211
          ]
        ]
      }
    },
    {
      "type": "Feature",
      "properties": {
        "id": "train_049_BND_027",
        "parcel_id": "train_049_P_007",
        "boundary_type": "VISIBLE",
        "confidence": 0.957,
        "length_m": 62.27,
        "evidence_sources": [
          "Drone_RGB_Edge",
          "DSM_Breakline"
        ]
      },
      "geometry": {
        "type": "LineString",
        "coordinates": [
          [
            77.6363034,
            13.0007211
          ],
          [
            77.6357298,
            13.0007114
          ]
        ]
      }
    },
    {
      "type": "Feature",
      "properties": {
        "id": "train_049_BND_028",
        "parcel_id": "train_049_P_007",
        "boundary_type": "VISIBLE",
        "confidence": 0.901,
        "length_m": 69.79,
        "evidence_sources": [
          "Drone_RGB_Edge",
          "DSM_Breakline"
        ]
      },
      "geometry": {
        "type": "LineString",
        "coordinates": [
          [
            77.6357298,
            13.0007114
          ],
          [
            77.6357163,
            13.0013417
          ]
        ]
      }
    },
    {
      "type": "Feature",
      "properties": {
        "id": "train_049_BND_029",
        "parcel_id": "train_049_P_008",
        "boundary_type": "VISIBLE",
        "confidence": 0.924,
        "length_m": 64.94,
        "evidence_sources": [
          "Drone_RGB_Edge",
          "DSM_Breakline"
        ]
      },
      "geometry": {
        "type": "LineString",
        "coordinates": [
          [
            77.6357216,
            13.0006898
          ],
          [
            77.6363197,
            13.0007039
          ]
        ]
      }
    },
    {
      "type": "Feature",
      "properties": {
        "id": "train_049_BND_030",
        "parcel_id": "train_049_P_008",
        "boundary_type": "VISIBLE",
        "confidence": 0.92,
        "length_m": 69.25,
        "evidence_sources": [
          "Drone_RGB_Edge",
          "DSM_Breakline"
        ]
      },
      "geometry": {
        "type": "LineString",
        "coordinates": [
          [
            77.6363197,
            13.0007039
          ],
          [
            77.6363099,
            13.0000784
          ]
        ]
      }
    },
    {
      "type": "Feature",
      "properties": {
        "id": "train_049_BND_031",
        "parcel_id": "train_049_P_008",
        "boundary_type": "VISIBLE",
        "confidence": 0.836,
        "length_m": 62.22,
        "evidence_sources": [
          "Drone_RGB_Edge",
          "DSM_Breakline"
        ]
      },
      "geometry": {
        "type": "LineString",
        "coordinates": [
          [
            77.6363099,
            13.0000784
          ],
          [
            77.6357367,
            13.000082
          ]
        ]
      }
    },
    {
      "type": "Feature",
      "properties": {
        "id": "train_049_BND_032",
        "parcel_id": "train_049_P_008",
        "boundary_type": "VISIBLE",
        "confidence": 0.83,
        "length_m": 67.3,
        "evidence_sources": [
          "Drone_RGB_Edge",
          "DSM_Breakline"
        ]
      },
      "geometry": {
        "type": "LineString",
        "coordinates": [
          [
            77.6357367,
            13.000082
          ],
          [
            77.6357216,
            13.0006898
          ]
        ]
      }
    },
    {
      "type": "Feature",
      "properties": {
        "id": "train_049_BND_033",
        "parcel_id": "train_049_P_009",
        "boundary_type": "VISIBLE",
        "confidence": 0.871,
        "length_m": 46.61,
        "evidence_sources": [
          "Drone_RGB_Edge",
          "DSM_Breakline"
        ]
      },
      "geometry": {
        "type": "LineString",
        "coordinates": [
          [
            77.6340569,
            12.9997978
          ],
          [
            77.6344861,
            12.9997849
          ]
        ]
      }
    },
    {
      "type": "Feature",
      "properties": {
        "id": "train_049_BND_034",
        "parcel_id": "train_049_P_009",
        "boundary_type": "INFERRED",
        "confidence": 0.635,
        "length_m": 38.0,
        "evidence_sources": [
          "Road_Corridor_Offset",
          "Adjacent_Parcel_Topology"
        ]
      },
      "geometry": {
        "type": "LineString",
        "coordinates": [
          [
            77.6344861,
            12.9997849
          ],
          [
            77.6344972,
            12.9994418
          ]
        ]
      }
    },
    {
      "type": "Feature",
      "properties": {
        "id": "train_049_BND_035",
        "parcel_id": "train_049_P_009",
        "boundary_type": "INFERRED",
        "confidence": 0.679,
        "length_m": 47.43,
        "evidence_sources": [
          "Road_Corridor_Offset",
          "Adjacent_Parcel_Topology"
        ]
      },
      "geometry": {
        "type": "LineString",
        "coordinates": [
          [
            77.6344972,
            12.9994418
          ],
          [
            77.6340604,
            12.9994516
          ]
        ]
      }
    },
    {
      "type": "Feature",
      "properties": {
        "id": "train_049_BND_036",
        "parcel_id": "train_049_P_009",
        "boundary_type": "VISIBLE",
        "confidence": 0.935,
        "length_m": 38.33,
        "evidence_sources": [
          "Drone_RGB_Edge",
          "DSM_Breakline"
        ]
      },
      "geometry": {
        "type": "LineString",
        "coordinates": [
          [
            77.6340604,
            12.9994516
          ],
          [
            77.6340569,
            12.9997978
          ]
        ]
      }
    },
    {
      "type": "Feature",
      "properties": {
        "id": "train_049_BND_037",
        "parcel_id": "train_049_P_010",
        "boundary_type": "INFERRED",
        "confidence": 0.755,
        "length_m": 48.22,
        "evidence_sources": [
          "Road_Corridor_Offset",
          "Adjacent_Parcel_Topology"
        ]
      },
      "geometry": {
        "type": "LineString",
        "coordinates": [
          [
            77.6340607,
            12.9994376
          ],
          [
            77.6345049,
            12.9994323
          ]
        ]
      }
    },
    {
      "type": "Feature",
      "properties": {
        "id": "train_049_BND_038",
        "parcel_id": "train_049_P_010",
        "boundary_type": "VISIBLE",
        "confidence": 0.833,
        "length_m": 38.05,
        "evidence_sources": [
          "Drone_RGB_Edge",
          "DSM_Breakline"
        ]
      },
      "geometry": {
        "type": "LineString",
        "coordinates": [
          [
            77.6345049,
            12.9994323
          ],
          [
            77.6344878,
            12.999089
          ]
        ]
      }
    },
    {
      "type": "Feature",
      "properties": {
        "id": "train_049_BND_039",
        "parcel_id": "train_049_P_010",
        "boundary_type": "VISIBLE",
        "confidence": 0.847,
        "length_m": 46.29,
        "evidence_sources": [
          "Drone_RGB_Edge",
          "DSM_Breakline"
        ]
      },
      "geometry": {
        "type": "LineString",
        "coordinates": [
          [
            77.6344878,
            12.999089
          ],
          [
            77.6340614,
            12.9990822
          ]
        ]
      }
    },
    {
      "type": "Feature",
      "properties": {
        "id": "train_049_BND_040",
        "parcel_id": "train_049_P_010",
        "boundary_type": "VISIBLE",
        "confidence": 0.848,
        "length_m": 39.34,
        "evidence_sources": [
          "Drone_RGB_Edge",
          "DSM_Breakline"
        ]
      },
      "geometry": {
        "type": "LineString",
        "coordinates": [
          [
            77.6340614,
            12.9990822
          ],
          [
            77.6340607,
            12.9994376
          ]
        ]
      }
    },
    {
      "type": "Feature",
      "properties": {
        "id": "train_049_BND_041",
        "parcel_id": "train_049_P_011",
        "boundary_type": "VISIBLE",
        "confidence": 0.916,
        "length_m": 44.94,
        "evidence_sources": [
          "Drone_RGB_Edge",
          "DSM_Breakline"
        ]
      },
      "geometry": {
        "type": "LineString",
        "coordinates": [
          [
            77.6345254,
            12.9998044
          ],
          [
            77.6349393,
            12.9997943
          ]
        ]
      }
    },
    {
      "type": "Feature",
      "properties": {
        "id": "train_049_BND_042",
        "parcel_id": "train_049_P_011",
        "boundary_type": "VISIBLE",
        "confidence": 0.864,
        "length_m": 37.34,
        "evidence_sources": [
          "Drone_RGB_Edge",
          "DSM_Breakline"
        ]
      },
      "geometry": {
        "type": "LineString",
        "coordinates": [
          [
            77.6349393,
            12.9997943
          ],
          [
            77.634952,
            12.9994572
          ]
        ]
      }
    },
    {
      "type": "Feature",
      "properties": {
        "id": "train_049_BND_043",
        "parcel_id": "train_049_P_011",
        "boundary_type": "VISIBLE",
        "confidence": 0.82,
        "length_m": 47.83,
        "evidence_sources": [
          "Drone_RGB_Edge",
          "DSM_Breakline"
        ]
      },
      "geometry": {
        "type": "LineString",
        "coordinates": [
          [
            77.634952,
            12.9994572
          ],
          [
            77.6345115,
            12.9994481
          ]
        ]
      }
    },
    {
      "type": "Feature",
      "properties": {
        "id": "train_049_BND_044",
        "parcel_id": "train_049_P_011",
        "boundary_type": "INFERRED",
        "confidence": 0.709,
        "length_m": 39.47,
        "evidence_sources": [
          "Road_Corridor_Offset",
          "Adjacent_Parcel_Topology"
        ]
      },
      "geometry": {
        "type": "LineString",
        "coordinates": [
          [
            77.6345115,
            12.9994481
          ],
          [
            77.6345254,
            12.9998044
          ]
        ]
      }
    },
    {
      "type": "Feature",
      "properties": {
        "id": "train_049_BND_045",
        "parcel_id": "train_049_P_012",
        "boundary_type": "INFERRED",
        "confidence": 0.651,
        "length_m": 44.83,
        "evidence_sources": [
          "Road_Corridor_Offset",
          "Adjacent_Parcel_Topology"
        ]
      },
      "geometry": {
        "type": "LineString",
        "coordinates": [
          [
            77.6345266,
            12.9994203
          ],
          [
            77.6349393,
            12.9994353
          ]
        ]
      }
    },
    {
      "type": "Feature",
      "properties": {
        "id": "train_049_BND_046",
        "parcel_id": "train_049_P_012",
        "boundary_type": "VISIBLE",
        "confidence": 0.938,
        "length_m": 39.57,
        "evidence_sources": [
          "Drone_RGB_Edge",
          "DSM_Breakline"
        ]
      },
      "geometry": {
        "type": "LineString",
        "coordinates": [
          [
            77.6349393,
            12.9994353
          ],
          [
            77.6349408,
            12.9990778
          ]
        ]
      }
    },
    {
      "type": "Feature",
      "properties": {
        "id": "train_049_BND_047",
        "parcel_id": "train_049_P_012",
        "boundary_type": "VISIBLE",
        "confidence": 0.822,
        "length_m": 46.36,
        "evidence_sources": [
          "Drone_RGB_Edge",
          "DSM_Breakline"
        ]
      },
      "geometry": {
        "type": "LineString",
        "coordinates": [
          [
            77.6349408,
            12.9990778
          ],
          [
            77.6345139,
            12.9990911
          ]
        ]
      }
    },
    {
      "type": "Feature",
      "properties": {
        "id": "train_049_BND_048",
        "parcel_id": "train_049_P_012",
        "boundary_type": "VISIBLE",
        "confidence": 0.871,
        "length_m": 36.47,
        "evidence_sources": [
          "Drone_RGB_Edge",
          "DSM_Breakline"
        ]
      },
      "geometry": {
        "type": "LineString",
        "coordinates": [
          [
            77.6345139,
            12.9990911
          ],
          [
            77.6345266,
            12.9994203
          ]
        ]
      }
    },
    {
      "type": "Feature",
      "properties": {
        "id": "train_049_BND_049",
        "parcel_id": "train_049_P_013",
        "boundary_type": "VISIBLE",
        "confidence": 0.959,
        "length_m": 63.48,
        "evidence_sources": [
          "Drone_RGB_Edge",
          "DSM_Breakline"
        ]
      },
      "geometry": {
        "type": "LineString",
        "coordinates": [
          [
            77.6351205,
            12.9998009
          ],
          [
            77.6357053,
            12.9998036
          ]
        ]
      }
    },
    {
      "type": "Feature",
      "properties": {
        "id": "train_049_BND_050",
        "parcel_id": "train_049_P_013",
        "boundary_type": "VISIBLE",
        "confidence": 0.955,
        "length_m": 38.89,
        "evidence_sources": [
          "Drone_RGB_Edge",
          "DSM_Breakline"
        ]
      },
      "geometry": {
        "type": "LineString",
        "coordinates": [
          [
            77.6357053,
            12.9998036
          ],
          [
            77.6356992,
            12.9994523
          ]
        ]
      }
    },
    {
      "type": "Feature",
      "properties": {
        "id": "train_049_BND_051",
        "parcel_id": "train_049_P_013",
        "boundary_type": "VISIBLE",
        "confidence": 0.925,
        "length_m": 62.32,
        "evidence_sources": [
          "Drone_RGB_Edge",
          "DSM_Breakline"
        ]
      },
      "geometry": {
        "type": "LineString",
        "coordinates": [
          [
            77.6356992,
            12.9994523
          ],
          [
            77.6351251,
            12.9994458
          ]
        ]
      }
    },
    {
      "type": "Feature",
      "properties": {
        "id": "train_049_BND_052",
        "parcel_id": "train_049_P_013",
        "boundary_type": "VISIBLE",
        "confidence": 0.856,
        "length_m": 39.31,
        "evidence_sources": [
          "Drone_RGB_Edge",
          "DSM_Breakline"
        ]
      },
      "geometry": {
        "type": "LineString",
        "coordinates": [
          [
            77.6351251,
            12.9994458
          ],
          [
            77.6351205,
            12.9998009
          ]
        ]
      }
    },
    {
      "type": "Feature",
      "properties": {
        "id": "train_049_BND_053",
        "parcel_id": "train_049_P_014",
        "boundary_type": "VISIBLE",
        "confidence": 0.903,
        "length_m": 63.62,
        "evidence_sources": [
          "Drone_RGB_Edge",
          "DSM_Breakline"
        ]
      },
      "geometry": {
        "type": "LineString",
        "coordinates": [
          [
            77.6351233,
            12.9994241
          ],
          [
            77.6357093,
            12.9994317
          ]
        ]
      }
    },
    {
      "type": "Feature",
      "properties": {
        "id": "train_049_BND_054",
        "parcel_id": "train_049_P_014",
        "boundary_type": "VISIBLE",
        "confidence": 0.924,
        "length_m": 38.98,
        "evidence_sources": [
          "Drone_RGB_Edge",
          "DSM_Breakline"
        ]
      },
      "geometry": {
        "type": "LineString",
        "coordinates": [
          [
            77.6357093,
            12.9994317
          ],
          [
            77.6356946,
            12.9990799
          ]
        ]
      }
    },
    {
      "type": "Feature",
      "properties": {
        "id": "train_049_BND_055",
        "parcel_id": "train_049_P_014",
        "boundary_type": "INFERRED",
        "confidence": 0.647,
        "length_m": 63.15,
        "evidence_sources": [
          "Road_Corridor_Offset",
          "Adjacent_Parcel_Topology"
        ]
      },
      "geometry": {
        "type": "LineString",
        "coordinates": [
          [
            77.6356946,
            12.9990799
          ],
          [
            77.6351129,
            12.9990838
          ]
        ]
      }
    },
    {
      "type": "Feature",
      "properties": {
        "id": "train_049_BND_056",
        "parcel_id": "train_049_P_014",
        "boundary_type": "VISIBLE",
        "confidence": 0.883,
        "length_m": 37.69,
        "evidence_sources": [
          "Drone_RGB_Edge",
          "DSM_Breakline"
        ]
      },
      "geometry": {
        "type": "LineString",
        "coordinates": [
          [
            77.6351129,
            12.9990838
          ],
          [
            77.6351233,
            12.9994241
          ]
        ]
      }
    },
    {
      "type": "Feature",
      "properties": {
        "id": "train_049_BND_057",
        "parcel_id": "train_049_P_015",
        "boundary_type": "VISIBLE",
        "confidence": 0.835,
        "length_m": 65.18,
        "evidence_sources": [
          "Drone_RGB_Edge",
          "DSM_Breakline"
        ]
      },
      "geometry": {
        "type": "LineString",
        "coordinates": [
          [
            77.6357243,
            12.9997984
          ],
          [
            77.6363246,
            12.9997843
          ]
        ]
      }
    },
    {
      "type": "Feature",
      "properties": {
        "id": "train_049_BND_058",
        "parcel_id": "train_049_P_015",
        "boundary_type": "INFERRED",
        "confidence": 0.647,
        "length_m": 36.56,
        "evidence_sources": [
          "Road_Corridor_Offset",
          "Adjacent_Parcel_Topology"
        ]
      },
      "geometry": {
        "type": "LineString",
        "coordinates": [
          [
            77.6363246,
            12.9997843
          ],
          [
            77.6363061,
            12.9994545
          ]
        ]
      }
    },
    {
      "type": "Feature",
      "properties": {
        "id": "train_049_BND_059",
        "parcel_id": "train_049_P_015",
        "boundary_type": "VISIBLE",
        "confidence": 0.94,
        "length_m": 61.92,
        "evidence_sources": [
          "Drone_RGB_Edge",
          "DSM_Breakline"
        ]
      },
      "geometry": {
        "type": "LineString",
        "coordinates": [
          [
            77.6363061,
            12.9994545
          ],
          [
            77.6357357,
            12.9994479
          ]
        ]
      }
    },
    {
      "type": "Feature",
      "properties": {
        "id": "train_049_BND_060",
        "parcel_id": "train_049_P_015",
        "boundary_type": "INFERRED",
        "confidence": 0.676,
        "length_m": 38.82,
        "evidence_sources": [
          "Road_Corridor_Offset",
          "Adjacent_Parcel_Topology"
        ]
      },
      "geometry": {
        "type": "LineString",
        "coordinates": [
          [
            77.6357357,
            12.9994479
          ],
          [
            77.6357243,
            12.9997984
          ]
        ]
      }
    },
    {
      "type": "Feature",
      "properties": {
        "id": "train_049_BND_061",
        "parcel_id": "train_049_P_016",
        "boundary_type": "VISIBLE",
        "confidence": 0.856,
        "length_m": 62.85,
        "evidence_sources": [
          "Drone_RGB_Edge",
          "DSM_Breakline"
        ]
      },
      "geometry": {
        "type": "LineString",
        "coordinates": [
          [
            77.6357257,
            12.9994185
          ],
          [
            77.6363044,
            12.9994371
          ]
        ]
      }
    },
    {
      "type": "Feature",
      "properties": {
        "id": "train_049_BND_062",
        "parcel_id": "train_049_P_016",
        "boundary_type": "INFERRED",
        "confidence": 0.728,
        "length_m": 38.49,
        "evidence_sources": [
          "Road_Corridor_Offset",
          "Adjacent_Parcel_Topology"
        ]
      },
      "geometry": {
        "type": "LineString",
        "coordinates": [
          [
            77.6363044,
            12.9994371
          ],
          [
            77.6363116,
            12.9990895
          ]
        ]
      }
    },
    {
      "type": "Feature",
      "properties": {
        "id": "train_049_BND_063",
        "parcel_id": "train_049_P_016",
        "boundary_type": "INFERRED",
        "confidence": 0.639,
        "length_m": 63.16,
        "evidence_sources": [
          "Road_Corridor_Offset",
          "Adjacent_Parcel_Topology"
        ]
      },
      "geometry": {
        "type": "LineString",
        "coordinates": [
          [
            77.6363116,
            12.9990895
          ],
          [
            77.6357298,
            12.9990911
          ]
        ]
      }
    },
    {
      "type": "Feature",
      "properties": {
        "id": "train_049_BND_064",
        "parcel_id": "train_049_P_016",
        "boundary_type": "VISIBLE",
        "confidence": 0.916,
        "length_m": 36.25,
        "evidence_sources": [
          "Drone_RGB_Edge",
          "DSM_Breakline"
        ]
      },
      "geometry": {
        "type": "LineString",
        "coordinates": [
          [
            77.6357298,
            12.9990911
          ],
          [
            77.6357257,
            12.9994185
          ]
        ]
      }
    }
  ]
}