{
  "type": "FeatureCollection",
  "crs": {
    "type": "name",
    "properties": {
      "name": "EPSG:4326"
    }
  },
  "features": [
    {
      "type": "Feature",
      "properties": {
        "id": "train_049_REF_001",
        "parcel_id": "train_049_P_001",
        "parcel_layer": "REFERENCE",
        "boundary_representation": "REFERENCE",
        "land_use_class": "industrial",
        "area_sqm": 3095.59,
        "perimeter_m": 226.71,
        "source": "Synthetic Legacy Cadastral Map (Non-Authoritative Demo)"
      },
      "geometry": {
        "type": "Polygon",
        "coordinates": [
          [
            [
              77.6340794,
              13.0013301
            ],
            [
              77.6345023,
              13.0013347
            ],
            [
              77.6345016,
              13.0007298
            ],
            [
              77.6340788,
              13.0007165
            ],
            [
              77.6340794,
              13.0013301
            ]
          ]
        ]
      }
    },
    {
      "type": "Feature",
      "properties": {
        "id": "train_049_REF_002",
        "parcel_id": "train_049_P_002",
        "parcel_layer": "REFERENCE",
        "boundary_representation": "REFERENCE",
        "land_use_class": "residential",
        "area_sqm": 3134.81,
        "perimeter_m": 228.55,
        "source": "Synthetic Legacy Cadastral Map (Non-Authoritative Demo)"
      },
      "geometry": {
        "type": "Polygon",
        "coordinates": [
          [
            [
              77.6340778,
              13.0007052
            ],
            [
              77.6344967,
              13.000708
            ],
            [
              77.6344951,
              13.0000907
            ],
            [
              77.6340709,
              13.0000847
            ],
            [
              77.6340778,
              13.0007052
            ]
          ]
        ]
      }
    },
    {
      "type": "Feature",
      "properties": {
        "id": "train_049_REF_003",
        "parcel_id": "train_049_P_003",
        "parcel_layer": "REFERENCE",
        "boundary_representation": "REFERENCE",
        "land_use_class": "residential",
        "area_sqm": 3088.84,
        "perimeter_m": 226.77,
        "source": "Synthetic Legacy Cadastral Map (Non-Authoritative Demo)"
      },
      "geometry": {
        "type": "Polygon",
        "coordinates": [
          [
            [
              77.6345314,
              13.0013319
            ],
            [
              77.6349449,
              13.0013248
            ],
            [
              77.6349542,
              13.0007113
            ],
            [
              77.6345286,
              13.0007199
            ],
            [
              77.6345314,
              13.0013319
            ]
          ]
        ]
      }
    },
    {
      "type": "Feature",
      "properties": {
        "id": "train_049_REF_004",
        "parcel_id": "train_049_P_004",
        "parcel_layer": "REFERENCE",
        "boundary_representation": "REFERENCE",
        "land_use_class": "residential",
        "area_sqm": 3268.59,
        "perimeter_m": 232.48,
        "source": "Synthetic Legacy Cadastral Map (Non-Authoritative Demo)"
      },
      "geometry": {
        "type": "Polygon",
        "coordinates": [
          [
            [
              77.6345488,
              13.0007168
            ],
            [
              77.6349848,
              13.0007254
            ],
            [
              77.6349942,
              13.0000999
            ],
            [
              77.6345518,
              13.0001037
            ],
            [
              77.6345488,
              13.0007168
            ]
          ]
        ]
      }
    },
    {
      "type": "Feature",
      "properties": {
        "id": "train_049_REF_005",
        "parcel_id": "train_049_P_005",
        "parcel_layer": "REFERENCE",
        "boundary_representation": "REFERENCE",
        "land_use_class": "commercial",
        "area_sqm": 4245.01,
        "perimeter_m": 261.05,
        "source": "Synthetic Legacy Cadastral Map (Non-Authoritative Demo)"
      },
      "geometry": {
        "type": "Polygon",
        "coordinates": [
          [
            [
              77.6351343,
              13.0013354
            ],
            [
              77.6357013,
              13.0013456
            ],
            [
              77.6356992,
              13.000711
            ],
            [
              77.6351304,
              13.0007259
            ],
            [
              77.6351343,
              13.0013354
            ]
          ]
        ]
      }
    },
    {
      "type": "Feature",
      "properties": {
        "id": "train_049_REF_006",
        "parcel_id": "train_049_P_006",
        "parcel_layer": "REFERENCE",
        "boundary_representation": "REFERENCE",
        "land_use_class": "mixed_use",
        "area_sqm": 4365.54,
        "perimeter_m": 264.57,
        "source": "Synthetic Legacy Cadastral Map (Non-Authoritative Demo)"
      },
      "geometry": {
        "type": "Polygon",
        "coordinates": [
          [
            [
              77.6351245,
              13.0007043
            ],
            [
              77.6357121,
              13.0007053
            ],
            [
              77.6357001,
              13.000077
            ],
            [
              77.6351239,
              13.000084
            ],
            [
              77.6351245,
              13.0007043
            ]
          ]
        ]
      }
    },
    {
      "type": "Feature",
      "properties": {
        "id": "train_049_REF_007",
        "parcel_id": "train_049_P_007",
        "parcel_layer": "REFERENCE",
        "boundary_representation": "REFERENCE",
        "land_use_class": "mixed_use",
        "area_sqm": 4360.63,
        "perimeter_m": 264.37,
        "source": "Synthetic Legacy Cadastral Map (Non-Authoritative Demo)"
      },
      "geometry": {
        "type": "Polygon",
        "coordinates": [
          [
            [
              77.635722,
              13.0013445
            ],
            [
              77.6363228,
              13.0013295
            ],
            [
              77.6363091,
              13.0007239
            ],
            [
              77.6357354,
              13.0007142
            ],
            [
              77.635722,
              13.0013445
            ]
          ]
        ]
      }
    },
    {
      "type": "Feature",
      "properties": {
        "id": "train_049_REF_008",
        "parcel_id": "train_049_P_008",
        "parcel_layer": "REFERENCE",
        "boundary_representation": "REFERENCE",
        "land_use_class": "vegetation",
        "area_sqm": 4340.5,
        "perimeter_m": 263.74,
        "source": "Synthetic Legacy Cadastral Map (Non-Authoritative Demo)"
      },
      "geometry": {
        "type": "Polygon",
        "coordinates": [
          [
            [
              77.6357628,
              13.0007105
            ],
            [
              77.636361,
              13.0007245
            ],
            [
              77.6363511,
              13.000099
            ],
            [
              77.6357779,
              13.0001026
            ],
            [
              77.6357628,
              13.0007105
            ]
          ]
        ]
      }
    },
    {
      "type": "Feature",
      "properties": {
        "id": "train_049_REF_009",
        "parcel_id": "train_049_P_009",
        "parcel_layer": "REFERENCE",
        "boundary_representation": "REFERENCE",
        "land_use_class": "vacant",
        "area_sqm": 1792.45,
        "perimeter_m": 170.38,
        "source": "Synthetic Legacy Cadastral Map (Non-Authoritative Demo)"
      },
      "geometry": {
        "type": "Polygon",
        "coordinates": [
          [
            [
              77.6340625,
              12.9998006
            ],
            [
              77.6344917,
              12.9997877
            ],
            [
              77.6345029,
              12.9994446
            ],
            [
              77.634066,
              12.9994544
            ],
            [
              77.6340625,
              12.9998006
            ]
          ]
        ]
      }
    },
    {
      "type": "Feature",
      "properties": {
        "id": "train_049_REF_010",
        "parcel_id": "train_049_P_010",
        "parcel_layer": "REFERENCE",
        "boundary_representation": "REFERENCE",
        "land_use_class": "industrial",
        "area_sqm": 1827.29,
        "perimeter_m": 171.9,
        "source": "Synthetic Legacy Cadastral Map (Non-Authoritative Demo)"
      },
      "geometry": {
        "type": "Polygon",
        "coordinates": [
          [
            [
              77.6340663,
              12.9994404
            ],
            [
              77.6345105,
              12.9994351
            ],
            [
              77.6344934,
              12.9990918
            ],
            [
              77.634067,
              12.999085
            ],
            [
              77.6340663,
              12.9994404
            ]
          ]
        ]
      }
    },
    {
      "type": "Feature",
      "properties": {
        "id": "train_049_REF_011",
        "parcel_id": "train_049_P_011",
        "parcel_layer": "REFERENCE",
        "boundary_representation": "REFERENCE",
        "land_use_class": "industrial",
        "area_sqm": 1779.55,
        "perimeter_m": 169.57,
        "source": "Synthetic Legacy Cadastral Map (Non-Authoritative Demo)"
      },
      "geometry": {
        "type": "Polygon",
        "coordinates": [
          [
            [
              77.634531,
              12.9998072
            ],
            [
              77.6349449,
              12.9997971
            ],
            [
              77.6349576,
              12.99946
            ],
            [
              77.6345172,
              12.9994509
            ],
            [
              77.634531,
              12.9998072
            ]
          ]
        ]
      }
    },
    {
      "type": "Feature",
      "properties": {
        "id": "train_049_REF_012",
        "parcel_id": "train_049_P_012",
        "parcel_layer": "REFERENCE",
        "boundary_representation": "REFERENCE",
        "land_use_class": "residential",
        "area_sqm": 1732.43,
        "perimeter_m": 167.26,
        "source": "Synthetic Legacy Cadastral Map (Non-Authoritative Demo)"
      },
      "geometry": {
        "type": "Polygon",
        "coordinates": [
          [
            [
              77.6345678,
              12.999441
            ],
            [
              77.6349806,
              12.9994559
            ],
            [
              77.6349821,
              12.9990984
            ],
            [
              77.6345552,
              12.9991117
            ],
            [
              77.6345678,
              12.999441
            ]
          ]
        ]
      }
    },
    {
      "type": "Feature",
      "properties": {
        "id": "train_049_REF_013",
        "parcel_id": "train_049_P_013",
        "parcel_layer": "REFERENCE",
        "boundary_representation": "REFERENCE",
        "land_use_class": "residential",
        "area_sqm": 2459.26,
        "perimeter_m": 204.01,
        "source": "Synthetic Legacy Cadastral Map (Non-Authoritative Demo)"
      },
      "geometry": {
        "type": "Polygon",
        "coordinates": [
          [
            [
              77.6351261,
              12.9998037
            ],
            [
              77.6357109,
              12.9998064
            ],
            [
              77.6357048,
              12.9994551
            ],
            [
              77.6351307,
              12.9994486
            ],
            [
              77.6351261,
              12.9998037
            ]
          ]
        ]
      }
    },
    {
      "type": "Feature",
      "properties": {
        "id": "train_049_REF_014",
        "parcel_id": "train_049_P_014",
        "parcel_layer": "REFERENCE",
        "boundary_representation": "REFERENCE",
        "land_use_class": "water",
        "area_sqm": 2427.33,
        "perimeter_m": 203.42,
        "source": "Synthetic Legacy Cadastral Map (Non-Authoritative Demo)"
      },
      "geometry": {
        "type": "Polygon",
        "coordinates": [
          [
            [
              77.635129,
              12.9994269
            ],
            [
              77.6357149,
              12.9994345
            ],
            [
              77.6357002,
              12.9990827
            ],
            [
              77.6351185,
              12.9990866
            ],
            [
              77.635129,
              12.9994269
            ]
          ]
        ]
      }
    },
    {
      "type": "Feature",
      "properties": {
        "id": "train_049_REF_015",
        "parcel_id": "train_049_P_015",
        "parcel_layer": "REFERENCE",
        "boundary_representation": "REFERENCE",
        "land_use_class": "commercial",
        "area_sqm": 2392.85,
        "perimeter_m": 202.49,
        "source": "Synthetic Legacy Cadastral Map (Non-Authoritative Demo)"
      },
      "geometry": {
        "type": "Polygon",
        "coordinates": [
          [
            [
              77.6357299,
              12.9998012
            ],
            [
              77.6363302,
              12.9997872
            ],
            [
              77.6363117,
              12.9994573
            ],
            [
              77.6357414,
              12.9994507
            ],
            [
              77.6357299,
              12.9998012
            ]
          ]
        ]
      }
    },
    {
      "type": "Feature",
      "properties": {
        "id": "train_049_REF_016",
        "parcel_id": "train_049_P_016",
        "parcel_layer": "REFERENCE",
        "boundary_representation": "REFERENCE",
        "land_use_class": "agricultural",
        "area_sqm": 2353.8,
        "perimeter_m": 200.74,
        "source": "Synthetic Legacy Cadastral Map (Non-Authoritative Demo)"
      },
      "geometry": {
        "type": "Polygon",
        "coordinates": [
          [
            [
              77.635767,
              12.9994392
            ],
            [
              77.6363457,
              12.9994577
            ],
            [
              77.6363529,
              12.9991101
            ],
            [
              77.6357711,
              12.9991118
            ],
            [
              77.635767,
              12.9994392
            ]
          ]
        ]
      }
    }
  ]
}