{
  "type": "FeatureCollection",
  "crs": {
    "type": "name",
    "properties": {
      "name": "EPSG:4326"
    }
  },
  "features": [
    {
      "type": "Feature",
      "properties": {
        "id": "train_055_BND_001",
        "parcel_id": "train_055_P_001",
        "boundary_type": "VISIBLE",
        "confidence": 0.833,
        "length_m": 65.74,
        "evidence_sources": [
          "Drone_RGB_Edge",
          "DSM_Breakline"
        ]
      },
      "geometry": {
        "type": "LineString",
        "coordinates": [
          [
            77.6070694,
            13.0043347
          ],
          [
            77.607675,
            13.0043355
          ]
        ]
      }
    },
    {
      "type": "Feature",
      "properties": {
        "id": "train_055_BND_002",
        "parcel_id": "train_055_P_001",
        "boundary_type": "VISIBLE",
        "confidence": 0.937,
        "length_m": 52.95,
        "evidence_sources": [
          "Drone_RGB_Edge",
          "DSM_Breakline"
        ]
      },
      "geometry": {
        "type": "LineString",
        "coordinates": [
          [
            77.607675,
            13.0043355
          ],
          [
            77.6076692,
            13.0038572
          ]
        ]
      }
    },
    {
      "type": "Feature",
      "properties": {
        "id": "train_055_BND_003",
        "parcel_id": "train_055_P_001",
        "boundary_type": "VISIBLE",
        "confidence": 0.947,
        "length_m": 65.49,
        "evidence_sources": [
          "Drone_RGB_Edge",
          "DSM_Breakline"
        ]
      },
      "geometry": {
        "type": "LineString",
        "coordinates": [
          [
            77.6076692,
            13.0038572
          ],
          [
            77.6070659,
            13.0038479
          ]
        ]
      }
    },
    {
      "type": "Feature",
      "properties": {
        "id": "train_055_BND_004",
        "parcel_id": "train_055_P_001",
        "boundary_type": "VISIBLE",
        "confidence": 0.896,
        "length_m": 53.89,
        "evidence_sources": [
          "Drone_RGB_Edge",
          "DSM_Breakline"
        ]
      },
      "geometry": {
        "type": "LineString",
        "coordinates": [
          [
            77.6070659,
            13.0038479
          ],
          [
            77.6070694,
            13.0043347
          ]
        ]
      }
    },
    {
      "type": "Feature",
      "properties": {
        "id": "train_055_BND_005",
        "parcel_id": "train_055_P_002",
        "boundary_type": "VISIBLE",
        "confidence": 0.892,
        "length_m": 64.47,
        "evidence_sources": [
          "Drone_RGB_Edge",
          "DSM_Breakline"
        ]
      },
      "geometry": {
        "type": "LineString",
        "coordinates": [
          [
            77.6070589,
            13.0038306
          ],
          [
            77.6076528,
            13.0038285
          ]
        ]
      }
    },
    {
      "type": "Feature",
      "properties": {
        "id": "train_055_BND_006",
        "parcel_id": "train_055_P_002",
        "boundary_type": "VISIBLE",
        "confidence": 0.944,
        "length_m": 52.08,
        "evidence_sources": [
          "Drone_RGB_Edge",
          "DSM_Breakline"
        ]
      },
      "geometry": {
        "type": "LineString",
        "coordinates": [
          [
            77.6076528,
            13.0038285
          ],
          [
            77.6076546,
            13.003358
          ]
        ]
      }
    },
    {
      "type": "Feature",
      "properties": {
        "id": "train_055_BND_007",
        "parcel_id": "train_055_P_002",
        "boundary_type": "INFERRED",
        "confidence": 0.616,
        "length_m": 63.75,
        "evidence_sources": [
          "Road_Corridor_Offset",
          "Adjacent_Parcel_Topology"
        ]
      },
      "geometry": {
        "type": "LineString",
        "coordinates": [
          [
            77.6076546,
            13.003358
          ],
          [
            77.6070673,
            13.0033553
          ]
        ]
      }
    },
    {
      "type": "Feature",
      "properties": {
        "id": "train_055_BND_008",
        "parcel_id": "train_055_P_002",
        "boundary_type": "INFERRED",
        "confidence": 0.678,
        "length_m": 52.62,
        "evidence_sources": [
          "Road_Corridor_Offset",
          "Adjacent_Parcel_Topology"
        ]
      },
      "geometry": {
        "type": "LineString",
        "coordinates": [
          [
            77.6070673,
            13.0033553
          ],
          [
            77.6070589,
            13.0038306
          ]
        ]
      }
    },
    {
      "type": "Feature",
      "properties": {
        "id": "train_055_BND_009",
        "parcel_id": "train_055_P_003",
        "boundary_type": "VISIBLE",
        "confidence": 0.918,
        "length_m": 62.64,
        "evidence_sources": [
          "Drone_RGB_Edge",
          "DSM_Breakline"
        ]
      },
      "geometry": {
        "type": "LineString",
        "coordinates": [
          [
            77.6076964,
            13.0043343
          ],
          [
            77.6082734,
            13.0043269
          ]
        ]
      }
    },
    {
      "type": "Feature",
      "properties": {
        "id": "train_055_BND_010",
        "parcel_id": "train_055_P_003",
        "boundary_type": "VISIBLE",
        "confidence": 0.938,
        "length_m": 51.49,
        "evidence_sources": [
          "Drone_RGB_Edge",
          "DSM_Breakline"
        ]
      },
      "geometry": {
        "type": "LineString",
        "coordinates": [
          [
            77.6082734,
            13.0043269
          ],
          [
            77.6082783,
            13.0038618
          ]
        ]
      }
    },
    {
      "type": "Feature",
      "properties": {
        "id": "train_055_BND_011",
        "parcel_id": "train_055_P_003",
        "boundary_type": "INFERRED",
        "confidence": 0.75,
        "length_m": 63.53,
        "evidence_sources": [
          "Road_Corridor_Offset",
          "Adjacent_Parcel_Topology"
        ]
      },
      "geometry": {
        "type": "LineString",
        "coordinates": [
          [
            77.6082783,
            13.0038618
          ],
          [
            77.6076931,
            13.0038551
          ]
        ]
      }
    },
    {
      "type": "Feature",
      "properties": {
        "id": "train_055_BND_012",
        "parcel_id": "train_055_P_003",
        "boundary_type": "VISIBLE",
        "confidence": 0.903,
        "length_m": 53.05,
        "evidence_sources": [
          "Drone_RGB_Edge",
          "DSM_Breakline"
        ]
      },
      "geometry": {
        "type": "LineString",
        "coordinates": [
          [
            77.6076931,
            13.0038551
          ],
          [
            77.6076964,
            13.0043343
          ]
        ]
      }
    },
    {
      "type": "Feature",
      "properties": {
        "id": "train_055_BND_013",
        "parcel_id": "train_055_P_004",
        "boundary_type": "VISIBLE",
        "confidence": 0.896,
        "length_m": 64.17,
        "evidence_sources": [
          "Drone_RGB_Edge",
          "DSM_Breakline"
        ]
      },
      "geometry": {
        "type": "LineString",
        "coordinates": [
          [
            77.6076921,
            13.0038355
          ],
          [
            77.6082832,
            13.00383
          ]
        ]
      }
    },
    {
      "type": "Feature",
      "properties": {
        "id": "train_055_BND_014",
        "parcel_id": "train_055_P_004",
        "boundary_type": "VISIBLE",
        "confidence": 0.921,
        "length_m": 52.63,
        "evidence_sources": [
          "Drone_RGB_Edge",
          "DSM_Breakline"
        ]
      },
      "geometry": {
        "type": "LineString",
        "coordinates": [
          [
            77.6082832,
            13.00383
          ],
          [
            77.6082762,
            13.0033546
          ]
        ]
      }
    },
    {
      "type": "Feature",
      "properties": {
        "id": "train_055_BND_015",
        "parcel_id": "train_055_P_004",
        "boundary_type": "VISIBLE",
        "confidence": 0.897,
        "length_m": 63.51,
        "evidence_sources": [
          "Drone_RGB_Edge",
          "DSM_Breakline"
        ]
      },
      "geometry": {
        "type": "LineString",
        "coordinates": [
          [
            77.6082762,
            13.0033546
          ],
          [
            77.6076911,
            13.0033586
          ]
        ]
      }
    },
    {
      "type": "Feature",
      "properties": {
        "id": "train_055_BND_016",
        "parcel_id": "train_055_P_004",
        "boundary_type": "VISIBLE",
        "confidence": 0.957,
        "length_m": 52.79,
        "evidence_sources": [
          "Drone_RGB_Edge",
          "DSM_Breakline"
        ]
      },
      "geometry": {
        "type": "LineString",
        "coordinates": [
          [
            77.6076911,
            13.0033586
          ],
          [
            77.6076921,
            13.0038355
          ]
        ]
      }
    },
    {
      "type": "Feature",
      "properties": {
        "id": "train_055_BND_017",
        "parcel_id": "train_055_P_005",
        "boundary_type": "VISIBLE",
        "confidence": 0.94,
        "length_m": 44.53,
        "evidence_sources": [
          "Drone_RGB_Edge",
          "DSM_Breakline"
        ]
      },
      "geometry": {
        "type": "LineString",
        "coordinates": [
          [
            77.6084563,
            13.0043378
          ],
          [
            77.6088663,
            13.0043253
          ]
        ]
      }
    },
    {
      "type": "Feature",
      "properties": {
        "id": "train_055_BND_018",
        "parcel_id": "train_055_P_005",
        "boundary_type": "VISIBLE",
        "confidence": 0.893,
        "length_m": 51.04,
        "evidence_sources": [
          "Drone_RGB_Edge",
          "DSM_Breakline"
        ]
      },
      "geometry": {
        "type": "LineString",
        "coordinates": [
          [
            77.6088663,
            13.0043253
          ],
          [
            77.6088741,
            13.0038643
          ]
        ]
      }
    },
    {
      "type": "Feature",
      "properties": {
        "id": "train_055_BND_019",
        "parcel_id": "train_055_P_005",
        "boundary_type": "VISIBLE",
        "confidence": 0.838,
        "length_m": 46.32,
        "evidence_sources": [
          "Drone_RGB_Edge",
          "DSM_Breakline"
        ]
      },
      "geometry": {
        "type": "LineString",
        "coordinates": [
          [
            77.6088741,
            13.0038643
          ],
          [
            77.6084474,
            13.0038661
          ]
        ]
      }
    },
    {
      "type": "Feature",
      "properties": {
        "id": "train_055_BND_020",
        "parcel_id": "train_055_P_005",
        "boundary_type": "VISIBLE",
        "confidence": 0.859,
        "length_m": 52.22,
        "evidence_sources": [
          "Drone_RGB_Edge",
          "DSM_Breakline"
        ]
      },
      "geometry": {
        "type": "LineString",
        "coordinates": [
          [
            77.6084474,
            13.0038661
          ],
          [
            77.6084563,
            13.0043378
          ]
        ]
      }
    },
    {
      "type": "Feature",
      "properties": {
        "id": "train_055_BND_021",
        "parcel_id": "train_055_P_006",
        "boundary_type": "VISIBLE",
        "confidence": 0.839,
        "length_m": 45.08,
        "evidence_sources": [
          "Drone_RGB_Edge",
          "DSM_Breakline"
        ]
      },
      "geometry": {
        "type": "LineString",
        "coordinates": [
          [
            77.6084501,
            13.0038426
          ],
          [
            77.6088653,
            13.0038324
          ]
        ]
      }
    },
    {
      "type": "Feature",
      "properties": {
        "id": "train_055_BND_022",
        "parcel_id": "train_055_P_006",
        "boundary_type": "VISIBLE",
        "confidence": 0.88,
        "length_m": 51.17,
        "evidence_sources": [
          "Drone_RGB_Edge",
          "DSM_Breakline"
        ]
      },
      "geometry": {
        "type": "LineString",
        "coordinates": [
          [
            77.6088653,
            13.0038324
          ],
          [
            77.6088639,
            13.0033701
          ]
        ]
      }
    },
    {
      "type": "Feature",
      "properties": {
        "id": "train_055_BND_023",
        "parcel_id": "train_055_P_006",
        "boundary_type": "VISIBLE",
        "confidence": 0.957,
        "length_m": 45.42,
        "evidence_sources": [
          "Drone_RGB_Edge",
          "DSM_Breakline"
        ]
      },
      "geometry": {
        "type": "LineString",
        "coordinates": [
          [
            77.6088639,
            13.0033701
          ],
          [
            77.6084455,
            13.0033632
          ]
        ]
      }
    },
    {
      "type": "Feature",
      "properties": {
        "id": "train_055_BND_024",
        "parcel_id": "train_055_P_006",
        "boundary_type": "VISIBLE",
        "confidence": 0.942,
        "length_m": 53.07,
        "evidence_sources": [
          "Drone_RGB_Edge",
          "DSM_Breakline"
        ]
      },
      "geometry": {
        "type": "LineString",
        "coordinates": [
          [
            77.6084455,
            13.0033632
          ],
          [
            77.6084501,
            13.0038426
          ]
        ]
      }
    },
    {
      "type": "Feature",
      "properties": {
        "id": "train_055_BND_025",
        "parcel_id": "train_055_P_007",
        "boundary_type": "VISIBLE",
        "confidence": 0.899,
        "length_m": 45.53,
        "evidence_sources": [
          "Drone_RGB_Edge",
          "DSM_Breakline"
        ]
      },
      "geometry": {
        "type": "LineString",
        "coordinates": [
          [
            77.6089039,
            13.0043372
          ],
          [
            77.6093233,
            13.0043352
          ]
        ]
      }
    },
    {
      "type": "Feature",
      "properties": {
        "id": "train_055_BND_026",
        "parcel_id": "train_055_P_007",
        "boundary_type": "INFERRED",
        "confidence": 0.724,
        "length_m": 53.24,
        "evidence_sources": [
          "Road_Corridor_Offset",
          "Adjacent_Parcel_Topology"
        ]
      },
      "geometry": {
        "type": "LineString",
        "coordinates": [
          [
            77.6093233,
            13.0043352
          ],
          [
            77.6093143,
            13.0038543
          ]
        ]
      }
    },
    {
      "type": "Feature",
      "properties": {
        "id": "train_055_BND_027",
        "parcel_id": "train_055_P_007",
        "boundary_type": "VISIBLE",
        "confidence": 0.895,
        "length_m": 45.44,
        "evidence_sources": [
          "Drone_RGB_Edge",
          "DSM_Breakline"
        ]
      },
      "geometry": {
        "type": "LineString",
        "coordinates": [
          [
            77.6093143,
            13.0038543
          ],
          [
            77.6088959,
            13.0038664
          ]
        ]
      }
    },
    {
      "type": "Feature",
      "properties": {
        "id": "train_055_BND_028",
        "parcel_id": "train_055_P_007",
        "boundary_type": "VISIBLE",
        "confidence": 0.858,
        "length_m": 52.12,
        "evidence_sources": [
          "Drone_RGB_Edge",
          "DSM_Breakline"
        ]
      },
      "geometry": {
        "type": "LineString",
        "coordinates": [
          [
            77.6088959,
            13.0038664
          ],
          [
            77.6089039,
            13.0043372
          ]
        ]
      }
    },
    {
      "type": "Feature",
      "properties": {
        "id": "train_055_BND_029",
        "parcel_id": "train_055_P_008",
        "boundary_type": "INFERRED",
        "confidence": 0.72,
        "length_m": 46.03,
        "evidence_sources": [
          "Road_Corridor_Offset",
          "Adjacent_Parcel_Topology"
        ]
      },
      "geometry": {
        "type": "LineString",
        "coordinates": [
          [
            77.6088937,
            13.0038392
          ],
          [
            77.6093178,
            13.00384
          ]
        ]
      }
    },
    {
      "type": "Feature",
      "properties": {
        "id": "train_055_BND_030",
        "parcel_id": "train_055_P_008",
        "boundary_type": "VISIBLE",
        "confidence": 0.925,
        "length_m": 54.16,
        "evidence_sources": [
          "Drone_RGB_Edge",
          "DSM_Breakline"
        ]
      },
      "geometry": {
        "type": "LineString",
        "coordinates": [
          [
            77.6093178,
            13.00384
          ],
          [
            77.6093181,
            13.0033507
          ]
        ]
      }
    },
    {
      "type": "Feature",
      "properties": {
        "id": "train_055_BND_031",
        "parcel_id": "train_055_P_008",
        "boundary_type": "VISIBLE",
        "confidence": 0.923,
        "length_m": 46.21,
        "evidence_sources": [
          "Drone_RGB_Edge",
          "DSM_Breakline"
        ]
      },
      "geometry": {
        "type": "LineString",
        "coordinates": [
          [
            77.6093181,
            13.0033507
          ],
          [
            77.6088924,
            13.0033556
          ]
        ]
      }
    },
    {
      "type": "Feature",
      "properties": {
        "id": "train_055_BND_032",
        "parcel_id": "train_055_P_008",
        "boundary_type": "VISIBLE",
        "confidence": 0.858,
        "length_m": 53.53,
        "evidence_sources": [
          "Drone_RGB_Edge",
          "DSM_Breakline"
        ]
      },
      "geometry": {
        "type": "LineString",
        "coordinates": [
          [
            77.6088924,
            13.0033556
          ],
          [
            77.6088937,
            13.0038392
          ]
        ]
      }
    },
    {
      "type": "Feature",
      "properties": {
        "id": "train_055_BND_033",
        "parcel_id": "train_055_P_009",
        "boundary_type": "INFERRED",
        "confidence": 0.672,
        "length_m": 63.77,
        "evidence_sources": [
          "Road_Corridor_Offset",
          "Adjacent_Parcel_Topology"
        ]
      },
      "geometry": {
        "type": "LineString",
        "coordinates": [
          [
            77.6070694,
            13.0031175
          ],
          [
            77.6076569,
            13.0031233
          ]
        ]
      }
    },
    {
      "type": "Feature",
      "properties": {
        "id": "train_055_BND_034",
        "parcel_id": "train_055_P_009",
        "boundary_type": "VISIBLE",
        "confidence": 0.893,
        "length_m": 55.8,
        "evidence_sources": [
          "Drone_RGB_Edge",
          "DSM_Breakline"
        ]
      },
      "geometry": {
        "type": "LineString",
        "coordinates": [
          [
            77.6076569,
            13.0031233
          ],
          [
            77.6076713,
            13.0026194
          ]
        ]
      }
    },
    {
      "type": "Feature",
      "properties": {
        "id": "train_055_BND_035",
        "parcel_id": "train_055_P_009",
        "boundary_type": "VISIBLE",
        "confidence": 0.916,
        "length_m": 65.47,
        "evidence_sources": [
          "Drone_RGB_Edge",
          "DSM_Breakline"
        ]
      },
      "geometry": {
        "type": "LineString",
        "coordinates": [
          [
            77.6076713,
            13.0026194
          ],
          [
            77.6070683,
            13.0026052
          ]
        ]
      }
    },
    {
      "type": "Feature",
      "properties": {
        "id": "train_055_BND_036",
        "parcel_id": "train_055_P_009",
        "boundary_type": "VISIBLE",
        "confidence": 0.86,
        "length_m": 56.71,
        "evidence_sources": [
          "Drone_RGB_Edge",
          "DSM_Breakline"
        ]
      },
      "geometry": {
        "type": "LineString",
        "coordinates": [
          [
            77.6070683,
            13.0026052
          ],
          [
            77.6070694,
            13.0031175
          ]
        ]
      }
    },
    {
      "type": "Feature",
      "properties": {
        "id": "train_055_BND_037",
        "parcel_id": "train_055_P_010",
        "boundary_type": "VISIBLE",
        "confidence": 0.856,
        "length_m": 66.01,
        "evidence_sources": [
          "Drone_RGB_Edge",
          "DSM_Breakline"
        ]
      },
      "geometry": {
        "type": "LineString",
        "coordinates": [
          [
            77.6070666,
            13.0025779
          ],
          [
            77.6076747,
            13.0025781
          ]
        ]
      }
    },
    {
      "type": "Feature",
      "properties": {
        "id": "train_055_BND_038",
        "parcel_id": "train_055_P_010",
        "boundary_type": "VISIBLE",
        "confidence": 0.828,
        "length_m": 54.63,
        "evidence_sources": [
          "Drone_RGB_Edge",
          "DSM_Breakline"
        ]
      },
      "geometry": {
        "type": "LineString",
        "coordinates": [
          [
            77.6076747,
            13.0025781
          ],
          [
            77.6076596,
            13.0020848
          ]
        ]
      }
    },
    {
      "type": "Feature",
      "properties": {
        "id": "train_055_BND_039",
        "parcel_id": "train_055_P_010",
        "boundary_type": "INFERRED",
        "confidence": 0.737,
        "length_m": 64.34,
        "evidence_sources": [
          "Road_Corridor_Offset",
          "Adjacent_Parcel_Topology"
        ]
      },
      "geometry": {
        "type": "LineString",
        "coordinates": [
          [
            77.6076596,
            13.0020848
          ],
          [
            77.607067,
            13.0020953
          ]
        ]
      }
    },
    {
      "type": "Feature",
      "properties": {
        "id": "train_055_BND_040",
        "parcel_id": "train_055_P_010",
        "boundary_type": "VISIBLE",
        "confidence": 0.857,
        "length_m": 53.42,
        "evidence_sources": [
          "Drone_RGB_Edge",
          "DSM_Breakline"
        ]
      },
      "geometry": {
        "type": "LineString",
        "coordinates": [
          [
            77.607067,
            13.0020953
          ],
          [
            77.6070666,
            13.0025779
          ]
        ]
      }
    },
    {
      "type": "Feature",
      "properties": {
        "id": "train_055_BND_041",
        "parcel_id": "train_055_P_011",
        "boundary_type": "INFERRED",
        "confidence": 0.756,
        "length_m": 64.06,
        "evidence_sources": [
          "Road_Corridor_Offset",
          "Adjacent_Parcel_Topology"
        ]
      },
      "geometry": {
        "type": "LineString",
        "coordinates": [
          [
            77.6076834,
            13.003123
          ],
          [
            77.6082736,
            13.0031245
          ]
        ]
      }
    },
    {
      "type": "Feature",
      "properties": {
        "id": "train_055_BND_042",
        "parcel_id": "train_055_P_011",
        "boundary_type": "VISIBLE",
        "confidence": 0.855,
        "length_m": 58.03,
        "evidence_sources": [
          "Drone_RGB_Edge",
          "DSM_Breakline"
        ]
      },
      "geometry": {
        "type": "LineString",
        "coordinates": [
          [
            77.6082736,
            13.0031245
          ],
          [
            77.6082767,
            13.0026003
          ]
        ]
      }
    },
    {
      "type": "Feature",
      "properties": {
        "id": "train_055_BND_043",
        "parcel_id": "train_055_P_011",
        "boundary_type": "VISIBLE",
        "confidence": 0.924,
        "length_m": 63.33,
        "evidence_sources": [
          "Drone_RGB_Edge",
          "DSM_Breakline"
        ]
      },
      "geometry": {
        "type": "LineString",
        "coordinates": [
          [
            77.6082767,
            13.0026003
          ],
          [
            77.6076935,
            13.0026173
          ]
        ]
      }
    },
    {
      "type": "Feature",
      "properties": {
        "id": "train_055_BND_044",
        "parcel_id": "train_055_P_011",
        "boundary_type": "VISIBLE",
        "confidence": 0.923,
        "length_m": 55.99,
        "evidence_sources": [
          "Drone_RGB_Edge",
          "DSM_Breakline"
        ]
      },
      "geometry": {
        "type": "LineString",
        "coordinates": [
          [
            77.6076935,
            13.0026173
          ],
          [
            77.6076834,
            13.003123
          ]
        ]
      }
    },
    {
      "type": "Feature",
      "properties": {
        "id": "train_055_BND_045",
        "parcel_id": "train_055_P_012",
        "boundary_type": "INFERRED",
        "confidence": 0.778,
        "length_m": 63.36,
        "evidence_sources": [
          "Road_Corridor_Offset",
          "Adjacent_Parcel_Topology"
        ]
      },
      "geometry": {
        "type": "LineString",
        "coordinates": [
          [
            77.6076917,
            13.0025827
          ],
          [
            77.6082754,
            13.0025896
          ]
        ]
      }
    },
    {
      "type": "Feature",
      "properties": {
        "id": "train_055_BND_046",
        "parcel_id": "train_055_P_012",
        "boundary_type": "VISIBLE",
        "confidence": 0.958,
        "length_m": 55.91,
        "evidence_sources": [
          "Drone_RGB_Edge",
          "DSM_Breakline"
        ]
      },
      "geometry": {
        "type": "LineString",
        "coordinates": [
          [
            77.6082754,
            13.0025896
          ],
          [
            77.6082864,
            13.0020846
          ]
        ]
      }
    },
    {
      "type": "Feature",
      "properties": {
        "id": "train_055_BND_047",
        "parcel_id": "train_055_P_012",
        "boundary_type": "INFERRED",
        "confidence": 0.782,
        "length_m": 64.34,
        "evidence_sources": [
          "Road_Corridor_Offset",
          "Adjacent_Parcel_Topology"
        ]
      },
      "geometry": {
        "type": "LineString",
        "coordinates": [
          [
            77.6082864,
            13.0020846
          ],
          [
            77.6076937,
            13.0020889
          ]
        ]
      }
    },
    {
      "type": "Feature",
      "properties": {
        "id": "train_055_BND_048",
        "parcel_id": "train_055_P_012",
        "boundary_type": "INFERRED",
        "confidence": 0.775,
        "length_m": 54.66,
        "evidence_sources": [
          "Road_Corridor_Offset",
          "Adjacent_Parcel_Topology"
        ]
      },
      "geometry": {
        "type": "LineString",
        "coordinates": [
          [
            77.6076937,
            13.0020889
          ],
          [
            77.6076917,
            13.0025827
          ]
        ]
      }
    },
    {
      "type": "Feature",
      "properties": {
        "id": "train_055_BND_049",
        "parcel_id": "train_055_P_013",
        "boundary_type": "VISIBLE",
        "confidence": 0.85,
        "length_m": 47.46,
        "evidence_sources": [
          "Drone_RGB_Edge",
          "DSM_Breakline"
        ]
      },
      "geometry": {
        "type": "LineString",
        "coordinates": [
          [
            77.6084439,
            13.0031226
          ],
          [
            77.6088807,
            13.0031037
          ]
        ]
      }
    },
    {
      "type": "Feature",
      "properties": {
        "id": "train_055_BND_050",
        "parcel_id": "train_055_P_013",
        "boundary_type": "VISIBLE",
        "confidence": 0.834,
        "length_m": 55.47,
        "evidence_sources": [
          "Drone_RGB_Edge",
          "DSM_Breakline"
        ]
      },
      "geometry": {
        "type": "LineString",
        "coordinates": [
          [
            77.6088807,
            13.0031037
          ],
          [
            77.6088764,
            13.0026026
          ]
        ]
      }
    },
    {
      "type": "Feature",
      "properties": {
        "id": "train_055_BND_051",
        "parcel_id": "train_055_P_013",
        "boundary_type": "INFERRED",
        "confidence": 0.768,
        "length_m": 45.73,
        "evidence_sources": [
          "Road_Corridor_Offset",
          "Adjacent_Parcel_Topology"
        ]
      },
      "geometry": {
        "type": "LineString",
        "coordinates": [
          [
            77.6088764,
            13.0026026
          ],
          [
            77.6084553,
            13.0026149
          ]
        ]
      }
    },
    {
      "type": "Feature",
      "properties": {
        "id": "train_055_BND_052",
        "parcel_id": "train_055_P_013",
        "boundary_type": "VISIBLE",
        "confidence": 0.857,
        "length_m": 56.21,
        "evidence_sources": [
          "Drone_RGB_Edge",
          "DSM_Breakline"
        ]
      },
      "geometry": {
        "type": "LineString",
        "coordinates": [
          [
            77.6084553,
            13.0026149
          ],
          [
            77.6084439,
            13.0031226
          ]
        ]
      }
    },
    {
      "type": "Feature",
      "properties": {
        "id": "train_055_BND_053",
        "parcel_id": "train_055_P_014",
        "boundary_type": "VISIBLE",
        "confidence": 0.949,
        "length_m": 47.45,
        "evidence_sources": [
          "Drone_RGB_Edge",
          "DSM_Breakline"
        ]
      },
      "geometry": {
        "type": "LineString",
        "coordinates": [
          [
            77.6084442,
            13.0025938
          ],
          [
            77.6088813,
            13.0025908
          ]
        ]
      }
    },
    {
      "type": "Feature",
      "properties": {
        "id": "train_055_BND_054",
        "parcel_id": "train_055_P_014",
        "boundary_type": "VISIBLE",
        "confidence": 0.896,
        "length_m": 56.49,
        "evidence_sources": [
          "Drone_RGB_Edge",
          "DSM_Breakline"
        ]
      },
      "geometry": {
        "type": "LineString",
        "coordinates": [
          [
            77.6088813,
            13.0025908
          ],
          [
            77.6088653,
            13.0020807
          ]
        ]
      }
    },
    {
      "type": "Feature",
      "properties": {
        "id": "train_055_BND_055",
        "parcel_id": "train_055_P_014",
        "boundary_type": "VISIBLE",
        "confidence": 0.941,
        "length_m": 44.05,
        "evidence_sources": [
          "Drone_RGB_Edge",
          "DSM_Breakline"
        ]
      },
      "geometry": {
        "type": "LineString",
        "coordinates": [
          [
            77.6088653,
            13.0020807
          ],
          [
            77.6084595,
            13.0020778
          ]
        ]
      }
    },
    {
      "type": "Feature",
      "properties": {
        "id": "train_055_BND_056",
        "parcel_id": "train_055_P_014",
        "boundary_type": "VISIBLE",
        "confidence": 0.826,
        "length_m": 57.14,
        "evidence_sources": [
          "Drone_RGB_Edge",
          "DSM_Breakline"
        ]
      },
      "geometry": {
        "type": "LineString",
        "coordinates": [
          [
            77.6084595,
            13.0020778
          ],
          [
            77.6084442,
            13.0025938
          ]
        ]
      }
    },
    {
      "type": "Feature",
      "properties": {
        "id": "train_055_BND_057",
        "parcel_id": "train_055_P_015",
        "boundary_type": "VISIBLE",
        "confidence": 0.834,
        "length_m": 45.2,
        "evidence_sources": [
          "Drone_RGB_Edge",
          "DSM_Breakline"
        ]
      },
      "geometry": {
        "type": "LineString",
        "coordinates": [
          [
            77.6088997,
            13.0031086
          ],
          [
            77.6093161,
            13.0031117
          ]
        ]
      }
    },
    {
      "type": "Feature",
      "properties": {
        "id": "train_055_BND_058",
        "parcel_id": "train_055_P_015",
        "boundary_type": "VISIBLE",
        "confidence": 0.938,
        "length_m": 56.04,
        "evidence_sources": [
          "Drone_RGB_Edge",
          "DSM_Breakline"
        ]
      },
      "geometry": {
        "type": "LineString",
        "coordinates": [
          [
            77.6093161,
            13.0031117
          ],
          [
            77.6093125,
            13.0026055
          ]
        ]
      }
    },
    {
      "type": "Feature",
      "properties": {
        "id": "train_055_BND_059",
        "parcel_id": "train_055_P_015",
        "boundary_type": "VISIBLE",
        "confidence": 0.844,
        "length_m": 45.64,
        "evidence_sources": [
          "Drone_RGB_Edge",
          "DSM_Breakline"
        ]
      },
      "geometry": {
        "type": "LineString",
        "coordinates": [
          [
            77.6093125,
            13.0026055
          ],
          [
            77.6088921,
            13.0026128
          ]
        ]
      }
    },
    {
      "type": "Feature",
      "properties": {
        "id": "train_055_BND_060",
        "parcel_id": "train_055_P_015",
        "boundary_type": "INFERRED",
        "confidence": 0.765,
        "length_m": 54.89,
        "evidence_sources": [
          "Road_Corridor_Offset",
          "Adjacent_Parcel_Topology"
        ]
      },
      "geometry": {
        "type": "LineString",
        "coordinates": [
          [
            77.6088921,
            13.0026128
          ],
          [
            77.6088997,
            13.0031086
          ]
        ]
      }
    },
    {
      "type": "Feature",
      "properties": {
        "id": "train_055_BND_061",
        "parcel_id": "train_055_P_016",
        "boundary_type": "VISIBLE",
        "confidence": 0.919,
        "length_m": 45.22,
        "evidence_sources": [
          "Drone_RGB_Edge",
          "DSM_Breakline"
        ]
      },
      "geometry": {
        "type": "LineString",
        "coordinates": [
          [
            77.6088964,
            13.0025838
          ],
          [
            77.609313,
            13.0025805
          ]
        ]
      }
    },
    {
      "type": "Feature",
      "properties": {
        "id": "train_055_BND_062",
        "parcel_id": "train_055_P_016",
        "boundary_type": "VISIBLE",
        "confidence": 0.847,
        "length_m": 54.36,
        "evidence_sources": [
          "Drone_RGB_Edge",
          "DSM_Breakline"
        ]
      },
      "geometry": {
        "type": "LineString",
        "coordinates": [
          [
            77.609313,
            13.0025805
          ],
          [
            77.6093136,
            13.0020894
          ]
        ]
      }
    },
    {
      "type": "Feature",
      "properties": {
        "id": "train_055_BND_063",
        "parcel_id": "train_055_P_016",
        "boundary_type": "VISIBLE",
        "confidence": 0.9,
        "length_m": 46.05,
        "evidence_sources": [
          "Drone_RGB_Edge",
          "DSM_Breakline"
        ]
      },
      "geometry": {
        "type": "LineString",
        "coordinates": [
          [
            77.6093136,
            13.0020894
          ],
          [
            77.6088894,
            13.0020956
          ]
        ]
      }
    },
    {
      "type": "Feature",
      "properties": {
        "id": "train_055_BND_064",
        "parcel_id": "train_055_P_016",
        "boundary_type": "VISIBLE",
        "confidence": 0.883,
        "length_m": 54.05,
        "evidence_sources": [
          "Drone_RGB_Edge",
          "DSM_Breakline"
        ]
      },
      "geometry": {
        "type": "LineString",
        "coordinates": [
          [
            77.6088894,
            13.0020956
          ],
          [
            77.6088964,
            13.0025838
          ]
        ]
      }
    }
  ]
}