{
  "type": "FeatureCollection",
  "crs": {
    "type": "name",
    "properties": {
      "name": "EPSG:4326"
    }
  },
  "features": [
    {
      "type": "Feature",
      "properties": {
        "id": "train_039_BLDG_001",
        "parcel_id": "train_039_P_001",
        "area_sqm": 1514.8,
        "perimeter_m": 155.84,
        "centroid_lon": 77.6043603,
        "centroid_lat": 13.0010812,
        "height_m": 10.1,
        "confidence": 0.933,
        "temporal_epoch": "T1"
      },
      "geometry": {
        "type": "Polygon",
        "coordinates": [
          [
            [
              77.6041727,
              13.0012492
            ],
            [
              77.6045479,
              13.0012492
            ],
            [
              77.6045479,
              13.0009132
            ],
            [
              77.6041727,
              13.0009132
            ],
            [
              77.6041727,
              13.0012492
            ]
          ]
        ]
      }
    },
    {
      "type": "Feature",
      "properties": {
        "id": "train_039_BLDG_002",
        "parcel_id": "train_039_P_005",
        "area_sqm": 965.72,
        "perimeter_m": 126.32,
        "centroid_lon": 77.6056939,
        "centroid_lat": 13.0010812,
        "height_m": 10.18,
        "confidence": 0.795,
        "temporal_epoch": "T1"
      },
      "geometry": {
        "type": "Polygon",
        "coordinates": [
          [
            [
              77.6055743,
              13.0012492
            ],
            [
              77.6058135,
              13.0012492
            ],
            [
              77.6058135,
              13.0009132
            ],
            [
              77.6055743,
              13.0009132
            ],
            [
              77.6055743,
              13.0012492
            ]
          ]
        ]
      }
    },
    {
      "type": "Feature",
      "properties": {
        "id": "train_039_BLDG_003",
        "parcel_id": "train_039_P_006",
        "area_sqm": 965.73,
        "perimeter_m": 126.32,
        "centroid_lon": 77.6056939,
        "centroid_lat": 13.0005562,
        "height_m": 5.15,
        "confidence": 0.784,
        "temporal_epoch": "T1"
      },
      "geometry": {
        "type": "Polygon",
        "coordinates": [
          [
            [
              77.6055743,
              13.0007242
            ],
            [
              77.6058135,
              13.0007242
            ],
            [
              77.6058135,
              13.0003882
            ],
            [
              77.6055743,
              13.0003882
            ],
            [
              77.6055743,
              13.0007242
            ]
          ]
        ]
      }
    },
    {
      "type": "Feature",
      "properties": {
        "id": "train_039_BLDG_004",
        "parcel_id": "train_039_P_007",
        "area_sqm": 966.13,
        "perimeter_m": 126.34,
        "centroid_lon": 77.6061064,
        "centroid_lat": 13.0010812,
        "height_m": 7.89,
        "confidence": 0.873,
        "temporal_epoch": "T1"
      },
      "geometry": {
        "type": "Polygon",
        "coordinates": [
          [
            [
              77.6059867,
              13.0012492
            ],
            [
              77.606226,
              13.0012492
            ],
            [
              77.606226,
              13.0009132
            ],
            [
              77.6059867,
              13.0009132
            ],
            [
              77.6059867,
              13.0012492
            ]
          ]
        ]
      }
    },
    {
      "type": "Feature",
      "properties": {
        "id": "train_039_BLDG_005",
        "parcel_id": "train_039_P_008",
        "area_sqm": 966.13,
        "perimeter_m": 126.34,
        "centroid_lon": 77.6061064,
        "centroid_lat": 13.0005562,
        "height_m": 9.3,
        "confidence": 0.813,
        "temporal_epoch": "T1"
      },
      "geometry": {
        "type": "Polygon",
        "coordinates": [
          [
            [
              77.6059867,
              13.0007242
            ],
            [
              77.606226,
              13.0007242
            ],
            [
              77.606226,
              13.0003882
            ],
            [
              77.6059867,
              13.0003882
            ],
            [
              77.6059867,
              13.0007242
            ]
          ]
        ]
      }
    },
    {
      "type": "Feature",
      "properties": {
        "id": "train_039_BLDG_006",
        "parcel_id": "train_039_P_009",
        "area_sqm": 1487.75,
        "perimeter_m": 154.51,
        "centroid_lon": 77.6043603,
        "centroid_lat": 12.9998484,
        "height_m": 10.23,
        "confidence": 0.901,
        "temporal_epoch": "T1"
      },
      "geometry": {
        "type": "Polygon",
        "coordinates": [
          [
            [
              77.6041727,
              13.0000134
            ],
            [
              77.6045479,
              13.0000134
            ],
            [
              77.6045479,
              12.9996834
            ],
            [
              77.6041727,
              12.9996834
            ],
            [
              77.6041727,
              13.0000134
            ]
          ]
        ]
      }
    },
    {
      "type": "Feature",
      "properties": {
        "id": "train_039_BLDG_007",
        "parcel_id": "train_039_P_010",
        "area_sqm": 1487.76,
        "perimeter_m": 154.51,
        "centroid_lon": 77.6043603,
        "centroid_lat": 12.9993328,
        "height_m": 4.93,
        "confidence": 0.839,
        "temporal_epoch": "T1"
      },
      "geometry": {
        "type": "Polygon",
        "coordinates": [
          [
            [
              77.6041727,
              12.9994978
            ],
            [
              77.6045479,
              12.9994978
            ],
            [
              77.6045479,
              12.9991678
            ],
            [
              77.6041727,
              12.9991678
            ],
            [
              77.6041727,
              12.9994978
            ]
          ]
        ]
      }
    },
    {
      "type": "Feature",
      "properties": {
        "id": "train_039_BLDG_008",
        "parcel_id": "train_039_P_011",
        "area_sqm": 1487.36,
        "perimeter_m": 154.49,
        "centroid_lon": 77.6050072,
        "centroid_lat": 12.9998484,
        "height_m": 8.53,
        "confidence": 0.851,
        "temporal_epoch": "T1"
      },
      "geometry": {
        "type": "Polygon",
        "coordinates": [
          [
            [
              77.6048196,
              13.0000134
            ],
            [
              77.6051947,
              13.0000134
            ],
            [
              77.6051947,
              12.9996834
            ],
            [
              77.6048196,
              12.9996834
            ],
            [
              77.6048196,
              13.0000134
            ]
          ]
        ]
      }
    },
    {
      "type": "Feature",
      "properties": {
        "id": "train_039_BLDG_009",
        "parcel_id": "train_039_P_015",
        "area_sqm": 948.88,
        "perimeter_m": 125.01,
        "centroid_lon": 77.6061064,
        "centroid_lat": 12.9998484,
        "height_m": 6.2,
        "confidence": 0.94,
        "temporal_epoch": "T1"
      },
      "geometry": {
        "type": "Polygon",
        "coordinates": [
          [
            [
              77.6059867,
              13.0000134
            ],
            [
              77.606226,
              13.0000134
            ],
            [
              77.606226,
              12.9996834
            ],
            [
              77.6059867,
              12.9996834
            ],
            [
              77.6059867,
              13.0000134
            ]
          ]
        ]
      }
    }
  ]
}