{
  "type": "FeatureCollection",
  "crs": {
    "type": "name",
    "properties": {
      "name": "EPSG:4326"
    }
  },
  "features": [
    {
      "type": "Feature",
      "properties": {
        "id": "train_068_BLDG_001",
        "parcel_id": "train_068_P_001",
        "area_sqm": 983.21,
        "perimeter_m": 128.39,
        "centroid_lon": 77.6013471,
        "centroid_lat": 13.0071656,
        "height_m": 10.07,
        "confidence": 0.954,
        "temporal_epoch": "T1"
      },
      "geometry": {
        "type": "Polygon",
        "coordinates": [
          [
            [
              77.6011676,
              13.0072796
            ],
            [
              77.6015265,
              13.0072796
            ],
            [
              77.6015265,
              13.0070516
            ],
            [
              77.6011676,
              13.0070516
            ],
            [
              77.6011676,
              13.0072796
            ]
          ]
        ]
      }
    },
    {
      "type": "Feature",
      "properties": {
        "id": "train_068_BLDG_002",
        "parcel_id": "train_068_P_003",
        "area_sqm": 1518.24,
        "perimeter_m": 170.79,
        "centroid_lon": 77.6020635,
        "centroid_lat": 13.0071656,
        "height_m": 8.2,
        "confidence": 0.864,
        "temporal_epoch": "T1"
      },
      "geometry": {
        "type": "Polygon",
        "coordinates": [
          [
            [
              77.6017864,
              13.0072796
            ],
            [
              77.6023406,
              13.0072796
            ],
            [
              77.6023406,
              13.0070516
            ],
            [
              77.6017864,
              13.0070516
            ],
            [
              77.6017864,
              13.0072796
            ]
          ]
        ]
      }
    },
    {
      "type": "Feature",
      "properties": {
        "id": "train_068_BLDG_003",
        "parcel_id": "train_068_P_004",
        "area_sqm": 982.94,
        "perimeter_m": 128.37,
        "centroid_lon": 77.6019658,
        "centroid_lat": 13.0068094,
        "height_m": 9.67,
        "confidence": 0.921,
        "temporal_epoch": "T1"
      },
      "geometry": {
        "type": "Polygon",
        "coordinates": [
          [
            [
              77.6017864,
              13.0069234
            ],
            [
              77.6021452,
              13.0069234
            ],
            [
              77.6021452,
              13.0066954
            ],
            [
              77.6017864,
              13.0066954
            ],
            [
              77.6017864,
              13.0069234
            ]
          ]
        ]
      }
    },
    {
      "type": "Feature",
      "properties": {
        "id": "train_068_BLDG_004",
        "parcel_id": "train_068_P_005",
        "area_sqm": 670.36,
        "perimeter_m": 103.6,
        "centroid_lon": 77.6026795,
        "centroid_lat": 13.0071656,
        "height_m": 5.04,
        "confidence": 0.901,
        "temporal_epoch": "T1"
      },
      "geometry": {
        "type": "Polygon",
        "coordinates": [
          [
            [
              77.6025572,
              13.0072796
            ],
            [
              77.6028019,
              13.0072796
            ],
            [
              77.6028019,
              13.0070516
            ],
            [
              77.6025572,
              13.0070516
            ],
            [
              77.6025572,
              13.0072796
            ]
          ]
        ]
      }
    },
    {
      "type": "Feature",
      "properties": {
        "id": "train_068_BLDG_005",
        "parcel_id": "train_068_P_006",
        "area_sqm": 670.36,
        "perimeter_m": 103.6,
        "centroid_lon": 77.6026795,
        "centroid_lat": 13.0068094,
        "height_m": 5.86,
        "confidence": 0.959,
        "temporal_epoch": "T1"
      },
      "geometry": {
        "type": "Polygon",
        "coordinates": [
          [
            [
              77.6025572,
              13.0069234
            ],
            [
              77.6028019,
              13.0069234
            ],
            [
              77.6028019,
              13.0066954
            ],
            [
              77.6025572,
              13.0066954
            ],
            [
              77.6025572,
              13.0069234
            ]
          ]
        ]
      }
    },
    {
      "type": "Feature",
      "properties": {
        "id": "train_068_BLDG_006",
        "parcel_id": "train_068_P_007",
        "area_sqm": 670.09,
        "perimeter_m": 103.58,
        "centroid_lon": 77.6031014,
        "centroid_lat": 13.0071656,
        "height_m": 10.92,
        "confidence": 0.853,
        "temporal_epoch": "T1"
      },
      "geometry": {
        "type": "Polygon",
        "coordinates": [
          [
            [
              77.6029791,
              13.0072796
            ],
            [
              77.6032237,
              13.0072796
            ],
            [
              77.6032237,
              13.0070516
            ],
            [
              77.6029791,
              13.0070516
            ],
            [
              77.6029791,
              13.0072796
            ]
          ]
        ]
      }
    },
    {
      "type": "Feature",
      "properties": {
        "id": "train_068_BLDG_007",
        "parcel_id": "train_068_P_008",
        "area_sqm": 670.09,
        "perimeter_m": 103.58,
        "centroid_lon": 77.6031014,
        "centroid_lat": 13.0068094,
        "height_m": 7.22,
        "confidence": 0.95,
        "temporal_epoch": "T1"
      },
      "geometry": {
        "type": "Polygon",
        "coordinates": [
          [
            [
              77.6029791,
              13.0069234
            ],
            [
              77.6032237,
              13.0069234
            ],
            [
              77.6032237,
              13.0066954
            ],
            [
              77.6029791,
              13.0066954
            ],
            [
              77.6029791,
              13.0069234
            ]
          ]
        ]
      }
    },
    {
      "type": "Feature",
      "properties": {
        "id": "train_068_BLDG_008",
        "parcel_id": "train_068_P_009",
        "area_sqm": 1785.32,
        "perimeter_m": 169.57,
        "centroid_lon": 77.6013471,
        "centroid_lat": 13.0060453,
        "height_m": 10.26,
        "confidence": 0.868,
        "temporal_epoch": "T1"
      },
      "geometry": {
        "type": "Polygon",
        "coordinates": [
          [
            [
              77.6011676,
              13.0062523
            ],
            [
              77.6015265,
              13.0062523
            ],
            [
              77.6015265,
              13.0058383
            ],
            [
              77.6011676,
              13.0058383
            ],
            [
              77.6011676,
              13.0062523
            ]
          ]
        ]
      }
    },
    {
      "type": "Feature",
      "properties": {
        "id": "train_068_BLDG_009",
        "parcel_id": "train_068_P_011",
        "area_sqm": 1784.82,
        "perimeter_m": 169.55,
        "centroid_lon": 77.6019658,
        "centroid_lat": 13.0060453,
        "height_m": 10.92,
        "confidence": 0.838,
        "temporal_epoch": "T1"
      },
      "geometry": {
        "type": "Polygon",
        "coordinates": [
          [
            [
              77.6017864,
              13.0062523
            ],
            [
              77.6021452,
              13.0062523
            ],
            [
              77.6021452,
              13.0058383
            ],
            [
              77.6017864,
              13.0058383
            ],
            [
              77.6017864,
              13.0062523
            ]
          ]
        ]
      }
    },
    {
      "type": "Feature",
      "properties": {
        "id": "train_068_BLDG_010",
        "parcel_id": "train_068_P_013",
        "area_sqm": 1217.24,
        "perimeter_m": 144.78,
        "centroid_lon": 77.6026796,
        "centroid_lat": 13.0060453,
        "height_m": 8.33,
        "confidence": 0.873,
        "temporal_epoch": "T1"
      },
      "geometry": {
        "type": "Polygon",
        "coordinates": [
          [
            [
              77.6025572,
              13.0062523
            ],
            [
              77.6028019,
              13.0062523
            ],
            [
              77.6028019,
              13.0058383
            ],
            [
              77.6025572,
              13.0058383
            ],
            [
              77.6025572,
              13.0062523
            ]
          ]
        ]
      }
    },
    {
      "type": "Feature",
      "properties": {
        "id": "train_068_BLDG_011",
        "parcel_id": "train_068_P_014",
        "area_sqm": 1217.24,
        "perimeter_m": 144.78,
        "centroid_lon": 77.6026795,
        "centroid_lat": 13.0053984,
        "height_m": 11.17,
        "confidence": 0.78,
        "temporal_epoch": "T1"
      },
      "geometry": {
        "type": "Polygon",
        "coordinates": [
          [
            [
              77.6025572,
              13.0056054
            ],
            [
              77.6028019,
              13.0056054
            ],
            [
              77.6028019,
              13.0051914
            ],
            [
              77.6025572,
              13.0051914
            ],
            [
              77.6025572,
              13.0056054
            ]
          ]
        ]
      }
    },
    {
      "type": "Feature",
      "properties": {
        "id": "train_068_BLDG_012",
        "parcel_id": "train_068_P_015",
        "area_sqm": 1216.74,
        "perimeter_m": 144.76,
        "centroid_lon": 77.6031014,
        "centroid_lat": 13.0060453,
        "height_m": 8.12,
        "confidence": 0.926,
        "temporal_epoch": "T1"
      },
      "geometry": {
        "type": "Polygon",
        "coordinates": [
          [
            [
              77.6029791,
              13.0062523
            ],
            [
              77.6032237,
              13.0062523
            ],
            [
              77.6032237,
              13.0058383
            ],
            [
              77.6029791,
              13.0058383
            ],
            [
              77.6029791,
              13.0062523
            ]
          ]
        ]
      }
    },
    {
      "type": "Feature",
      "properties": {
        "id": "train_068_BLDG_013",
        "parcel_id": "train_068_P_016",
        "area_sqm": 1216.75,
        "perimeter_m": 144.76,
        "centroid_lon": 77.6031014,
        "centroid_lat": 13.0053984,
        "height_m": 11.12,
        "confidence": 0.852,
        "temporal_epoch": "T1"
      },
      "geometry": {
        "type": "Polygon",
        "coordinates": [
          [
            [
              77.6029791,
              13.0056054
            ],
            [
              77.6032237,
              13.0056054
            ],
            [
              77.6032237,
              13.0051914
            ],
            [
              77.6029791,
              13.0051914
            ],
            [
              77.6029791,
              13.0056054
            ]
          ]
        ]
      }
    }
  ]
}