{
  "type": "FeatureCollection",
  "crs": {
    "type": "name",
    "properties": {
      "name": "EPSG:4326"
    }
  },
  "features": [
    {
      "type": "Feature",
      "properties": {
        "id": "train_099_BND_001",
        "parcel_id": "train_099_P_001",
        "boundary_type": "VISIBLE",
        "confidence": 0.926,
        "length_m": 38.95,
        "evidence_sources": [
          "Drone_RGB_Edge",
          "DSM_Breakline"
        ]
      },
      "geometry": {
        "type": "LineString",
        "coordinates": [
          [
            77.604069,
            13.013329
          ],
          [
            77.6044277,
            13.0133388
          ]
        ]
      }
    },
    {
      "type": "Feature",
      "properties": {
        "id": "train_099_BND_002",
        "parcel_id": "train_099_P_001",
        "boundary_type": "VISIBLE",
        "confidence": 0.93,
        "length_m": 42.26,
        "evidence_sources": [
          "Drone_RGB_Edge",
          "DSM_Breakline"
        ]
      },
      "geometry": {
        "type": "LineString",
        "coordinates": [
          [
            77.6044277,
            13.0133388
          ],
          [
            77.6044203,
            13.0129571
          ]
        ]
      }
    },
    {
      "type": "Feature",
      "properties": {
        "id": "train_099_BND_003",
        "parcel_id": "train_099_P_001",
        "boundary_type": "VISIBLE",
        "confidence": 0.883,
        "length_m": 39.5,
        "evidence_sources": [
          "Drone_RGB_Edge",
          "DSM_Breakline"
        ]
      },
      "geometry": {
        "type": "LineString",
        "coordinates": [
          [
            77.6044203,
            13.0129571
          ],
          [
            77.6040568,
            13.0129411
          ]
        ]
      }
    },
    {
      "type": "Feature",
      "properties": {
        "id": "train_099_BND_004",
        "parcel_id": "train_099_P_001",
        "boundary_type": "VISIBLE",
        "confidence": 0.824,
        "length_m": 42.96,
        "evidence_sources": [
          "Drone_RGB_Edge",
          "DSM_Breakline"
        ]
      },
      "geometry": {
        "type": "LineString",
        "coordinates": [
          [
            77.6040568,
            13.0129411
          ],
          [
            77.604069,
            13.013329
          ]
        ]
      }
    },
    {
      "type": "Feature",
      "properties": {
        "id": "train_099_BND_005",
        "parcel_id": "train_099_P_002",
        "boundary_type": "VISIBLE",
        "confidence": 0.847,
        "length_m": 41.15,
        "evidence_sources": [
          "Drone_RGB_Edge",
          "DSM_Breakline"
        ]
      },
      "geometry": {
        "type": "LineString",
        "coordinates": [
          [
            77.6040613,
            13.0129377
          ],
          [
            77.60444,
            13.0129195
          ]
        ]
      }
    },
    {
      "type": "Feature",
      "properties": {
        "id": "train_099_BND_006",
        "parcel_id": "train_099_P_002",
        "boundary_type": "VISIBLE",
        "confidence": 0.95,
        "length_m": 41.52,
        "evidence_sources": [
          "Drone_RGB_Edge",
          "DSM_Breakline"
        ]
      },
      "geometry": {
        "type": "LineString",
        "coordinates": [
          [
            77.60444,
            13.0129195
          ],
          [
            77.604434,
            13.0125445
          ]
        ]
      }
    },
    {
      "type": "Feature",
      "properties": {
        "id": "train_099_BND_007",
        "parcel_id": "train_099_P_002",
        "boundary_type": "VISIBLE",
        "confidence": 0.892,
        "length_m": 38.64,
        "evidence_sources": [
          "Drone_RGB_Edge",
          "DSM_Breakline"
        ]
      },
      "geometry": {
        "type": "LineString",
        "coordinates": [
          [
            77.604434,
            13.0125445
          ],
          [
            77.6040781,
            13.012538
          ]
        ]
      }
    },
    {
      "type": "Feature",
      "properties": {
        "id": "train_099_BND_008",
        "parcel_id": "train_099_P_002",
        "boundary_type": "INFERRED",
        "confidence": 0.781,
        "length_m": 44.28,
        "evidence_sources": [
          "Road_Corridor_Offset",
          "Adjacent_Parcel_Topology"
        ]
      },
      "geometry": {
        "type": "LineString",
        "coordinates": [
          [
            77.6040781,
            13.012538
          ],
          [
            77.6040613,
            13.0129377
          ]
        ]
      }
    },
    {
      "type": "Feature",
      "properties": {
        "id": "train_099_BND_009",
        "parcel_id": "train_099_P_003",
        "boundary_type": "VISIBLE",
        "confidence": 0.841,
        "length_m": 39.33,
        "evidence_sources": [
          "Drone_RGB_Edge",
          "DSM_Breakline"
        ]
      },
      "geometry": {
        "type": "LineString",
        "coordinates": [
          [
            77.6044608,
            13.0133359
          ],
          [
            77.6048231,
            13.0133315
          ]
        ]
      }
    },
    {
      "type": "Feature",
      "properties": {
        "id": "train_099_BND_010",
        "parcel_id": "train_099_P_003",
        "boundary_type": "INFERRED",
        "confidence": 0.632,
        "length_m": 42.08,
        "evidence_sources": [
          "Road_Corridor_Offset",
          "Adjacent_Parcel_Topology"
        ]
      },
      "geometry": {
        "type": "LineString",
        "coordinates": [
          [
            77.6048231,
            13.0133315
          ],
          [
            77.6048191,
            13.0129514
          ]
        ]
      }
    },
    {
      "type": "Feature",
      "properties": {
        "id": "train_099_BND_011",
        "parcel_id": "train_099_P_003",
        "boundary_type": "INFERRED",
        "confidence": 0.709,
        "length_m": 40.43,
        "evidence_sources": [
          "Road_Corridor_Offset",
          "Adjacent_Parcel_Topology"
        ]
      },
      "geometry": {
        "type": "LineString",
        "coordinates": [
          [
            77.6048191,
            13.0129514
          ],
          [
            77.6044466,
            13.0129536
          ]
        ]
      }
    },
    {
      "type": "Feature",
      "properties": {
        "id": "train_099_BND_012",
        "parcel_id": "train_099_P_003",
        "boundary_type": "VISIBLE",
        "confidence": 0.954,
        "length_m": 42.35,
        "evidence_sources": [
          "Drone_RGB_Edge",
          "DSM_Breakline"
        ]
      },
      "geometry": {
        "type": "LineString",
        "coordinates": [
          [
            77.6044466,
            13.0129536
          ],
          [
            77.6044608,
            13.0133359
          ]
        ]
      }
    },
    {
      "type": "Feature",
      "properties": {
        "id": "train_099_BND_013",
        "parcel_id": "train_099_P_004",
        "boundary_type": "INFERRED",
        "confidence": 0.786,
        "length_m": 38.57,
        "evidence_sources": [
          "Road_Corridor_Offset",
          "Adjacent_Parcel_Topology"
        ]
      },
      "geometry": {
        "type": "LineString",
        "coordinates": [
          [
            77.6044608,
            13.0129266
          ],
          [
            77.6048161,
            13.012929
          ]
        ]
      }
    },
    {
      "type": "Feature",
      "properties": {
        "id": "train_099_BND_014",
        "parcel_id": "train_099_P_004",
        "boundary_type": "VISIBLE",
        "confidence": 0.92,
        "length_m": 42.42,
        "evidence_sources": [
          "Drone_RGB_Edge",
          "DSM_Breakline"
        ]
      },
      "geometry": {
        "type": "LineString",
        "coordinates": [
          [
            77.6048161,
            13.012929
          ],
          [
            77.6048228,
            13.0125458
          ]
        ]
      }
    },
    {
      "type": "Feature",
      "properties": {
        "id": "train_099_BND_015",
        "parcel_id": "train_099_P_004",
        "boundary_type": "INFERRED",
        "confidence": 0.63,
        "length_m": 39.66,
        "evidence_sources": [
          "Road_Corridor_Offset",
          "Adjacent_Parcel_Topology"
        ]
      },
      "geometry": {
        "type": "LineString",
        "coordinates": [
          [
            77.6048228,
            13.0125458
          ],
          [
            77.6044576,
            13.012556
          ]
        ]
      }
    },
    {
      "type": "Feature",
      "properties": {
        "id": "train_099_BND_016",
        "parcel_id": "train_099_P_004",
        "boundary_type": "INFERRED",
        "confidence": 0.774,
        "length_m": 41.03,
        "evidence_sources": [
          "Road_Corridor_Offset",
          "Adjacent_Parcel_Topology"
        ]
      },
      "geometry": {
        "type": "LineString",
        "coordinates": [
          [
            77.6044576,
            13.012556
          ],
          [
            77.6044608,
            13.0129266
          ]
        ]
      }
    },
    {
      "type": "Feature",
      "properties": {
        "id": "train_099_BND_017",
        "parcel_id": "train_099_P_005",
        "boundary_type": "INFERRED",
        "confidence": 0.644,
        "length_m": 70.0,
        "evidence_sources": [
          "Road_Corridor_Offset",
          "Adjacent_Parcel_Topology"
        ]
      },
      "geometry": {
        "type": "LineString",
        "coordinates": [
          [
            77.60499,
            13.0133275
          ],
          [
            77.6056349,
            13.0133266
          ]
        ]
      }
    },
    {
      "type": "Feature",
      "properties": {
        "id": "train_099_BND_018",
        "parcel_id": "train_099_P_005",
        "boundary_type": "INFERRED",
        "confidence": 0.669,
        "length_m": 41.05,
        "evidence_sources": [
          "Road_Corridor_Offset",
          "Adjacent_Parcel_Topology"
        ]
      },
      "geometry": {
        "type": "LineString",
        "coordinates": [
          [
            77.6056349,
            13.0133266
          ],
          [
            77.6056436,
            13.0129559
          ]
        ]
      }
    },
    {
      "type": "Feature",
      "properties": {
        "id": "train_099_BND_019",
        "parcel_id": "train_099_P_005",
        "boundary_type": "INFERRED",
        "confidence": 0.7,
        "length_m": 70.81,
        "evidence_sources": [
          "Road_Corridor_Offset",
          "Adjacent_Parcel_Topology"
        ]
      },
      "geometry": {
        "type": "LineString",
        "coordinates": [
          [
            77.6056436,
            13.0129559
          ],
          [
            77.6049913,
            13.0129614
          ]
        ]
      }
    },
    {
      "type": "Feature",
      "properties": {
        "id": "train_099_BND_020",
        "parcel_id": "train_099_P_005",
        "boundary_type": "VISIBLE",
        "confidence": 0.858,
        "length_m": 40.53,
        "evidence_sources": [
          "Drone_RGB_Edge",
          "DSM_Breakline"
        ]
      },
      "geometry": {
        "type": "LineString",
        "coordinates": [
          [
            77.6049913,
            13.0129614
          ],
          [
            77.60499,
            13.0133275
          ]
        ]
      }
    },
    {
      "type": "Feature",
      "properties": {
        "id": "train_099_BND_021",
        "parcel_id": "train_099_P_006",
        "boundary_type": "VISIBLE",
        "confidence": 0.927,
        "length_m": 70.02,
        "evidence_sources": [
          "Drone_RGB_Edge",
          "DSM_Breakline"
        ]
      },
      "geometry": {
        "type": "LineString",
        "coordinates": [
          [
            77.6049835,
            13.0129306
          ],
          [
            77.6056286,
            13.0129343
          ]
        ]
      }
    },
    {
      "type": "Feature",
      "properties": {
        "id": "train_099_BND_022",
        "parcel_id": "train_099_P_006",
        "boundary_type": "VISIBLE",
        "confidence": 0.938,
        "length_m": 41.73,
        "evidence_sources": [
          "Drone_RGB_Edge",
          "DSM_Breakline"
        ]
      },
      "geometry": {
        "type": "LineString",
        "coordinates": [
          [
            77.6056286,
            13.0129343
          ],
          [
            77.6056329,
            13.0125573
          ]
        ]
      }
    },
    {
      "type": "Feature",
      "properties": {
        "id": "train_099_BND_023",
        "parcel_id": "train_099_P_006",
        "boundary_type": "VISIBLE",
        "confidence": 0.825,
        "length_m": 71.24,
        "evidence_sources": [
          "Drone_RGB_Edge",
          "DSM_Breakline"
        ]
      },
      "geometry": {
        "type": "LineString",
        "coordinates": [
          [
            77.6056329,
            13.0125573
          ],
          [
            77.6049766,
            13.012555
          ]
        ]
      }
    },
    {
      "type": "Feature",
      "properties": {
        "id": "train_099_BND_024",
        "parcel_id": "train_099_P_006",
        "boundary_type": "VISIBLE",
        "confidence": 0.843,
        "length_m": 41.58,
        "evidence_sources": [
          "Drone_RGB_Edge",
          "DSM_Breakline"
        ]
      },
      "geometry": {
        "type": "LineString",
        "coordinates": [
          [
            77.6049766,
            13.012555
          ],
          [
            77.6049835,
            13.0129306
          ]
        ]
      }
    },
    {
      "type": "Feature",
      "properties": {
        "id": "train_099_BND_025",
        "parcel_id": "train_099_P_007",
        "boundary_type": "VISIBLE",
        "confidence": 0.879,
        "length_m": 70.2,
        "evidence_sources": [
          "Drone_RGB_Edge",
          "DSM_Breakline"
        ]
      },
      "geometry": {
        "type": "LineString",
        "coordinates": [
          [
            77.6056604,
            13.0133304
          ],
          [
            77.6063071,
            13.0133278
          ]
        ]
      }
    },
    {
      "type": "Feature",
      "properties": {
        "id": "train_099_BND_026",
        "parcel_id": "train_099_P_007",
        "boundary_type": "VISIBLE",
        "confidence": 0.887,
        "length_m": 41.46,
        "evidence_sources": [
          "Drone_RGB_Edge",
          "DSM_Breakline"
        ]
      },
      "geometry": {
        "type": "LineString",
        "coordinates": [
          [
            77.6063071,
            13.0133278
          ],
          [
            77.6063117,
            13.0129533
          ]
        ]
      }
    },
    {
      "type": "Feature",
      "properties": {
        "id": "train_099_BND_027",
        "parcel_id": "train_099_P_007",
        "boundary_type": "INFERRED",
        "confidence": 0.66,
        "length_m": 71.11,
        "evidence_sources": [
          "Road_Corridor_Offset",
          "Adjacent_Parcel_Topology"
        ]
      },
      "geometry": {
        "type": "LineString",
        "coordinates": [
          [
            77.6063117,
            13.0129533
          ],
          [
            77.6056566,
            13.0129445
          ]
        ]
      }
    },
    {
      "type": "Feature",
      "properties": {
        "id": "train_099_BND_028",
        "parcel_id": "train_099_P_007",
        "boundary_type": "VISIBLE",
        "confidence": 0.884,
        "length_m": 42.72,
        "evidence_sources": [
          "Drone_RGB_Edge",
          "DSM_Breakline"
        ]
      },
      "geometry": {
        "type": "LineString",
        "coordinates": [
          [
            77.6056566,
            13.0129445
          ],
          [
            77.6056604,
            13.0133304
          ]
        ]
      }
    },
    {
      "type": "Feature",
      "properties": {
        "id": "train_099_BND_029",
        "parcel_id": "train_099_P_008",
        "boundary_type": "VISIBLE",
        "confidence": 0.883,
        "length_m": 69.96,
        "evidence_sources": [
          "Drone_RGB_Edge",
          "DSM_Breakline"
        ]
      },
      "geometry": {
        "type": "LineString",
        "coordinates": [
          [
            77.6056596,
            13.0129351
          ],
          [
            77.6063041,
            13.0129301
          ]
        ]
      }
    },
    {
      "type": "Feature",
      "properties": {
        "id": "train_099_BND_030",
        "parcel_id": "train_099_P_008",
        "boundary_type": "VISIBLE",
        "confidence": 0.894,
        "length_m": 41.39,
        "evidence_sources": [
          "Drone_RGB_Edge",
          "DSM_Breakline"
        ]
      },
      "geometry": {
        "type": "LineString",
        "coordinates": [
          [
            77.6063041,
            13.0129301
          ],
          [
            77.6063132,
            13.0125563
          ]
        ]
      }
    },
    {
      "type": "Feature",
      "properties": {
        "id": "train_099_BND_031",
        "parcel_id": "train_099_P_008",
        "boundary_type": "VISIBLE",
        "confidence": 0.898,
        "length_m": 70.69,
        "evidence_sources": [
          "Drone_RGB_Edge",
          "DSM_Breakline"
        ]
      },
      "geometry": {
        "type": "LineString",
        "coordinates": [
          [
            77.6063132,
            13.0125563
          ],
          [
            77.605662,
            13.0125486
          ]
        ]
      }
    },
    {
      "type": "Feature",
      "properties": {
        "id": "train_099_BND_032",
        "parcel_id": "train_099_P_008",
        "boundary_type": "VISIBLE",
        "confidence": 0.875,
        "length_m": 42.78,
        "evidence_sources": [
          "Drone_RGB_Edge",
          "DSM_Breakline"
        ]
      },
      "geometry": {
        "type": "LineString",
        "coordinates": [
          [
            77.605662,
            13.0125486
          ],
          [
            77.6056596,
            13.0129351
          ]
        ]
      }
    },
    {
      "type": "Feature",
      "properties": {
        "id": "train_099_BND_033",
        "parcel_id": "train_099_P_009",
        "boundary_type": "INFERRED",
        "confidence": 0.758,
        "length_m": 37.17,
        "evidence_sources": [
          "Road_Corridor_Offset",
          "Adjacent_Parcel_Topology"
        ]
      },
      "geometry": {
        "type": "LineString",
        "coordinates": [
          [
            77.6040782,
            13.0122577
          ],
          [
            77.6044206,
            13.0122583
          ]
        ]
      }
    },
    {
      "type": "Feature",
      "properties": {
        "id": "train_099_BND_034",
        "parcel_id": "train_099_P_009",
        "boundary_type": "VISIBLE",
        "confidence": 0.87,
        "length_m": 63.0,
        "evidence_sources": [
          "Drone_RGB_Edge",
          "DSM_Breakline"
        ]
      },
      "geometry": {
        "type": "LineString",
        "coordinates": [
          [
            77.6044206,
            13.0122583
          ],
          [
            77.6044403,
            13.0116895
          ]
        ]
      }
    },
    {
      "type": "Feature",
      "properties": {
        "id": "train_099_BND_035",
        "parcel_id": "train_099_P_009",
        "boundary_type": "VISIBLE",
        "confidence": 0.891,
        "length_m": 41.39,
        "evidence_sources": [
          "Drone_RGB_Edge",
          "DSM_Breakline"
        ]
      },
      "geometry": {
        "type": "LineString",
        "coordinates": [
          [
            77.6044403,
            13.0116895
          ],
          [
            77.604059,
            13.0116829
          ]
        ]
      }
    },
    {
      "type": "Feature",
      "properties": {
        "id": "train_099_BND_036",
        "parcel_id": "train_099_P_009",
        "boundary_type": "VISIBLE",
        "confidence": 0.892,
        "length_m": 63.66,
        "evidence_sources": [
          "Drone_RGB_Edge",
          "DSM_Breakline"
        ]
      },
      "geometry": {
        "type": "LineString",
        "coordinates": [
          [
            77.604059,
            13.0116829
          ],
          [
            77.6040782,
            13.0122577
          ]
        ]
      }
    },
    {
      "type": "Feature",
      "properties": {
        "id": "train_099_BND_037",
        "parcel_id": "train_099_P_010",
        "boundary_type": "INFERRED",
        "confidence": 0.697,
        "length_m": 38.12,
        "evidence_sources": [
          "Road_Corridor_Offset",
          "Adjacent_Parcel_Topology"
        ]
      },
      "geometry": {
        "type": "LineString",
        "coordinates": [
          [
            77.6040672,
            13.0116537
          ],
          [
            77.6044183,
            13.0116606
          ]
        ]
      }
    },
    {
      "type": "Feature",
      "properties": {
        "id": "train_099_BND_038",
        "parcel_id": "train_099_P_010",
        "boundary_type": "VISIBLE",
        "confidence": 0.842,
        "length_m": 63.64,
        "evidence_sources": [
          "Drone_RGB_Edge",
          "DSM_Breakline"
        ]
      },
      "geometry": {
        "type": "LineString",
        "coordinates": [
          [
            77.6044183,
            13.0116606
          ],
          [
            77.6044188,
            13.0110857
          ]
        ]
      }
    },
    {
      "type": "Feature",
      "properties": {
        "id": "train_099_BND_039",
        "parcel_id": "train_099_P_010",
        "boundary_type": "VISIBLE",
        "confidence": 0.957,
        "length_m": 39.1,
        "evidence_sources": [
          "Drone_RGB_Edge",
          "DSM_Breakline"
        ]
      },
      "geometry": {
        "type": "LineString",
        "coordinates": [
          [
            77.6044188,
            13.0110857
          ],
          [
            77.6040587,
            13.0110779
          ]
        ]
      }
    },
    {
      "type": "Feature",
      "properties": {
        "id": "train_099_BND_040",
        "parcel_id": "train_099_P_010",
        "boundary_type": "VISIBLE",
        "confidence": 0.92,
        "length_m": 63.75,
        "evidence_sources": [
          "Drone_RGB_Edge",
          "DSM_Breakline"
        ]
      },
      "geometry": {
        "type": "LineString",
        "coordinates": [
          [
            77.6040587,
            13.0110779
          ],
          [
            77.6040672,
            13.0116537
          ]
        ]
      }
    },
    {
      "type": "Feature",
      "properties": {
        "id": "train_099_BND_041",
        "parcel_id": "train_099_P_011",
        "boundary_type": "VISIBLE",
        "confidence": 0.85,
        "length_m": 40.02,
        "evidence_sources": [
          "Drone_RGB_Edge",
          "DSM_Breakline"
        ]
      },
      "geometry": {
        "type": "LineString",
        "coordinates": [
          [
            77.604442,
            13.0122689
          ],
          [
            77.6048106,
            13.0122598
          ]
        ]
      }
    },
    {
      "type": "Feature",
      "properties": {
        "id": "train_099_BND_042",
        "parcel_id": "train_099_P_011",
        "boundary_type": "VISIBLE",
        "confidence": 0.952,
        "length_m": 63.97,
        "evidence_sources": [
          "Drone_RGB_Edge",
          "DSM_Breakline"
        ]
      },
      "geometry": {
        "type": "LineString",
        "coordinates": [
          [
            77.6048106,
            13.0122598
          ],
          [
            77.6048107,
            13.0116819
          ]
        ]
      }
    },
    {
      "type": "Feature",
      "properties": {
        "id": "train_099_BND_043",
        "parcel_id": "train_099_P_011",
        "boundary_type": "INFERRED",
        "confidence": 0.715,
        "length_m": 39.23,
        "evidence_sources": [
          "Road_Corridor_Offset",
          "Adjacent_Parcel_Topology"
        ]
      },
      "geometry": {
        "type": "LineString",
        "coordinates": [
          [
            77.6048107,
            13.0116819
          ],
          [
            77.6044494,
            13.0116894
          ]
        ]
      }
    },
    {
      "type": "Feature",
      "properties": {
        "id": "train_099_BND_044",
        "parcel_id": "train_099_P_011",
        "boundary_type": "VISIBLE",
        "confidence": 0.859,
        "length_m": 64.15,
        "evidence_sources": [
          "Drone_RGB_Edge",
          "DSM_Breakline"
        ]
      },
      "geometry": {
        "type": "LineString",
        "coordinates": [
          [
            77.6044494,
            13.0116894
          ],
          [
            77.604442,
            13.0122689
          ]
        ]
      }
    },
    {
      "type": "Feature",
      "properties": {
        "id": "train_099_BND_045",
        "parcel_id": "train_099_P_012",
        "boundary_type": "VISIBLE",
        "confidence": 0.832,
        "length_m": 40.12,
        "evidence_sources": [
          "Drone_RGB_Edge",
          "DSM_Breakline"
        ]
      },
      "geometry": {
        "type": "LineString",
        "coordinates": [
          [
            77.6044503,
            13.0116596
          ],
          [
            77.6048199,
            13.0116573
          ]
        ]
      }
    },
    {
      "type": "Feature",
      "properties": {
        "id": "train_099_BND_046",
        "parcel_id": "train_099_P_012",
        "boundary_type": "INFERRED",
        "confidence": 0.643,
        "length_m": 63.63,
        "evidence_sources": [
          "Road_Corridor_Offset",
          "Adjacent_Parcel_Topology"
        ]
      },
      "geometry": {
        "type": "LineString",
        "coordinates": [
          [
            77.6048199,
            13.0116573
          ],
          [
            77.6048067,
            13.0110826
          ]
        ]
      }
    },
    {
      "type": "Feature",
      "properties": {
        "id": "train_099_BND_047",
        "parcel_id": "train_099_P_012",
        "boundary_type": "VISIBLE",
        "confidence": 0.93,
        "length_m": 38.0,
        "evidence_sources": [
          "Drone_RGB_Edge",
          "DSM_Breakline"
        ]
      },
      "geometry": {
        "type": "LineString",
        "coordinates": [
          [
            77.6048067,
            13.0110826
          ],
          [
            77.6044568,
            13.0110932
          ]
        ]
      }
    },
    {
      "type": "Feature",
      "properties": {
        "id": "train_099_BND_048",
        "parcel_id": "train_099_P_012",
        "boundary_type": "VISIBLE",
        "confidence": 0.946,
        "length_m": 62.7,
        "evidence_sources": [
          "Drone_RGB_Edge",
          "DSM_Breakline"
        ]
      },
      "geometry": {
        "type": "LineString",
        "coordinates": [
          [
            77.6044568,
            13.0110932
          ],
          [
            77.6044503,
            13.0116596
          ]
        ]
      }
    },
    {
      "type": "Feature",
      "properties": {
        "id": "train_099_BND_049",
        "parcel_id": "train_099_P_013",
        "boundary_type": "VISIBLE",
        "confidence": 0.923,
        "length_m": 70.15,
        "evidence_sources": [
          "Drone_RGB_Edge",
          "DSM_Breakline"
        ]
      },
      "geometry": {
        "type": "LineString",
        "coordinates": [
          [
            77.6049821,
            13.0122741
          ],
          [
            77.6056283,
            13.0122666
          ]
        ]
      }
    },
    {
      "type": "Feature",
      "properties": {
        "id": "train_099_BND_050",
        "parcel_id": "train_099_P_013",
        "boundary_type": "VISIBLE",
        "confidence": 0.824,
        "length_m": 64.97,
        "evidence_sources": [
          "Drone_RGB_Edge",
          "DSM_Breakline"
        ]
      },
      "geometry": {
        "type": "LineString",
        "coordinates": [
          [
            77.6056283,
            13.0122666
          ],
          [
            77.6056394,
            13.0116798
          ]
        ]
      }
    },
    {
      "type": "Feature",
      "properties": {
        "id": "train_099_BND_051",
        "parcel_id": "train_099_P_013",
        "boundary_type": "VISIBLE",
        "confidence": 0.828,
        "length_m": 71.32,
        "evidence_sources": [
          "Drone_RGB_Edge",
          "DSM_Breakline"
        ]
      },
      "geometry": {
        "type": "LineString",
        "coordinates": [
          [
            77.6056394,
            13.0116798
          ],
          [
            77.6049824,
            13.011685
          ]
        ]
      }
    },
    {
      "type": "Feature",
      "properties": {
        "id": "train_099_BND_052",
        "parcel_id": "train_099_P_013",
        "boundary_type": "VISIBLE",
        "confidence": 0.848,
        "length_m": 65.21,
        "evidence_sources": [
          "Drone_RGB_Edge",
          "DSM_Breakline"
        ]
      },
      "geometry": {
        "type": "LineString",
        "coordinates": [
          [
            77.6049824,
            13.011685
          ],
          [
            77.6049821,
            13.0122741
          ]
        ]
      }
    },
    {
      "type": "Feature",
      "properties": {
        "id": "train_099_BND_053",
        "parcel_id": "train_099_P_014",
        "boundary_type": "INFERRED",
        "confidence": 0.623,
        "length_m": 70.63,
        "evidence_sources": [
          "Road_Corridor_Offset",
          "Adjacent_Parcel_Topology"
        ]
      },
      "geometry": {
        "type": "LineString",
        "coordinates": [
          [
            77.6049948,
            13.0116748
          ],
          [
            77.6056451,
            13.0116529
          ]
        ]
      }
    },
    {
      "type": "Feature",
      "properties": {
        "id": "train_099_BND_054",
        "parcel_id": "train_099_P_014",
        "boundary_type": "VISIBLE",
        "confidence": 0.854,
        "length_m": 61.77,
        "evidence_sources": [
          "Drone_RGB_Edge",
          "DSM_Breakline"
        ]
      },
      "geometry": {
        "type": "LineString",
        "coordinates": [
          [
            77.6056451,
            13.0116529
          ],
          [
            77.605646,
            13.0110949
          ]
        ]
      }
    },
    {
      "type": "Feature",
      "properties": {
        "id": "train_099_BND_055",
        "parcel_id": "train_099_P_014",
        "boundary_type": "VISIBLE",
        "confidence": 0.92,
        "length_m": 71.58,
        "evidence_sources": [
          "Drone_RGB_Edge",
          "DSM_Breakline"
        ]
      },
      "geometry": {
        "type": "LineString",
        "coordinates": [
          [
            77.605646,
            13.0110949
          ],
          [
            77.6049866,
            13.011088
          ]
        ]
      }
    },
    {
      "type": "Feature",
      "properties": {
        "id": "train_099_BND_056",
        "parcel_id": "train_099_P_014",
        "boundary_type": "VISIBLE",
        "confidence": 0.853,
        "length_m": 64.96,
        "evidence_sources": [
          "Drone_RGB_Edge",
          "DSM_Breakline"
        ]
      },
      "geometry": {
        "type": "LineString",
        "coordinates": [
          [
            77.6049866,
            13.011088
          ],
          [
            77.6049948,
            13.0116748
          ]
        ]
      }
    },
    {
      "type": "Feature",
      "properties": {
        "id": "train_099_BND_057",
        "parcel_id": "train_099_P_015",
        "boundary_type": "VISIBLE",
        "confidence": 0.906,
        "length_m": 71.54,
        "evidence_sources": [
          "Drone_RGB_Edge",
          "DSM_Breakline"
        ]
      },
      "geometry": {
        "type": "LineString",
        "coordinates": [
          [
            77.6056613,
            13.012271
          ],
          [
            77.6063204,
            13.012273
          ]
        ]
      }
    },
    {
      "type": "Feature",
      "properties": {
        "id": "train_099_BND_058",
        "parcel_id": "train_099_P_015",
        "boundary_type": "VISIBLE",
        "confidence": 0.946,
        "length_m": 66.12,
        "evidence_sources": [
          "Drone_RGB_Edge",
          "DSM_Breakline"
        ]
      },
      "geometry": {
        "type": "LineString",
        "coordinates": [
          [
            77.6063204,
            13.012273
          ],
          [
            77.606309,
            13.0116758
          ]
        ]
      }
    },
    {
      "type": "Feature",
      "properties": {
        "id": "train_099_BND_059",
        "parcel_id": "train_099_P_015",
        "boundary_type": "VISIBLE",
        "confidence": 0.954,
        "length_m": 69.94,
        "evidence_sources": [
          "Drone_RGB_Edge",
          "DSM_Breakline"
        ]
      },
      "geometry": {
        "type": "LineString",
        "coordinates": [
          [
            77.606309,
            13.0116758
          ],
          [
            77.6056647,
            13.0116823
          ]
        ]
      }
    },
    {
      "type": "Feature",
      "properties": {
        "id": "train_099_BND_060",
        "parcel_id": "train_099_P_015",
        "boundary_type": "VISIBLE",
        "confidence": 0.957,
        "length_m": 65.17,
        "evidence_sources": [
          "Drone_RGB_Edge",
          "DSM_Breakline"
        ]
      },
      "geometry": {
        "type": "LineString",
        "coordinates": [
          [
            77.6056647,
            13.0116823
          ],
          [
            77.6056613,
            13.012271
          ]
        ]
      }
    },
    {
      "type": "Feature",
      "properties": {
        "id": "train_099_BND_061",
        "parcel_id": "train_099_P_016",
        "boundary_type": "VISIBLE",
        "confidence": 0.947,
        "length_m": 71.21,
        "evidence_sources": [
          "Drone_RGB_Edge",
          "DSM_Breakline"
        ]
      },
      "geometry": {
        "type": "LineString",
        "coordinates": [
          [
            77.6056644,
            13.0116639
          ],
          [
            77.6063204,
            13.0116668
          ]
        ]
      }
    },
    {
      "type": "Feature",
      "properties": {
        "id": "train_099_BND_062",
        "parcel_id": "train_099_P_016",
        "boundary_type": "VISIBLE",
        "confidence": 0.839,
        "length_m": 63.35,
        "evidence_sources": [
          "Drone_RGB_Edge",
          "DSM_Breakline"
        ]
      },
      "geometry": {
        "type": "LineString",
        "coordinates": [
          [
            77.6063204,
            13.0116668
          ],
          [
            77.6063195,
            13.0110945
          ]
        ]
      }
    },
    {
      "type": "Feature",
      "properties": {
        "id": "train_099_BND_063",
        "parcel_id": "train_099_P_016",
        "boundary_type": "VISIBLE",
        "confidence": 0.902,
        "length_m": 70.84,
        "evidence_sources": [
          "Drone_RGB_Edge",
          "DSM_Breakline"
        ]
      },
      "geometry": {
        "type": "LineString",
        "coordinates": [
          [
            77.6063195,
            13.0110945
          ],
          [
            77.6056669,
            13.0110964
          ]
        ]
      }
    },
    {
      "type": "Feature",
      "properties": {
        "id": "train_099_BND_064",
        "parcel_id": "train_099_P_016",
        "boundary_type": "INFERRED",
        "confidence": 0.742,
        "length_m": 62.82,
        "evidence_sources": [
          "Road_Corridor_Offset",
          "Adjacent_Parcel_Topology"
        ]
      },
      "geometry": {
        "type": "LineString",
        "coordinates": [
          [
            77.6056669,
            13.0110964
          ],
          [
            77.6056644,
            13.0116639
          ]
        ]
      }
    }
  ]
}