{
  "type": "FeatureCollection",
  "crs": {
    "type": "name",
    "properties": {
      "name": "EPSG:4326"
    }
  },
  "features": [
    {
      "type": "Feature",
      "properties": {
        "id": "train_099_REF_001",
        "parcel_id": "train_099_P_001",
        "parcel_layer": "REFERENCE",
        "boundary_representation": "REFERENCE",
        "land_use_class": "residential",
        "area_sqm": 1668.25,
        "perimeter_m": 163.67,
        "source": "Synthetic Legacy Cadastral Map (Non-Authoritative Demo)"
      },
      "geometry": {
        "type": "Polygon",
        "coordinates": [
          [
            [
              77.6040746,
              13.0133318
            ],
            [
              77.6044333,
              13.0133416
            ],
            [
              77.604426,
              13.0129599
            ],
            [
              77.6040624,
              13.0129439
            ],
            [
              77.6040746,
              13.0133318
            ]
          ]
        ]
      }
    },
    {
      "type": "Feature",
      "properties": {
        "id": "train_099_REF_002",
        "parcel_id": "train_099_P_002",
        "parcel_layer": "REFERENCE",
        "boundary_representation": "REFERENCE",
        "land_use_class": "residential",
        "area_sqm": 1709.31,
        "perimeter_m": 165.6,
        "source": "Synthetic Legacy Cadastral Map (Non-Authoritative Demo)"
      },
      "geometry": {
        "type": "Polygon",
        "coordinates": [
          [
            [
              77.6040669,
              13.0129405
            ],
            [
              77.6044457,
              13.0129223
            ],
            [
              77.6044396,
              13.0125473
            ],
            [
              77.6040837,
              13.0125408
            ],
            [
              77.6040669,
              13.0129405
            ]
          ]
        ]
      }
    },
    {
      "type": "Feature",
      "properties": {
        "id": "train_099_REF_003",
        "parcel_id": "train_099_P_003",
        "parcel_layer": "REFERENCE",
        "boundary_representation": "REFERENCE",
        "land_use_class": "residential",
        "area_sqm": 1683.35,
        "perimeter_m": 164.2,
        "source": "Synthetic Legacy Cadastral Map (Non-Authoritative Demo)"
      },
      "geometry": {
        "type": "Polygon",
        "coordinates": [
          [
            [
              77.6044664,
              13.0133387
            ],
            [
              77.6048287,
              13.0133343
            ],
            [
              77.6048248,
              13.0129542
            ],
            [
              77.6044522,
              13.0129564
            ],
            [
              77.6044664,
              13.0133387
            ]
          ]
        ]
      }
    },
    {
      "type": "Feature",
      "properties": {
        "id": "train_099_REF_004",
        "parcel_id": "train_099_P_004",
        "parcel_layer": "REFERENCE",
        "boundary_representation": "REFERENCE",
        "land_use_class": "commercial",
        "area_sqm": 1631.1,
        "perimeter_m": 161.66,
        "source": "Synthetic Legacy Cadastral Map (Non-Authoritative Demo)"
      },
      "geometry": {
        "type": "Polygon",
        "coordinates": [
          [
            [
              77.6045021,
              13.0129472
            ],
            [
              77.6048573,
              13.0129496
            ],
            [
              77.6048641,
              13.0125664
            ],
            [
              77.6044989,
              13.0125766
            ],
            [
              77.6045021,
              13.0129472
            ]
          ]
        ]
      }
    },
    {
      "type": "Feature",
      "properties": {
        "id": "train_099_REF_005",
        "parcel_id": "train_099_P_005",
        "parcel_layer": "REFERENCE",
        "boundary_representation": "REFERENCE",
        "land_use_class": "mixed_use",
        "area_sqm": 2870.78,
        "perimeter_m": 222.38,
        "source": "Synthetic Legacy Cadastral Map (Non-Authoritative Demo)"
      },
      "geometry": {
        "type": "Polygon",
        "coordinates": [
          [
            [
              77.6049957,
              13.0133303
            ],
            [
              77.6056405,
              13.0133294
            ],
            [
              77.6056493,
              13.0129587
            ],
            [
              77.6049969,
              13.0129642
            ],
            [
              77.6049957,
              13.0133303
            ]
          ]
        ]
      }
    },
    {
      "type": "Feature",
      "properties": {
        "id": "train_099_REF_006",
        "parcel_id": "train_099_P_006",
        "parcel_layer": "REFERENCE",
        "boundary_representation": "REFERENCE",
        "land_use_class": "vegetation",
        "area_sqm": 2942.21,
        "perimeter_m": 224.59,
        "source": "Synthetic Legacy Cadastral Map (Non-Authoritative Demo)"
      },
      "geometry": {
        "type": "Polygon",
        "coordinates": [
          [
            [
              77.6049891,
              13.0129334
            ],
            [
              77.6056343,
              13.0129371
            ],
            [
              77.6056386,
              13.0125601
            ],
            [
              77.6049823,
              13.0125578
            ],
            [
              77.6049891,
              13.0129334
            ]
          ]
        ]
      }
    },
    {
      "type": "Feature",
      "properties": {
        "id": "train_099_REF_007",
        "parcel_id": "train_099_P_007",
        "parcel_layer": "REFERENCE",
        "boundary_representation": "REFERENCE",
        "land_use_class": "vegetation",
        "area_sqm": 2973.45,
        "perimeter_m": 225.49,
        "source": "Synthetic Legacy Cadastral Map (Non-Authoritative Demo)"
      },
      "geometry": {
        "type": "Polygon",
        "coordinates": [
          [
            [
              77.605666,
              13.0133332
            ],
            [
              77.6063127,
              13.0133306
            ],
            [
              77.6063173,
              13.0129561
            ],
            [
              77.6056622,
              13.0129473
            ],
            [
              77.605666,
              13.0133332
            ]
          ]
        ]
      }
    },
    {
      "type": "Feature",
      "properties": {
        "id": "train_099_REF_008",
        "parcel_id": "train_099_P_008",
        "parcel_layer": "REFERENCE",
        "boundary_representation": "REFERENCE",
        "land_use_class": "vacant",
        "area_sqm": 2959.21,
        "perimeter_m": 224.82,
        "source": "Synthetic Legacy Cadastral Map (Non-Authoritative Demo)"
      },
      "geometry": {
        "type": "Polygon",
        "coordinates": [
          [
            [
              77.6057009,
              13.0129557
            ],
            [
              77.6063453,
              13.0129507
            ],
            [
              77.6063545,
              13.0125769
            ],
            [
              77.6057032,
              13.0125692
            ],
            [
              77.6057009,
              13.0129557
            ]
          ]
        ]
      }
    },
    {
      "type": "Feature",
      "properties": {
        "id": "train_099_REF_009",
        "parcel_id": "train_099_P_009",
        "parcel_layer": "REFERENCE",
        "boundary_representation": "REFERENCE",
        "land_use_class": "industrial",
        "area_sqm": 2485.82,
        "perimeter_m": 205.21,
        "source": "Synthetic Legacy Cadastral Map (Non-Authoritative Demo)"
      },
      "geometry": {
        "type": "Polygon",
        "coordinates": [
          [
            [
              77.6040838,
              13.0122605
            ],
            [
              77.6044262,
              13.0122611
            ],
            [
              77.6044459,
              13.0116923
            ],
            [
              77.6040646,
              13.0116858
            ],
            [
              77.6040838,
              13.0122605
            ]
          ]
        ]
      }
    },
    {
      "type": "Feature",
      "properties": {
        "id": "train_099_REF_010",
        "parcel_id": "train_099_P_010",
        "parcel_layer": "REFERENCE",
        "boundary_representation": "REFERENCE",
        "land_use_class": "residential",
        "area_sqm": 2457.57,
        "perimeter_m": 204.59,
        "source": "Synthetic Legacy Cadastral Map (Non-Authoritative Demo)"
      },
      "geometry": {
        "type": "Polygon",
        "coordinates": [
          [
            [
              77.6040728,
              13.0116565
            ],
            [
              77.6044239,
              13.0116634
            ],
            [
              77.6044244,
              13.0110885
            ],
            [
              77.6040644,
              13.0110807
            ],
            [
              77.6040728,
              13.0116565
            ]
          ]
        ]
      }
    },
    {
      "type": "Feature",
      "properties": {
        "id": "train_099_REF_011",
        "parcel_id": "train_099_P_011",
        "parcel_layer": "REFERENCE",
        "boundary_representation": "REFERENCE",
        "land_use_class": "residential",
        "area_sqm": 2537.21,
        "perimeter_m": 207.37,
        "source": "Synthetic Legacy Cadastral Map (Non-Authoritative Demo)"
      },
      "geometry": {
        "type": "Polygon",
        "coordinates": [
          [
            [
              77.6044476,
              13.0122717
            ],
            [
              77.6048162,
              13.0122626
            ],
            [
              77.6048163,
              13.0116847
            ],
            [
              77.604455,
              13.0116922
            ],
            [
              77.6044476,
              13.0122717
            ]
          ]
        ]
      }
    },
    {
      "type": "Feature",
      "properties": {
        "id": "train_099_REF_012",
        "parcel_id": "train_099_P_012",
        "parcel_layer": "REFERENCE",
        "boundary_representation": "REFERENCE",
        "land_use_class": "residential",
        "area_sqm": 2466.67,
        "perimeter_m": 204.46,
        "source": "Synthetic Legacy Cadastral Map (Non-Authoritative Demo)"
      },
      "geometry": {
        "type": "Polygon",
        "coordinates": [
          [
            [
              77.6044915,
              13.0116803
            ],
            [
              77.6048611,
              13.0116779
            ],
            [
              77.604848,
              13.0111032
            ],
            [
              77.6044981,
              13.0111138
            ],
            [
              77.6044915,
              13.0116803
            ]
          ]
        ]
      }
    },
    {
      "type": "Feature",
      "properties": {
        "id": "train_099_REF_013",
        "parcel_id": "train_099_P_013",
        "parcel_layer": "REFERENCE",
        "boundary_representation": "REFERENCE",
        "land_use_class": "commercial",
        "area_sqm": 4602.71,
        "perimeter_m": 271.64,
        "source": "Synthetic Legacy Cadastral Map (Non-Authoritative Demo)"
      },
      "geometry": {
        "type": "Polygon",
        "coordinates": [
          [
            [
              77.6049877,
              13.012277
            ],
            [
              77.6056339,
              13.0122694
            ],
            [
              77.605645,
              13.0116826
            ],
            [
              77.604988,
              13.0116879
            ],
            [
              77.6049877,
              13.012277
            ]
          ]
        ]
      }
    },
    {
      "type": "Feature",
      "properties": {
        "id": "train_099_REF_014",
        "parcel_id": "train_099_P_014",
        "parcel_layer": "REFERENCE",
        "boundary_representation": "REFERENCE",
        "land_use_class": "water",
        "area_sqm": 4504.04,
        "perimeter_m": 268.94,
        "source": "Synthetic Legacy Cadastral Map (Non-Authoritative Demo)"
      },
      "geometry": {
        "type": "Polygon",
        "coordinates": [
          [
            [
              77.6050004,
              13.0116776
            ],
            [
              77.6056508,
              13.0116557
            ],
            [
              77.6056517,
              13.0110978
            ],
            [
              77.6049923,
              13.0110908
            ],
            [
              77.6050004,
              13.0116776
            ]
          ]
        ]
      }
    },
    {
      "type": "Feature",
      "properties": {
        "id": "train_099_REF_015",
        "parcel_id": "train_099_P_015",
        "parcel_layer": "REFERENCE",
        "boundary_representation": "REFERENCE",
        "land_use_class": "mixed_use",
        "area_sqm": 4643.12,
        "perimeter_m": 272.77,
        "source": "Synthetic Legacy Cadastral Map (Non-Authoritative Demo)"
      },
      "geometry": {
        "type": "Polygon",
        "coordinates": [
          [
            [
              77.6056669,
              13.0122738
            ],
            [
              77.606326,
              13.0122759
            ],
            [
              77.6063146,
              13.0116786
            ],
            [
              77.6056703,
              13.0116852
            ],
            [
              77.6056669,
              13.0122738
            ]
          ]
        ]
      }
    },
    {
      "type": "Feature",
      "properties": {
        "id": "train_099_REF_016",
        "parcel_id": "train_099_P_016",
        "parcel_layer": "REFERENCE",
        "boundary_representation": "REFERENCE",
        "land_use_class": "agricultural",
        "area_sqm": 4480.34,
        "perimeter_m": 268.21,
        "source": "Synthetic Legacy Cadastral Map (Non-Authoritative Demo)"
      },
      "geometry": {
        "type": "Polygon",
        "coordinates": [
          [
            [
              77.6057057,
              13.0116845
            ],
            [
              77.6063617,
              13.0116874
            ],
            [
              77.6063608,
              13.0111151
            ],
            [
              77.6057082,
              13.011117
            ],
            [
              77.6057057,
              13.0116845
            ]
          ]
        ]
      }
    }
  ]
}