{
  "type": "FeatureCollection",
  "crs": {
    "type": "name",
    "properties": {
      "name": "EPSG:4326"
    }
  },
  "features": [
    {
      "type": "Feature",
      "properties": {
        "id": "train_099_RD_001",
        "road_class": "MAIN_ROAD",
        "width_m": 5.5,
        "length_m": 258.46,
        "confidence": 0.94
      },
      "geometry": {
        "type": "LineString",
        "coordinates": [
          [
            77.604,
            13.0124062
          ],
          [
            77.6063812,
            13.0124062
          ]
        ]
      }
    },
    {
      "type": "Feature",
      "properties": {
        "id": "train_099_RD_002",
        "road_class": "NARROW_LANE",
        "width_m": 2.5,
        "length_m": 263.6,
        "confidence": 0.89
      },
      "geometry": {
        "type": "LineString",
        "coordinates": [
          [
            77.6049,
            13.0134
          ],
          [
            77.6049,
            13.0110187
          ]
        ]
      }
    }
  ]
}