{
  "type": "FeatureCollection",
  "crs": {
    "type": "name",
    "properties": {
      "name": "EPSG:4326"
    }
  },
  "features": [
    {
      "type": "Feature",
      "properties": {
        "id": "train_018_RD_001",
        "road_class": "MAIN_ROAD",
        "width_m": 3.5,
        "length_m": 258.49,
        "confidence": 0.94
      },
      "geometry": {
        "type": "LineString",
        "coordinates": [
          [
            77.631,
            12.9939563
          ],
          [
            77.6333812,
            12.9939563
          ]
        ]
      }
    },
    {
      "type": "Feature",
      "properties": {
        "id": "train_018_RD_002",
        "road_class": "NARROW_LANE",
        "width_m": 2.5,
        "length_m": 263.59,
        "confidence": 0.89
      },
      "geometry": {
        "type": "LineString",
        "coordinates": [
          [
            77.6322375,
            12.9954
          ],
          [
            77.6322375,
            12.9930188
          ]
        ]
      }
    }
  ]
}