{
  "type": "FeatureCollection",
  "crs": {
    "type": "name",
    "properties": {
      "name": "EPSG:4326"
    }
  },
  "features": [
    {
      "type": "Feature",
      "properties": {
        "id": "train_028_REF_001",
        "parcel_id": "train_028_P_001",
        "parcel_layer": "REFERENCE",
        "boundary_representation": "REFERENCE",
        "land_use_class": "commercial",
        "area_sqm": 3630.59,
        "perimeter_m": 241.54,
        "source": "Synthetic Legacy Cadastral Map (Non-Authoritative Demo)"
      },
      "geometry": {
        "type": "Polygon",
        "coordinates": [
          [
            [
              77.6160771,
              12.9983425
            ],
            [
              77.6166711,
              12.9983359
            ],
            [
              77.6166678,
              12.9978315
            ],
            [
              77.6160767,
              12.9978271
            ],
            [
              77.6160771,
              12.9983425
            ]
          ]
        ]
      }
    },
    {
      "type": "Feature",
      "properties": {
        "id": "train_028_REF_002",
        "parcel_id": "train_028_P_002",
        "parcel_layer": "REFERENCE",
        "boundary_representation": "REFERENCE",
        "land_use_class": "residential",
        "area_sqm": 3519.24,
        "perimeter_m": 238.12,
        "source": "Synthetic Legacy Cadastral Map (Non-Authoritative Demo)"
      },
      "geometry": {
        "type": "Polygon",
        "coordinates": [
          [
            [
              77.6160798,
              12.9978079
            ],
            [
              77.6166729,
              12.9978131
            ],
            [
              77.616673,
              12.9973162
            ],
            [
              77.6160782,
              12.9973186
            ],
            [
              77.6160798,
              12.9978079
            ]
          ]
        ]
      }
    },
    {
      "type": "Feature",
      "properties": {
        "id": "train_028_REF_003",
        "parcel_id": "train_028_P_003",
        "parcel_layer": "REFERENCE",
        "boundary_representation": "REFERENCE",
        "land_use_class": "mixed_use",
        "area_sqm": 3666.07,
        "perimeter_m": 243.15,
        "source": "Synthetic Legacy Cadastral Map (Non-Authoritative Demo)"
      },
      "geometry": {
        "type": "Polygon",
        "coordinates": [
          [
            [
              77.6166932,
              12.9983436
            ],
            [
              77.6173028,
              12.9983348
            ],
            [
              77.6173027,
              12.997836
            ],
            [
              77.6166935,
              12.9978411
            ],
            [
              77.6166932,
              12.9983436
            ]
          ]
        ]
      }
    },
    {
      "type": "Feature",
      "properties": {
        "id": "train_028_REF_004",
        "parcel_id": "train_028_P_004",
        "parcel_layer": "REFERENCE",
        "boundary_representation": "REFERENCE",
        "land_use_class": "residential",
        "area_sqm": 3672.54,
        "perimeter_m": 243.33,
        "source": "Synthetic Legacy Cadastral Map (Non-Authoritative Demo)"
      },
      "geometry": {
        "type": "Polygon",
        "coordinates": [
          [
            [
              77.6167439,
              12.9978348
            ],
            [
              77.6173534,
              12.9978268
            ],
            [
              77.6173467,
              12.9973368
            ],
            [
              77.6167405,
              12.9973191
            ],
            [
              77.6167439,
              12.9978348
            ]
          ]
        ]
      }
    },
    {
      "type": "Feature",
      "properties": {
        "id": "train_028_REF_005",
        "parcel_id": "train_028_P_005",
        "parcel_layer": "REFERENCE",
        "boundary_representation": "REFERENCE",
        "land_use_class": "mixed_use",
        "area_sqm": 2441.86,
        "perimeter_m": 198.68,
        "source": "Synthetic Legacy Cadastral Map (Non-Authoritative Demo)"
      },
      "geometry": {
        "type": "Polygon",
        "coordinates": [
          [
            [
              77.6174726,
              12.9983336
            ],
            [
              77.6178789,
              12.9983347
            ],
            [
              77.6178971,
              12.9978403
            ],
            [
              77.6174789,
              12.9978421
            ],
            [
              77.6174726,
              12.9983336
            ]
          ]
        ]
      }
    },
    {
      "type": "Feature",
      "properties": {
        "id": "train_028_REF_006",
        "parcel_id": "train_028_P_006",
        "parcel_layer": "REFERENCE",
        "boundary_representation": "REFERENCE",
        "land_use_class": "mixed_use",
        "area_sqm": 2523.55,
        "perimeter_m": 202.55,
        "source": "Synthetic Legacy Cadastral Map (Non-Authoritative Demo)"
      },
      "geometry": {
        "type": "Polygon",
        "coordinates": [
          [
            [
              77.6174904,
              12.9978191
            ],
            [
              77.6178932,
              12.9978093
            ],
            [
              77.6178875,
              12.9972971
            ],
            [
              77.6174747,
              12.9973017
            ],
            [
              77.6174904,
              12.9978191
            ]
          ]
        ]
      }
    },
    {
      "type": "Feature",
      "properties": {
        "id": "train_028_REF_007",
        "parcel_id": "train_028_P_007",
        "parcel_layer": "REFERENCE",
        "boundary_representation": "REFERENCE",
        "land_use_class": "commercial",
        "area_sqm": 2496.87,
        "perimeter_m": 201.24,
        "source": "Synthetic Legacy Cadastral Map (Non-Authoritative Demo)"
      },
      "geometry": {
        "type": "Polygon",
        "coordinates": [
          [
            [
              77.6179073,
              12.9983385
            ],
            [
              77.6183162,
              12.9983408
            ],
            [
              77.618312,
              12.9978268
            ],
            [
              77.6179013,
              12.9978385
            ],
            [
              77.6179073,
              12.9983385
            ]
          ]
        ]
      }
    },
    {
      "type": "Feature",
      "properties": {
        "id": "train_028_REF_008",
        "parcel_id": "train_028_P_008",
        "parcel_layer": "REFERENCE",
        "boundary_representation": "REFERENCE",
        "land_use_class": "vegetation",
        "area_sqm": 2399.78,
        "perimeter_m": 197.47,
        "source": "Synthetic Legacy Cadastral Map (Non-Authoritative Demo)"
      },
      "geometry": {
        "type": "Polygon",
        "coordinates": [
          [
            [
              77.6179409,
              12.9978281
            ],
            [
              77.6183442,
              12.9978188
            ],
            [
              77.6183506,
              12.9973253
            ],
            [
              77.6179551,
              12.9973214
            ],
            [
              77.6179409,
              12.9978281
            ]
          ]
        ]
      }
    },
    {
      "type": "Feature",
      "properties": {
        "id": "train_028_REF_009",
        "parcel_id": "train_028_P_009",
        "parcel_layer": "REFERENCE",
        "boundary_representation": "REFERENCE",
        "land_use_class": "commercial",
        "area_sqm": 3455.88,
        "perimeter_m": 237.13,
        "source": "Synthetic Legacy Cadastral Map (Non-Authoritative Demo)"
      },
      "geometry": {
        "type": "Polygon",
        "coordinates": [
          [
            [
              77.6160628,
              12.997028
            ],
            [
              77.6166872,
              12.9970281
            ],
            [
              77.6166878,
              12.9965593
            ],
            [
              77.6160807,
              12.9965626
            ],
            [
              77.6160628,
              12.997028
            ]
          ]
        ]
      }
    },
    {
      "type": "Feature",
      "properties": {
        "id": "train_028_REF_010",
        "parcel_id": "train_028_P_010",
        "parcel_layer": "REFERENCE",
        "boundary_representation": "REFERENCE",
        "land_use_class": "industrial",
        "area_sqm": 3420.63,
        "perimeter_m": 236.16,
        "source": "Synthetic Legacy Cadastral Map (Non-Authoritative Demo)"
      },
      "geometry": {
        "type": "Polygon",
        "coordinates": [
          [
            [
              77.6160763,
              12.9965557
            ],
            [
              77.6166874,
              12.9965403
            ],
            [
              77.616686,
              12.9960925
            ],
            [
              77.6160627,
              12.9960811
            ],
            [
              77.6160763,
              12.9965557
            ]
          ]
        ]
      }
    },
    {
      "type": "Feature",
      "properties": {
        "id": "train_028_REF_011",
        "parcel_id": "train_028_P_011",
        "parcel_layer": "REFERENCE",
        "boundary_representation": "REFERENCE",
        "land_use_class": "mixed_use",
        "area_sqm": 3289.17,
        "perimeter_m": 231.57,
        "source": "Synthetic Legacy Cadastral Map (Non-Authoritative Demo)"
      },
      "geometry": {
        "type": "Polygon",
        "coordinates": [
          [
            [
              77.6166948,
              12.9970189
            ],
            [
              77.6173016,
              12.9970229
            ],
            [
              77.6173161,
              12.9965718
            ],
            [
              77.6167122,
              12.9965659
            ],
            [
              77.6166948,
              12.9970189
            ]
          ]
        ]
      }
    },
    {
      "type": "Feature",
      "properties": {
        "id": "train_028_REF_012",
        "parcel_id": "train_028_P_012",
        "parcel_layer": "REFERENCE",
        "boundary_representation": "REFERENCE",
        "land_use_class": "residential",
        "area_sqm": 3299.66,
        "perimeter_m": 232.27,
        "source": "Synthetic Legacy Cadastral Map (Non-Authoritative Demo)"
      },
      "geometry": {
        "type": "Polygon",
        "coordinates": [
          [
            [
              77.6167272,
              12.996555
            ],
            [
              77.6173396,
              12.9965705
            ],
            [
              77.6173532,
              12.9961167
            ],
            [
              77.61674,
              12.996113
            ],
            [
              77.6167272,
              12.996555
            ]
          ]
        ]
      }
    },
    {
      "type": "Feature",
      "properties": {
        "id": "train_028_REF_013",
        "parcel_id": "train_028_P_013",
        "parcel_layer": "REFERENCE",
        "boundary_representation": "REFERENCE",
        "land_use_class": "mixed_use",
        "area_sqm": 2208.58,
        "perimeter_m": 188.43,
        "source": "Synthetic Legacy Cadastral Map (Non-Authoritative Demo)"
      },
      "geometry": {
        "type": "Polygon",
        "coordinates": [
          [
            [
              77.6174805,
              12.9970117
            ],
            [
              77.6178888,
              12.9970265
            ],
            [
              77.6178841,
              12.9965663
            ],
            [
              77.6174813,
              12.9965654
            ],
            [
              77.6174805,
              12.9970117
            ]
          ]
        ]
      }
    },
    {
      "type": "Feature",
      "properties": {
        "id": "train_028_REF_014",
        "parcel_id": "train_028_P_014",
        "parcel_layer": "REFERENCE",
        "boundary_representation": "REFERENCE",
        "land_use_class": "commercial",
        "area_sqm": 2271.96,
        "perimeter_m": 190.92,
        "source": "Synthetic Legacy Cadastral Map (Non-Authoritative Demo)"
      },
      "geometry": {
        "type": "Polygon",
        "coordinates": [
          [
            [
              77.6174734,
              12.996534
            ],
            [
              77.6178979,
              12.9965542
            ],
            [
              77.6178923,
              12.9960989
            ],
            [
              77.617476,
              12.9960897
            ],
            [
              77.6174734,
              12.996534
            ]
          ]
        ]
      }
    },
    {
      "type": "Feature",
      "properties": {
        "id": "train_028_REF_015",
        "parcel_id": "train_028_P_015",
        "parcel_layer": "REFERENCE",
        "boundary_representation": "REFERENCE",
        "land_use_class": "commercial",
        "area_sqm": 2232.23,
        "perimeter_m": 189.66,
        "source": "Synthetic Legacy Cadastral Map (Non-Authoritative Demo)"
      },
      "geometry": {
        "type": "Polygon",
        "coordinates": [
          [
            [
              77.6179209,
              12.9970144
            ],
            [
              77.6183237,
              12.9970315
            ],
            [
              77.6183172,
              12.9965683
            ],
            [
              77.617913,
              12.9965563
            ],
            [
              77.6179209,
              12.9970144
            ]
          ]
        ]
      }
    },
    {
      "type": "Feature",
      "properties": {
        "id": "train_028_REF_016",
        "parcel_id": "train_028_P_016",
        "parcel_layer": "REFERENCE",
        "boundary_representation": "REFERENCE",
        "land_use_class": "mixed_use",
        "area_sqm": 2201.37,
        "perimeter_m": 188.02,
        "source": "Synthetic Legacy Cadastral Map (Non-Authoritative Demo)"
      },
      "geometry": {
        "type": "Polygon",
        "coordinates": [
          [
            [
              77.617957,
              12.9965564
            ],
            [
              77.6183659,
              12.9965711
            ],
            [
              77.6183598,
              12.9961149
            ],
            [
              77.6179503,
              12.996117
            ],
            [
              77.617957,
              12.9965564
            ]
          ]
        ]
      }
    }
  ]
}