{
  "type": "FeatureCollection",
  "crs": {
    "type": "name",
    "properties": {
      "name": "EPSG:4326"
    }
  },
  "features": [
    {
      "type": "Feature",
      "properties": {
        "id": "train_042_REF_001",
        "parcel_id": "train_042_P_001",
        "parcel_layer": "REFERENCE",
        "boundary_representation": "REFERENCE",
        "land_use_class": "vegetation",
        "area_sqm": 3198.77,
        "perimeter_m": 228.02,
        "source": "Synthetic Legacy Cadastral Map (Non-Authoritative Demo)"
      },
      "geometry": {
        "type": "Polygon",
        "coordinates": [
          [
            [
              77.6130748,
              13.0013298
            ],
            [
              77.6135358,
              13.0013334
            ],
            [
              77.613528,
              13.0007601
            ],
            [
              77.6130678,
              13.0007469
            ],
            [
              77.6130748,
              13.0013298
            ]
          ]
        ]
      }
    },
    {
      "type": "Feature",
      "properties": {
        "id": "train_042_REF_002",
        "parcel_id": "train_042_P_002",
        "parcel_layer": "REFERENCE",
        "boundary_representation": "REFERENCE",
        "land_use_class": "residential",
        "area_sqm": 3161.27,
        "perimeter_m": 227.0,
        "source": "Synthetic Legacy Cadastral Map (Non-Authoritative Demo)"
      },
      "geometry": {
        "type": "Polygon",
        "coordinates": [
          [
            [
              77.6130657,
              13.0007422
            ],
            [
              77.6135284,
              13.0007443
            ],
            [
              77.6135224,
              13.0001566
            ],
            [
              77.6130801,
              13.000167
            ],
            [
              77.6130657,
              13.0007422
            ]
          ]
        ]
      }
    },
    {
      "type": "Feature",
      "properties": {
        "id": "train_042_REF_003",
        "parcel_id": "train_042_P_003",
        "parcel_layer": "REFERENCE",
        "boundary_representation": "REFERENCE",
        "land_use_class": "residential",
        "area_sqm": 3088.45,
        "perimeter_m": 223.88,
        "source": "Synthetic Legacy Cadastral Map (Non-Authoritative Demo)"
      },
      "geometry": {
        "type": "Polygon",
        "coordinates": [
          [
            [
              77.6135447,
              13.0013282
            ],
            [
              77.6140001,
              13.0013304
            ],
            [
              77.6140108,
              13.0007634
            ],
            [
              77.6135567,
              13.0007648
            ],
            [
              77.6135447,
              13.0013282
            ]
          ]
        ]
      }
    },
    {
      "type": "Feature",
      "properties": {
        "id": "train_042_REF_004",
        "parcel_id": "train_042_P_004",
        "parcel_layer": "REFERENCE",
        "boundary_representation": "REFERENCE",
        "land_use_class": "residential",
        "area_sqm": 3276.05,
        "perimeter_m": 230.99,
        "source": "Synthetic Legacy Cadastral Map (Non-Authoritative Demo)"
      },
      "geometry": {
        "type": "Polygon",
        "coordinates": [
          [
            [
              77.6135801,
              13.0007627
            ],
            [
              77.6140491,
              13.0007641
            ],
            [
              77.6140452,
              13.0001812
            ],
            [
              77.6135904,
              13.0001652
            ],
            [
              77.6135801,
              13.0007627
            ]
          ]
        ]
      }
    },
    {
      "type": "Feature",
      "properties": {
        "id": "train_042_REF_005",
        "parcel_id": "train_042_P_005",
        "parcel_layer": "REFERENCE",
        "boundary_representation": "REFERENCE",
        "land_use_class": "commercial",
        "area_sqm": 3926.88,
        "perimeter_m": 250.81,
        "source": "Synthetic Legacy Cadastral Map (Non-Authoritative Demo)"
      },
      "geometry": {
        "type": "Polygon",
        "coordinates": [
          [
            [
              77.614173,
              13.001327
            ],
            [
              77.614744,
              13.0013451
            ],
            [
              77.61473,
              13.0007473
            ],
            [
              77.6141711,
              13.0007679
            ],
            [
              77.614173,
              13.001327
            ]
          ]
        ]
      }
    },
    {
      "type": "Feature",
      "properties": {
        "id": "train_042_REF_006",
        "parcel_id": "train_042_P_006",
        "parcel_layer": "REFERENCE",
        "boundary_representation": "REFERENCE",
        "land_use_class": "mixed_use",
        "area_sqm": 3909.08,
        "perimeter_m": 250.2,
        "source": "Synthetic Legacy Cadastral Map (Non-Authoritative Demo)"
      },
      "geometry": {
        "type": "Polygon",
        "coordinates": [
          [
            [
              77.6141732,
              13.0007309
            ],
            [
              77.6147378,
              13.0007377
            ],
            [
              77.6147358,
              13.0001468
            ],
            [
              77.6141752,
              13.0001653
            ],
            [
              77.6141732,
              13.0007309
            ]
          ]
        ]
      }
    },
    {
      "type": "Feature",
      "properties": {
        "id": "train_042_REF_007",
        "parcel_id": "train_042_P_007",
        "parcel_layer": "REFERENCE",
        "boundary_representation": "REFERENCE",
        "land_use_class": "mixed_use",
        "area_sqm": 3852.77,
        "perimeter_m": 248.42,
        "source": "Synthetic Legacy Cadastral Map (Non-Authoritative Demo)"
      },
      "geometry": {
        "type": "Polygon",
        "coordinates": [
          [
            [
              77.6147621,
              13.00133
            ],
            [
              77.6153094,
              13.001333
            ],
            [
              77.6153199,
              13.0007472
            ],
            [
              77.6147527,
              13.000765
            ],
            [
              77.6147621,
              13.00133
            ]
          ]
        ]
      }
    },
    {
      "type": "Feature",
      "properties": {
        "id": "train_042_REF_008",
        "parcel_id": "train_042_P_008",
        "parcel_layer": "REFERENCE",
        "boundary_representation": "REFERENCE",
        "land_use_class": "vegetation",
        "area_sqm": 3872.91,
        "perimeter_m": 249.04,
        "source": "Synthetic Legacy Cadastral Map (Non-Authoritative Demo)"
      },
      "geometry": {
        "type": "Polygon",
        "coordinates": [
          [
            [
              77.6147938,
              13.0007483
            ],
            [
              77.6153546,
              13.0007471
            ],
            [
              77.6153563,
              13.000169
            ],
            [
              77.6148021,
              13.0001701
            ],
            [
              77.6147938,
              13.0007483
            ]
          ]
        ]
      }
    },
    {
      "type": "Feature",
      "properties": {
        "id": "train_042_REF_009",
        "parcel_id": "train_042_P_009",
        "parcel_layer": "REFERENCE",
        "boundary_representation": "REFERENCE",
        "land_use_class": "vacant",
        "area_sqm": 2354.19,
        "perimeter_m": 194.37,
        "source": "Synthetic Legacy Cadastral Map (Non-Authoritative Demo)"
      },
      "geometry": {
        "type": "Polygon",
        "coordinates": [
          [
            [
              77.6130649,
              12.9999452
            ],
            [
              77.613532,
              12.9999372
            ],
            [
              77.6135384,
              12.9995194
            ],
            [
              77.6130649,
              12.9995297
            ],
            [
              77.6130649,
              12.9999452
            ]
          ]
        ]
      }
    },
    {
      "type": "Feature",
      "properties": {
        "id": "train_042_REF_010",
        "parcel_id": "train_042_P_010",
        "parcel_layer": "REFERENCE",
        "boundary_representation": "REFERENCE",
        "land_use_class": "vegetation",
        "area_sqm": 2274.4,
        "perimeter_m": 191.01,
        "source": "Synthetic Legacy Cadastral Map (Non-Authoritative Demo)"
      },
      "geometry": {
        "type": "Polygon",
        "coordinates": [
          [
            [
              77.6130642,
              12.9995021
            ],
            [
              77.6135311,
              12.999503
            ],
            [
              77.6135273,
              12.9991003
            ],
            [
              77.6130729,
              12.9990831
            ],
            [
              77.6130642,
              12.9995021
            ]
          ]
        ]
      }
    },
    {
      "type": "Feature",
      "properties": {
        "id": "train_042_REF_011",
        "parcel_id": "train_042_P_011",
        "parcel_layer": "REFERENCE",
        "boundary_representation": "REFERENCE",
        "land_use_class": "vegetation",
        "area_sqm": 2236.36,
        "perimeter_m": 189.23,
        "source": "Synthetic Legacy Cadastral Map (Non-Authoritative Demo)"
      },
      "geometry": {
        "type": "Polygon",
        "coordinates": [
          [
            [
              77.6135588,
              12.9999548
            ],
            [
              77.6139995,
              12.9999404
            ],
            [
              77.6140005,
              12.999532
            ],
            [
              77.6135536,
              12.9995245
            ],
            [
              77.6135588,
              12.9999548
            ]
          ]
        ]
      }
    },
    {
      "type": "Feature",
      "properties": {
        "id": "train_042_REF_012",
        "parcel_id": "train_042_P_012",
        "parcel_layer": "REFERENCE",
        "boundary_representation": "REFERENCE",
        "land_use_class": "residential",
        "area_sqm": 2266.79,
        "perimeter_m": 190.69,
        "source": "Synthetic Legacy Cadastral Map (Non-Authoritative Demo)"
      },
      "geometry": {
        "type": "Polygon",
        "coordinates": [
          [
            [
              77.6135808,
              12.9995212
            ],
            [
              77.6140355,
              12.999514
            ],
            [
              77.6140473,
              12.9991168
            ],
            [
              77.6135846,
              12.9990961
            ],
            [
              77.6135808,
              12.9995212
            ]
          ]
        ]
      }
    },
    {
      "type": "Feature",
      "properties": {
        "id": "train_042_REF_013",
        "parcel_id": "train_042_P_013",
        "parcel_layer": "REFERENCE",
        "boundary_representation": "REFERENCE",
        "land_use_class": "vegetation",
        "area_sqm": 2864.69,
        "perimeter_m": 216.77,
        "source": "Synthetic Legacy Cadastral Map (Non-Authoritative Demo)"
      },
      "geometry": {
        "type": "Polygon",
        "coordinates": [
          [
            [
              77.6141695,
              12.999953
            ],
            [
              77.6147452,
              12.9999429
            ],
            [
              77.6147476,
              12.9995323
            ],
            [
              77.6141689,
              12.9995375
            ],
            [
              77.6141695,
              12.999953
            ]
          ]
        ]
      }
    },
    {
      "type": "Feature",
      "properties": {
        "id": "train_042_REF_014",
        "parcel_id": "train_042_P_014",
        "parcel_layer": "REFERENCE",
        "boundary_representation": "REFERENCE",
        "land_use_class": "commercial",
        "area_sqm": 2752.71,
        "perimeter_m": 211.99,
        "source": "Synthetic Legacy Cadastral Map (Non-Authoritative Demo)"
      },
      "geometry": {
        "type": "Polygon",
        "coordinates": [
          [
            [
              77.6141821,
              12.9995042
            ],
            [
              77.6147471,
              12.9995072
            ],
            [
              77.6147306,
              12.9990948
            ],
            [
              77.6141829,
              12.999093
            ],
            [
              77.6141821,
              12.9995042
            ]
          ]
        ]
      }
    },
    {
      "type": "Feature",
      "properties": {
        "id": "train_042_REF_015",
        "parcel_id": "train_042_P_015",
        "parcel_layer": "REFERENCE",
        "boundary_representation": "REFERENCE",
        "land_use_class": "commercial",
        "area_sqm": 2841.34,
        "perimeter_m": 214.76,
        "source": "Synthetic Legacy Cadastral Map (Non-Authoritative Demo)"
      },
      "geometry": {
        "type": "Polygon",
        "coordinates": [
          [
            [
              77.6147713,
              12.9999469
            ],
            [
              77.6153162,
              12.9999564
            ],
            [
              77.6153218,
              12.9995253
            ],
            [
              77.6147605,
              12.9995229
            ],
            [
              77.6147713,
              12.9999469
            ]
          ]
        ]
      }
    },
    {
      "type": "Feature",
      "properties": {
        "id": "train_042_REF_016",
        "parcel_id": "train_042_P_016",
        "parcel_layer": "REFERENCE",
        "boundary_representation": "REFERENCE",
        "land_use_class": "mixed_use",
        "area_sqm": 2803.68,
        "perimeter_m": 213.89,
        "source": "Synthetic Legacy Cadastral Map (Non-Authoritative Demo)"
      },
      "geometry": {
        "type": "Polygon",
        "coordinates": [
          [
            [
              77.6147876,
              12.9995211
            ],
            [
              77.6153616,
              12.9995172
            ],
            [
              77.6153504,
              12.9991038
            ],
            [
              77.6148037,
              12.9991017
            ],
            [
              77.6147876,
              12.9995211
            ]
          ]
        ]
      }
    }
  ]
}