{
  "type": "FeatureCollection",
  "crs": {
    "type": "name",
    "properties": {
      "name": "EPSG:4326"
    }
  },
  "features": [
    {
      "type": "Feature",
      "properties": {
        "id": "train_058_BND_001",
        "parcel_id": "train_058_P_001",
        "boundary_type": "VISIBLE",
        "confidence": 0.851,
        "length_m": 38.36,
        "evidence_sources": [
          "Drone_RGB_Edge",
          "DSM_Breakline"
        ]
      },
      "geometry": {
        "type": "LineString",
        "coordinates": [
          [
            77.6160669,
            13.004326
          ],
          [
            77.6164203,
            13.0043237
          ]
        ]
      }
    },
    {
      "type": "Feature",
      "properties": {
        "id": "train_058_BND_002",
        "parcel_id": "train_058_P_001",
        "boundary_type": "VISIBLE",
        "confidence": 0.848,
        "length_m": 70.49,
        "evidence_sources": [
          "Drone_RGB_Edge",
          "DSM_Breakline"
        ]
      },
      "geometry": {
        "type": "LineString",
        "coordinates": [
          [
            77.6164203,
            13.0043237
          ],
          [
            77.6164234,
            13.0036869
          ]
        ]
      }
    },
    {
      "type": "Feature",
      "properties": {
        "id": "train_058_BND_003",
        "parcel_id": "train_058_P_001",
        "boundary_type": "VISIBLE",
        "confidence": 0.926,
        "length_m": 39.86,
        "evidence_sources": [
          "Drone_RGB_Edge",
          "DSM_Breakline"
        ]
      },
      "geometry": {
        "type": "LineString",
        "coordinates": [
          [
            77.6164234,
            13.0036869
          ],
          [
            77.6160563,
            13.0036957
          ]
        ]
      }
    },
    {
      "type": "Feature",
      "properties": {
        "id": "train_058_BND_004",
        "parcel_id": "train_058_P_001",
        "boundary_type": "VISIBLE",
        "confidence": 0.912,
        "length_m": 69.78,
        "evidence_sources": [
          "Drone_RGB_Edge",
          "DSM_Breakline"
        ]
      },
      "geometry": {
        "type": "LineString",
        "coordinates": [
          [
            77.6160563,
            13.0036957
          ],
          [
            77.6160669,
            13.004326
          ]
        ]
      }
    },
    {
      "type": "Feature",
      "properties": {
        "id": "train_058_BND_005",
        "parcel_id": "train_058_P_002",
        "boundary_type": "VISIBLE",
        "confidence": 0.848,
        "length_m": 39.32,
        "evidence_sources": [
          "Drone_RGB_Edge",
          "DSM_Breakline"
        ]
      },
      "geometry": {
        "type": "LineString",
        "coordinates": [
          [
            77.6160624,
            13.0036607
          ],
          [
            77.6164246,
            13.0036628
          ]
        ]
      }
    },
    {
      "type": "Feature",
      "properties": {
        "id": "train_058_BND_006",
        "parcel_id": "train_058_P_002",
        "boundary_type": "VISIBLE",
        "confidence": 0.83,
        "length_m": 71.81,
        "evidence_sources": [
          "Drone_RGB_Edge",
          "DSM_Breakline"
        ]
      },
      "geometry": {
        "type": "LineString",
        "coordinates": [
          [
            77.6164246,
            13.0036628
          ],
          [
            77.6164233,
            13.0030141
          ]
        ]
      }
    },
    {
      "type": "Feature",
      "properties": {
        "id": "train_058_BND_007",
        "parcel_id": "train_058_P_002",
        "boundary_type": "VISIBLE",
        "confidence": 0.874,
        "length_m": 39.49,
        "evidence_sources": [
          "Drone_RGB_Edge",
          "DSM_Breakline"
        ]
      },
      "geometry": {
        "type": "LineString",
        "coordinates": [
          [
            77.6164233,
            13.0030141
          ],
          [
            77.6160595,
            13.0030144
          ]
        ]
      }
    },
    {
      "type": "Feature",
      "properties": {
        "id": "train_058_BND_008",
        "parcel_id": "train_058_P_002",
        "boundary_type": "VISIBLE",
        "confidence": 0.897,
        "length_m": 71.54,
        "evidence_sources": [
          "Drone_RGB_Edge",
          "DSM_Breakline"
        ]
      },
      "geometry": {
        "type": "LineString",
        "coordinates": [
          [
            77.6160595,
            13.0030144
          ],
          [
            77.6160624,
            13.0036607
          ]
        ]
      }
    },
    {
      "type": "Feature",
      "properties": {
        "id": "train_058_BND_009",
        "parcel_id": "train_058_P_003",
        "boundary_type": "VISIBLE",
        "confidence": 0.839,
        "length_m": 36.76,
        "evidence_sources": [
          "Drone_RGB_Edge",
          "DSM_Breakline"
        ]
      },
      "geometry": {
        "type": "LineString",
        "coordinates": [
          [
            77.6164527,
            13.0043239
          ],
          [
            77.6167913,
            13.0043288
          ]
        ]
      }
    },
    {
      "type": "Feature",
      "properties": {
        "id": "train_058_BND_010",
        "parcel_id": "train_058_P_003",
        "boundary_type": "VISIBLE",
        "confidence": 0.86,
        "length_m": 71.24,
        "evidence_sources": [
          "Drone_RGB_Edge",
          "DSM_Breakline"
        ]
      },
      "geometry": {
        "type": "LineString",
        "coordinates": [
          [
            77.6167913,
            13.0043288
          ],
          [
            77.616796,
            13.0036853
          ]
        ]
      }
    },
    {
      "type": "Feature",
      "properties": {
        "id": "train_058_BND_011",
        "parcel_id": "train_058_P_003",
        "boundary_type": "VISIBLE",
        "confidence": 0.84,
        "length_m": 37.95,
        "evidence_sources": [
          "Drone_RGB_Edge",
          "DSM_Breakline"
        ]
      },
      "geometry": {
        "type": "LineString",
        "coordinates": [
          [
            77.616796,
            13.0036853
          ],
          [
            77.6164464,
            13.003682
          ]
        ]
      }
    },
    {
      "type": "Feature",
      "properties": {
        "id": "train_058_BND_012",
        "parcel_id": "train_058_P_003",
        "boundary_type": "VISIBLE",
        "confidence": 0.871,
        "length_m": 71.06,
        "evidence_sources": [
          "Drone_RGB_Edge",
          "DSM_Breakline"
        ]
      },
      "geometry": {
        "type": "LineString",
        "coordinates": [
          [
            77.6164464,
            13.003682
          ],
          [
            77.6164527,
            13.0043239
          ]
        ]
      }
    },
    {
      "type": "Feature",
      "properties": {
        "id": "train_058_BND_013",
        "parcel_id": "train_058_P_004",
        "boundary_type": "VISIBLE",
        "confidence": 0.824,
        "length_m": 37.84,
        "evidence_sources": [
          "Drone_RGB_Edge",
          "DSM_Breakline"
        ]
      },
      "geometry": {
        "type": "LineString",
        "coordinates": [
          [
            77.6164417,
            13.0036645
          ],
          [
            77.6167903,
            13.0036696
          ]
        ]
      }
    },
    {
      "type": "Feature",
      "properties": {
        "id": "train_058_BND_014",
        "parcel_id": "train_058_P_004",
        "boundary_type": "VISIBLE",
        "confidence": 0.936,
        "length_m": 70.62,
        "evidence_sources": [
          "Drone_RGB_Edge",
          "DSM_Breakline"
        ]
      },
      "geometry": {
        "type": "LineString",
        "coordinates": [
          [
            77.6167903,
            13.0036696
          ],
          [
            77.6167927,
            13.0030316
          ]
        ]
      }
    },
    {
      "type": "Feature",
      "properties": {
        "id": "train_058_BND_015",
        "parcel_id": "train_058_P_004",
        "boundary_type": "VISIBLE",
        "confidence": 0.876,
        "length_m": 38.91,
        "evidence_sources": [
          "Drone_RGB_Edge",
          "DSM_Breakline"
        ]
      },
      "geometry": {
        "type": "LineString",
        "coordinates": [
          [
            77.6167927,
            13.0030316
          ],
          [
            77.6164346,
            13.0030157
          ]
        ]
      }
    },
    {
      "type": "Feature",
      "properties": {
        "id": "train_058_BND_016",
        "parcel_id": "train_058_P_004",
        "boundary_type": "VISIBLE",
        "confidence": 0.896,
        "length_m": 71.82,
        "evidence_sources": [
          "Drone_RGB_Edge",
          "DSM_Breakline"
        ]
      },
      "geometry": {
        "type": "LineString",
        "coordinates": [
          [
            77.6164346,
            13.0030157
          ],
          [
            77.6164417,
            13.0036645
          ]
        ]
      }
    },
    {
      "type": "Feature",
      "properties": {
        "id": "train_058_BND_017",
        "parcel_id": "train_058_P_005",
        "boundary_type": "INFERRED",
        "confidence": 0.692,
        "length_m": 72.31,
        "evidence_sources": [
          "Road_Corridor_Offset",
          "Adjacent_Parcel_Topology"
        ]
      },
      "geometry": {
        "type": "LineString",
        "coordinates": [
          [
            77.6169661,
            13.0043375
          ],
          [
            77.6176322,
            13.0043277
          ]
        ]
      }
    },
    {
      "type": "Feature",
      "properties": {
        "id": "train_058_BND_018",
        "parcel_id": "train_058_P_005",
        "boundary_type": "INFERRED",
        "confidence": 0.686,
        "length_m": 70.62,
        "evidence_sources": [
          "Road_Corridor_Offset",
          "Adjacent_Parcel_Topology"
        ]
      },
      "geometry": {
        "type": "LineString",
        "coordinates": [
          [
            77.6176322,
            13.0043277
          ],
          [
            77.6176249,
            13.0036898
          ]
        ]
      }
    },
    {
      "type": "Feature",
      "properties": {
        "id": "train_058_BND_019",
        "parcel_id": "train_058_P_005",
        "boundary_type": "VISIBLE",
        "confidence": 0.942,
        "length_m": 72.28,
        "evidence_sources": [
          "Drone_RGB_Edge",
          "DSM_Breakline"
        ]
      },
      "geometry": {
        "type": "LineString",
        "coordinates": [
          [
            77.6176249,
            13.0036898
          ],
          [
            77.6169591,
            13.0036983
          ]
        ]
      }
    },
    {
      "type": "Feature",
      "properties": {
        "id": "train_058_BND_020",
        "parcel_id": "train_058_P_005",
        "boundary_type": "VISIBLE",
        "confidence": 0.894,
        "length_m": 70.76,
        "evidence_sources": [
          "Drone_RGB_Edge",
          "DSM_Breakline"
        ]
      },
      "geometry": {
        "type": "LineString",
        "coordinates": [
          [
            77.6169591,
            13.0036983
          ],
          [
            77.6169661,
            13.0043375
          ]
        ]
      }
    },
    {
      "type": "Feature",
      "properties": {
        "id": "train_058_BND_021",
        "parcel_id": "train_058_P_006",
        "boundary_type": "VISIBLE",
        "confidence": 0.844,
        "length_m": 73.25,
        "evidence_sources": [
          "Drone_RGB_Edge",
          "DSM_Breakline"
        ]
      },
      "geometry": {
        "type": "LineString",
        "coordinates": [
          [
            77.6169614,
            13.0036684
          ],
          [
            77.6176362,
            13.0036726
          ]
        ]
      }
    },
    {
      "type": "Feature",
      "properties": {
        "id": "train_058_BND_022",
        "parcel_id": "train_058_P_006",
        "boundary_type": "VISIBLE",
        "confidence": 0.854,
        "length_m": 71.91,
        "evidence_sources": [
          "Drone_RGB_Edge",
          "DSM_Breakline"
        ]
      },
      "geometry": {
        "type": "LineString",
        "coordinates": [
          [
            77.6176362,
            13.0036726
          ],
          [
            77.6176357,
            13.003023
          ]
        ]
      }
    },
    {
      "type": "Feature",
      "properties": {
        "id": "train_058_BND_023",
        "parcel_id": "train_058_P_006",
        "boundary_type": "INFERRED",
        "confidence": 0.757,
        "length_m": 73.0,
        "evidence_sources": [
          "Road_Corridor_Offset",
          "Adjacent_Parcel_Topology"
        ]
      },
      "geometry": {
        "type": "LineString",
        "coordinates": [
          [
            77.6176357,
            13.003023
          ],
          [
            77.6169632,
            13.0030147
          ]
        ]
      }
    },
    {
      "type": "Feature",
      "properties": {
        "id": "train_058_BND_024",
        "parcel_id": "train_058_P_006",
        "boundary_type": "VISIBLE",
        "confidence": 0.881,
        "length_m": 72.36,
        "evidence_sources": [
          "Drone_RGB_Edge",
          "DSM_Breakline"
        ]
      },
      "geometry": {
        "type": "LineString",
        "coordinates": [
          [
            77.6169632,
            13.0030147
          ],
          [
            77.6169614,
            13.0036684
          ]
        ]
      }
    },
    {
      "type": "Feature",
      "properties": {
        "id": "train_058_BND_025",
        "parcel_id": "train_058_P_007",
        "boundary_type": "VISIBLE",
        "confidence": 0.852,
        "length_m": 71.31,
        "evidence_sources": [
          "Drone_RGB_Edge",
          "DSM_Breakline"
        ]
      },
      "geometry": {
        "type": "LineString",
        "coordinates": [
          [
            77.6176589,
            13.0043254
          ],
          [
            77.6183158,
            13.0043322
          ]
        ]
      }
    },
    {
      "type": "Feature",
      "properties": {
        "id": "train_058_BND_026",
        "parcel_id": "train_058_P_007",
        "boundary_type": "INFERRED",
        "confidence": 0.638,
        "length_m": 70.94,
        "evidence_sources": [
          "Road_Corridor_Offset",
          "Adjacent_Parcel_Topology"
        ]
      },
      "geometry": {
        "type": "LineString",
        "coordinates": [
          [
            77.6183158,
            13.0043322
          ],
          [
            77.6183057,
            13.0036914
          ]
        ]
      }
    },
    {
      "type": "Feature",
      "properties": {
        "id": "train_058_BND_027",
        "parcel_id": "train_058_P_007",
        "boundary_type": "VISIBLE",
        "confidence": 0.902,
        "length_m": 70.79,
        "evidence_sources": [
          "Drone_RGB_Edge",
          "DSM_Breakline"
        ]
      },
      "geometry": {
        "type": "LineString",
        "coordinates": [
          [
            77.6183057,
            13.0036914
          ],
          [
            77.6176536,
            13.0036852
          ]
        ]
      }
    },
    {
      "type": "Feature",
      "properties": {
        "id": "train_058_BND_028",
        "parcel_id": "train_058_P_007",
        "boundary_type": "VISIBLE",
        "confidence": 0.894,
        "length_m": 70.87,
        "evidence_sources": [
          "Drone_RGB_Edge",
          "DSM_Breakline"
        ]
      },
      "geometry": {
        "type": "LineString",
        "coordinates": [
          [
            77.6176536,
            13.0036852
          ],
          [
            77.6176589,
            13.0043254
          ]
        ]
      }
    },
    {
      "type": "Feature",
      "properties": {
        "id": "train_058_BND_029",
        "parcel_id": "train_058_P_008",
        "boundary_type": "VISIBLE",
        "confidence": 0.935,
        "length_m": 72.84,
        "evidence_sources": [
          "Drone_RGB_Edge",
          "DSM_Breakline"
        ]
      },
      "geometry": {
        "type": "LineString",
        "coordinates": [
          [
            77.6176465,
            13.003673
          ],
          [
            77.6183174,
            13.0036591
          ]
        ]
      }
    },
    {
      "type": "Feature",
      "properties": {
        "id": "train_058_BND_030",
        "parcel_id": "train_058_P_008",
        "boundary_type": "VISIBLE",
        "confidence": 0.905,
        "length_m": 71.09,
        "evidence_sources": [
          "Drone_RGB_Edge",
          "DSM_Breakline"
        ]
      },
      "geometry": {
        "type": "LineString",
        "coordinates": [
          [
            77.6183174,
            13.0036591
          ],
          [
            77.6183037,
            13.003017
          ]
        ]
      }
    },
    {
      "type": "Feature",
      "properties": {
        "id": "train_058_BND_031",
        "parcel_id": "train_058_P_008",
        "boundary_type": "INFERRED",
        "confidence": 0.763,
        "length_m": 71.05,
        "evidence_sources": [
          "Road_Corridor_Offset",
          "Adjacent_Parcel_Topology"
        ]
      },
      "geometry": {
        "type": "LineString",
        "coordinates": [
          [
            77.6183037,
            13.003017
          ],
          [
            77.6176492,
            13.0030246
          ]
        ]
      }
    },
    {
      "type": "Feature",
      "properties": {
        "id": "train_058_BND_032",
        "parcel_id": "train_058_P_008",
        "boundary_type": "VISIBLE",
        "confidence": 0.86,
        "length_m": 71.78,
        "evidence_sources": [
          "Drone_RGB_Edge",
          "DSM_Breakline"
        ]
      },
      "geometry": {
        "type": "LineString",
        "coordinates": [
          [
            77.6176492,
            13.0030246
          ],
          [
            77.6176465,
            13.003673
          ]
        ]
      }
    },
    {
      "type": "Feature",
      "properties": {
        "id": "train_058_BND_033",
        "parcel_id": "train_058_P_009",
        "boundary_type": "VISIBLE",
        "confidence": 0.824,
        "length_m": 38.17,
        "evidence_sources": [
          "Drone_RGB_Edge",
          "DSM_Breakline"
        ]
      },
      "geometry": {
        "type": "LineString",
        "coordinates": [
          [
            77.6160641,
            13.0027863
          ],
          [
            77.6164156,
            13.002778
          ]
        ]
      }
    },
    {
      "type": "Feature",
      "properties": {
        "id": "train_058_BND_034",
        "parcel_id": "train_058_P_009",
        "boundary_type": "INFERRED",
        "confidence": 0.696,
        "length_m": 37.35,
        "evidence_sources": [
          "Road_Corridor_Offset",
          "Adjacent_Parcel_Topology"
        ]
      },
      "geometry": {
        "type": "LineString",
        "coordinates": [
          [
            77.6164156,
            13.002778
          ],
          [
            77.6164255,
            13.0024407
          ]
        ]
      }
    },
    {
      "type": "Feature",
      "properties": {
        "id": "train_058_BND_035",
        "parcel_id": "train_058_P_009",
        "boundary_type": "VISIBLE",
        "confidence": 0.922,
        "length_m": 37.84,
        "evidence_sources": [
          "Drone_RGB_Edge",
          "DSM_Breakline"
        ]
      },
      "geometry": {
        "type": "LineString",
        "coordinates": [
          [
            77.6164255,
            13.0024407
          ],
          [
            77.6160769,
            13.0024356
          ]
        ]
      }
    },
    {
      "type": "Feature",
      "properties": {
        "id": "train_058_BND_036",
        "parcel_id": "train_058_P_009",
        "boundary_type": "INFERRED",
        "confidence": 0.661,
        "length_m": 38.85,
        "evidence_sources": [
          "Road_Corridor_Offset",
          "Adjacent_Parcel_Topology"
        ]
      },
      "geometry": {
        "type": "LineString",
        "coordinates": [
          [
            77.6160769,
            13.0024356
          ],
          [
            77.6160641,
            13.0027863
          ]
        ]
      }
    },
    {
      "type": "Feature",
      "properties": {
        "id": "train_058_BND_037",
        "parcel_id": "train_058_P_010",
        "boundary_type": "VISIBLE",
        "confidence": 0.925,
        "length_m": 38.51,
        "evidence_sources": [
          "Drone_RGB_Edge",
          "DSM_Breakline"
        ]
      },
      "geometry": {
        "type": "LineString",
        "coordinates": [
          [
            77.6160751,
            13.0024251
          ],
          [
            77.6164297,
            13.0024129
          ]
        ]
      }
    },
    {
      "type": "Feature",
      "properties": {
        "id": "train_058_BND_038",
        "parcel_id": "train_058_P_010",
        "boundary_type": "VISIBLE",
        "confidence": 0.867,
        "length_m": 36.31,
        "evidence_sources": [
          "Drone_RGB_Edge",
          "DSM_Breakline"
        ]
      },
      "geometry": {
        "type": "LineString",
        "coordinates": [
          [
            77.6164297,
            13.0024129
          ],
          [
            77.6164311,
            13.0020849
          ]
        ]
      }
    },
    {
      "type": "Feature",
      "properties": {
        "id": "train_058_BND_039",
        "parcel_id": "train_058_P_010",
        "boundary_type": "VISIBLE",
        "confidence": 0.856,
        "length_m": 38.85,
        "evidence_sources": [
          "Drone_RGB_Edge",
          "DSM_Breakline"
        ]
      },
      "geometry": {
        "type": "LineString",
        "coordinates": [
          [
            77.6164311,
            13.0020849
          ],
          [
            77.6160733,
            13.0020773
          ]
        ]
      }
    },
    {
      "type": "Feature",
      "properties": {
        "id": "train_058_BND_040",
        "parcel_id": "train_058_P_010",
        "boundary_type": "VISIBLE",
        "confidence": 0.925,
        "length_m": 38.5,
        "evidence_sources": [
          "Drone_RGB_Edge",
          "DSM_Breakline"
        ]
      },
      "geometry": {
        "type": "LineString",
        "coordinates": [
          [
            77.6160733,
            13.0020773
          ],
          [
            77.6160751,
            13.0024251
          ]
        ]
      }
    },
    {
      "type": "Feature",
      "properties": {
        "id": "train_058_BND_041",
        "parcel_id": "train_058_P_011",
        "boundary_type": "INFERRED",
        "confidence": 0.637,
        "length_m": 36.73,
        "evidence_sources": [
          "Road_Corridor_Offset",
          "Adjacent_Parcel_Topology"
        ]
      },
      "geometry": {
        "type": "LineString",
        "coordinates": [
          [
            77.6164498,
            13.0027765
          ],
          [
            77.6167882,
            13.0027774
          ]
        ]
      }
    },
    {
      "type": "Feature",
      "properties": {
        "id": "train_058_BND_042",
        "parcel_id": "train_058_P_011",
        "boundary_type": "VISIBLE",
        "confidence": 0.951,
        "length_m": 37.03,
        "evidence_sources": [
          "Drone_RGB_Edge",
          "DSM_Breakline"
        ]
      },
      "geometry": {
        "type": "LineString",
        "coordinates": [
          [
            77.6167882,
            13.0027774
          ],
          [
            77.6167941,
            13.0024429
          ]
        ]
      }
    },
    {
      "type": "Feature",
      "properties": {
        "id": "train_058_BND_043",
        "parcel_id": "train_058_P_011",
        "boundary_type": "VISIBLE",
        "confidence": 0.888,
        "length_m": 37.76,
        "evidence_sources": [
          "Drone_RGB_Edge",
          "DSM_Breakline"
        ]
      },
      "geometry": {
        "type": "LineString",
        "coordinates": [
          [
            77.6167941,
            13.0024429
          ],
          [
            77.6164462,
            13.0024451
          ]
        ]
      }
    },
    {
      "type": "Feature",
      "properties": {
        "id": "train_058_BND_044",
        "parcel_id": "train_058_P_011",
        "boundary_type": "VISIBLE",
        "confidence": 0.869,
        "length_m": 36.69,
        "evidence_sources": [
          "Drone_RGB_Edge",
          "DSM_Breakline"
        ]
      },
      "geometry": {
        "type": "LineString",
        "coordinates": [
          [
            77.6164462,
            13.0024451
          ],
          [
            77.6164498,
            13.0027765
          ]
        ]
      }
    },
    {
      "type": "Feature",
      "properties": {
        "id": "train_058_BND_045",
        "parcel_id": "train_058_P_012",
        "boundary_type": "VISIBLE",
        "confidence": 0.96,
        "length_m": 38.39,
        "evidence_sources": [
          "Drone_RGB_Edge",
          "DSM_Breakline"
        ]
      },
      "geometry": {
        "type": "LineString",
        "coordinates": [
          [
            77.616434,
            13.0024308
          ],
          [
            77.6167875,
            13.0024216
          ]
        ]
      }
    },
    {
      "type": "Feature",
      "properties": {
        "id": "train_058_BND_046",
        "parcel_id": "train_058_P_012",
        "boundary_type": "VISIBLE",
        "confidence": 0.937,
        "length_m": 37.36,
        "evidence_sources": [
          "Drone_RGB_Edge",
          "DSM_Breakline"
        ]
      },
      "geometry": {
        "type": "LineString",
        "coordinates": [
          [
            77.6167875,
            13.0024216
          ],
          [
            77.6167855,
            13.0020841
          ]
        ]
      }
    },
    {
      "type": "Feature",
      "properties": {
        "id": "train_058_BND_047",
        "parcel_id": "train_058_P_012",
        "boundary_type": "VISIBLE",
        "confidence": 0.947,
        "length_m": 37.44,
        "evidence_sources": [
          "Drone_RGB_Edge",
          "DSM_Breakline"
        ]
      },
      "geometry": {
        "type": "LineString",
        "coordinates": [
          [
            77.6167855,
            13.0020841
          ],
          [
            77.6164407,
            13.0020944
          ]
        ]
      }
    },
    {
      "type": "Feature",
      "properties": {
        "id": "train_058_BND_048",
        "parcel_id": "train_058_P_012",
        "boundary_type": "VISIBLE",
        "confidence": 0.844,
        "length_m": 37.25,
        "evidence_sources": [
          "Drone_RGB_Edge",
          "DSM_Breakline"
        ]
      },
      "geometry": {
        "type": "LineString",
        "coordinates": [
          [
            77.6164407,
            13.0020944
          ],
          [
            77.616434,
            13.0024308
          ]
        ]
      }
    },
    {
      "type": "Feature",
      "properties": {
        "id": "train_058_BND_049",
        "parcel_id": "train_058_P_013",
        "boundary_type": "VISIBLE",
        "confidence": 0.856,
        "length_m": 72.18,
        "evidence_sources": [
          "Drone_RGB_Edge",
          "DSM_Breakline"
        ]
      },
      "geometry": {
        "type": "LineString",
        "coordinates": [
          [
            77.6169678,
            13.0027849
          ],
          [
            77.6176325,
            13.0027654
          ]
        ]
      }
    },
    {
      "type": "Feature",
      "properties": {
        "id": "train_058_BND_050",
        "parcel_id": "train_058_P_013",
        "boundary_type": "VISIBLE",
        "confidence": 0.867,
        "length_m": 36.59,
        "evidence_sources": [
          "Drone_RGB_Edge",
          "DSM_Breakline"
        ]
      },
      "geometry": {
        "type": "LineString",
        "coordinates": [
          [
            77.6176325,
            13.0027654
          ],
          [
            77.6176223,
            13.002435
          ]
        ]
      }
    },
    {
      "type": "Feature",
      "properties": {
        "id": "train_058_BND_051",
        "parcel_id": "train_058_P_013",
        "boundary_type": "VISIBLE",
        "confidence": 0.934,
        "length_m": 72.3,
        "evidence_sources": [
          "Drone_RGB_Edge",
          "DSM_Breakline"
        ]
      },
      "geometry": {
        "type": "LineString",
        "coordinates": [
          [
            77.6176223,
            13.002435
          ],
          [
            77.6169563,
            13.0024462
          ]
        ]
      }
    },
    {
      "type": "Feature",
      "properties": {
        "id": "train_058_BND_052",
        "parcel_id": "train_058_P_013",
        "boundary_type": "INFERRED",
        "confidence": 0.748,
        "length_m": 37.51,
        "evidence_sources": [
          "Road_Corridor_Offset",
          "Adjacent_Parcel_Topology"
        ]
      },
      "geometry": {
        "type": "LineString",
        "coordinates": [
          [
            77.6169563,
            13.0024462
          ],
          [
            77.6169678,
            13.0027849
          ]
        ]
      }
    },
    {
      "type": "Feature",
      "properties": {
        "id": "train_058_BND_053",
        "parcel_id": "train_058_P_014",
        "boundary_type": "VISIBLE",
        "confidence": 0.853,
        "length_m": 71.73,
        "evidence_sources": [
          "Drone_RGB_Edge",
          "DSM_Breakline"
        ]
      },
      "geometry": {
        "type": "LineString",
        "coordinates": [
          [
            77.6169705,
            13.0024144
          ],
          [
            77.6176313,
            13.0024159
          ]
        ]
      }
    },
    {
      "type": "Feature",
      "properties": {
        "id": "train_058_BND_054",
        "parcel_id": "train_058_P_014",
        "boundary_type": "VISIBLE",
        "confidence": 0.824,
        "length_m": 37.39,
        "evidence_sources": [
          "Drone_RGB_Edge",
          "DSM_Breakline"
        ]
      },
      "geometry": {
        "type": "LineString",
        "coordinates": [
          [
            77.6176313,
            13.0024159
          ],
          [
            77.6176209,
            13.0020783
          ]
        ]
      }
    },
    {
      "type": "Feature",
      "properties": {
        "id": "train_058_BND_055",
        "parcel_id": "train_058_P_014",
        "boundary_type": "VISIBLE",
        "confidence": 0.861,
        "length_m": 70.99,
        "evidence_sources": [
          "Drone_RGB_Edge",
          "DSM_Breakline"
        ]
      },
      "geometry": {
        "type": "LineString",
        "coordinates": [
          [
            77.6176209,
            13.0020783
          ],
          [
            77.616967,
            13.0020903
          ]
        ]
      }
    },
    {
      "type": "Feature",
      "properties": {
        "id": "train_058_BND_056",
        "parcel_id": "train_058_P_014",
        "boundary_type": "INFERRED",
        "confidence": 0.753,
        "length_m": 35.88,
        "evidence_sources": [
          "Road_Corridor_Offset",
          "Adjacent_Parcel_Topology"
        ]
      },
      "geometry": {
        "type": "LineString",
        "coordinates": [
          [
            77.616967,
            13.0020903
          ],
          [
            77.6169705,
            13.0024144
          ]
        ]
      }
    },
    {
      "type": "Feature",
      "properties": {
        "id": "train_058_BND_057",
        "parcel_id": "train_058_P_015",
        "boundary_type": "VISIBLE",
        "confidence": 0.833,
        "length_m": 73.66,
        "evidence_sources": [
          "Drone_RGB_Edge",
          "DSM_Breakline"
        ]
      },
      "geometry": {
        "type": "LineString",
        "coordinates": [
          [
            77.6176441,
            13.0027846
          ],
          [
            77.6183226,
            13.002775
          ]
        ]
      }
    },
    {
      "type": "Feature",
      "properties": {
        "id": "train_058_BND_058",
        "parcel_id": "train_058_P_015",
        "boundary_type": "VISIBLE",
        "confidence": 0.841,
        "length_m": 36.71,
        "evidence_sources": [
          "Drone_RGB_Edge",
          "DSM_Breakline"
        ]
      },
      "geometry": {
        "type": "LineString",
        "coordinates": [
          [
            77.6183226,
            13.002775
          ],
          [
            77.6183125,
            13.0024435
          ]
        ]
      }
    },
    {
      "type": "Feature",
      "properties": {
        "id": "train_058_BND_059",
        "parcel_id": "train_058_P_015",
        "boundary_type": "VISIBLE",
        "confidence": 0.858,
        "length_m": 71.9,
        "evidence_sources": [
          "Drone_RGB_Edge",
          "DSM_Breakline"
        ]
      },
      "geometry": {
        "type": "LineString",
        "coordinates": [
          [
            77.6183125,
            13.0024435
          ],
          [
            77.6176502,
            13.00245
          ]
        ]
      }
    },
    {
      "type": "Feature",
      "properties": {
        "id": "train_058_BND_060",
        "parcel_id": "train_058_P_015",
        "boundary_type": "INFERRED",
        "confidence": 0.626,
        "length_m": 37.05,
        "evidence_sources": [
          "Road_Corridor_Offset",
          "Adjacent_Parcel_Topology"
        ]
      },
      "geometry": {
        "type": "LineString",
        "coordinates": [
          [
            77.6176502,
            13.00245
          ],
          [
            77.6176441,
            13.0027846
          ]
        ]
      }
    },
    {
      "type": "Feature",
      "properties": {
        "id": "train_058_BND_061",
        "parcel_id": "train_058_P_016",
        "boundary_type": "VISIBLE",
        "confidence": 0.923,
        "length_m": 71.3,
        "evidence_sources": [
          "Drone_RGB_Edge",
          "DSM_Breakline"
        ]
      },
      "geometry": {
        "type": "LineString",
        "coordinates": [
          [
            77.6176478,
            13.0024261
          ],
          [
            77.6183046,
            13.0024294
          ]
        ]
      }
    },
    {
      "type": "Feature",
      "properties": {
        "id": "train_058_BND_062",
        "parcel_id": "train_058_P_016",
        "boundary_type": "INFERRED",
        "confidence": 0.785,
        "length_m": 38.93,
        "evidence_sources": [
          "Road_Corridor_Offset",
          "Adjacent_Parcel_Topology"
        ]
      },
      "geometry": {
        "type": "LineString",
        "coordinates": [
          [
            77.6183046,
            13.0024294
          ],
          [
            77.6183043,
            13.0020777
          ]
        ]
      }
    },
    {
      "type": "Feature",
      "properties": {
        "id": "train_058_BND_063",
        "parcel_id": "train_058_P_016",
        "boundary_type": "INFERRED",
        "confidence": 0.652,
        "length_m": 70.5,
        "evidence_sources": [
          "Road_Corridor_Offset",
          "Adjacent_Parcel_Topology"
        ]
      },
      "geometry": {
        "type": "LineString",
        "coordinates": [
          [
            77.6183043,
            13.0020777
          ],
          [
            77.6176548,
            13.002081
          ]
        ]
      }
    },
    {
      "type": "Feature",
      "properties": {
        "id": "train_058_BND_064",
        "parcel_id": "train_058_P_016",
        "boundary_type": "INFERRED",
        "confidence": 0.618,
        "length_m": 38.21,
        "evidence_sources": [
          "Road_Corridor_Offset",
          "Adjacent_Parcel_Topology"
        ]
      },
      "geometry": {
        "type": "LineString",
        "coordinates": [
          [
            77.6176548,
            13.002081
          ],
          [
            77.6176478,
            13.0024261
          ]
        ]
      }
    }
  ]
}