{
  "type": "FeatureCollection",
  "crs": {
    "type": "name",
    "properties": {
      "name": "EPSG:4326"
    }
  },
  "features": [
    {
      "type": "Feature",
      "properties": {
        "id": "train_058_REF_001",
        "parcel_id": "train_058_P_001",
        "parcel_layer": "REFERENCE",
        "boundary_representation": "REFERENCE",
        "land_use_class": "commercial",
        "area_sqm": 2742.54,
        "perimeter_m": 218.5,
        "source": "Synthetic Legacy Cadastral Map (Non-Authoritative Demo)"
      },
      "geometry": {
        "type": "Polygon",
        "coordinates": [
          [
            [
              77.6160726,
              13.0043288
            ],
            [
              77.6164259,
              13.0043266
            ],
            [
              77.616429,
              13.0036897
            ],
            [
              77.6160619,
              13.0036985
            ],
            [
              77.6160726,
              13.0043288
            ]
          ]
        ]
      }
    },
    {
      "type": "Feature",
      "properties": {
        "id": "train_058_REF_002",
        "parcel_id": "train_058_P_002",
        "parcel_layer": "REFERENCE",
        "boundary_representation": "REFERENCE",
        "land_use_class": "commercial",
        "area_sqm": 2823.83,
        "perimeter_m": 222.15,
        "source": "Synthetic Legacy Cadastral Map (Non-Authoritative Demo)"
      },
      "geometry": {
        "type": "Polygon",
        "coordinates": [
          [
            [
              77.6160681,
              13.0036635
            ],
            [
              77.6164302,
              13.0036656
            ],
            [
              77.616429,
              13.0030169
            ],
            [
              77.6160652,
              13.0030172
            ],
            [
              77.6160681,
              13.0036635
            ]
          ]
        ]
      }
    },
    {
      "type": "Feature",
      "properties": {
        "id": "train_058_REF_003",
        "parcel_id": "train_058_P_003",
        "parcel_layer": "REFERENCE",
        "boundary_representation": "REFERENCE",
        "land_use_class": "mixed_use",
        "area_sqm": 2657.31,
        "perimeter_m": 217.0,
        "source": "Synthetic Legacy Cadastral Map (Non-Authoritative Demo)"
      },
      "geometry": {
        "type": "Polygon",
        "coordinates": [
          [
            [
              77.6164583,
              13.0043267
            ],
            [
              77.6167969,
              13.0043316
            ],
            [
              77.6168017,
              13.0036881
            ],
            [
              77.6164521,
              13.0036848
            ],
            [
              77.6164583,
              13.0043267
            ]
          ]
        ]
      }
    },
    {
      "type": "Feature",
      "properties": {
        "id": "train_058_REF_004",
        "parcel_id": "train_058_P_004",
        "parcel_layer": "REFERENCE",
        "boundary_representation": "REFERENCE",
        "land_use_class": "mixed_use",
        "area_sqm": 2731.46,
        "perimeter_m": 219.2,
        "source": "Synthetic Legacy Cadastral Map (Non-Authoritative Demo)"
      },
      "geometry": {
        "type": "Polygon",
        "coordinates": [
          [
            [
              77.616483,
              13.0036851
            ],
            [
              77.6168316,
              13.0036902
            ],
            [
              77.616834,
              13.0030522
            ],
            [
              77.6164759,
              13.0030363
            ],
            [
              77.616483,
              13.0036851
            ]
          ]
        ]
      }
    },
    {
      "type": "Feature",
      "properties": {
        "id": "train_058_REF_005",
        "parcel_id": "train_058_P_005",
        "parcel_layer": "REFERENCE",
        "boundary_representation": "REFERENCE",
        "land_use_class": "mixed_use",
        "area_sqm": 5110.44,
        "perimeter_m": 285.97,
        "source": "Synthetic Legacy Cadastral Map (Non-Authoritative Demo)"
      },
      "geometry": {
        "type": "Polygon",
        "coordinates": [
          [
            [
              77.6169717,
              13.0043403
            ],
            [
              77.6176378,
              13.0043305
            ],
            [
              77.6176305,
              13.0036926
            ],
            [
              77.6169647,
              13.0037011
            ],
            [
              77.6169717,
              13.0043403
            ]
          ]
        ]
      }
    },
    {
      "type": "Feature",
      "properties": {
        "id": "train_058_REF_006",
        "parcel_id": "train_058_P_006",
        "parcel_layer": "REFERENCE",
        "boundary_representation": "REFERENCE",
        "land_use_class": "vacant",
        "area_sqm": 5274.84,
        "perimeter_m": 290.53,
        "source": "Synthetic Legacy Cadastral Map (Non-Authoritative Demo)"
      },
      "geometry": {
        "type": "Polygon",
        "coordinates": [
          [
            [
              77.616967,
              13.0036712
            ],
            [
              77.6176418,
              13.0036754
            ],
            [
              77.6176413,
              13.0030258
            ],
            [
              77.6169688,
              13.0030175
            ],
            [
              77.616967,
              13.0036712
            ]
          ]
        ]
      }
    },
    {
      "type": "Feature",
      "properties": {
        "id": "train_058_REF_007",
        "parcel_id": "train_058_P_007",
        "parcel_layer": "REFERENCE",
        "boundary_representation": "REFERENCE",
        "land_use_class": "commercial",
        "area_sqm": 5036.54,
        "perimeter_m": 283.91,
        "source": "Synthetic Legacy Cadastral Map (Non-Authoritative Demo)"
      },
      "geometry": {
        "type": "Polygon",
        "coordinates": [
          [
            [
              77.6176645,
              13.0043282
            ],
            [
              77.6183214,
              13.004335
            ],
            [
              77.6183113,
              13.0036942
            ],
            [
              77.6176592,
              13.003688
            ],
            [
              77.6176645,
              13.0043282
            ]
          ]
        ]
      }
    },
    {
      "type": "Feature",
      "properties": {
        "id": "train_058_REF_008",
        "parcel_id": "train_058_P_008",
        "parcel_layer": "REFERENCE",
        "boundary_representation": "REFERENCE",
        "land_use_class": "industrial",
        "area_sqm": 5137.63,
        "perimeter_m": 286.73,
        "source": "Synthetic Legacy Cadastral Map (Non-Authoritative Demo)"
      },
      "geometry": {
        "type": "Polygon",
        "coordinates": [
          [
            [
              77.6176878,
              13.0036936
            ],
            [
              77.6183586,
              13.0036797
            ],
            [
              77.6183449,
              13.0030376
            ],
            [
              77.6176905,
              13.0030453
            ],
            [
              77.6176878,
              13.0036936
            ]
          ]
        ]
      }
    },
    {
      "type": "Feature",
      "properties": {
        "id": "train_058_REF_009",
        "parcel_id": "train_058_P_009",
        "parcel_layer": "REFERENCE",
        "boundary_representation": "REFERENCE",
        "land_use_class": "commercial",
        "area_sqm": 1446.91,
        "perimeter_m": 152.22,
        "source": "Synthetic Legacy Cadastral Map (Non-Authoritative Demo)"
      },
      "geometry": {
        "type": "Polygon",
        "coordinates": [
          [
            [
              77.6160697,
              13.0027891
            ],
            [
              77.6164213,
              13.0027808
            ],
            [
              77.6164312,
              13.0024436
            ],
            [
              77.6160825,
              13.0024384
            ],
            [
              77.6160697,
              13.0027891
            ]
          ]
        ]
      }
    },
    {
      "type": "Feature",
      "properties": {
        "id": "train_058_REF_010",
        "parcel_id": "train_058_P_010",
        "parcel_layer": "REFERENCE",
        "boundary_representation": "REFERENCE",
        "land_use_class": "residential",
        "area_sqm": 1446.24,
        "perimeter_m": 152.17,
        "source": "Synthetic Legacy Cadastral Map (Non-Authoritative Demo)"
      },
      "geometry": {
        "type": "Polygon",
        "coordinates": [
          [
            [
              77.6160807,
              13.0024279
            ],
            [
              77.6164353,
              13.0024157
            ],
            [
              77.6164368,
              13.0020877
            ],
            [
              77.616079,
              13.0020801
            ],
            [
              77.6160807,
              13.0024279
            ]
          ]
        ]
      }
    },
    {
      "type": "Feature",
      "properties": {
        "id": "train_058_REF_011",
        "parcel_id": "train_058_P_011",
        "parcel_layer": "REFERENCE",
        "boundary_representation": "REFERENCE",
        "land_use_class": "mixed_use",
        "area_sqm": 1373.24,
        "perimeter_m": 148.24,
        "source": "Synthetic Legacy Cadastral Map (Non-Authoritative Demo)"
      },
      "geometry": {
        "type": "Polygon",
        "coordinates": [
          [
            [
              77.6164554,
              13.0027794
            ],
            [
              77.6167939,
              13.0027802
            ],
            [
              77.6167997,
              13.0024457
            ],
            [
              77.6164518,
              13.0024479
            ],
            [
              77.6164554,
              13.0027794
            ]
          ]
        ]
      }
    },
    {
      "type": "Feature",
      "properties": {
        "id": "train_058_REF_012",
        "parcel_id": "train_058_P_012",
        "parcel_layer": "REFERENCE",
        "boundary_representation": "REFERENCE",
        "land_use_class": "commercial",
        "area_sqm": 1413.37,
        "perimeter_m": 150.44,
        "source": "Synthetic Legacy Cadastral Map (Non-Authoritative Demo)"
      },
      "geometry": {
        "type": "Polygon",
        "coordinates": [
          [
            [
              77.6164753,
              13.0024514
            ],
            [
              77.6168288,
              13.0024422
            ],
            [
              77.6168267,
              13.0021047
            ],
            [
              77.6164819,
              13.002115
            ],
            [
              77.6164753,
              13.0024514
            ]
          ]
        ]
      }
    },
    {
      "type": "Feature",
      "properties": {
        "id": "train_058_REF_013",
        "parcel_id": "train_058_P_013",
        "parcel_layer": "REFERENCE",
        "boundary_representation": "REFERENCE",
        "land_use_class": "mixed_use",
        "area_sqm": 2677.25,
        "perimeter_m": 218.61,
        "source": "Synthetic Legacy Cadastral Map (Non-Authoritative Demo)"
      },
      "geometry": {
        "type": "Polygon",
        "coordinates": [
          [
            [
              77.6169734,
              13.0027877
            ],
            [
              77.6176381,
              13.0027683
            ],
            [
              77.617628,
              13.0024378
            ],
            [
              77.6169619,
              13.002449
            ],
            [
              77.6169734,
              13.0027877
            ]
          ]
        ]
      }
    },
    {
      "type": "Feature",
      "properties": {
        "id": "train_058_REF_014",
        "parcel_id": "train_058_P_014",
        "parcel_layer": "REFERENCE",
        "boundary_representation": "REFERENCE",
        "land_use_class": "vegetation",
        "area_sqm": 2613.52,
        "perimeter_m": 215.99,
        "source": "Synthetic Legacy Cadastral Map (Non-Authoritative Demo)"
      },
      "geometry": {
        "type": "Polygon",
        "coordinates": [
          [
            [
              77.6169761,
              13.0024172
            ],
            [
              77.6176369,
              13.0024187
            ],
            [
              77.6176266,
              13.0020812
            ],
            [
              77.6169726,
              13.0020931
            ],
            [
              77.6169761,
              13.0024172
            ]
          ]
        ]
      }
    },
    {
      "type": "Feature",
      "properties": {
        "id": "train_058_REF_015",
        "parcel_id": "train_058_P_015",
        "parcel_layer": "REFERENCE",
        "boundary_representation": "REFERENCE",
        "land_use_class": "commercial",
        "area_sqm": 2683.27,
        "perimeter_m": 219.32,
        "source": "Synthetic Legacy Cadastral Map (Non-Authoritative Demo)"
      },
      "geometry": {
        "type": "Polygon",
        "coordinates": [
          [
            [
              77.6176497,
              13.0027874
            ],
            [
              77.6183282,
              13.0027779
            ],
            [
              77.6183182,
              13.0024464
            ],
            [
              77.6176558,
              13.0024528
            ],
            [
              77.6176497,
              13.0027874
            ]
          ]
        ]
      }
    },
    {
      "type": "Feature",
      "properties": {
        "id": "train_058_REF_016",
        "parcel_id": "train_058_P_016",
        "parcel_layer": "REFERENCE",
        "boundary_representation": "REFERENCE",
        "land_use_class": "vacant",
        "area_sqm": 2734.51,
        "perimeter_m": 218.94,
        "source": "Synthetic Legacy Cadastral Map (Non-Authoritative Demo)"
      },
      "geometry": {
        "type": "Polygon",
        "coordinates": [
          [
            [
              77.6176891,
              13.0024467
            ],
            [
              77.6183459,
              13.0024501
            ],
            [
              77.6183455,
              13.0020983
            ],
            [
              77.6176961,
              13.0021016
            ],
            [
              77.6176891,
              13.0024467
            ]
          ]
        ]
      }
    }
  ]
}