{
  "type": "FeatureCollection",
  "crs": {
    "type": "name",
    "properties": {
      "name": "EPSG:4326"
    }
  },
  "features": [
    {
      "type": "Feature",
      "properties": {
        "id": "train_051_BND_001",
        "parcel_id": "train_051_P_001",
        "boundary_type": "VISIBLE",
        "confidence": 0.862,
        "length_m": 59.7,
        "evidence_sources": [
          "Drone_RGB_Edge",
          "DSM_Breakline"
        ]
      },
      "geometry": {
        "type": "LineString",
        "coordinates": [
          [
            77.595069,
            13.0043314
          ],
          [
            77.5956186,
            13.0043104
          ]
        ]
      }
    },
    {
      "type": "Feature",
      "properties": {
        "id": "train_051_BND_002",
        "parcel_id": "train_051_P_001",
        "boundary_type": "INFERRED",
        "confidence": 0.751,
        "length_m": 33.54,
        "evidence_sources": [
          "Road_Corridor_Offset",
          "Adjacent_Parcel_Topology"
        ]
      },
      "geometry": {
        "type": "LineString",
        "coordinates": [
          [
            77.5956186,
            13.0043104
          ],
          [
            77.5956267,
            13.0040075
          ]
        ]
      }
    },
    {
      "type": "Feature",
      "properties": {
        "id": "train_051_BND_003",
        "parcel_id": "train_051_P_001",
        "boundary_type": "INFERRED",
        "confidence": 0.706,
        "length_m": 56.02,
        "evidence_sources": [
          "Road_Corridor_Offset",
          "Adjacent_Parcel_Topology"
        ]
      },
      "geometry": {
        "type": "LineString",
        "coordinates": [
          [
            77.5956267,
            13.0040075
          ],
          [
            77.5951132,
            13.0039567
          ]
        ]
      }
    },
    {
      "type": "Feature",
      "properties": {
        "id": "train_051_BND_004",
        "parcel_id": "train_051_P_001",
        "boundary_type": "VISIBLE",
        "confidence": 0.946,
        "length_m": 41.75,
        "evidence_sources": [
          "Drone_RGB_Edge",
          "DSM_Breakline"
        ]
      },
      "geometry": {
        "type": "LineString",
        "coordinates": [
          [
            77.5951132,
            13.0039567
          ],
          [
            77.595069,
            13.0043314
          ]
        ]
      }
    },
    {
      "type": "Feature",
      "properties": {
        "id": "train_051_BND_005",
        "parcel_id": "train_051_P_002",
        "boundary_type": "VISIBLE",
        "confidence": 0.889,
        "length_m": 59.49,
        "evidence_sources": [
          "Drone_RGB_Edge",
          "DSM_Breakline"
        ]
      },
      "geometry": {
        "type": "LineString",
        "coordinates": [
          [
            77.5950583,
            13.0039331
          ],
          [
            77.5956058,
            13.0039092
          ]
        ]
      }
    },
    {
      "type": "Feature",
      "properties": {
        "id": "train_051_BND_006",
        "parcel_id": "train_051_P_002",
        "boundary_type": "VISIBLE",
        "confidence": 0.941,
        "length_m": 34.12,
        "evidence_sources": [
          "Drone_RGB_Edge",
          "DSM_Breakline"
        ]
      },
      "geometry": {
        "type": "LineString",
        "coordinates": [
          [
            77.5956058,
            13.0039092
          ],
          [
            77.5956206,
            13.0036013
          ]
        ]
      }
    },
    {
      "type": "Feature",
      "properties": {
        "id": "train_051_BND_007",
        "parcel_id": "train_051_P_002",
        "boundary_type": "VISIBLE",
        "confidence": 0.921,
        "length_m": 60.95,
        "evidence_sources": [
          "Drone_RGB_Edge",
          "DSM_Breakline"
        ]
      },
      "geometry": {
        "type": "LineString",
        "coordinates": [
          [
            77.5956206,
            13.0036013
          ],
          [
            77.5950591,
            13.003602
          ]
        ]
      }
    },
    {
      "type": "Feature",
      "properties": {
        "id": "train_051_BND_008",
        "parcel_id": "train_051_P_002",
        "boundary_type": "VISIBLE",
        "confidence": 0.944,
        "length_m": 36.65,
        "evidence_sources": [
          "Drone_RGB_Edge",
          "DSM_Breakline"
        ]
      },
      "geometry": {
        "type": "LineString",
        "coordinates": [
          [
            77.5950591,
            13.003602
          ],
          [
            77.5950583,
            13.0039331
          ]
        ]
      }
    },
    {
      "type": "Feature",
      "properties": {
        "id": "train_051_BND_009",
        "parcel_id": "train_051_P_003",
        "boundary_type": "INFERRED",
        "confidence": 0.782,
        "length_m": 59.31,
        "evidence_sources": [
          "Road_Corridor_Offset",
          "Adjacent_Parcel_Topology"
        ]
      },
      "geometry": {
        "type": "LineString",
        "coordinates": [
          [
            77.59571,
            13.0043329
          ],
          [
            77.5962557,
            13.0043052
          ]
        ]
      }
    },
    {
      "type": "Feature",
      "properties": {
        "id": "train_051_BND_010",
        "parcel_id": "train_051_P_003",
        "boundary_type": "VISIBLE",
        "confidence": 0.907,
        "length_m": 36.34,
        "evidence_sources": [
          "Drone_RGB_Edge",
          "DSM_Breakline"
        ]
      },
      "geometry": {
        "type": "LineString",
        "coordinates": [
          [
            77.5962557,
            13.0043052
          ],
          [
            77.5962204,
            13.0039787
          ]
        ]
      }
    },
    {
      "type": "Feature",
      "properties": {
        "id": "train_051_BND_011",
        "parcel_id": "train_051_P_003",
        "boundary_type": "INFERRED",
        "confidence": 0.782,
        "length_m": 56.53,
        "evidence_sources": [
          "Road_Corridor_Offset",
          "Adjacent_Parcel_Topology"
        ]
      },
      "geometry": {
        "type": "LineString",
        "coordinates": [
          [
            77.5962204,
            13.0039787
          ],
          [
            77.5956996,
            13.0039792
          ]
        ]
      }
    },
    {
      "type": "Feature",
      "properties": {
        "id": "train_051_BND_012",
        "parcel_id": "train_051_P_003",
        "boundary_type": "INFERRED",
        "confidence": 0.783,
        "length_m": 39.17,
        "evidence_sources": [
          "Road_Corridor_Offset",
          "Adjacent_Parcel_Topology"
        ]
      },
      "geometry": {
        "type": "LineString",
        "coordinates": [
          [
            77.5956996,
            13.0039792
          ],
          [
            77.59571,
            13.0043329
          ]
        ]
      }
    },
    {
      "type": "Feature",
      "properties": {
        "id": "train_051_BND_013",
        "parcel_id": "train_051_P_004",
        "boundary_type": "VISIBLE",
        "confidence": 0.921,
        "length_m": 60.26,
        "evidence_sources": [
          "Drone_RGB_Edge",
          "DSM_Breakline"
        ]
      },
      "geometry": {
        "type": "LineString",
        "coordinates": [
          [
            77.5957105,
            13.0038857
          ],
          [
            77.5962647,
            13.0039173
          ]
        ]
      }
    },
    {
      "type": "Feature",
      "properties": {
        "id": "train_051_BND_014",
        "parcel_id": "train_051_P_004",
        "boundary_type": "VISIBLE",
        "confidence": 0.891,
        "length_m": 39.86,
        "evidence_sources": [
          "Drone_RGB_Edge",
          "DSM_Breakline"
        ]
      },
      "geometry": {
        "type": "LineString",
        "coordinates": [
          [
            77.5962647,
            13.0039173
          ],
          [
            77.5962415,
            13.0035579
          ]
        ]
      }
    },
    {
      "type": "Feature",
      "properties": {
        "id": "train_051_BND_015",
        "parcel_id": "train_051_P_004",
        "boundary_type": "INFERRED",
        "confidence": 0.723,
        "length_m": 61.2,
        "evidence_sources": [
          "Road_Corridor_Offset",
          "Adjacent_Parcel_Topology"
        ]
      },
      "geometry": {
        "type": "LineString",
        "coordinates": [
          [
            77.5962415,
            13.0035579
          ],
          [
            77.5956778,
            13.0035705
          ]
        ]
      }
    },
    {
      "type": "Feature",
      "properties": {
        "id": "train_051_BND_016",
        "parcel_id": "train_051_P_004",
        "boundary_type": "VISIBLE",
        "confidence": 0.89,
        "length_m": 35.07,
        "evidence_sources": [
          "Drone_RGB_Edge",
          "DSM_Breakline"
        ]
      },
      "geometry": {
        "type": "LineString",
        "coordinates": [
          [
            77.5956778,
            13.0035705
          ],
          [
            77.5957105,
            13.0038857
          ]
        ]
      }
    },
    {
      "type": "Feature",
      "properties": {
        "id": "train_051_BND_017",
        "parcel_id": "train_051_P_005",
        "boundary_type": "INFERRED",
        "confidence": 0.665,
        "length_m": 46.23,
        "evidence_sources": [
          "Road_Corridor_Offset",
          "Adjacent_Parcel_Topology"
        ]
      },
      "geometry": {
        "type": "LineString",
        "coordinates": [
          [
            77.5964452,
            13.0042918
          ],
          [
            77.5968702,
            13.004319
          ]
        ]
      }
    },
    {
      "type": "Feature",
      "properties": {
        "id": "train_051_BND_018",
        "parcel_id": "train_051_P_005",
        "boundary_type": "VISIBLE",
        "confidence": 0.958,
        "length_m": 37.49,
        "evidence_sources": [
          "Drone_RGB_Edge",
          "DSM_Breakline"
        ]
      },
      "geometry": {
        "type": "LineString",
        "coordinates": [
          [
            77.5968702,
            13.004319
          ],
          [
            77.5968162,
            13.0039845
          ]
        ]
      }
    },
    {
      "type": "Feature",
      "properties": {
        "id": "train_051_BND_019",
        "parcel_id": "train_051_P_005",
        "boundary_type": "VISIBLE",
        "confidence": 0.829,
        "length_m": 37.34,
        "evidence_sources": [
          "Drone_RGB_Edge",
          "DSM_Breakline"
        ]
      },
      "geometry": {
        "type": "LineString",
        "coordinates": [
          [
            77.5968162,
            13.0039845
          ],
          [
            77.5964722,
            13.0039827
          ]
        ]
      }
    },
    {
      "type": "Feature",
      "properties": {
        "id": "train_051_BND_020",
        "parcel_id": "train_051_P_005",
        "boundary_type": "VISIBLE",
        "confidence": 0.895,
        "length_m": 34.34,
        "evidence_sources": [
          "Drone_RGB_Edge",
          "DSM_Breakline"
        ]
      },
      "geometry": {
        "type": "LineString",
        "coordinates": [
          [
            77.5964722,
            13.0039827
          ],
          [
            77.5964452,
            13.0042918
          ]
        ]
      }
    },
    {
      "type": "Feature",
      "properties": {
        "id": "train_051_BND_021",
        "parcel_id": "train_051_P_006",
        "boundary_type": "VISIBLE",
        "confidence": 0.869,
        "length_m": 41.68,
        "evidence_sources": [
          "Drone_RGB_Edge",
          "DSM_Breakline"
        ]
      },
      "geometry": {
        "type": "LineString",
        "coordinates": [
          [
            77.5964517,
            13.0039101
          ],
          [
            77.5968349,
            13.0039335
          ]
        ]
      }
    },
    {
      "type": "Feature",
      "properties": {
        "id": "train_051_BND_022",
        "parcel_id": "train_051_P_006",
        "boundary_type": "VISIBLE",
        "confidence": 0.95,
        "length_m": 36.09,
        "evidence_sources": [
          "Drone_RGB_Edge",
          "DSM_Breakline"
        ]
      },
      "geometry": {
        "type": "LineString",
        "coordinates": [
          [
            77.5968349,
            13.0039335
          ],
          [
            77.5968433,
            13.0036076
          ]
        ]
      }
    },
    {
      "type": "Feature",
      "properties": {
        "id": "train_051_BND_023",
        "parcel_id": "train_051_P_006",
        "boundary_type": "VISIBLE",
        "confidence": 0.914,
        "length_m": 39.75,
        "evidence_sources": [
          "Drone_RGB_Edge",
          "DSM_Breakline"
        ]
      },
      "geometry": {
        "type": "LineString",
        "coordinates": [
          [
            77.5968433,
            13.0036076
          ],
          [
            77.5964774,
            13.0035927
          ]
        ]
      }
    },
    {
      "type": "Feature",
      "properties": {
        "id": "train_051_BND_024",
        "parcel_id": "train_051_P_006",
        "boundary_type": "VISIBLE",
        "confidence": 0.887,
        "length_m": 35.25,
        "evidence_sources": [
          "Drone_RGB_Edge",
          "DSM_Breakline"
        ]
      },
      "geometry": {
        "type": "LineString",
        "coordinates": [
          [
            77.5964774,
            13.0035927
          ],
          [
            77.5964517,
            13.0039101
          ]
        ]
      }
    },
    {
      "type": "Feature",
      "properties": {
        "id": "train_051_BND_025",
        "parcel_id": "train_051_P_007",
        "boundary_type": "VISIBLE",
        "confidence": 0.948,
        "length_m": 46.04,
        "evidence_sources": [
          "Drone_RGB_Edge",
          "DSM_Breakline"
        ]
      },
      "geometry": {
        "type": "LineString",
        "coordinates": [
          [
            77.5968996,
            13.0042862
          ],
          [
            77.5973237,
            13.0042885
          ]
        ]
      }
    },
    {
      "type": "Feature",
      "properties": {
        "id": "train_051_BND_026",
        "parcel_id": "train_051_P_007",
        "boundary_type": "VISIBLE",
        "confidence": 0.885,
        "length_m": 37.79,
        "evidence_sources": [
          "Drone_RGB_Edge",
          "DSM_Breakline"
        ]
      },
      "geometry": {
        "type": "LineString",
        "coordinates": [
          [
            77.5973237,
            13.0042885
          ],
          [
            77.597277,
            13.0039502
          ]
        ]
      }
    },
    {
      "type": "Feature",
      "properties": {
        "id": "train_051_BND_027",
        "parcel_id": "train_051_P_007",
        "boundary_type": "INFERRED",
        "confidence": 0.765,
        "length_m": 37.54,
        "evidence_sources": [
          "Road_Corridor_Offset",
          "Adjacent_Parcel_Topology"
        ]
      },
      "geometry": {
        "type": "LineString",
        "coordinates": [
          [
            77.597277,
            13.0039502
          ],
          [
            77.5969327,
            13.0039821
          ]
        ]
      }
    },
    {
      "type": "Feature",
      "properties": {
        "id": "train_051_BND_028",
        "parcel_id": "train_051_P_007",
        "boundary_type": "VISIBLE",
        "confidence": 0.869,
        "length_m": 33.85,
        "evidence_sources": [
          "Drone_RGB_Edge",
          "DSM_Breakline"
        ]
      },
      "geometry": {
        "type": "LineString",
        "coordinates": [
          [
            77.5969327,
            13.0039821
          ],
          [
            77.5968996,
            13.0042862
          ]
        ]
      }
    },
    {
      "type": "Feature",
      "properties": {
        "id": "train_051_BND_029",
        "parcel_id": "train_051_P_008",
        "boundary_type": "VISIBLE",
        "confidence": 0.892,
        "length_m": 37.1,
        "evidence_sources": [
          "Drone_RGB_Edge",
          "DSM_Breakline"
        ]
      },
      "geometry": {
        "type": "LineString",
        "coordinates": [
          [
            77.5969376,
            13.0038988
          ],
          [
            77.5972794,
            13.0039031
          ]
        ]
      }
    },
    {
      "type": "Feature",
      "properties": {
        "id": "train_051_BND_030",
        "parcel_id": "train_051_P_008",
        "boundary_type": "VISIBLE",
        "confidence": 0.831,
        "length_m": 33.98,
        "evidence_sources": [
          "Drone_RGB_Edge",
          "DSM_Breakline"
        ]
      },
      "geometry": {
        "type": "LineString",
        "coordinates": [
          [
            77.5972794,
            13.0039031
          ],
          [
            77.5972895,
            13.0035963
          ]
        ]
      }
    },
    {
      "type": "Feature",
      "properties": {
        "id": "train_051_BND_031",
        "parcel_id": "train_051_P_008",
        "boundary_type": "VISIBLE",
        "confidence": 0.855,
        "length_m": 40.2,
        "evidence_sources": [
          "Drone_RGB_Edge",
          "DSM_Breakline"
        ]
      },
      "geometry": {
        "type": "LineString",
        "coordinates": [
          [
            77.5972895,
            13.0035963
          ],
          [
            77.5969192,
            13.0035948
          ]
        ]
      }
    },
    {
      "type": "Feature",
      "properties": {
        "id": "train_051_BND_032",
        "parcel_id": "train_051_P_008",
        "boundary_type": "VISIBLE",
        "confidence": 0.847,
        "length_m": 33.71,
        "evidence_sources": [
          "Drone_RGB_Edge",
          "DSM_Breakline"
        ]
      },
      "geometry": {
        "type": "LineString",
        "coordinates": [
          [
            77.5969192,
            13.0035948
          ],
          [
            77.5969376,
            13.0038988
          ]
        ]
      }
    },
    {
      "type": "Feature",
      "properties": {
        "id": "train_051_BND_033",
        "parcel_id": "train_051_P_009",
        "boundary_type": "INFERRED",
        "confidence": 0.638,
        "length_m": 60.5,
        "evidence_sources": [
          "Road_Corridor_Offset",
          "Adjacent_Parcel_Topology"
        ]
      },
      "geometry": {
        "type": "LineString",
        "coordinates": [
          [
            77.5950854,
            13.0033907
          ],
          [
            77.5956425,
            13.0033751
          ]
        ]
      }
    },
    {
      "type": "Feature",
      "properties": {
        "id": "train_051_BND_034",
        "parcel_id": "train_051_P_009",
        "boundary_type": "VISIBLE",
        "confidence": 0.933,
        "length_m": 66.98,
        "evidence_sources": [
          "Drone_RGB_Edge",
          "DSM_Breakline"
        ]
      },
      "geometry": {
        "type": "LineString",
        "coordinates": [
          [
            77.5956425,
            13.0033751
          ],
          [
            77.5956093,
            13.0027709
          ]
        ]
      }
    },
    {
      "type": "Feature",
      "properties": {
        "id": "train_051_BND_035",
        "parcel_id": "train_051_P_009",
        "boundary_type": "INFERRED",
        "confidence": 0.671,
        "length_m": 59.37,
        "evidence_sources": [
          "Road_Corridor_Offset",
          "Adjacent_Parcel_Topology"
        ]
      },
      "geometry": {
        "type": "LineString",
        "coordinates": [
          [
            77.5956093,
            13.0027709
          ],
          [
            77.5950632,
            13.002801
          ]
        ]
      }
    },
    {
      "type": "Feature",
      "properties": {
        "id": "train_051_BND_036",
        "parcel_id": "train_051_P_009",
        "boundary_type": "VISIBLE",
        "confidence": 0.943,
        "length_m": 65.32,
        "evidence_sources": [
          "Drone_RGB_Edge",
          "DSM_Breakline"
        ]
      },
      "geometry": {
        "type": "LineString",
        "coordinates": [
          [
            77.5950632,
            13.002801
          ],
          [
            77.5950854,
            13.0033907
          ]
        ]
      }
    },
    {
      "type": "Feature",
      "properties": {
        "id": "train_051_BND_037",
        "parcel_id": "train_051_P_010",
        "boundary_type": "VISIBLE",
        "confidence": 0.944,
        "length_m": 61.81,
        "evidence_sources": [
          "Drone_RGB_Edge",
          "DSM_Breakline"
        ]
      },
      "geometry": {
        "type": "LineString",
        "coordinates": [
          [
            77.5950745,
            13.0027373
          ],
          [
            77.5956427,
            13.0027007
          ]
        ]
      }
    },
    {
      "type": "Feature",
      "properties": {
        "id": "train_051_BND_038",
        "parcel_id": "train_051_P_010",
        "boundary_type": "INFERRED",
        "confidence": 0.648,
        "length_m": 64.25,
        "evidence_sources": [
          "Road_Corridor_Offset",
          "Adjacent_Parcel_Topology"
        ]
      },
      "geometry": {
        "type": "LineString",
        "coordinates": [
          [
            77.5956427,
            13.0027007
          ],
          [
            77.5956224,
            13.0021206
          ]
        ]
      }
    },
    {
      "type": "Feature",
      "properties": {
        "id": "train_051_BND_039",
        "parcel_id": "train_051_P_010",
        "boundary_type": "VISIBLE",
        "confidence": 0.831,
        "length_m": 54.9,
        "evidence_sources": [
          "Drone_RGB_Edge",
          "DSM_Breakline"
        ]
      },
      "geometry": {
        "type": "LineString",
        "coordinates": [
          [
            77.5956224,
            13.0021206
          ],
          [
            77.5951166,
            13.0021187
          ]
        ]
      }
    },
    {
      "type": "Feature",
      "properties": {
        "id": "train_051_BND_040",
        "parcel_id": "train_051_P_010",
        "boundary_type": "VISIBLE",
        "confidence": 0.891,
        "length_m": 68.63,
        "evidence_sources": [
          "Drone_RGB_Edge",
          "DSM_Breakline"
        ]
      },
      "geometry": {
        "type": "LineString",
        "coordinates": [
          [
            77.5951166,
            13.0021187
          ],
          [
            77.5950745,
            13.0027373
          ]
        ]
      }
    },
    {
      "type": "Feature",
      "properties": {
        "id": "train_051_BND_041",
        "parcel_id": "train_051_P_011",
        "boundary_type": "INFERRED",
        "confidence": 0.673,
        "length_m": 57.81,
        "evidence_sources": [
          "Road_Corridor_Offset",
          "Adjacent_Parcel_Topology"
        ]
      },
      "geometry": {
        "type": "LineString",
        "coordinates": [
          [
            77.5957143,
            13.0033446
          ],
          [
            77.5962466,
            13.0033616
          ]
        ]
      }
    },
    {
      "type": "Feature",
      "properties": {
        "id": "train_051_BND_042",
        "parcel_id": "train_051_P_011",
        "boundary_type": "VISIBLE",
        "confidence": 0.904,
        "length_m": 63.49,
        "evidence_sources": [
          "Drone_RGB_Edge",
          "DSM_Breakline"
        ]
      },
      "geometry": {
        "type": "LineString",
        "coordinates": [
          [
            77.5962466,
            13.0033616
          ],
          [
            77.5962611,
            13.0027882
          ]
        ]
      }
    },
    {
      "type": "Feature",
      "properties": {
        "id": "train_051_BND_043",
        "parcel_id": "train_051_P_011",
        "boundary_type": "INFERRED",
        "confidence": 0.651,
        "length_m": 63.82,
        "evidence_sources": [
          "Road_Corridor_Offset",
          "Adjacent_Parcel_Topology"
        ]
      },
      "geometry": {
        "type": "LineString",
        "coordinates": [
          [
            77.5962611,
            13.0027882
          ],
          [
            77.5956741,
            13.0027549
          ]
        ]
      }
    },
    {
      "type": "Feature",
      "properties": {
        "id": "train_051_BND_044",
        "parcel_id": "train_051_P_011",
        "boundary_type": "VISIBLE",
        "confidence": 0.931,
        "length_m": 65.42,
        "evidence_sources": [
          "Drone_RGB_Edge",
          "DSM_Breakline"
        ]
      },
      "geometry": {
        "type": "LineString",
        "coordinates": [
          [
            77.5956741,
            13.0027549
          ],
          [
            77.5957143,
            13.0033446
          ]
        ]
      }
    },
    {
      "type": "Feature",
      "properties": {
        "id": "train_051_BND_045",
        "parcel_id": "train_051_P_012",
        "boundary_type": "VISIBLE",
        "confidence": 0.954,
        "length_m": 59.81,
        "evidence_sources": [
          "Drone_RGB_Edge",
          "DSM_Breakline"
        ]
      },
      "geometry": {
        "type": "LineString",
        "coordinates": [
          [
            77.5956829,
            13.0027206
          ],
          [
            77.5962325,
            13.0026824
          ]
        ]
      }
    },
    {
      "type": "Feature",
      "properties": {
        "id": "train_051_BND_046",
        "parcel_id": "train_051_P_012",
        "boundary_type": "VISIBLE",
        "confidence": 0.92,
        "length_m": 66.99,
        "evidence_sources": [
          "Drone_RGB_Edge",
          "DSM_Breakline"
        ]
      },
      "geometry": {
        "type": "LineString",
        "coordinates": [
          [
            77.5962325,
            13.0026824
          ],
          [
            77.5962337,
            13.0020772
          ]
        ]
      }
    },
    {
      "type": "Feature",
      "properties": {
        "id": "train_051_BND_047",
        "parcel_id": "train_051_P_012",
        "boundary_type": "VISIBLE",
        "confidence": 0.927,
        "length_m": 57.33,
        "evidence_sources": [
          "Drone_RGB_Edge",
          "DSM_Breakline"
        ]
      },
      "geometry": {
        "type": "LineString",
        "coordinates": [
          [
            77.5962337,
            13.0020772
          ],
          [
            77.5957067,
            13.0021114
          ]
        ]
      }
    },
    {
      "type": "Feature",
      "properties": {
        "id": "train_051_BND_048",
        "parcel_id": "train_051_P_012",
        "boundary_type": "INFERRED",
        "confidence": 0.654,
        "length_m": 67.48,
        "evidence_sources": [
          "Road_Corridor_Offset",
          "Adjacent_Parcel_Topology"
        ]
      },
      "geometry": {
        "type": "LineString",
        "coordinates": [
          [
            77.5957067,
            13.0021114
          ],
          [
            77.5956829,
            13.0027206
          ]
        ]
      }
    },
    {
      "type": "Feature",
      "properties": {
        "id": "train_051_BND_049",
        "parcel_id": "train_051_P_013",
        "boundary_type": "VISIBLE",
        "confidence": 0.822,
        "length_m": 45.56,
        "evidence_sources": [
          "Drone_RGB_Edge",
          "DSM_Breakline"
        ]
      },
      "geometry": {
        "type": "LineString",
        "coordinates": [
          [
            77.596454,
            13.0033649
          ],
          [
            77.5968733,
            13.0033844
          ]
        ]
      }
    },
    {
      "type": "Feature",
      "properties": {
        "id": "train_051_BND_050",
        "parcel_id": "train_051_P_013",
        "boundary_type": "VISIBLE",
        "confidence": 0.825,
        "length_m": 65.95,
        "evidence_sources": [
          "Drone_RGB_Edge",
          "DSM_Breakline"
        ]
      },
      "geometry": {
        "type": "LineString",
        "coordinates": [
          [
            77.5968733,
            13.0033844
          ],
          [
            77.5968444,
            13.0027893
          ]
        ]
      }
    },
    {
      "type": "Feature",
      "properties": {
        "id": "train_051_BND_051",
        "parcel_id": "train_051_P_013",
        "boundary_type": "INFERRED",
        "confidence": 0.7,
        "length_m": 44.26,
        "evidence_sources": [
          "Road_Corridor_Offset",
          "Adjacent_Parcel_Topology"
        ]
      },
      "geometry": {
        "type": "LineString",
        "coordinates": [
          [
            77.5968444,
            13.0027893
          ],
          [
            77.5964367,
            13.0027848
          ]
        ]
      }
    },
    {
      "type": "Feature",
      "properties": {
        "id": "train_051_BND_052",
        "parcel_id": "train_051_P_013",
        "boundary_type": "VISIBLE",
        "confidence": 0.924,
        "length_m": 64.24,
        "evidence_sources": [
          "Drone_RGB_Edge",
          "DSM_Breakline"
        ]
      },
      "geometry": {
        "type": "LineString",
        "coordinates": [
          [
            77.5964367,
            13.0027848
          ],
          [
            77.596454,
            13.0033649
          ]
        ]
      }
    },
    {
      "type": "Feature",
      "properties": {
        "id": "train_051_BND_053",
        "parcel_id": "train_051_P_014",
        "boundary_type": "INFERRED",
        "confidence": 0.708,
        "length_m": 41.83,
        "evidence_sources": [
          "Road_Corridor_Offset",
          "Adjacent_Parcel_Topology"
        ]
      },
      "geometry": {
        "type": "LineString",
        "coordinates": [
          [
            77.5964309,
            13.0026858
          ],
          [
            77.5968162,
            13.0026915
          ]
        ]
      }
    },
    {
      "type": "Feature",
      "properties": {
        "id": "train_051_BND_054",
        "parcel_id": "train_051_P_014",
        "boundary_type": "VISIBLE",
        "confidence": 0.909,
        "length_m": 64.66,
        "evidence_sources": [
          "Drone_RGB_Edge",
          "DSM_Breakline"
        ]
      },
      "geometry": {
        "type": "LineString",
        "coordinates": [
          [
            77.5968162,
            13.0026915
          ],
          [
            77.5968515,
            13.0021084
          ]
        ]
      }
    },
    {
      "type": "Feature",
      "properties": {
        "id": "train_051_BND_055",
        "parcel_id": "train_051_P_014",
        "boundary_type": "VISIBLE",
        "confidence": 0.953,
        "length_m": 42.96,
        "evidence_sources": [
          "Drone_RGB_Edge",
          "DSM_Breakline"
        ]
      },
      "geometry": {
        "type": "LineString",
        "coordinates": [
          [
            77.5968515,
            13.0021084
          ],
          [
            77.5964558,
            13.0021155
          ]
        ]
      }
    },
    {
      "type": "Feature",
      "properties": {
        "id": "train_051_BND_056",
        "parcel_id": "train_051_P_014",
        "boundary_type": "VISIBLE",
        "confidence": 0.847,
        "length_m": 63.19,
        "evidence_sources": [
          "Drone_RGB_Edge",
          "DSM_Breakline"
        ]
      },
      "geometry": {
        "type": "LineString",
        "coordinates": [
          [
            77.5964558,
            13.0021155
          ],
          [
            77.5964309,
            13.0026858
          ]
        ]
      }
    },
    {
      "type": "Feature",
      "properties": {
        "id": "train_051_BND_057",
        "parcel_id": "train_051_P_015",
        "boundary_type": "VISIBLE",
        "confidence": 0.957,
        "length_m": 42.67,
        "evidence_sources": [
          "Drone_RGB_Edge",
          "DSM_Breakline"
        ]
      },
      "geometry": {
        "type": "LineString",
        "coordinates": [
          [
            77.5969003,
            13.0033507
          ],
          [
            77.5972903,
            13.0033987
          ]
        ]
      }
    },
    {
      "type": "Feature",
      "properties": {
        "id": "train_051_BND_058",
        "parcel_id": "train_051_P_015",
        "boundary_type": "VISIBLE",
        "confidence": 0.893,
        "length_m": 71.8,
        "evidence_sources": [
          "Drone_RGB_Edge",
          "DSM_Breakline"
        ]
      },
      "geometry": {
        "type": "LineString",
        "coordinates": [
          [
            77.5972903,
            13.0033987
          ],
          [
            77.59731,
            13.0027504
          ]
        ]
      }
    },
    {
      "type": "Feature",
      "properties": {
        "id": "train_051_BND_059",
        "parcel_id": "train_051_P_015",
        "boundary_type": "VISIBLE",
        "confidence": 0.955,
        "length_m": 43.62,
        "evidence_sources": [
          "Drone_RGB_Edge",
          "DSM_Breakline"
        ]
      },
      "geometry": {
        "type": "LineString",
        "coordinates": [
          [
            77.59731,
            13.0027504
          ],
          [
            77.5969115,
            13.0028013
          ]
        ]
      }
    },
    {
      "type": "Feature",
      "properties": {
        "id": "train_051_BND_060",
        "parcel_id": "train_051_P_015",
        "boundary_type": "VISIBLE",
        "confidence": 0.891,
        "length_m": 60.83,
        "evidence_sources": [
          "Drone_RGB_Edge",
          "DSM_Breakline"
        ]
      },
      "geometry": {
        "type": "LineString",
        "coordinates": [
          [
            77.5969115,
            13.0028013
          ],
          [
            77.5969003,
            13.0033507
          ]
        ]
      }
    },
    {
      "type": "Feature",
      "properties": {
        "id": "train_051_BND_061",
        "parcel_id": "train_051_P_016",
        "boundary_type": "VISIBLE",
        "confidence": 0.828,
        "length_m": 40.15,
        "evidence_sources": [
          "Drone_RGB_Edge",
          "DSM_Breakline"
        ]
      },
      "geometry": {
        "type": "LineString",
        "coordinates": [
          [
            77.5969156,
            13.0027117
          ],
          [
            77.5972841,
            13.0026799
          ]
        ]
      }
    },
    {
      "type": "Feature",
      "properties": {
        "id": "train_051_BND_062",
        "parcel_id": "train_051_P_016",
        "boundary_type": "VISIBLE",
        "confidence": 0.94,
        "length_m": 66.97,
        "evidence_sources": [
          "Drone_RGB_Edge",
          "DSM_Breakline"
        ]
      },
      "geometry": {
        "type": "LineString",
        "coordinates": [
          [
            77.5972841,
            13.0026799
          ],
          [
            77.5972602,
            13.0020754
          ]
        ]
      }
    },
    {
      "type": "Feature",
      "properties": {
        "id": "train_051_BND_063",
        "parcel_id": "train_051_P_016",
        "boundary_type": "VISIBLE",
        "confidence": 0.916,
        "length_m": 40.13,
        "evidence_sources": [
          "Drone_RGB_Edge",
          "DSM_Breakline"
        ]
      },
      "geometry": {
        "type": "LineString",
        "coordinates": [
          [
            77.5972602,
            13.0020754
          ],
          [
            77.5968949,
            13.0021312
          ]
        ]
      }
    },
    {
      "type": "Feature",
      "properties": {
        "id": "train_051_BND_064",
        "parcel_id": "train_051_P_016",
        "boundary_type": "INFERRED",
        "confidence": 0.755,
        "length_m": 64.3,
        "evidence_sources": [
          "Road_Corridor_Offset",
          "Adjacent_Parcel_Topology"
        ]
      },
      "geometry": {
        "type": "LineString",
        "coordinates": [
          [
            77.5968949,
            13.0021312
          ],
          [
            77.5969156,
            13.0027117
          ]
        ]
      }
    }
  ]
}