{
  "type": "FeatureCollection",
  "crs": {
    "type": "name",
    "properties": {
      "name": "EPSG:4326"
    }
  },
  "features": [
    {
      "type": "Feature",
      "properties": {
        "id": "train_051_BLDG_001",
        "parcel_id": "train_051_P_001",
        "area_sqm": 1070.36,
        "perimeter_m": 132.53,
        "centroid_lon": 77.5953426,
        "centroid_lat": 13.0041469,
        "height_m": 6.18,
        "confidence": 0.782,
        "temporal_epoch": "T1"
      },
      "geometry": {
        "type": "Polygon",
        "coordinates": [
          [
            [
              77.5951659,
              13.0042729
            ],
            [
              77.5955194,
              13.0042729
            ],
            [
              77.5955194,
              13.0040209
            ],
            [
              77.5951659,
              13.0040209
            ],
            [
              77.5951659,
              13.0042729
            ]
          ]
        ]
      }
    },
    {
      "type": "Feature",
      "properties": {
        "id": "train_051_BLDG_002",
        "parcel_id": "train_051_P_002",
        "area_sqm": 1070.36,
        "perimeter_m": 132.53,
        "centroid_lon": 77.5953426,
        "centroid_lat": 13.0037531,
        "height_m": 6.24,
        "confidence": 0.951,
        "temporal_epoch": "T1"
      },
      "geometry": {
        "type": "Polygon",
        "coordinates": [
          [
            [
              77.5951659,
              13.0038791
            ],
            [
              77.5955194,
              13.0038791
            ],
            [
              77.5955194,
              13.0036271
            ],
            [
              77.5951659,
              13.0036271
            ],
            [
              77.5951659,
              13.0038791
            ]
          ]
        ]
      }
    },
    {
      "type": "Feature",
      "properties": {
        "id": "train_051_BLDG_003",
        "parcel_id": "train_051_P_003",
        "area_sqm": 1655.05,
        "perimeter_m": 174.45,
        "centroid_lon": 77.5960486,
        "centroid_lat": 13.0041469,
        "height_m": 10.09,
        "confidence": 0.79,
        "temporal_epoch": "T1"
      },
      "geometry": {
        "type": "Polygon",
        "coordinates": [
          [
            [
              77.5957753,
              13.0042729
            ],
            [
              77.5963219,
              13.0042729
            ],
            [
              77.5963219,
              13.0040209
            ],
            [
              77.5957753,
              13.0040209
            ],
            [
              77.5957753,
              13.0042729
            ]
          ]
        ]
      }
    },
    {
      "type": "Feature",
      "properties": {
        "id": "train_051_BLDG_004",
        "parcel_id": "train_051_P_004",
        "area_sqm": 1070.36,
        "perimeter_m": 132.53,
        "centroid_lon": 77.5959521,
        "centroid_lat": 13.0037531,
        "height_m": 6.59,
        "confidence": 0.888,
        "temporal_epoch": "T1"
      },
      "geometry": {
        "type": "Polygon",
        "coordinates": [
          [
            [
              77.5957753,
              13.0038791
            ],
            [
              77.5961288,
              13.0038791
            ],
            [
              77.5961288,
              13.0036271
            ],
            [
              77.5957753,
              13.0036271
            ],
            [
              77.5957753,
              13.0038791
            ]
          ]
        ]
      }
    },
    {
      "type": "Feature",
      "properties": {
        "id": "train_051_BLDG_005",
        "parcel_id": "train_051_P_008",
        "area_sqm": 790.28,
        "perimeter_m": 112.45,
        "centroid_lon": 77.5970865,
        "centroid_lat": 13.0037531,
        "height_m": 7.61,
        "confidence": 0.781,
        "temporal_epoch": "T1"
      },
      "geometry": {
        "type": "Polygon",
        "coordinates": [
          [
            [
              77.596956,
              13.0038791
            ],
            [
              77.597217,
              13.0038791
            ],
            [
              77.597217,
              13.0036271
            ],
            [
              77.596956,
              13.0036271
            ],
            [
              77.596956,
              13.0038791
            ]
          ]
        ]
      }
    },
    {
      "type": "Feature",
      "properties": {
        "id": "train_051_BLDG_006",
        "parcel_id": "train_051_P_009",
        "area_sqm": 1809.43,
        "perimeter_m": 171.05,
        "centroid_lon": 77.5953426,
        "centroid_lat": 13.0030734,
        "height_m": 11.02,
        "confidence": 0.877,
        "temporal_epoch": "T1"
      },
      "geometry": {
        "type": "Polygon",
        "coordinates": [
          [
            [
              77.5951659,
              13.0032864
            ],
            [
              77.5955194,
              13.0032864
            ],
            [
              77.5955194,
              13.0028604
            ],
            [
              77.5951659,
              13.0028604
            ],
            [
              77.5951659,
              13.0032864
            ]
          ]
        ]
      }
    },
    {
      "type": "Feature",
      "properties": {
        "id": "train_051_BLDG_007",
        "parcel_id": "train_051_P_010",
        "area_sqm": 1809.43,
        "perimeter_m": 171.05,
        "centroid_lon": 77.5953426,
        "centroid_lat": 13.0024078,
        "height_m": 7.85,
        "confidence": 0.849,
        "temporal_epoch": "T1"
      },
      "geometry": {
        "type": "Polygon",
        "coordinates": [
          [
            [
              77.5951659,
              13.0026208
            ],
            [
              77.5955194,
              13.0026208
            ],
            [
              77.5955194,
              13.0021948
            ],
            [
              77.5951659,
              13.0021948
            ],
            [
              77.5951659,
              13.0026208
            ]
          ]
        ]
      }
    },
    {
      "type": "Feature",
      "properties": {
        "id": "train_051_BLDG_008",
        "parcel_id": "train_051_P_011",
        "area_sqm": 1809.43,
        "perimeter_m": 171.05,
        "centroid_lon": 77.595952,
        "centroid_lat": 13.0030734,
        "height_m": 5.01,
        "confidence": 0.78,
        "temporal_epoch": "T1"
      },
      "geometry": {
        "type": "Polygon",
        "coordinates": [
          [
            [
              77.5957753,
              13.0032864
            ],
            [
              77.5961288,
              13.0032864
            ],
            [
              77.5961288,
              13.0028604
            ],
            [
              77.5957753,
              13.0028604
            ],
            [
              77.5957753,
              13.0032864
            ]
          ]
        ]
      }
    },
    {
      "type": "Feature",
      "properties": {
        "id": "train_051_BLDG_009",
        "parcel_id": "train_051_P_012",
        "area_sqm": 1809.44,
        "perimeter_m": 171.05,
        "centroid_lon": 77.595952,
        "centroid_lat": 13.0024078,
        "height_m": 5.84,
        "confidence": 0.788,
        "temporal_epoch": "T1"
      },
      "geometry": {
        "type": "Polygon",
        "coordinates": [
          [
            [
              77.5957753,
              13.0026208
            ],
            [
              77.5961288,
              13.0026208
            ],
            [
              77.5961288,
              13.0021948
            ],
            [
              77.5957753,
              13.0021948
            ],
            [
              77.5957753,
              13.0026208
            ]
          ]
        ]
      }
    },
    {
      "type": "Feature",
      "properties": {
        "id": "train_051_BLDG_010",
        "parcel_id": "train_051_P_013",
        "area_sqm": 1335.96,
        "perimeter_m": 150.97,
        "centroid_lon": 77.5966365,
        "centroid_lat": 13.0030734,
        "height_m": 8.14,
        "confidence": 0.893,
        "temporal_epoch": "T1"
      },
      "geometry": {
        "type": "Polygon",
        "coordinates": [
          [
            [
              77.596506,
              13.0032864
            ],
            [
              77.596767,
              13.0032864
            ],
            [
              77.596767,
              13.0028604
            ],
            [
              77.596506,
              13.0028604
            ],
            [
              77.596506,
              13.0032864
            ]
          ]
        ]
      }
    }
  ]
}