{
  "type": "FeatureCollection",
  "crs": {
    "type": "name",
    "properties": {
      "name": "EPSG:4326"
    }
  },
  "features": [
    {
      "type": "Feature",
      "properties": {
        "id": "train_040_BND_001",
        "parcel_id": "train_040_P_001",
        "boundary_type": "VISIBLE",
        "confidence": 0.876,
        "length_m": 65.93,
        "evidence_sources": [
          "Drone_RGB_Edge",
          "DSM_Breakline"
        ]
      },
      "geometry": {
        "type": "LineString",
        "coordinates": [
          [
            77.6070723,
            13.0013284
          ],
          [
            77.6076797,
            13.0013251
          ]
        ]
      }
    },
    {
      "type": "Feature",
      "properties": {
        "id": "train_040_BND_002",
        "parcel_id": "train_040_P_001",
        "boundary_type": "VISIBLE",
        "confidence": 0.891,
        "length_m": 46.78,
        "evidence_sources": [
          "Drone_RGB_Edge",
          "DSM_Breakline"
        ]
      },
      "geometry": {
        "type": "LineString",
        "coordinates": [
          [
            77.6076797,
            13.0013251
          ],
          [
            77.6076657,
            13.0009027
          ]
        ]
      }
    },
    {
      "type": "Feature",
      "properties": {
        "id": "train_040_BND_003",
        "parcel_id": "train_040_P_001",
        "boundary_type": "INFERRED",
        "confidence": 0.617,
        "length_m": 64.93,
        "evidence_sources": [
          "Road_Corridor_Offset",
          "Adjacent_Parcel_Topology"
        ]
      },
      "geometry": {
        "type": "LineString",
        "coordinates": [
          [
            77.6076657,
            13.0009027
          ],
          [
            77.6070676,
            13.0009103
          ]
        ]
      }
    },
    {
      "type": "Feature",
      "properties": {
        "id": "train_040_BND_004",
        "parcel_id": "train_040_P_001",
        "boundary_type": "VISIBLE",
        "confidence": 0.845,
        "length_m": 46.28,
        "evidence_sources": [
          "Drone_RGB_Edge",
          "DSM_Breakline"
        ]
      },
      "geometry": {
        "type": "LineString",
        "coordinates": [
          [
            77.6070676,
            13.0009103
          ],
          [
            77.6070723,
            13.0013284
          ]
        ]
      }
    },
    {
      "type": "Feature",
      "properties": {
        "id": "train_040_BND_005",
        "parcel_id": "train_040_P_002",
        "boundary_type": "INFERRED",
        "confidence": 0.721,
        "length_m": 65.15,
        "evidence_sources": [
          "Road_Corridor_Offset",
          "Adjacent_Parcel_Topology"
        ]
      },
      "geometry": {
        "type": "LineString",
        "coordinates": [
          [
            77.6070678,
            13.0008874
          ],
          [
            77.607668,
            13.0008857
          ]
        ]
      }
    },
    {
      "type": "Feature",
      "properties": {
        "id": "train_040_BND_006",
        "parcel_id": "train_040_P_002",
        "boundary_type": "VISIBLE",
        "confidence": 0.851,
        "length_m": 47.52,
        "evidence_sources": [
          "Drone_RGB_Edge",
          "DSM_Breakline"
        ]
      },
      "geometry": {
        "type": "LineString",
        "coordinates": [
          [
            77.607668,
            13.0008857
          ],
          [
            77.607682,
            13.0004566
          ]
        ]
      }
    },
    {
      "type": "Feature",
      "properties": {
        "id": "train_040_BND_007",
        "parcel_id": "train_040_P_002",
        "boundary_type": "VISIBLE",
        "confidence": 0.924,
        "length_m": 66.21,
        "evidence_sources": [
          "Drone_RGB_Edge",
          "DSM_Breakline"
        ]
      },
      "geometry": {
        "type": "LineString",
        "coordinates": [
          [
            77.607682,
            13.0004566
          ],
          [
            77.607072,
            13.0004567
          ]
        ]
      }
    },
    {
      "type": "Feature",
      "properties": {
        "id": "train_040_BND_008",
        "parcel_id": "train_040_P_002",
        "boundary_type": "VISIBLE",
        "confidence": 0.85,
        "length_m": 47.68,
        "evidence_sources": [
          "Drone_RGB_Edge",
          "DSM_Breakline"
        ]
      },
      "geometry": {
        "type": "LineString",
        "coordinates": [
          [
            77.607072,
            13.0004567
          ],
          [
            77.6070678,
            13.0008874
          ]
        ]
      }
    },
    {
      "type": "Feature",
      "properties": {
        "id": "train_040_BND_009",
        "parcel_id": "train_040_P_003",
        "boundary_type": "VISIBLE",
        "confidence": 0.867,
        "length_m": 65.21,
        "evidence_sources": [
          "Drone_RGB_Edge",
          "DSM_Breakline"
        ]
      },
      "geometry": {
        "type": "LineString",
        "coordinates": [
          [
            77.6077042,
            13.0013241
          ],
          [
            77.6083047,
            13.0013406
          ]
        ]
      }
    },
    {
      "type": "Feature",
      "properties": {
        "id": "train_040_BND_010",
        "parcel_id": "train_040_P_003",
        "boundary_type": "INFERRED",
        "confidence": 0.618,
        "length_m": 48.95,
        "evidence_sources": [
          "Road_Corridor_Offset",
          "Adjacent_Parcel_Topology"
        ]
      },
      "geometry": {
        "type": "LineString",
        "coordinates": [
          [
            77.6083047,
            13.0013406
          ],
          [
            77.6083058,
            13.0008984
          ]
        ]
      }
    },
    {
      "type": "Feature",
      "properties": {
        "id": "train_040_BND_011",
        "parcel_id": "train_040_P_003",
        "boundary_type": "VISIBLE",
        "confidence": 0.84,
        "length_m": 65.79,
        "evidence_sources": [
          "Drone_RGB_Edge",
          "DSM_Breakline"
        ]
      },
      "geometry": {
        "type": "LineString",
        "coordinates": [
          [
            77.6083058,
            13.0008984
          ],
          [
            77.6076998,
            13.0009088
          ]
        ]
      }
    },
    {
      "type": "Feature",
      "properties": {
        "id": "train_040_BND_012",
        "parcel_id": "train_040_P_003",
        "boundary_type": "VISIBLE",
        "confidence": 0.938,
        "length_m": 45.97,
        "evidence_sources": [
          "Drone_RGB_Edge",
          "DSM_Breakline"
        ]
      },
      "geometry": {
        "type": "LineString",
        "coordinates": [
          [
            77.6076998,
            13.0009088
          ],
          [
            77.6077042,
            13.0013241
          ]
        ]
      }
    },
    {
      "type": "Feature",
      "properties": {
        "id": "train_040_BND_013",
        "parcel_id": "train_040_P_004",
        "boundary_type": "INFERRED",
        "confidence": 0.781,
        "length_m": 67.37,
        "evidence_sources": [
          "Road_Corridor_Offset",
          "Adjacent_Parcel_Topology"
        ]
      },
      "geometry": {
        "type": "LineString",
        "coordinates": [
          [
            77.6076887,
            13.0008776
          ],
          [
            77.6083092,
            13.0008909
          ]
        ]
      }
    },
    {
      "type": "Feature",
      "properties": {
        "id": "train_040_BND_014",
        "parcel_id": "train_040_P_004",
        "boundary_type": "VISIBLE",
        "confidence": 0.889,
        "length_m": 48.8,
        "evidence_sources": [
          "Drone_RGB_Edge",
          "DSM_Breakline"
        ]
      },
      "geometry": {
        "type": "LineString",
        "coordinates": [
          [
            77.6083092,
            13.0008909
          ],
          [
            77.6083116,
            13.0004501
          ]
        ]
      }
    },
    {
      "type": "Feature",
      "properties": {
        "id": "train_040_BND_015",
        "parcel_id": "train_040_P_004",
        "boundary_type": "VISIBLE",
        "confidence": 0.845,
        "length_m": 66.27,
        "evidence_sources": [
          "Drone_RGB_Edge",
          "DSM_Breakline"
        ]
      },
      "geometry": {
        "type": "LineString",
        "coordinates": [
          [
            77.6083116,
            13.0004501
          ],
          [
            77.6077012,
            13.0004626
          ]
        ]
      }
    },
    {
      "type": "Feature",
      "properties": {
        "id": "train_040_BND_016",
        "parcel_id": "train_040_P_004",
        "boundary_type": "VISIBLE",
        "confidence": 0.889,
        "length_m": 45.96,
        "evidence_sources": [
          "Drone_RGB_Edge",
          "DSM_Breakline"
        ]
      },
      "geometry": {
        "type": "LineString",
        "coordinates": [
          [
            77.6077012,
            13.0004626
          ],
          [
            77.6076887,
            13.0008776
          ]
        ]
      }
    },
    {
      "type": "Feature",
      "properties": {
        "id": "train_040_BND_017",
        "parcel_id": "train_040_P_005",
        "boundary_type": "VISIBLE",
        "confidence": 0.837,
        "length_m": 41.56,
        "evidence_sources": [
          "Drone_RGB_Edge",
          "DSM_Breakline"
        ]
      },
      "geometry": {
        "type": "LineString",
        "coordinates": [
          [
            77.6085141,
            13.0013422
          ],
          [
            77.6088969,
            13.001335
          ]
        ]
      }
    },
    {
      "type": "Feature",
      "properties": {
        "id": "train_040_BND_018",
        "parcel_id": "train_040_P_005",
        "boundary_type": "VISIBLE",
        "confidence": 0.954,
        "length_m": 47.96,
        "evidence_sources": [
          "Drone_RGB_Edge",
          "DSM_Breakline"
        ]
      },
      "geometry": {
        "type": "LineString",
        "coordinates": [
          [
            77.6088969,
            13.001335
          ],
          [
            77.608891,
            13.0009018
          ]
        ]
      }
    },
    {
      "type": "Feature",
      "properties": {
        "id": "train_040_BND_019",
        "parcel_id": "train_040_P_005",
        "boundary_type": "VISIBLE",
        "confidence": 0.92,
        "length_m": 41.93,
        "evidence_sources": [
          "Drone_RGB_Edge",
          "DSM_Breakline"
        ]
      },
      "geometry": {
        "type": "LineString",
        "coordinates": [
          [
            77.608891,
            13.0009018
          ],
          [
            77.6085047,
            13.0009056
          ]
        ]
      }
    },
    {
      "type": "Feature",
      "properties": {
        "id": "train_040_BND_020",
        "parcel_id": "train_040_P_005",
        "boundary_type": "VISIBLE",
        "confidence": 0.917,
        "length_m": 48.34,
        "evidence_sources": [
          "Drone_RGB_Edge",
          "DSM_Breakline"
        ]
      },
      "geometry": {
        "type": "LineString",
        "coordinates": [
          [
            77.6085047,
            13.0009056
          ],
          [
            77.6085141,
            13.0013422
          ]
        ]
      }
    },
    {
      "type": "Feature",
      "properties": {
        "id": "train_040_BND_021",
        "parcel_id": "train_040_P_006",
        "boundary_type": "VISIBLE",
        "confidence": 0.864,
        "length_m": 41.94,
        "evidence_sources": [
          "Drone_RGB_Edge",
          "DSM_Breakline"
        ]
      },
      "geometry": {
        "type": "LineString",
        "coordinates": [
          [
            77.6085085,
            13.0008784
          ],
          [
            77.6088947,
            13.0008894
          ]
        ]
      }
    },
    {
      "type": "Feature",
      "properties": {
        "id": "train_040_BND_022",
        "parcel_id": "train_040_P_006",
        "boundary_type": "VISIBLE",
        "confidence": 0.861,
        "length_m": 47.71,
        "evidence_sources": [
          "Drone_RGB_Edge",
          "DSM_Breakline"
        ]
      },
      "geometry": {
        "type": "LineString",
        "coordinates": [
          [
            77.6088947,
            13.0008894
          ],
          [
            77.6089021,
            13.0004585
          ]
        ]
      }
    },
    {
      "type": "Feature",
      "properties": {
        "id": "train_040_BND_023",
        "parcel_id": "train_040_P_006",
        "boundary_type": "VISIBLE",
        "confidence": 0.913,
        "length_m": 42.99,
        "evidence_sources": [
          "Drone_RGB_Edge",
          "DSM_Breakline"
        ]
      },
      "geometry": {
        "type": "LineString",
        "coordinates": [
          [
            77.6089021,
            13.0004585
          ],
          [
            77.6085061,
            13.0004544
          ]
        ]
      }
    },
    {
      "type": "Feature",
      "properties": {
        "id": "train_040_BND_024",
        "parcel_id": "train_040_P_006",
        "boundary_type": "VISIBLE",
        "confidence": 0.828,
        "length_m": 46.94,
        "evidence_sources": [
          "Drone_RGB_Edge",
          "DSM_Breakline"
        ]
      },
      "geometry": {
        "type": "LineString",
        "coordinates": [
          [
            77.6085061,
            13.0004544
          ],
          [
            77.6085085,
            13.0008784
          ]
        ]
      }
    },
    {
      "type": "Feature",
      "properties": {
        "id": "train_040_BND_025",
        "parcel_id": "train_040_P_007",
        "boundary_type": "VISIBLE",
        "confidence": 0.838,
        "length_m": 42.72,
        "evidence_sources": [
          "Drone_RGB_Edge",
          "DSM_Breakline"
        ]
      },
      "geometry": {
        "type": "LineString",
        "coordinates": [
          [
            77.6089148,
            13.0013283
          ],
          [
            77.6093083,
            13.0013223
          ]
        ]
      }
    },
    {
      "type": "Feature",
      "properties": {
        "id": "train_040_BND_026",
        "parcel_id": "train_040_P_007",
        "boundary_type": "VISIBLE",
        "confidence": 0.953,
        "length_m": 46.51,
        "evidence_sources": [
          "Drone_RGB_Edge",
          "DSM_Breakline"
        ]
      },
      "geometry": {
        "type": "LineString",
        "coordinates": [
          [
            77.6093083,
            13.0013223
          ],
          [
            77.6093234,
            13.0009024
          ]
        ]
      }
    },
    {
      "type": "Feature",
      "properties": {
        "id": "train_040_BND_027",
        "parcel_id": "train_040_P_007",
        "boundary_type": "VISIBLE",
        "confidence": 0.949,
        "length_m": 44.32,
        "evidence_sources": [
          "Drone_RGB_Edge",
          "DSM_Breakline"
        ]
      },
      "geometry": {
        "type": "LineString",
        "coordinates": [
          [
            77.6093234,
            13.0009024
          ],
          [
            77.6089151,
            13.0009015
          ]
        ]
      }
    },
    {
      "type": "Feature",
      "properties": {
        "id": "train_040_BND_028",
        "parcel_id": "train_040_P_007",
        "boundary_type": "VISIBLE",
        "confidence": 0.85,
        "length_m": 47.25,
        "evidence_sources": [
          "Drone_RGB_Edge",
          "DSM_Breakline"
        ]
      },
      "geometry": {
        "type": "LineString",
        "coordinates": [
          [
            77.6089151,
            13.0009015
          ],
          [
            77.6089148,
            13.0013283
          ]
        ]
      }
    },
    {
      "type": "Feature",
      "properties": {
        "id": "train_040_BND_029",
        "parcel_id": "train_040_P_008",
        "boundary_type": "VISIBLE",
        "confidence": 0.86,
        "length_m": 44.11,
        "evidence_sources": [
          "Drone_RGB_Edge",
          "DSM_Breakline"
        ]
      },
      "geometry": {
        "type": "LineString",
        "coordinates": [
          [
            77.6089142,
            13.0008915
          ],
          [
            77.6093204,
            13.0008788
          ]
        ]
      }
    },
    {
      "type": "Feature",
      "properties": {
        "id": "train_040_BND_030",
        "parcel_id": "train_040_P_008",
        "boundary_type": "INFERRED",
        "confidence": 0.692,
        "length_m": 46.71,
        "evidence_sources": [
          "Road_Corridor_Offset",
          "Adjacent_Parcel_Topology"
        ]
      },
      "geometry": {
        "type": "LineString",
        "coordinates": [
          [
            77.6093204,
            13.0008788
          ],
          [
            77.6093196,
            13.0004568
          ]
        ]
      }
    },
    {
      "type": "Feature",
      "properties": {
        "id": "train_040_BND_031",
        "parcel_id": "train_040_P_008",
        "boundary_type": "VISIBLE",
        "confidence": 0.864,
        "length_m": 42.55,
        "evidence_sources": [
          "Drone_RGB_Edge",
          "DSM_Breakline"
        ]
      },
      "geometry": {
        "type": "LineString",
        "coordinates": [
          [
            77.6093196,
            13.0004568
          ],
          [
            77.6089276,
            13.0004531
          ]
        ]
      }
    },
    {
      "type": "Feature",
      "properties": {
        "id": "train_040_BND_032",
        "parcel_id": "train_040_P_008",
        "boundary_type": "VISIBLE",
        "confidence": 0.914,
        "length_m": 48.55,
        "evidence_sources": [
          "Drone_RGB_Edge",
          "DSM_Breakline"
        ]
      },
      "geometry": {
        "type": "LineString",
        "coordinates": [
          [
            77.6089276,
            13.0004531
          ],
          [
            77.6089142,
            13.0008915
          ]
        ]
      }
    },
    {
      "type": "Feature",
      "properties": {
        "id": "train_040_BND_033",
        "parcel_id": "train_040_P_009",
        "boundary_type": "VISIBLE",
        "confidence": 0.86,
        "length_m": 64.51,
        "evidence_sources": [
          "Drone_RGB_Edge",
          "DSM_Breakline"
        ]
      },
      "geometry": {
        "type": "LineString",
        "coordinates": [
          [
            77.6070787,
            13.0002353
          ],
          [
            77.607673,
            13.0002359
          ]
        ]
      }
    },
    {
      "type": "Feature",
      "properties": {
        "id": "train_040_BND_034",
        "parcel_id": "train_040_P_009",
        "boundary_type": "VISIBLE",
        "confidence": 0.856,
        "length_m": 61.85,
        "evidence_sources": [
          "Drone_RGB_Edge",
          "DSM_Breakline"
        ]
      },
      "geometry": {
        "type": "LineString",
        "coordinates": [
          [
            77.607673,
            13.0002359
          ],
          [
            77.6076699,
            12.9996772
          ]
        ]
      }
    },
    {
      "type": "Feature",
      "properties": {
        "id": "train_040_BND_035",
        "parcel_id": "train_040_P_009",
        "boundary_type": "INFERRED",
        "confidence": 0.754,
        "length_m": 64.19,
        "evidence_sources": [
          "Road_Corridor_Offset",
          "Adjacent_Parcel_Topology"
        ]
      },
      "geometry": {
        "type": "LineString",
        "coordinates": [
          [
            77.6076699,
            12.9996772
          ],
          [
            77.6070786,
            12.9996787
          ]
        ]
      }
    },
    {
      "type": "Feature",
      "properties": {
        "id": "train_040_BND_036",
        "parcel_id": "train_040_P_009",
        "boundary_type": "VISIBLE",
        "confidence": 0.822,
        "length_m": 61.61,
        "evidence_sources": [
          "Drone_RGB_Edge",
          "DSM_Breakline"
        ]
      },
      "geometry": {
        "type": "LineString",
        "coordinates": [
          [
            77.6070786,
            12.9996787
          ],
          [
            77.6070787,
            13.0002353
          ]
        ]
      }
    },
    {
      "type": "Feature",
      "properties": {
        "id": "train_040_BND_037",
        "parcel_id": "train_040_P_010",
        "boundary_type": "VISIBLE",
        "confidence": 0.829,
        "length_m": 66.5,
        "evidence_sources": [
          "Drone_RGB_Edge",
          "DSM_Breakline"
        ]
      },
      "geometry": {
        "type": "LineString",
        "coordinates": [
          [
            77.6070612,
            12.9996482
          ],
          [
            77.6076738,
            12.9996448
          ]
        ]
      }
    },
    {
      "type": "Feature",
      "properties": {
        "id": "train_040_BND_038",
        "parcel_id": "train_040_P_010",
        "boundary_type": "VISIBLE",
        "confidence": 0.82,
        "length_m": 62.93,
        "evidence_sources": [
          "Drone_RGB_Edge",
          "DSM_Breakline"
        ]
      },
      "geometry": {
        "type": "LineString",
        "coordinates": [
          [
            77.6076738,
            12.9996448
          ],
          [
            77.6076817,
            12.9990764
          ]
        ]
      }
    },
    {
      "type": "Feature",
      "properties": {
        "id": "train_040_BND_039",
        "parcel_id": "train_040_P_010",
        "boundary_type": "VISIBLE",
        "confidence": 0.836,
        "length_m": 66.51,
        "evidence_sources": [
          "Drone_RGB_Edge",
          "DSM_Breakline"
        ]
      },
      "geometry": {
        "type": "LineString",
        "coordinates": [
          [
            77.6076817,
            12.9990764
          ],
          [
            77.607069,
            12.9990775
          ]
        ]
      }
    },
    {
      "type": "Feature",
      "properties": {
        "id": "train_040_BND_040",
        "parcel_id": "train_040_P_010",
        "boundary_type": "INFERRED",
        "confidence": 0.711,
        "length_m": 63.18,
        "evidence_sources": [
          "Road_Corridor_Offset",
          "Adjacent_Parcel_Topology"
        ]
      },
      "geometry": {
        "type": "LineString",
        "coordinates": [
          [
            77.607069,
            12.9990775
          ],
          [
            77.6070612,
            12.9996482
          ]
        ]
      }
    },
    {
      "type": "Feature",
      "properties": {
        "id": "train_040_BND_041",
        "parcel_id": "train_040_P_011",
        "boundary_type": "VISIBLE",
        "confidence": 0.861,
        "length_m": 64.69,
        "evidence_sources": [
          "Drone_RGB_Edge",
          "DSM_Breakline"
        ]
      },
      "geometry": {
        "type": "LineString",
        "coordinates": [
          [
            77.6077023,
            13.0002455
          ],
          [
            77.6082982,
            13.000235
          ]
        ]
      }
    },
    {
      "type": "Feature",
      "properties": {
        "id": "train_040_BND_042",
        "parcel_id": "train_040_P_011",
        "boundary_type": "VISIBLE",
        "confidence": 0.832,
        "length_m": 61.75,
        "evidence_sources": [
          "Drone_RGB_Edge",
          "DSM_Breakline"
        ]
      },
      "geometry": {
        "type": "LineString",
        "coordinates": [
          [
            77.6082982,
            13.000235
          ],
          [
            77.6083049,
            12.9996772
          ]
        ]
      }
    },
    {
      "type": "Feature",
      "properties": {
        "id": "train_040_BND_043",
        "parcel_id": "train_040_P_011",
        "boundary_type": "VISIBLE",
        "confidence": 0.958,
        "length_m": 65.68,
        "evidence_sources": [
          "Drone_RGB_Edge",
          "DSM_Breakline"
        ]
      },
      "geometry": {
        "type": "LineString",
        "coordinates": [
          [
            77.6083049,
            12.9996772
          ],
          [
            77.6076998,
            12.9996802
          ]
        ]
      }
    },
    {
      "type": "Feature",
      "properties": {
        "id": "train_040_BND_044",
        "parcel_id": "train_040_P_011",
        "boundary_type": "VISIBLE",
        "confidence": 0.938,
        "length_m": 62.58,
        "evidence_sources": [
          "Drone_RGB_Edge",
          "DSM_Breakline"
        ]
      },
      "geometry": {
        "type": "LineString",
        "coordinates": [
          [
            77.6076998,
            12.9996802
          ],
          [
            77.6077023,
            13.0002455
          ]
        ]
      }
    },
    {
      "type": "Feature",
      "properties": {
        "id": "train_040_BND_045",
        "parcel_id": "train_040_P_012",
        "boundary_type": "VISIBLE",
        "confidence": 0.952,
        "length_m": 66.63,
        "evidence_sources": [
          "Drone_RGB_Edge",
          "DSM_Breakline"
        ]
      },
      "geometry": {
        "type": "LineString",
        "coordinates": [
          [
            77.6076899,
            12.9996602
          ],
          [
            77.6083037,
            12.9996649
          ]
        ]
      }
    },
    {
      "type": "Feature",
      "properties": {
        "id": "train_040_BND_046",
        "parcel_id": "train_040_P_012",
        "boundary_type": "INFERRED",
        "confidence": 0.731,
        "length_m": 62.88,
        "evidence_sources": [
          "Road_Corridor_Offset",
          "Adjacent_Parcel_Topology"
        ]
      },
      "geometry": {
        "type": "LineString",
        "coordinates": [
          [
            77.6083037,
            12.9996649
          ],
          [
            77.6082947,
            12.9990969
          ]
        ]
      }
    },
    {
      "type": "Feature",
      "properties": {
        "id": "train_040_BND_047",
        "parcel_id": "train_040_P_012",
        "boundary_type": "VISIBLE",
        "confidence": 0.856,
        "length_m": 66.18,
        "evidence_sources": [
          "Drone_RGB_Edge",
          "DSM_Breakline"
        ]
      },
      "geometry": {
        "type": "LineString",
        "coordinates": [
          [
            77.6082947,
            12.9990969
          ],
          [
            77.6076853,
            12.9990784
          ]
        ]
      }
    },
    {
      "type": "Feature",
      "properties": {
        "id": "train_040_BND_048",
        "parcel_id": "train_040_P_012",
        "boundary_type": "INFERRED",
        "confidence": 0.682,
        "length_m": 64.4,
        "evidence_sources": [
          "Road_Corridor_Offset",
          "Adjacent_Parcel_Topology"
        ]
      },
      "geometry": {
        "type": "LineString",
        "coordinates": [
          [
            77.6076853,
            12.9990784
          ],
          [
            77.6076899,
            12.9996602
          ]
        ]
      }
    },
    {
      "type": "Feature",
      "properties": {
        "id": "train_040_BND_049",
        "parcel_id": "train_040_P_013",
        "boundary_type": "INFERRED",
        "confidence": 0.627,
        "length_m": 40.7,
        "evidence_sources": [
          "Road_Corridor_Offset",
          "Adjacent_Parcel_Topology"
        ]
      },
      "geometry": {
        "type": "LineString",
        "coordinates": [
          [
            77.6085215,
            13.0002531
          ],
          [
            77.6088963,
            13.0002419
          ]
        ]
      }
    },
    {
      "type": "Feature",
      "properties": {
        "id": "train_040_BND_050",
        "parcel_id": "train_040_P_013",
        "boundary_type": "VISIBLE",
        "confidence": 0.899,
        "length_m": 62.16,
        "evidence_sources": [
          "Drone_RGB_Edge",
          "DSM_Breakline"
        ]
      },
      "geometry": {
        "type": "LineString",
        "coordinates": [
          [
            77.6088963,
            13.0002419
          ],
          [
            77.6089105,
            12.9996805
          ]
        ]
      }
    },
    {
      "type": "Feature",
      "properties": {
        "id": "train_040_BND_051",
        "parcel_id": "train_040_P_013",
        "boundary_type": "VISIBLE",
        "confidence": 0.945,
        "length_m": 43.75,
        "evidence_sources": [
          "Drone_RGB_Edge",
          "DSM_Breakline"
        ]
      },
      "geometry": {
        "type": "LineString",
        "coordinates": [
          [
            77.6089105,
            12.9996805
          ],
          [
            77.6085076,
            12.9996685
          ]
        ]
      }
    },
    {
      "type": "Feature",
      "properties": {
        "id": "train_040_BND_052",
        "parcel_id": "train_040_P_013",
        "boundary_type": "INFERRED",
        "confidence": 0.773,
        "length_m": 64.73,
        "evidence_sources": [
          "Road_Corridor_Offset",
          "Adjacent_Parcel_Topology"
        ]
      },
      "geometry": {
        "type": "LineString",
        "coordinates": [
          [
            77.6085076,
            12.9996685
          ],
          [
            77.6085215,
            13.0002531
          ]
        ]
      }
    },
    {
      "type": "Feature",
      "properties": {
        "id": "train_040_BND_053",
        "parcel_id": "train_040_P_014",
        "boundary_type": "INFERRED",
        "confidence": 0.728,
        "length_m": 42.08,
        "evidence_sources": [
          "Road_Corridor_Offset",
          "Adjacent_Parcel_Topology"
        ]
      },
      "geometry": {
        "type": "LineString",
        "coordinates": [
          [
            77.6085145,
            12.9996529
          ],
          [
            77.6089021,
            12.9996609
          ]
        ]
      }
    },
    {
      "type": "Feature",
      "properties": {
        "id": "train_040_BND_054",
        "parcel_id": "train_040_P_014",
        "boundary_type": "VISIBLE",
        "confidence": 0.852,
        "length_m": 62.57,
        "evidence_sources": [
          "Drone_RGB_Edge",
          "DSM_Breakline"
        ]
      },
      "geometry": {
        "type": "LineString",
        "coordinates": [
          [
            77.6089021,
            12.9996609
          ],
          [
            77.6088998,
            12.9990957
          ]
        ]
      }
    },
    {
      "type": "Feature",
      "properties": {
        "id": "train_040_BND_055",
        "parcel_id": "train_040_P_014",
        "boundary_type": "INFERRED",
        "confidence": 0.67,
        "length_m": 43.37,
        "evidence_sources": [
          "Road_Corridor_Offset",
          "Adjacent_Parcel_Topology"
        ]
      },
      "geometry": {
        "type": "LineString",
        "coordinates": [
          [
            77.6088998,
            12.9990957
          ],
          [
            77.6085008,
            12.999076
          ]
        ]
      }
    },
    {
      "type": "Feature",
      "properties": {
        "id": "train_040_BND_056",
        "parcel_id": "train_040_P_014",
        "boundary_type": "VISIBLE",
        "confidence": 0.897,
        "length_m": 63.88,
        "evidence_sources": [
          "Drone_RGB_Edge",
          "DSM_Breakline"
        ]
      },
      "geometry": {
        "type": "LineString",
        "coordinates": [
          [
            77.6085008,
            12.999076
          ],
          [
            77.6085145,
            12.9996529
          ]
        ]
      }
    },
    {
      "type": "Feature",
      "properties": {
        "id": "train_040_BND_057",
        "parcel_id": "train_040_P_015",
        "boundary_type": "VISIBLE",
        "confidence": 0.882,
        "length_m": 42.31,
        "evidence_sources": [
          "Drone_RGB_Edge",
          "DSM_Breakline"
        ]
      },
      "geometry": {
        "type": "LineString",
        "coordinates": [
          [
            77.6089298,
            13.0002476
          ],
          [
            77.6093196,
            13.0002452
          ]
        ]
      }
    },
    {
      "type": "Feature",
      "properties": {
        "id": "train_040_BND_058",
        "parcel_id": "train_040_P_015",
        "boundary_type": "INFERRED",
        "confidence": 0.642,
        "length_m": 62.57,
        "evidence_sources": [
          "Road_Corridor_Offset",
          "Adjacent_Parcel_Topology"
        ]
      },
      "geometry": {
        "type": "LineString",
        "coordinates": [
          [
            77.6093196,
            13.0002452
          ],
          [
            77.6093166,
            12.99968
          ]
        ]
      }
    },
    {
      "type": "Feature",
      "properties": {
        "id": "train_040_BND_059",
        "parcel_id": "train_040_P_015",
        "boundary_type": "INFERRED",
        "confidence": 0.721,
        "length_m": 41.56,
        "evidence_sources": [
          "Road_Corridor_Offset",
          "Adjacent_Parcel_Topology"
        ]
      },
      "geometry": {
        "type": "LineString",
        "coordinates": [
          [
            77.6093166,
            12.99968
          ],
          [
            77.6089338,
            12.9996716
          ]
        ]
      }
    },
    {
      "type": "Feature",
      "properties": {
        "id": "train_040_BND_060",
        "parcel_id": "train_040_P_015",
        "boundary_type": "INFERRED",
        "confidence": 0.743,
        "length_m": 63.76,
        "evidence_sources": [
          "Road_Corridor_Offset",
          "Adjacent_Parcel_Topology"
        ]
      },
      "geometry": {
        "type": "LineString",
        "coordinates": [
          [
            77.6089338,
            12.9996716
          ],
          [
            77.6089298,
            13.0002476
          ]
        ]
      }
    },
    {
      "type": "Feature",
      "properties": {
        "id": "train_040_BND_061",
        "parcel_id": "train_040_P_016",
        "boundary_type": "INFERRED",
        "confidence": 0.69,
        "length_m": 42.35,
        "evidence_sources": [
          "Road_Corridor_Offset",
          "Adjacent_Parcel_Topology"
        ]
      },
      "geometry": {
        "type": "LineString",
        "coordinates": [
          [
            77.6089308,
            12.9996462
          ],
          [
            77.6093209,
            12.9996499
          ]
        ]
      }
    },
    {
      "type": "Feature",
      "properties": {
        "id": "train_040_BND_062",
        "parcel_id": "train_040_P_016",
        "boundary_type": "VISIBLE",
        "confidence": 0.953,
        "length_m": 61.3,
        "evidence_sources": [
          "Drone_RGB_Edge",
          "DSM_Breakline"
        ]
      },
      "geometry": {
        "type": "LineString",
        "coordinates": [
          [
            77.6093209,
            12.9996499
          ],
          [
            77.6093064,
            12.9990963
          ]
        ]
      }
    },
    {
      "type": "Feature",
      "properties": {
        "id": "train_040_BND_063",
        "parcel_id": "train_040_P_016",
        "boundary_type": "VISIBLE",
        "confidence": 0.94,
        "length_m": 42.21,
        "evidence_sources": [
          "Drone_RGB_Edge",
          "DSM_Breakline"
        ]
      },
      "geometry": {
        "type": "LineString",
        "coordinates": [
          [
            77.6093064,
            12.9990963
          ],
          [
            77.608918,
            12.9990781
          ]
        ]
      }
    },
    {
      "type": "Feature",
      "properties": {
        "id": "train_040_BND_064",
        "parcel_id": "train_040_P_016",
        "boundary_type": "INFERRED",
        "confidence": 0.761,
        "length_m": 62.9,
        "evidence_sources": [
          "Road_Corridor_Offset",
          "Adjacent_Parcel_Topology"
        ]
      },
      "geometry": {
        "type": "LineString",
        "coordinates": [
          [
            77.608918,
            12.9990781
          ],
          [
            77.6089308,
            12.9996462
          ]
        ]
      }
    }
  ]
}