{
  "type": "FeatureCollection",
  "crs": {
    "type": "name",
    "properties": {
      "name": "EPSG:4326"
    }
  },
  "features": [
    {
      "type": "Feature",
      "properties": {
        "id": "train_023_REF_001",
        "parcel_id": "train_023_P_001",
        "parcel_layer": "REFERENCE",
        "boundary_representation": "REFERENCE",
        "land_use_class": "commercial",
        "area_sqm": 2064.52,
        "perimeter_m": 181.9,
        "source": "Synthetic Legacy Cadastral Map (Non-Authoritative Demo)"
      },
      "geometry": {
        "type": "Polygon",
        "coordinates": [
          [
            [
              77.6010823,
              12.9983297
            ],
            [
              77.6015027,
              12.9983405
            ],
            [
              77.6015193,
              12.9979307
            ],
            [
              77.6010777,
              12.9979422
            ],
            [
              77.6010823,
              12.9983297
            ]
          ]
        ]
      }
    },
    {
      "type": "Feature",
      "properties": {
        "id": "train_023_REF_002",
        "parcel_id": "train_023_P_002",
        "parcel_layer": "REFERENCE",
        "boundary_representation": "REFERENCE",
        "land_use_class": "commercial",
        "area_sqm": 2125.85,
        "perimeter_m": 184.63,
        "source": "Synthetic Legacy Cadastral Map (Non-Authoritative Demo)"
      },
      "geometry": {
        "type": "Polygon",
        "coordinates": [
          [
            [
              77.6010805,
              12.9979236
            ],
            [
              77.6015042,
              12.9979062
            ],
            [
              77.6015183,
              12.9975126
            ],
            [
              77.6010635,
              12.9975117
            ],
            [
              77.6010805,
              12.9979236
            ]
          ]
        ]
      }
    },
    {
      "type": "Feature",
      "properties": {
        "id": "train_023_REF_003",
        "parcel_id": "train_023_P_003",
        "parcel_layer": "REFERENCE",
        "boundary_representation": "REFERENCE",
        "land_use_class": "mixed_use",
        "area_sqm": 2088.41,
        "perimeter_m": 182.93,
        "source": "Synthetic Legacy Cadastral Map (Non-Authoritative Demo)"
      },
      "geometry": {
        "type": "Polygon",
        "coordinates": [
          [
            [
              77.6015286,
              12.9983413
            ],
            [
              77.6019737,
              12.9983419
            ],
            [
              77.6019599,
              12.9979431
            ],
            [
              77.6015353,
              12.9979407
            ],
            [
              77.6015286,
              12.9983413
            ]
          ]
        ]
      }
    },
    {
      "type": "Feature",
      "properties": {
        "id": "train_023_REF_004",
        "parcel_id": "train_023_P_004",
        "parcel_layer": "REFERENCE",
        "boundary_representation": "REFERENCE",
        "land_use_class": "mixed_use",
        "area_sqm": 2106.13,
        "perimeter_m": 183.67,
        "source": "Synthetic Legacy Cadastral Map (Non-Authoritative Demo)"
      },
      "geometry": {
        "type": "Polygon",
        "coordinates": [
          [
            [
              77.6015771,
              12.9979413
            ],
            [
              77.6020134,
              12.9979334
            ],
            [
              77.602007,
              12.9975328
            ],
            [
              77.6015702,
              12.9975391
            ],
            [
              77.6015771,
              12.9979413
            ]
          ]
        ]
      }
    },
    {
      "type": "Feature",
      "properties": {
        "id": "train_023_REF_005",
        "parcel_id": "train_023_P_005",
        "parcel_layer": "REFERENCE",
        "boundary_representation": "REFERENCE",
        "land_use_class": "mixed_use",
        "area_sqm": 2661.53,
        "perimeter_m": 209.29,
        "source": "Synthetic Legacy Cadastral Map (Non-Authoritative Demo)"
      },
      "geometry": {
        "type": "Polygon",
        "coordinates": [
          [
            [
              77.6021682,
              12.9983258
            ],
            [
              77.6027331,
              12.9983336
            ],
            [
              77.6027334,
              12.997929
            ],
            [
              77.6021746,
              12.9979419
            ],
            [
              77.6021682,
              12.9983258
            ]
          ]
        ]
      }
    },
    {
      "type": "Feature",
      "properties": {
        "id": "train_023_REF_006",
        "parcel_id": "train_023_P_006",
        "parcel_layer": "REFERENCE",
        "boundary_representation": "REFERENCE",
        "land_use_class": "vacant",
        "area_sqm": 2691.96,
        "perimeter_m": 209.97,
        "source": "Synthetic Legacy Cadastral Map (Non-Authoritative Demo)"
      },
      "geometry": {
        "type": "Polygon",
        "coordinates": [
          [
            [
              77.6021901,
              12.9979109
            ],
            [
              77.6027348,
              12.9979214
            ],
            [
              77.6027445,
              12.9975206
            ],
            [
              77.6021777,
              12.9975054
            ],
            [
              77.6021901,
              12.9979109
            ]
          ]
        ]
      }
    },
    {
      "type": "Feature",
      "properties": {
        "id": "train_023_REF_007",
        "parcel_id": "train_023_P_007",
        "parcel_layer": "REFERENCE",
        "boundary_representation": "REFERENCE",
        "land_use_class": "commercial",
        "area_sqm": 2592.69,
        "perimeter_m": 206.43,
        "source": "Synthetic Legacy Cadastral Map (Non-Authoritative Demo)"
      },
      "geometry": {
        "type": "Polygon",
        "coordinates": [
          [
            [
              77.6027685,
              12.998328
            ],
            [
              77.6033192,
              12.9983253
            ],
            [
              77.6033162,
              12.9979381
            ],
            [
              77.6027615,
              12.9979344
            ],
            [
              77.6027685,
              12.998328
            ]
          ]
        ]
      }
    },
    {
      "type": "Feature",
      "properties": {
        "id": "train_023_REF_008",
        "parcel_id": "train_023_P_008",
        "parcel_layer": "REFERENCE",
        "boundary_representation": "REFERENCE",
        "land_use_class": "industrial",
        "area_sqm": 2667.96,
        "perimeter_m": 209.26,
        "source": "Synthetic Legacy Cadastral Map (Non-Authoritative Demo)"
      },
      "geometry": {
        "type": "Polygon",
        "coordinates": [
          [
            [
              77.6027942,
              12.9979327
            ],
            [
              77.6033561,
              12.9979243
            ],
            [
              77.6033606,
              12.9975303
            ],
            [
              77.6028074,
              12.9975301
            ],
            [
              77.6027942,
              12.9979327
            ]
          ]
        ]
      }
    },
    {
      "type": "Feature",
      "properties": {
        "id": "train_023_REF_009",
        "parcel_id": "train_023_P_009",
        "parcel_layer": "REFERENCE",
        "boundary_representation": "REFERENCE",
        "land_use_class": "commercial",
        "area_sqm": 2827.94,
        "perimeter_m": 214.86,
        "source": "Synthetic Legacy Cadastral Map (Non-Authoritative Demo)"
      },
      "geometry": {
        "type": "Polygon",
        "coordinates": [
          [
            [
              77.601068,
              12.9972319
            ],
            [
              77.6015009,
              12.9972202
            ],
            [
              77.6015007,
              12.996668
            ],
            [
              77.601081,
              12.9966796
            ],
            [
              77.601068,
              12.9972319
            ]
          ]
        ]
      }
    },
    {
      "type": "Feature",
      "properties": {
        "id": "train_023_REF_010",
        "parcel_id": "train_023_P_010",
        "parcel_layer": "REFERENCE",
        "boundary_representation": "REFERENCE",
        "land_use_class": "residential",
        "area_sqm": 2938.0,
        "perimeter_m": 218.74,
        "source": "Synthetic Legacy Cadastral Map (Non-Authoritative Demo)"
      },
      "geometry": {
        "type": "Polygon",
        "coordinates": [
          [
            [
              77.6010726,
              12.996647
            ],
            [
              77.6015122,
              12.9966473
            ],
            [
              77.6015107,
              12.9960928
            ],
            [
              77.6010759,
              12.996083
            ],
            [
              77.6010726,
              12.996647
            ]
          ]
        ]
      }
    },
    {
      "type": "Feature",
      "properties": {
        "id": "train_023_REF_011",
        "parcel_id": "train_023_P_011",
        "parcel_layer": "REFERENCE",
        "boundary_representation": "REFERENCE",
        "land_use_class": "mixed_use",
        "area_sqm": 2942.46,
        "perimeter_m": 219.16,
        "source": "Synthetic Legacy Cadastral Map (Non-Authoritative Demo)"
      },
      "geometry": {
        "type": "Polygon",
        "coordinates": [
          [
            [
              77.6015303,
              12.9972352
            ],
            [
              77.6019609,
              12.9972249
            ],
            [
              77.6019713,
              12.9966604
            ],
            [
              77.6015322,
              12.9966731
            ],
            [
              77.6015303,
              12.9972352
            ]
          ]
        ]
      }
    },
    {
      "type": "Feature",
      "properties": {
        "id": "train_023_REF_012",
        "parcel_id": "train_023_P_012",
        "parcel_layer": "REFERENCE",
        "boundary_representation": "REFERENCE",
        "land_use_class": "commercial",
        "area_sqm": 2914.02,
        "perimeter_m": 218.05,
        "source": "Synthetic Legacy Cadastral Map (Non-Authoritative Demo)"
      },
      "geometry": {
        "type": "Polygon",
        "coordinates": [
          [
            [
              77.6015664,
              12.9966707
            ],
            [
              77.601996,
              12.9966605
            ],
            [
              77.6019961,
              12.9961104
            ],
            [
              77.6015602,
              12.9961
            ],
            [
              77.6015664,
              12.9966707
            ]
          ]
        ]
      }
    },
    {
      "type": "Feature",
      "properties": {
        "id": "train_023_REF_013",
        "parcel_id": "train_023_P_013",
        "parcel_layer": "REFERENCE",
        "boundary_representation": "REFERENCE",
        "land_use_class": "mixed_use",
        "area_sqm": 3794.43,
        "perimeter_m": 246.5,
        "source": "Synthetic Legacy Cadastral Map (Non-Authoritative Demo)"
      },
      "geometry": {
        "type": "Polygon",
        "coordinates": [
          [
            [
              77.6021741,
              12.9972382
            ],
            [
              77.6027288,
              12.9972309
            ],
            [
              77.6027394,
              12.9966606
            ],
            [
              77.6021762,
              12.9966783
            ],
            [
              77.6021741,
              12.9972382
            ]
          ]
        ]
      }
    },
    {
      "type": "Feature",
      "properties": {
        "id": "train_023_REF_014",
        "parcel_id": "train_023_P_014",
        "parcel_layer": "REFERENCE",
        "boundary_representation": "REFERENCE",
        "land_use_class": "vegetation",
        "area_sqm": 3814.58,
        "perimeter_m": 247.14,
        "source": "Synthetic Legacy Cadastral Map (Non-Authoritative Demo)"
      },
      "geometry": {
        "type": "Polygon",
        "coordinates": [
          [
            [
              77.602189,
              12.9966582
            ],
            [
              77.6027427,
              12.9966573
            ],
            [
              77.6027421,
              12.9960789
            ],
            [
              77.6021848,
              12.9960937
            ],
            [
              77.602189,
              12.9966582
            ]
          ]
        ]
      }
    },
    {
      "type": "Feature",
      "properties": {
        "id": "train_023_REF_015",
        "parcel_id": "train_023_P_015",
        "parcel_layer": "REFERENCE",
        "boundary_representation": "REFERENCE",
        "land_use_class": "commercial",
        "area_sqm": 3765.7,
        "perimeter_m": 245.57,
        "source": "Synthetic Legacy Cadastral Map (Non-Authoritative Demo)"
      },
      "geometry": {
        "type": "Polygon",
        "coordinates": [
          [
            [
              77.6027626,
              12.9972211
            ],
            [
              77.6033296,
              12.9972374
            ],
            [
              77.6033113,
              12.9966606
            ],
            [
              77.6027666,
              12.9966702
            ],
            [
              77.6027626,
              12.9972211
            ]
          ]
        ]
      }
    },
    {
      "type": "Feature",
      "properties": {
        "id": "train_023_REF_016",
        "parcel_id": "train_023_P_016",
        "parcel_layer": "REFERENCE",
        "boundary_representation": "REFERENCE",
        "land_use_class": "vacant",
        "area_sqm": 3719.39,
        "perimeter_m": 244.01,
        "source": "Synthetic Legacy Cadastral Map (Non-Authoritative Demo)"
      },
      "geometry": {
        "type": "Polygon",
        "coordinates": [
          [
            [
              77.6027883,
              12.9966708
            ],
            [
              77.603361,
              12.9966603
            ],
            [
              77.6033438,
              12.9961091
            ],
            [
              77.6028014,
              12.9961117
            ],
            [
              77.6027883,
              12.9966708
            ]
          ]
        ]
      }
    }
  ]
}