{
  "type": "FeatureCollection",
  "crs": {
    "type": "name",
    "properties": {
      "name": "EPSG:4326"
    }
  },
  "features": [
    {
      "type": "Feature",
      "properties": {
        "id": "train_000_REF_001",
        "parcel_id": "train_000_P_001",
        "parcel_layer": "REFERENCE",
        "boundary_representation": "REFERENCE",
        "land_use_class": "industrial",
        "area_sqm": 2348.96,
        "perimeter_m": 195.78,
        "source": "Synthetic Legacy Cadastral Map (Non-Authoritative Demo)"
      },
      "geometry": {
        "type": "Polygon",
        "coordinates": [
          [
            [
              77.6220725,
              12.992342
            ],
            [
              77.6225844,
              12.9923423
            ],
            [
              77.6225899,
              12.9919604
            ],
            [
              77.6220743,
              12.9919629
            ],
            [
              77.6220725,
              12.992342
            ]
          ]
        ]
      }
    },
    {
      "type": "Feature",
      "properties": {
        "id": "train_000_REF_002",
        "parcel_id": "train_000_P_002",
        "parcel_layer": "REFERENCE",
        "boundary_representation": "REFERENCE",
        "land_use_class": "residential",
        "area_sqm": 2378.89,
        "perimeter_m": 197.27,
        "source": "Synthetic Legacy Cadastral Map (Non-Authoritative Demo)"
      },
      "geometry": {
        "type": "Polygon",
        "coordinates": [
          [
            [
              77.6220653,
              12.9919277
            ],
            [
              77.6225862,
              12.991943
            ],
            [
              77.6225897,
              12.9915489
            ],
            [
              77.6220691,
              12.9915615
            ],
            [
              77.6220653,
              12.9919277
            ]
          ]
        ]
      }
    },
    {
      "type": "Feature",
      "properties": {
        "id": "train_000_REF_003",
        "parcel_id": "train_000_P_003",
        "parcel_layer": "REFERENCE",
        "boundary_representation": "REFERENCE",
        "land_use_class": "residential",
        "area_sqm": 2344.04,
        "perimeter_m": 195.43,
        "source": "Synthetic Legacy Cadastral Map (Non-Authoritative Demo)"
      },
      "geometry": {
        "type": "Polygon",
        "coordinates": [
          [
            [
              77.6226088,
              12.9923465
            ],
            [
              77.6231239,
              12.9923454
            ],
            [
              77.6231179,
              12.9919646
            ],
            [
              77.6226125,
              12.9919627
            ],
            [
              77.6226088,
              12.9923465
            ]
          ]
        ]
      }
    },
    {
      "type": "Feature",
      "properties": {
        "id": "train_000_REF_004",
        "parcel_id": "train_000_P_004",
        "parcel_layer": "REFERENCE",
        "boundary_representation": "REFERENCE",
        "land_use_class": "residential",
        "area_sqm": 2332.9,
        "perimeter_m": 195.5,
        "source": "Synthetic Legacy Cadastral Map (Non-Authoritative Demo)"
      },
      "geometry": {
        "type": "Polygon",
        "coordinates": [
          [
            [
              77.6226435,
              12.9919427
            ],
            [
              77.623162,
              12.9919392
            ],
            [
              77.6231574,
              12.9915683
            ],
            [
              77.622638,
              12.9915654
            ],
            [
              77.6226435,
              12.9919427
            ]
          ]
        ]
      }
    },
    {
      "type": "Feature",
      "properties": {
        "id": "train_000_REF_005",
        "parcel_id": "train_000_P_005",
        "parcel_layer": "REFERENCE",
        "boundary_representation": "REFERENCE",
        "land_use_class": "commercial",
        "area_sqm": 2203.43,
        "perimeter_m": 189.8,
        "source": "Synthetic Legacy Cadastral Map (Non-Authoritative Demo)"
      },
      "geometry": {
        "type": "Polygon",
        "coordinates": [
          [
            [
              77.6233006,
              12.9923255
            ],
            [
              77.6238013,
              12.992325
            ],
            [
              77.6237904,
              12.9919601
            ],
            [
              77.6232904,
              12.9919574
            ],
            [
              77.6233006,
              12.9923255
            ]
          ]
        ]
      }
    },
    {
      "type": "Feature",
      "properties": {
        "id": "train_000_REF_006",
        "parcel_id": "train_000_P_006",
        "parcel_layer": "REFERENCE",
        "boundary_representation": "REFERENCE",
        "land_use_class": "mixed_use",
        "area_sqm": 2324.82,
        "perimeter_m": 194.71,
        "source": "Synthetic Legacy Cadastral Map (Non-Authoritative Demo)"
      },
      "geometry": {
        "type": "Polygon",
        "coordinates": [
          [
            [
              77.6232831,
              12.9919307
            ],
            [
              77.6238007,
              12.9919348
            ],
            [
              77.6237876,
              12.9915607
            ],
            [
              77.6232882,
              12.9915437
            ],
            [
              77.6232831,
              12.9919307
            ]
          ]
        ]
      }
    },
    {
      "type": "Feature",
      "properties": {
        "id": "train_000_REF_007",
        "parcel_id": "train_000_P_007",
        "parcel_layer": "REFERENCE",
        "boundary_representation": "REFERENCE",
        "land_use_class": "mixed_use",
        "area_sqm": 2345.73,
        "perimeter_m": 194.98,
        "source": "Synthetic Legacy Cadastral Map (Non-Authoritative Demo)"
      },
      "geometry": {
        "type": "Polygon",
        "coordinates": [
          [
            [
              77.6238199,
              12.992345
            ],
            [
              77.6243091,
              12.9923421
            ],
            [
              77.6243242,
              12.9919516
            ],
            [
              77.6238156,
              12.9919529
            ],
            [
              77.6238199,
              12.992345
            ]
          ]
        ]
      }
    },
    {
      "type": "Feature",
      "properties": {
        "id": "train_000_REF_008",
        "parcel_id": "train_000_P_008",
        "parcel_layer": "REFERENCE",
        "boundary_representation": "REFERENCE",
        "land_use_class": "vegetation",
        "area_sqm": 2246.88,
        "perimeter_m": 191.24,
        "source": "Synthetic Legacy Cadastral Map (Non-Authoritative Demo)"
      },
      "geometry": {
        "type": "Polygon",
        "coordinates": [
          [
            [
              77.6238526,
              12.991948
            ],
            [
              77.624351,
              12.9919463
            ],
            [
              77.6243493,
              12.9915712
            ],
            [
              77.6238518,
              12.9915721
            ],
            [
              77.6238526,
              12.991948
            ]
          ]
        ]
      }
    },
    {
      "type": "Feature",
      "properties": {
        "id": "train_000_REF_009",
        "parcel_id": "train_000_P_009",
        "parcel_layer": "REFERENCE",
        "boundary_representation": "REFERENCE",
        "land_use_class": "vacant",
        "area_sqm": 3555.56,
        "perimeter_m": 239.33,
        "source": "Synthetic Legacy Cadastral Map (Non-Authoritative Demo)"
      },
      "geometry": {
        "type": "Polygon",
        "coordinates": [
          [
            [
              77.6220652,
              12.9912645
            ],
            [
              77.6225837,
              12.9912653
            ],
            [
              77.6225782,
              12.9906822
            ],
            [
              77.6220836,
              12.9906794
            ],
            [
              77.6220652,
              12.9912645
            ]
          ]
        ]
      }
    },
    {
      "type": "Feature",
      "properties": {
        "id": "train_000_REF_010",
        "parcel_id": "train_000_P_010",
        "parcel_layer": "REFERENCE",
        "boundary_representation": "REFERENCE",
        "land_use_class": "industrial",
        "area_sqm": 3558.73,
        "perimeter_m": 239.25,
        "source": "Synthetic Legacy Cadastral Map (Non-Authoritative Demo)"
      },
      "geometry": {
        "type": "Polygon",
        "coordinates": [
          [
            [
              77.6220814,
              12.9906665
            ],
            [
              77.6225803,
              12.9906709
            ],
            [
              77.622593,
              12.9900843
            ],
            [
              77.6220662,
              12.9900982
            ],
            [
              77.6220814,
              12.9906665
            ]
          ]
        ]
      }
    },
    {
      "type": "Feature",
      "properties": {
        "id": "train_000_REF_011",
        "parcel_id": "train_000_P_011",
        "parcel_layer": "REFERENCE",
        "boundary_representation": "REFERENCE",
        "land_use_class": "industrial",
        "area_sqm": 3536.76,
        "perimeter_m": 238.35,
        "source": "Synthetic Legacy Cadastral Map (Non-Authoritative Demo)"
      },
      "geometry": {
        "type": "Polygon",
        "coordinates": [
          [
            [
              77.6226068,
              12.9912613
            ],
            [
              77.6231304,
              12.9912728
            ],
            [
              77.6231244,
              12.9906954
            ],
            [
              77.6226175,
              12.9906963
            ],
            [
              77.6226068,
              12.9912613
            ]
          ]
        ]
      }
    },
    {
      "type": "Feature",
      "properties": {
        "id": "train_000_REF_012",
        "parcel_id": "train_000_P_012",
        "parcel_layer": "REFERENCE",
        "boundary_representation": "REFERENCE",
        "land_use_class": "residential",
        "area_sqm": 3645.79,
        "perimeter_m": 241.99,
        "source": "Synthetic Legacy Cadastral Map (Non-Authoritative Demo)"
      },
      "geometry": {
        "type": "Polygon",
        "coordinates": [
          [
            [
              77.6226342,
              12.9906947
            ],
            [
              77.6231531,
              12.9906778
            ],
            [
              77.6231627,
              12.9901125
            ],
            [
              77.6226321,
              12.9901036
            ],
            [
              77.6226342,
              12.9906947
            ]
          ]
        ]
      }
    },
    {
      "type": "Feature",
      "properties": {
        "id": "train_000_REF_013",
        "parcel_id": "train_000_P_013",
        "parcel_layer": "REFERENCE",
        "boundary_representation": "REFERENCE",
        "land_use_class": "residential",
        "area_sqm": 3527.68,
        "perimeter_m": 238.35,
        "source": "Synthetic Legacy Cadastral Map (Non-Authoritative Demo)"
      },
      "geometry": {
        "type": "Polygon",
        "coordinates": [
          [
            [
              77.6232902,
              12.9912599
            ],
            [
              77.6238046,
              12.9912746
            ],
            [
              77.6237952,
              12.9906787
            ],
            [
              77.623296,
              12.9906973
            ],
            [
              77.6232902,
              12.9912599
            ]
          ]
        ]
      }
    },
    {
      "type": "Feature",
      "properties": {
        "id": "train_000_REF_014",
        "parcel_id": "train_000_P_014",
        "parcel_layer": "REFERENCE",
        "boundary_representation": "REFERENCE",
        "land_use_class": "commercial",
        "area_sqm": 3494.15,
        "perimeter_m": 237.31,
        "source": "Synthetic Legacy Cadastral Map (Non-Authoritative Demo)"
      },
      "geometry": {
        "type": "Polygon",
        "coordinates": [
          [
            [
              77.6232851,
              12.990675
            ],
            [
              77.6237869,
              12.9906771
            ],
            [
              77.6237937,
              12.9900949
            ],
            [
              77.6232951,
              12.9900946
            ],
            [
              77.6232851,
              12.990675
            ]
          ]
        ]
      }
    },
    {
      "type": "Feature",
      "properties": {
        "id": "train_000_REF_015",
        "parcel_id": "train_000_P_015",
        "parcel_layer": "REFERENCE",
        "boundary_representation": "REFERENCE",
        "land_use_class": "commercial",
        "area_sqm": 3533.13,
        "perimeter_m": 238.76,
        "source": "Synthetic Legacy Cadastral Map (Non-Authoritative Demo)"
      },
      "geometry": {
        "type": "Polygon",
        "coordinates": [
          [
            [
              77.6238253,
              12.9912698
            ],
            [
              77.6243135,
              12.9912762
            ],
            [
              77.6243221,
              12.990696
            ],
            [
              77.623806,
              12.9906787
            ],
            [
              77.6238253,
              12.9912698
            ]
          ]
        ]
      }
    },
    {
      "type": "Feature",
      "properties": {
        "id": "train_000_REF_016",
        "parcel_id": "train_000_P_016",
        "parcel_layer": "REFERENCE",
        "boundary_representation": "REFERENCE",
        "land_use_class": "mixed_use",
        "area_sqm": 3617.99,
        "perimeter_m": 241.59,
        "source": "Synthetic Legacy Cadastral Map (Non-Authoritative Demo)"
      },
      "geometry": {
        "type": "Polygon",
        "coordinates": [
          [
            [
              77.6238417,
              12.9906949
            ],
            [
              77.6243451,
              12.9906946
            ],
            [
              77.6243643,
              12.9901008
            ],
            [
              77.6238536,
              12.9901011
            ],
            [
              77.6238417,
              12.9906949
            ]
          ]
        ]
      }
    }
  ]
}