{
  "type": "FeatureCollection",
  "crs": {
    "type": "name",
    "properties": {
      "name": "EPSG:4326"
    }
  },
  "features": [
    {
      "type": "Feature",
      "properties": {
        "id": "train_000_RD_001",
        "road_class": "MAIN_ROAD",
        "width_m": 5.5,
        "length_m": 258.49,
        "confidence": 0.94
      },
      "geometry": {
        "type": "LineString",
        "coordinates": [
          [
            77.622,
            12.9914063
          ],
          [
            77.6243812,
            12.9914063
          ]
        ]
      }
    },
    {
      "type": "Feature",
      "properties": {
        "id": "train_000_RD_002",
        "road_class": "NARROW_LANE",
        "width_m": 2.5,
        "length_m": 263.59,
        "confidence": 0.89
      },
      "geometry": {
        "type": "LineString",
        "coordinates": [
          [
            77.6232,
            12.9924
          ],
          [
            77.6232,
            12.9900188
          ]
        ]
      }
    }
  ]
}