{
  "type": "FeatureCollection",
  "crs": {
    "type": "name",
    "properties": {
      "name": "EPSG:4326"
    }
  },
  "features": [
    {
      "type": "Feature",
      "properties": {
        "id": "train_054_REF_001",
        "parcel_id": "train_054_P_001",
        "parcel_layer": "REFERENCE",
        "boundary_representation": "REFERENCE",
        "land_use_class": "vegetation",
        "area_sqm": 1628.1,
        "perimeter_m": 162.51,
        "source": "Synthetic Legacy Cadastral Map (Non-Authoritative Demo)"
      },
      "geometry": {
        "type": "Polygon",
        "coordinates": [
          [
            [
              77.6040727,
              13.0043301
            ],
            [
              77.6044092,
              13.004343
            ],
            [
              77.6043991,
              13.003937
            ],
            [
              77.6040693,
              13.0039221
            ],
            [
              77.6040727,
              13.0043301
            ]
          ]
        ]
      }
    },
    {
      "type": "Feature",
      "properties": {
        "id": "train_054_REF_002",
        "parcel_id": "train_054_P_002",
        "parcel_layer": "REFERENCE",
        "boundary_representation": "REFERENCE",
        "land_use_class": "vacant",
        "area_sqm": 1662.79,
        "perimeter_m": 163.82,
        "source": "Synthetic Legacy Cadastral Map (Non-Authoritative Demo)"
      },
      "geometry": {
        "type": "Polygon",
        "coordinates": [
          [
            [
              77.6040714,
              13.0039036
            ],
            [
              77.6044162,
              13.0039057
            ],
            [
              77.6044131,
              13.0034995
            ],
            [
              77.6040735,
              13.003501
            ],
            [
              77.6040714,
              13.0039036
            ]
          ]
        ]
      }
    },
    {
      "type": "Feature",
      "properties": {
        "id": "train_054_REF_003",
        "parcel_id": "train_054_P_003",
        "parcel_layer": "REFERENCE",
        "boundary_representation": "REFERENCE",
        "land_use_class": "vacant",
        "area_sqm": 1631.43,
        "perimeter_m": 162.67,
        "source": "Synthetic Legacy Cadastral Map (Non-Authoritative Demo)"
      },
      "geometry": {
        "type": "Polygon",
        "coordinates": [
          [
            [
              77.6044365,
              13.0043429
            ],
            [
              77.6047587,
              13.0043336
            ],
            [
              77.6047669,
              13.003934
            ],
            [
              77.604425,
              13.0039247
            ],
            [
              77.6044365,
              13.0043429
            ]
          ]
        ]
      }
    },
    {
      "type": "Feature",
      "properties": {
        "id": "train_054_REF_004",
        "parcel_id": "train_054_P_004",
        "parcel_layer": "REFERENCE",
        "boundary_representation": "REFERENCE",
        "land_use_class": "industrial",
        "area_sqm": 1628.41,
        "perimeter_m": 162.66,
        "source": "Synthetic Legacy Cadastral Map (Non-Authoritative Demo)"
      },
      "geometry": {
        "type": "Polygon",
        "coordinates": [
          [
            [
              77.6044708,
              13.0039256
            ],
            [
              77.6047978,
              13.0039308
            ],
            [
              77.6048053,
              13.0035101
            ],
            [
              77.6044736,
              13.0035232
            ],
            [
              77.6044708,
              13.0039256
            ]
          ]
        ]
      }
    },
    {
      "type": "Feature",
      "properties": {
        "id": "train_054_REF_005",
        "parcel_id": "train_054_P_005",
        "parcel_layer": "REFERENCE",
        "boundary_representation": "REFERENCE",
        "land_use_class": "residential",
        "area_sqm": 3217.48,
        "perimeter_m": 233.03,
        "source": "Synthetic Legacy Cadastral Map (Non-Authoritative Demo)"
      },
      "geometry": {
        "type": "Polygon",
        "coordinates": [
          [
            [
              77.6049658,
              13.0043306
            ],
            [
              77.6056254,
              13.0043421
            ],
            [
              77.6056393,
              13.003925
            ],
            [
              77.6049825,
              13.0039341
            ],
            [
              77.6049658,
              13.0043306
            ]
          ]
        ]
      }
    },
    {
      "type": "Feature",
      "properties": {
        "id": "train_054_REF_006",
        "parcel_id": "train_054_P_006",
        "parcel_layer": "REFERENCE",
        "boundary_representation": "REFERENCE",
        "land_use_class": "residential",
        "area_sqm": 3263.02,
        "perimeter_m": 235.09,
        "source": "Synthetic Legacy Cadastral Map (Non-Authoritative Demo)"
      },
      "geometry": {
        "type": "Polygon",
        "coordinates": [
          [
            [
              77.6049758,
              13.0038944
            ],
            [
              77.6056424,
              13.0039133
            ],
            [
              77.6056411,
              13.0034991
            ],
            [
              77.6049711,
              13.0034958
            ],
            [
              77.6049758,
              13.0038944
            ]
          ]
        ]
      }
    },
    {
      "type": "Feature",
      "properties": {
        "id": "train_054_REF_007",
        "parcel_id": "train_054_P_007",
        "parcel_layer": "REFERENCE",
        "boundary_representation": "REFERENCE",
        "land_use_class": "residential",
        "area_sqm": 3282.61,
        "perimeter_m": 234.19,
        "source": "Synthetic Legacy Cadastral Map (Non-Authoritative Demo)"
      },
      "geometry": {
        "type": "Polygon",
        "coordinates": [
          [
            [
              77.6056654,
              13.0043464
            ],
            [
              77.6063101,
              13.0043349
            ],
            [
              77.6063199,
              13.0039234
            ],
            [
              77.6056647,
              13.0039172
            ],
            [
              77.6056654,
              13.0043464
            ]
          ]
        ]
      }
    },
    {
      "type": "Feature",
      "properties": {
        "id": "train_054_REF_008",
        "parcel_id": "train_054_P_008",
        "parcel_layer": "REFERENCE",
        "boundary_representation": "REFERENCE",
        "land_use_class": "commercial",
        "area_sqm": 3255.19,
        "perimeter_m": 234.03,
        "source": "Synthetic Legacy Cadastral Map (Non-Authoritative Demo)"
      },
      "geometry": {
        "type": "Polygon",
        "coordinates": [
          [
            [
              77.6056895,
              13.0039144
            ],
            [
              77.6063538,
              13.0039223
            ],
            [
              77.6063555,
              13.0035044
            ],
            [
              77.6057038,
              13.0035089
            ],
            [
              77.6056895,
              13.0039144
            ]
          ]
        ]
      }
    },
    {
      "type": "Feature",
      "properties": {
        "id": "train_054_REF_009",
        "parcel_id": "train_054_P_009",
        "parcel_layer": "REFERENCE",
        "boundary_representation": "REFERENCE",
        "land_use_class": "mixed_use",
        "area_sqm": 2278.04,
        "perimeter_m": 197.4,
        "source": "Synthetic Legacy Cadastral Map (Non-Authoritative Demo)"
      },
      "geometry": {
        "type": "Polygon",
        "coordinates": [
          [
            [
              77.6040702,
              13.0032149
            ],
            [
              77.604415,
              13.003211
            ],
            [
              77.604414,
              13.0026568
            ],
            [
              77.6040805,
              13.0026511
            ],
            [
              77.6040702,
              13.0032149
            ]
          ]
        ]
      }
    },
    {
      "type": "Feature",
      "properties": {
        "id": "train_054_REF_010",
        "parcel_id": "train_054_P_010",
        "parcel_layer": "REFERENCE",
        "boundary_representation": "REFERENCE",
        "land_use_class": "vegetation",
        "area_sqm": 2141.09,
        "perimeter_m": 190.91,
        "source": "Synthetic Legacy Cadastral Map (Non-Authoritative Demo)"
      },
      "geometry": {
        "type": "Polygon",
        "coordinates": [
          [
            [
              77.6040693,
              13.0026325
            ],
            [
              77.6043992,
              13.0026277
            ],
            [
              77.6044011,
              13.0020924
            ],
            [
              77.6040671,
              13.0020942
            ],
            [
              77.6040693,
              13.0026325
            ]
          ]
        ]
      }
    },
    {
      "type": "Feature",
      "properties": {
        "id": "train_054_REF_011",
        "parcel_id": "train_054_P_011",
        "parcel_layer": "REFERENCE",
        "boundary_representation": "REFERENCE",
        "land_use_class": "vegetation",
        "area_sqm": 2207.1,
        "perimeter_m": 192.99,
        "source": "Synthetic Legacy Cadastral Map (Non-Authoritative Demo)"
      },
      "geometry": {
        "type": "Polygon",
        "coordinates": [
          [
            [
              77.6044227,
              13.0032011
            ],
            [
              77.6047665,
              13.0032033
            ],
            [
              77.6047623,
              13.0026712
            ],
            [
              77.6044191,
              13.0026636
            ],
            [
              77.6044227,
              13.0032011
            ]
          ]
        ]
      }
    },
    {
      "type": "Feature",
      "properties": {
        "id": "train_054_REF_012",
        "parcel_id": "train_054_P_012",
        "parcel_layer": "REFERENCE",
        "boundary_representation": "REFERENCE",
        "land_use_class": "vacant",
        "area_sqm": 2130.76,
        "perimeter_m": 191.5,
        "source": "Synthetic Legacy Cadastral Map (Non-Authoritative Demo)"
      },
      "geometry": {
        "type": "Polygon",
        "coordinates": [
          [
            [
              77.6044758,
              13.0026593
            ],
            [
              77.6047986,
              13.0026455
            ],
            [
              77.6047887,
              13.0021052
            ],
            [
              77.6044633,
              13.0021058
            ],
            [
              77.6044758,
              13.0026593
            ]
          ]
        ]
      }
    },
    {
      "type": "Feature",
      "properties": {
        "id": "train_054_REF_013",
        "parcel_id": "train_054_P_013",
        "parcel_layer": "REFERENCE",
        "boundary_representation": "REFERENCE",
        "land_use_class": "industrial",
        "area_sqm": 4227.53,
        "perimeter_m": 260.96,
        "source": "Synthetic Legacy Cadastral Map (Non-Authoritative Demo)"
      },
      "geometry": {
        "type": "Polygon",
        "coordinates": [
          [
            [
              77.6049742,
              13.0032147
            ],
            [
              77.6056322,
              13.0032039
            ],
            [
              77.6056242,
              13.0026719
            ],
            [
              77.6049832,
              13.0026633
            ],
            [
              77.6049742,
              13.0032147
            ]
          ]
        ]
      }
    },
    {
      "type": "Feature",
      "properties": {
        "id": "train_054_REF_014",
        "parcel_id": "train_054_P_014",
        "parcel_layer": "REFERENCE",
        "boundary_representation": "REFERENCE",
        "land_use_class": "water",
        "area_sqm": 4414.99,
        "perimeter_m": 266.82,
        "source": "Synthetic Legacy Cadastral Map (Non-Authoritative Demo)"
      },
      "geometry": {
        "type": "Polygon",
        "coordinates": [
          [
            [
              77.6049693,
              13.0026482
            ],
            [
              77.6056324,
              13.0026338
            ],
            [
              77.6056395,
              13.002079
            ],
            [
              77.6049701,
              13.0020998
            ],
            [
              77.6049693,
              13.0026482
            ]
          ]
        ]
      }
    },
    {
      "type": "Feature",
      "properties": {
        "id": "train_054_REF_015",
        "parcel_id": "train_054_P_015",
        "parcel_layer": "REFERENCE",
        "boundary_representation": "REFERENCE",
        "land_use_class": "residential",
        "area_sqm": 4431.38,
        "perimeter_m": 267.21,
        "source": "Synthetic Legacy Cadastral Map (Non-Authoritative Demo)"
      },
      "geometry": {
        "type": "Polygon",
        "coordinates": [
          [
            [
              77.6056651,
              13.0032182
            ],
            [
              77.6063226,
              13.0032064
            ],
            [
              77.6063242,
              13.0026641
            ],
            [
              77.6056503,
              13.0026525
            ],
            [
              77.6056651,
              13.0032182
            ]
          ]
        ]
      }
    },
    {
      "type": "Feature",
      "properties": {
        "id": "train_054_REF_016",
        "parcel_id": "train_054_P_016",
        "parcel_layer": "REFERENCE",
        "boundary_representation": "REFERENCE",
        "land_use_class": "agricultural",
        "area_sqm": 4383.26,
        "perimeter_m": 265.97,
        "source": "Synthetic Legacy Cadastral Map (Non-Authoritative Demo)"
      },
      "geometry": {
        "type": "Polygon",
        "coordinates": [
          [
            [
              77.6056967,
              13.0026517
            ],
            [
              77.6063653,
              13.0026579
            ],
            [
              77.6063503,
              13.00211
            ],
            [
              77.605684,
              13.0021063
            ],
            [
              77.6056967,
              13.0026517
            ]
          ]
        ]
      }
    }
  ]
}