{
  "type": "FeatureCollection",
  "crs": {
    "type": "name",
    "properties": {
      "name": "EPSG:4326"
    }
  },
  "features": [
    {
      "type": "Feature",
      "properties": {
        "id": "train_011_BND_001",
        "parcel_id": "train_011_P_001",
        "boundary_type": "INFERRED",
        "confidence": 0.676,
        "length_m": 46.66,
        "evidence_sources": [
          "Road_Corridor_Offset",
          "Adjacent_Parcel_Topology"
        ]
      },
      "geometry": {
        "type": "LineString",
        "coordinates": [
          [
            77.6100702,
            12.9953384
          ],
          [
            77.6104995,
            12.9953177
          ]
        ]
      }
    },
    {
      "type": "Feature",
      "properties": {
        "id": "train_011_BND_002",
        "parcel_id": "train_011_P_001",
        "boundary_type": "VISIBLE",
        "confidence": 0.914,
        "length_m": 40.9,
        "evidence_sources": [
          "Drone_RGB_Edge",
          "DSM_Breakline"
        ]
      },
      "geometry": {
        "type": "LineString",
        "coordinates": [
          [
            77.6104995,
            12.9953177
          ],
          [
            77.6104787,
            12.9949488
          ]
        ]
      }
    },
    {
      "type": "Feature",
      "properties": {
        "id": "train_011_BND_003",
        "parcel_id": "train_011_P_001",
        "boundary_type": "INFERRED",
        "confidence": 0.762,
        "length_m": 38.98,
        "evidence_sources": [
          "Road_Corridor_Offset",
          "Adjacent_Parcel_Topology"
        ]
      },
      "geometry": {
        "type": "LineString",
        "coordinates": [
          [
            77.6104787,
            12.9949488
          ],
          [
            77.610121,
            12.9949183
          ]
        ]
      }
    },
    {
      "type": "Feature",
      "properties": {
        "id": "train_011_BND_004",
        "parcel_id": "train_011_P_001",
        "boundary_type": "INFERRED",
        "confidence": 0.638,
        "length_m": 46.83,
        "evidence_sources": [
          "Road_Corridor_Offset",
          "Adjacent_Parcel_Topology"
        ]
      },
      "geometry": {
        "type": "LineString",
        "coordinates": [
          [
            77.610121,
            12.9949183
          ],
          [
            77.6100702,
            12.9953384
          ]
        ]
      }
    },
    {
      "type": "Feature",
      "properties": {
        "id": "train_011_BND_005",
        "parcel_id": "train_011_P_002",
        "boundary_type": "VISIBLE",
        "confidence": 0.835,
        "length_m": 45.77,
        "evidence_sources": [
          "Drone_RGB_Edge",
          "DSM_Breakline"
        ]
      },
      "geometry": {
        "type": "LineString",
        "coordinates": [
          [
            77.6100811,
            12.994842
          ],
          [
            77.6105026,
            12.9948531
          ]
        ]
      }
    },
    {
      "type": "Feature",
      "properties": {
        "id": "train_011_BND_006",
        "parcel_id": "train_011_P_002",
        "boundary_type": "VISIBLE",
        "confidence": 0.935,
        "length_m": 46.42,
        "evidence_sources": [
          "Drone_RGB_Edge",
          "DSM_Breakline"
        ]
      },
      "geometry": {
        "type": "LineString",
        "coordinates": [
          [
            77.6105026,
            12.9948531
          ],
          [
            77.6104625,
            12.9944356
          ]
        ]
      }
    },
    {
      "type": "Feature",
      "properties": {
        "id": "train_011_BND_007",
        "parcel_id": "train_011_P_002",
        "boundary_type": "VISIBLE",
        "confidence": 0.945,
        "length_m": 41.7,
        "evidence_sources": [
          "Drone_RGB_Edge",
          "DSM_Breakline"
        ]
      },
      "geometry": {
        "type": "LineString",
        "coordinates": [
          [
            77.6104625,
            12.9944356
          ],
          [
            77.6100784,
            12.9944417
          ]
        ]
      }
    },
    {
      "type": "Feature",
      "properties": {
        "id": "train_011_BND_008",
        "parcel_id": "train_011_P_002",
        "boundary_type": "VISIBLE",
        "confidence": 0.889,
        "length_m": 44.31,
        "evidence_sources": [
          "Drone_RGB_Edge",
          "DSM_Breakline"
        ]
      },
      "geometry": {
        "type": "LineString",
        "coordinates": [
          [
            77.6100784,
            12.9944417
          ],
          [
            77.6100811,
            12.994842
          ]
        ]
      }
    },
    {
      "type": "Feature",
      "properties": {
        "id": "train_011_BND_009",
        "parcel_id": "train_011_P_003",
        "boundary_type": "INFERRED",
        "confidence": 0.626,
        "length_m": 41.6,
        "evidence_sources": [
          "Road_Corridor_Offset",
          "Adjacent_Parcel_Topology"
        ]
      },
      "geometry": {
        "type": "LineString",
        "coordinates": [
          [
            77.6105169,
            12.9953432
          ],
          [
            77.6109001,
            12.995342
          ]
        ]
      }
    },
    {
      "type": "Feature",
      "properties": {
        "id": "train_011_BND_010",
        "parcel_id": "train_011_P_003",
        "boundary_type": "VISIBLE",
        "confidence": 0.907,
        "length_m": 47.87,
        "evidence_sources": [
          "Drone_RGB_Edge",
          "DSM_Breakline"
        ]
      },
      "geometry": {
        "type": "LineString",
        "coordinates": [
          [
            77.6109001,
            12.995342
          ],
          [
            77.6109272,
            12.9949104
          ]
        ]
      }
    },
    {
      "type": "Feature",
      "properties": {
        "id": "train_011_BND_011",
        "parcel_id": "train_011_P_003",
        "boundary_type": "VISIBLE",
        "confidence": 0.95,
        "length_m": 40.42,
        "evidence_sources": [
          "Drone_RGB_Edge",
          "DSM_Breakline"
        ]
      },
      "geometry": {
        "type": "LineString",
        "coordinates": [
          [
            77.6109272,
            12.9949104
          ],
          [
            77.6105561,
            12.9949405
          ]
        ]
      }
    },
    {
      "type": "Feature",
      "properties": {
        "id": "train_011_BND_012",
        "parcel_id": "train_011_P_003",
        "boundary_type": "INFERRED",
        "confidence": 0.638,
        "length_m": 44.78,
        "evidence_sources": [
          "Road_Corridor_Offset",
          "Adjacent_Parcel_Topology"
        ]
      },
      "geometry": {
        "type": "LineString",
        "coordinates": [
          [
            77.6105561,
            12.9949405
          ],
          [
            77.6105169,
            12.9953432
          ]
        ]
      }
    },
    {
      "type": "Feature",
      "properties": {
        "id": "train_011_BND_013",
        "parcel_id": "train_011_P_004",
        "boundary_type": "VISIBLE",
        "confidence": 0.888,
        "length_m": 42.56,
        "evidence_sources": [
          "Drone_RGB_Edge",
          "DSM_Breakline"
        ]
      },
      "geometry": {
        "type": "LineString",
        "coordinates": [
          [
            77.6105493,
            12.9948385
          ],
          [
            77.6109411,
            12.9948525
          ]
        ]
      }
    },
    {
      "type": "Feature",
      "properties": {
        "id": "train_011_BND_014",
        "parcel_id": "train_011_P_004",
        "boundary_type": "VISIBLE",
        "confidence": 0.836,
        "length_m": 45.58,
        "evidence_sources": [
          "Drone_RGB_Edge",
          "DSM_Breakline"
        ]
      },
      "geometry": {
        "type": "LineString",
        "coordinates": [
          [
            77.6109411,
            12.9948525
          ],
          [
            77.6108907,
            12.9944437
          ]
        ]
      }
    },
    {
      "type": "Feature",
      "properties": {
        "id": "train_011_BND_015",
        "parcel_id": "train_011_P_004",
        "boundary_type": "VISIBLE",
        "confidence": 0.913,
        "length_m": 37.18,
        "evidence_sources": [
          "Drone_RGB_Edge",
          "DSM_Breakline"
        ]
      },
      "geometry": {
        "type": "LineString",
        "coordinates": [
          [
            77.6108907,
            12.9944437
          ],
          [
            77.6105487,
            12.9944253
          ]
        ]
      }
    },
    {
      "type": "Feature",
      "properties": {
        "id": "train_011_BND_016",
        "parcel_id": "train_011_P_004",
        "boundary_type": "VISIBLE",
        "confidence": 0.87,
        "length_m": 45.74,
        "evidence_sources": [
          "Drone_RGB_Edge",
          "DSM_Breakline"
        ]
      },
      "geometry": {
        "type": "LineString",
        "coordinates": [
          [
            77.6105487,
            12.9944253
          ],
          [
            77.6105493,
            12.9948385
          ]
        ]
      }
    },
    {
      "type": "Feature",
      "properties": {
        "id": "train_011_BND_017",
        "parcel_id": "train_011_P_005",
        "boundary_type": "INFERRED",
        "confidence": 0.671,
        "length_m": 60.27,
        "evidence_sources": [
          "Road_Corridor_Offset",
          "Adjacent_Parcel_Topology"
        ]
      },
      "geometry": {
        "type": "LineString",
        "coordinates": [
          [
            77.6111118,
            12.995315
          ],
          [
            77.611667,
            12.9953111
          ]
        ]
      }
    },
    {
      "type": "Feature",
      "properties": {
        "id": "train_011_BND_018",
        "parcel_id": "train_011_P_005",
        "boundary_type": "VISIBLE",
        "confidence": 0.918,
        "length_m": 44.58,
        "evidence_sources": [
          "Drone_RGB_Edge",
          "DSM_Breakline"
        ]
      },
      "geometry": {
        "type": "LineString",
        "coordinates": [
          [
            77.611667,
            12.9953111
          ],
          [
            77.6116744,
            12.9949084
          ]
        ]
      }
    },
    {
      "type": "Feature",
      "properties": {
        "id": "train_011_BND_019",
        "parcel_id": "train_011_P_005",
        "boundary_type": "VISIBLE",
        "confidence": 0.931,
        "length_m": 59.8,
        "evidence_sources": [
          "Drone_RGB_Edge",
          "DSM_Breakline"
        ]
      },
      "geometry": {
        "type": "LineString",
        "coordinates": [
          [
            77.6116744,
            12.9949084
          ],
          [
            77.6111237,
            12.9949218
          ]
        ]
      }
    },
    {
      "type": "Feature",
      "properties": {
        "id": "train_011_BND_020",
        "parcel_id": "train_011_P_005",
        "boundary_type": "INFERRED",
        "confidence": 0.758,
        "length_m": 43.54,
        "evidence_sources": [
          "Road_Corridor_Offset",
          "Adjacent_Parcel_Topology"
        ]
      },
      "geometry": {
        "type": "LineString",
        "coordinates": [
          [
            77.6111237,
            12.9949218
          ],
          [
            77.6111118,
            12.995315
          ]
        ]
      }
    },
    {
      "type": "Feature",
      "properties": {
        "id": "train_011_BND_021",
        "parcel_id": "train_011_P_006",
        "boundary_type": "INFERRED",
        "confidence": 0.643,
        "length_m": 55.0,
        "evidence_sources": [
          "Road_Corridor_Offset",
          "Adjacent_Parcel_Topology"
        ]
      },
      "geometry": {
        "type": "LineString",
        "coordinates": [
          [
            77.6111514,
            12.9948457
          ],
          [
            77.6116579,
            12.9948322
          ]
        ]
      }
    },
    {
      "type": "Feature",
      "properties": {
        "id": "train_011_BND_022",
        "parcel_id": "train_011_P_006",
        "boundary_type": "VISIBLE",
        "confidence": 0.907,
        "length_m": 40.26,
        "evidence_sources": [
          "Drone_RGB_Edge",
          "DSM_Breakline"
        ]
      },
      "geometry": {
        "type": "LineString",
        "coordinates": [
          [
            77.6116579,
            12.9948322
          ],
          [
            77.6116737,
            12.9944688
          ]
        ]
      }
    },
    {
      "type": "Feature",
      "properties": {
        "id": "train_011_BND_023",
        "parcel_id": "train_011_P_006",
        "boundary_type": "VISIBLE",
        "confidence": 0.821,
        "length_m": 54.68,
        "evidence_sources": [
          "Drone_RGB_Edge",
          "DSM_Breakline"
        ]
      },
      "geometry": {
        "type": "LineString",
        "coordinates": [
          [
            77.6116737,
            12.9944688
          ],
          [
            77.6111706,
            12.9944446
          ]
        ]
      }
    },
    {
      "type": "Feature",
      "properties": {
        "id": "train_011_BND_024",
        "parcel_id": "train_011_P_006",
        "boundary_type": "VISIBLE",
        "confidence": 0.89,
        "length_m": 44.45,
        "evidence_sources": [
          "Drone_RGB_Edge",
          "DSM_Breakline"
        ]
      },
      "geometry": {
        "type": "LineString",
        "coordinates": [
          [
            77.6111706,
            12.9944446
          ],
          [
            77.6111514,
            12.9948457
          ]
        ]
      }
    },
    {
      "type": "Feature",
      "properties": {
        "id": "train_011_BND_025",
        "parcel_id": "train_011_P_007",
        "boundary_type": "INFERRED",
        "confidence": 0.7,
        "length_m": 56.78,
        "evidence_sources": [
          "Road_Corridor_Offset",
          "Adjacent_Parcel_Topology"
        ]
      },
      "geometry": {
        "type": "LineString",
        "coordinates": [
          [
            77.6117739,
            12.9953341
          ],
          [
            77.6122947,
            12.9952865
          ]
        ]
      }
    },
    {
      "type": "Feature",
      "properties": {
        "id": "train_011_BND_026",
        "parcel_id": "train_011_P_007",
        "boundary_type": "VISIBLE",
        "confidence": 0.845,
        "length_m": 43.01,
        "evidence_sources": [
          "Drone_RGB_Edge",
          "DSM_Breakline"
        ]
      },
      "geometry": {
        "type": "LineString",
        "coordinates": [
          [
            77.6122947,
            12.9952865
          ],
          [
            77.6122812,
            12.9948982
          ]
        ]
      }
    },
    {
      "type": "Feature",
      "properties": {
        "id": "train_011_BND_027",
        "parcel_id": "train_011_P_007",
        "boundary_type": "VISIBLE",
        "confidence": 0.958,
        "length_m": 56.05,
        "evidence_sources": [
          "Drone_RGB_Edge",
          "DSM_Breakline"
        ]
      },
      "geometry": {
        "type": "LineString",
        "coordinates": [
          [
            77.6122812,
            12.9948982
          ],
          [
            77.6117663,
            12.9949361
          ]
        ]
      }
    },
    {
      "type": "Feature",
      "properties": {
        "id": "train_011_BND_028",
        "parcel_id": "train_011_P_007",
        "boundary_type": "VISIBLE",
        "confidence": 0.861,
        "length_m": 44.06,
        "evidence_sources": [
          "Drone_RGB_Edge",
          "DSM_Breakline"
        ]
      },
      "geometry": {
        "type": "LineString",
        "coordinates": [
          [
            77.6117663,
            12.9949361
          ],
          [
            77.6117739,
            12.9953341
          ]
        ]
      }
    },
    {
      "type": "Feature",
      "properties": {
        "id": "train_011_BND_029",
        "parcel_id": "train_011_P_008",
        "boundary_type": "VISIBLE",
        "confidence": 0.862,
        "length_m": 61.58,
        "evidence_sources": [
          "Drone_RGB_Edge",
          "DSM_Breakline"
        ]
      },
      "geometry": {
        "type": "LineString",
        "coordinates": [
          [
            77.6117303,
            12.9948726
          ],
          [
            77.6122963,
            12.9948357
          ]
        ]
      }
    },
    {
      "type": "Feature",
      "properties": {
        "id": "train_011_BND_030",
        "parcel_id": "train_011_P_008",
        "boundary_type": "VISIBLE",
        "confidence": 0.845,
        "length_m": 40.8,
        "evidence_sources": [
          "Drone_RGB_Edge",
          "DSM_Breakline"
        ]
      },
      "geometry": {
        "type": "LineString",
        "coordinates": [
          [
            77.6122963,
            12.9948357
          ],
          [
            77.6122724,
            12.9944679
          ]
        ]
      }
    },
    {
      "type": "Feature",
      "properties": {
        "id": "train_011_BND_031",
        "parcel_id": "train_011_P_008",
        "boundary_type": "VISIBLE",
        "confidence": 0.955,
        "length_m": 56.53,
        "evidence_sources": [
          "Drone_RGB_Edge",
          "DSM_Breakline"
        ]
      },
      "geometry": {
        "type": "LineString",
        "coordinates": [
          [
            77.6122724,
            12.9944679
          ],
          [
            77.6117517,
            12.9944605
          ]
        ]
      }
    },
    {
      "type": "Feature",
      "properties": {
        "id": "train_011_BND_032",
        "parcel_id": "train_011_P_008",
        "boundary_type": "VISIBLE",
        "confidence": 0.83,
        "length_m": 45.68,
        "evidence_sources": [
          "Drone_RGB_Edge",
          "DSM_Breakline"
        ]
      },
      "geometry": {
        "type": "LineString",
        "coordinates": [
          [
            77.6117517,
            12.9944605
          ],
          [
            77.6117303,
            12.9948726
          ]
        ]
      }
    },
    {
      "type": "Feature",
      "properties": {
        "id": "train_011_BND_033",
        "parcel_id": "train_011_P_009",
        "boundary_type": "VISIBLE",
        "confidence": 0.903,
        "length_m": 47.41,
        "evidence_sources": [
          "Drone_RGB_Edge",
          "DSM_Breakline"
        ]
      },
      "geometry": {
        "type": "LineString",
        "coordinates": [
          [
            77.6100606,
            12.9942502
          ],
          [
            77.6104971,
            12.9942654
          ]
        ]
      }
    },
    {
      "type": "Feature",
      "properties": {
        "id": "train_011_BND_034",
        "parcel_id": "train_011_P_009",
        "boundary_type": "VISIBLE",
        "confidence": 0.861,
        "length_m": 60.71,
        "evidence_sources": [
          "Drone_RGB_Edge",
          "DSM_Breakline"
        ]
      },
      "geometry": {
        "type": "LineString",
        "coordinates": [
          [
            77.6104971,
            12.9942654
          ],
          [
            77.6104417,
            12.9937197
          ]
        ]
      }
    },
    {
      "type": "Feature",
      "properties": {
        "id": "train_011_BND_035",
        "parcel_id": "train_011_P_009",
        "boundary_type": "INFERRED",
        "confidence": 0.691,
        "length_m": 38.63,
        "evidence_sources": [
          "Road_Corridor_Offset",
          "Adjacent_Parcel_Topology"
        ]
      },
      "geometry": {
        "type": "LineString",
        "coordinates": [
          [
            77.6104417,
            12.9937197
          ],
          [
            77.6100881,
            12.9936803
          ]
        ]
      }
    },
    {
      "type": "Feature",
      "properties": {
        "id": "train_011_BND_036",
        "parcel_id": "train_011_P_009",
        "boundary_type": "INFERRED",
        "confidence": 0.726,
        "length_m": 63.16,
        "evidence_sources": [
          "Road_Corridor_Offset",
          "Adjacent_Parcel_Topology"
        ]
      },
      "geometry": {
        "type": "LineString",
        "coordinates": [
          [
            77.6100881,
            12.9936803
          ],
          [
            77.6100606,
            12.9942502
          ]
        ]
      }
    },
    {
      "type": "Feature",
      "properties": {
        "id": "train_011_BND_037",
        "parcel_id": "train_011_P_010",
        "boundary_type": "VISIBLE",
        "confidence": 0.84,
        "length_m": 43.08,
        "evidence_sources": [
          "Drone_RGB_Edge",
          "DSM_Breakline"
        ]
      },
      "geometry": {
        "type": "LineString",
        "coordinates": [
          [
            77.6100954,
            12.9936573
          ],
          [
            77.610491,
            12.9936268
          ]
        ]
      }
    },
    {
      "type": "Feature",
      "properties": {
        "id": "train_011_BND_038",
        "parcel_id": "train_011_P_010",
        "boundary_type": "INFERRED",
        "confidence": 0.714,
        "length_m": 55.38,
        "evidence_sources": [
          "Road_Corridor_Offset",
          "Adjacent_Parcel_Topology"
        ]
      },
      "geometry": {
        "type": "LineString",
        "coordinates": [
          [
            77.610491,
            12.9936268
          ],
          [
            77.6104421,
            12.9931288
          ]
        ]
      }
    },
    {
      "type": "Feature",
      "properties": {
        "id": "train_011_BND_039",
        "parcel_id": "train_011_P_010",
        "boundary_type": "INFERRED",
        "confidence": 0.685,
        "length_m": 40.49,
        "evidence_sources": [
          "Road_Corridor_Offset",
          "Adjacent_Parcel_Topology"
        ]
      },
      "geometry": {
        "type": "LineString",
        "coordinates": [
          [
            77.6104421,
            12.9931288
          ],
          [
            77.6100694,
            12.9931136
          ]
        ]
      }
    },
    {
      "type": "Feature",
      "properties": {
        "id": "train_011_BND_040",
        "parcel_id": "train_011_P_010",
        "boundary_type": "VISIBLE",
        "confidence": 0.82,
        "length_m": 60.25,
        "evidence_sources": [
          "Drone_RGB_Edge",
          "DSM_Breakline"
        ]
      },
      "geometry": {
        "type": "LineString",
        "coordinates": [
          [
            77.6100694,
            12.9931136
          ],
          [
            77.6100954,
            12.9936573
          ]
        ]
      }
    },
    {
      "type": "Feature",
      "properties": {
        "id": "train_011_BND_041",
        "parcel_id": "train_011_P_011",
        "boundary_type": "INFERRED",
        "confidence": 0.754,
        "length_m": 36.16,
        "evidence_sources": [
          "Road_Corridor_Offset",
          "Adjacent_Parcel_Topology"
        ]
      },
      "geometry": {
        "type": "LineString",
        "coordinates": [
          [
            77.6105673,
            12.9942118
          ],
          [
            77.6108988,
            12.9942438
          ]
        ]
      }
    },
    {
      "type": "Feature",
      "properties": {
        "id": "train_011_BND_042",
        "parcel_id": "train_011_P_011",
        "boundary_type": "VISIBLE",
        "confidence": 0.821,
        "length_m": 58.51,
        "evidence_sources": [
          "Drone_RGB_Edge",
          "DSM_Breakline"
        ]
      },
      "geometry": {
        "type": "LineString",
        "coordinates": [
          [
            77.6108988,
            12.9942438
          ],
          [
            77.6109011,
            12.9937152
          ]
        ]
      }
    },
    {
      "type": "Feature",
      "properties": {
        "id": "train_011_BND_043",
        "parcel_id": "train_011_P_011",
        "boundary_type": "VISIBLE",
        "confidence": 0.905,
        "length_m": 38.59,
        "evidence_sources": [
          "Drone_RGB_Edge",
          "DSM_Breakline"
        ]
      },
      "geometry": {
        "type": "LineString",
        "coordinates": [
          [
            77.6109011,
            12.9937152
          ],
          [
            77.6105465,
            12.9937406
          ]
        ]
      }
    },
    {
      "type": "Feature",
      "properties": {
        "id": "train_011_BND_044",
        "parcel_id": "train_011_P_011",
        "boundary_type": "VISIBLE",
        "confidence": 0.9,
        "length_m": 52.21,
        "evidence_sources": [
          "Drone_RGB_Edge",
          "DSM_Breakline"
        ]
      },
      "geometry": {
        "type": "LineString",
        "coordinates": [
          [
            77.6105465,
            12.9937406
          ],
          [
            77.6105673,
            12.9942118
          ]
        ]
      }
    },
    {
      "type": "Feature",
      "properties": {
        "id": "train_011_BND_045",
        "parcel_id": "train_011_P_012",
        "boundary_type": "VISIBLE",
        "confidence": 0.883,
        "length_m": 43.37,
        "evidence_sources": [
          "Drone_RGB_Edge",
          "DSM_Breakline"
        ]
      },
      "geometry": {
        "type": "LineString",
        "coordinates": [
          [
            77.6105376,
            12.9936243
          ],
          [
            77.6109367,
            12.9936422
          ]
        ]
      }
    },
    {
      "type": "Feature",
      "properties": {
        "id": "train_011_BND_046",
        "parcel_id": "train_011_P_012",
        "boundary_type": "INFERRED",
        "confidence": 0.639,
        "length_m": 57.49,
        "evidence_sources": [
          "Road_Corridor_Offset",
          "Adjacent_Parcel_Topology"
        ]
      },
      "geometry": {
        "type": "LineString",
        "coordinates": [
          [
            77.6109367,
            12.9936422
          ],
          [
            77.6109325,
            12.9931229
          ]
        ]
      }
    },
    {
      "type": "Feature",
      "properties": {
        "id": "train_011_BND_047",
        "parcel_id": "train_011_P_012",
        "boundary_type": "VISIBLE",
        "confidence": 0.841,
        "length_m": 40.55,
        "evidence_sources": [
          "Drone_RGB_Edge",
          "DSM_Breakline"
        ]
      },
      "geometry": {
        "type": "LineString",
        "coordinates": [
          [
            77.6109325,
            12.9931229
          ],
          [
            77.6105621,
            12.9930751
          ]
        ]
      }
    },
    {
      "type": "Feature",
      "properties": {
        "id": "train_011_BND_048",
        "parcel_id": "train_011_P_012",
        "boundary_type": "VISIBLE",
        "confidence": 0.882,
        "length_m": 60.85,
        "evidence_sources": [
          "Drone_RGB_Edge",
          "DSM_Breakline"
        ]
      },
      "geometry": {
        "type": "LineString",
        "coordinates": [
          [
            77.6105621,
            12.9930751
          ],
          [
            77.6105376,
            12.9936243
          ]
        ]
      }
    },
    {
      "type": "Feature",
      "properties": {
        "id": "train_011_BND_049",
        "parcel_id": "train_011_P_013",
        "boundary_type": "VISIBLE",
        "confidence": 0.863,
        "length_m": 58.86,
        "evidence_sources": [
          "Drone_RGB_Edge",
          "DSM_Breakline"
        ]
      },
      "geometry": {
        "type": "LineString",
        "coordinates": [
          [
            77.611125,
            12.9942196
          ],
          [
            77.6116662,
            12.9942523
          ]
        ]
      }
    },
    {
      "type": "Feature",
      "properties": {
        "id": "train_011_BND_050",
        "parcel_id": "train_011_P_013",
        "boundary_type": "VISIBLE",
        "confidence": 0.874,
        "length_m": 58.25,
        "evidence_sources": [
          "Drone_RGB_Edge",
          "DSM_Breakline"
        ]
      },
      "geometry": {
        "type": "LineString",
        "coordinates": [
          [
            77.6116662,
            12.9942523
          ],
          [
            77.6116538,
            12.9937262
          ]
        ]
      }
    },
    {
      "type": "Feature",
      "properties": {
        "id": "train_011_BND_051",
        "parcel_id": "train_011_P_013",
        "boundary_type": "VISIBLE",
        "confidence": 0.859,
        "length_m": 52.84,
        "evidence_sources": [
          "Drone_RGB_Edge",
          "DSM_Breakline"
        ]
      },
      "geometry": {
        "type": "LineString",
        "coordinates": [
          [
            77.6116538,
            12.9937262
          ],
          [
            77.6111671,
            12.9937186
          ]
        ]
      }
    },
    {
      "type": "Feature",
      "properties": {
        "id": "train_011_BND_052",
        "parcel_id": "train_011_P_013",
        "boundary_type": "INFERRED",
        "confidence": 0.764,
        "length_m": 55.65,
        "evidence_sources": [
          "Road_Corridor_Offset",
          "Adjacent_Parcel_Topology"
        ]
      },
      "geometry": {
        "type": "LineString",
        "coordinates": [
          [
            77.6111671,
            12.9937186
          ],
          [
            77.611125,
            12.9942196
          ]
        ]
      }
    },
    {
      "type": "Feature",
      "properties": {
        "id": "train_011_BND_053",
        "parcel_id": "train_011_P_014",
        "boundary_type": "VISIBLE",
        "confidence": 0.939,
        "length_m": 57.77,
        "evidence_sources": [
          "Drone_RGB_Edge",
          "DSM_Breakline"
        ]
      },
      "geometry": {
        "type": "LineString",
        "coordinates": [
          [
            77.6111303,
            12.9936103
          ],
          [
            77.6116625,
            12.9936161
          ]
        ]
      }
    },
    {
      "type": "Feature",
      "properties": {
        "id": "train_011_BND_054",
        "parcel_id": "train_011_P_014",
        "boundary_type": "VISIBLE",
        "confidence": 0.912,
        "length_m": 59.53,
        "evidence_sources": [
          "Drone_RGB_Edge",
          "DSM_Breakline"
        ]
      },
      "geometry": {
        "type": "LineString",
        "coordinates": [
          [
            77.6116625,
            12.9936161
          ],
          [
            77.6117141,
            12.9930807
          ]
        ]
      }
    },
    {
      "type": "Feature",
      "properties": {
        "id": "train_011_BND_055",
        "parcel_id": "train_011_P_014",
        "boundary_type": "VISIBLE",
        "confidence": 0.919,
        "length_m": 65.7,
        "evidence_sources": [
          "Drone_RGB_Edge",
          "DSM_Breakline"
        ]
      },
      "geometry": {
        "type": "LineString",
        "coordinates": [
          [
            77.6117141,
            12.9930807
          ],
          [
            77.6111098,
            12.9931133
          ]
        ]
      }
    },
    {
      "type": "Feature",
      "properties": {
        "id": "train_011_BND_056",
        "parcel_id": "train_011_P_014",
        "boundary_type": "VISIBLE",
        "confidence": 0.916,
        "length_m": 55.06,
        "evidence_sources": [
          "Drone_RGB_Edge",
          "DSM_Breakline"
        ]
      },
      "geometry": {
        "type": "LineString",
        "coordinates": [
          [
            77.6111098,
            12.9931133
          ],
          [
            77.6111303,
            12.9936103
          ]
        ]
      }
    },
    {
      "type": "Feature",
      "properties": {
        "id": "train_011_BND_057",
        "parcel_id": "train_011_P_015",
        "boundary_type": "VISIBLE",
        "confidence": 0.854,
        "length_m": 62.22,
        "evidence_sources": [
          "Drone_RGB_Edge",
          "DSM_Breakline"
        ]
      },
      "geometry": {
        "type": "LineString",
        "coordinates": [
          [
            77.6117464,
            12.9942609
          ],
          [
            77.6123196,
            12.9942598
          ]
        ]
      }
    },
    {
      "type": "Feature",
      "properties": {
        "id": "train_011_BND_058",
        "parcel_id": "train_011_P_015",
        "boundary_type": "INFERRED",
        "confidence": 0.692,
        "length_m": 62.18,
        "evidence_sources": [
          "Road_Corridor_Offset",
          "Adjacent_Parcel_Topology"
        ]
      },
      "geometry": {
        "type": "LineString",
        "coordinates": [
          [
            77.6123196,
            12.9942598
          ],
          [
            77.612293,
            12.9936987
          ]
        ]
      }
    },
    {
      "type": "Feature",
      "properties": {
        "id": "train_011_BND_059",
        "parcel_id": "train_011_P_015",
        "boundary_type": "VISIBLE",
        "confidence": 0.948,
        "length_m": 60.93,
        "evidence_sources": [
          "Drone_RGB_Edge",
          "DSM_Breakline"
        ]
      },
      "geometry": {
        "type": "LineString",
        "coordinates": [
          [
            77.612293,
            12.9936987
          ],
          [
            77.6117321,
            12.9937192
          ]
        ]
      }
    },
    {
      "type": "Feature",
      "properties": {
        "id": "train_011_BND_060",
        "parcel_id": "train_011_P_015",
        "boundary_type": "VISIBLE",
        "confidence": 0.897,
        "length_m": 59.98,
        "evidence_sources": [
          "Drone_RGB_Edge",
          "DSM_Breakline"
        ]
      },
      "geometry": {
        "type": "LineString",
        "coordinates": [
          [
            77.6117321,
            12.9937192
          ],
          [
            77.6117464,
            12.9942609
          ]
        ]
      }
    },
    {
      "type": "Feature",
      "properties": {
        "id": "train_011_BND_061",
        "parcel_id": "train_011_P_016",
        "boundary_type": "VISIBLE",
        "confidence": 0.837,
        "length_m": 61.4,
        "evidence_sources": [
          "Drone_RGB_Edge",
          "DSM_Breakline"
        ]
      },
      "geometry": {
        "type": "LineString",
        "coordinates": [
          [
            77.6117489,
            12.9936193
          ],
          [
            77.6123134,
            12.9936541
          ]
        ]
      }
    },
    {
      "type": "Feature",
      "properties": {
        "id": "train_011_BND_062",
        "parcel_id": "train_011_P_016",
        "boundary_type": "VISIBLE",
        "confidence": 0.873,
        "length_m": 61.79,
        "evidence_sources": [
          "Drone_RGB_Edge",
          "DSM_Breakline"
        ]
      },
      "geometry": {
        "type": "LineString",
        "coordinates": [
          [
            77.6123134,
            12.9936541
          ],
          [
            77.6123108,
            12.9930959
          ]
        ]
      }
    },
    {
      "type": "Feature",
      "properties": {
        "id": "train_011_BND_063",
        "parcel_id": "train_011_P_016",
        "boundary_type": "VISIBLE",
        "confidence": 0.885,
        "length_m": 58.29,
        "evidence_sources": [
          "Drone_RGB_Edge",
          "DSM_Breakline"
        ]
      },
      "geometry": {
        "type": "LineString",
        "coordinates": [
          [
            77.6123108,
            12.9930959
          ],
          [
            77.6117742,
            12.9930761
          ]
        ]
      }
    },
    {
      "type": "Feature",
      "properties": {
        "id": "train_011_BND_064",
        "parcel_id": "train_011_P_016",
        "boundary_type": "VISIBLE",
        "confidence": 0.881,
        "length_m": 60.19,
        "evidence_sources": [
          "Drone_RGB_Edge",
          "DSM_Breakline"
        ]
      },
      "geometry": {
        "type": "LineString",
        "coordinates": [
          [
            77.6117742,
            12.9930761
          ],
          [
            77.6117489,
            12.9936193
          ]
        ]
      }
    }
  ]
}