{
  "type": "FeatureCollection",
  "crs": {
    "type": "name",
    "properties": {
      "name": "EPSG:4326"
    }
  },
  "features": [
    {
      "type": "Feature",
      "properties": {
        "id": "train_093_REF_001",
        "parcel_id": "train_093_P_001",
        "parcel_layer": "REFERENCE",
        "boundary_representation": "REFERENCE",
        "land_use_class": "commercial",
        "area_sqm": 4290.32,
        "perimeter_m": 262.21,
        "source": "Synthetic Legacy Cadastral Map (Non-Authoritative Demo)"
      },
      "geometry": {
        "type": "Polygon",
        "coordinates": [
          [
            [
              77.6310791,
              13.0103331
            ],
            [
              77.6316634,
              13.010327
            ],
            [
              77.6316603,
              13.0097209
            ],
            [
              77.6310825,
              13.0097102
            ],
            [
              77.6310791,
              13.0103331
            ]
          ]
        ]
      }
    },
    {
      "type": "Feature",
      "properties": {
        "id": "train_093_REF_002",
        "parcel_id": "train_093_P_002",
        "parcel_layer": "REFERENCE",
        "boundary_representation": "REFERENCE",
        "land_use_class": "commercial",
        "area_sqm": 4381.63,
        "perimeter_m": 264.95,
        "source": "Synthetic Legacy Cadastral Map (Non-Authoritative Demo)"
      },
      "geometry": {
        "type": "Polygon",
        "coordinates": [
          [
            [
              77.6310778,
              13.0097001
            ],
            [
              77.6316603,
              13.0097066
            ],
            [
              77.6316628,
              13.0090844
            ],
            [
              77.6310662,
              13.0090852
            ],
            [
              77.6310778,
              13.0097001
            ]
          ]
        ]
      }
    },
    {
      "type": "Feature",
      "properties": {
        "id": "train_093_REF_003",
        "parcel_id": "train_093_P_003",
        "parcel_layer": "REFERENCE",
        "boundary_representation": "REFERENCE",
        "land_use_class": "mixed_use",
        "area_sqm": 4285.73,
        "perimeter_m": 261.96,
        "source": "Synthetic Legacy Cadastral Map (Non-Authoritative Demo)"
      },
      "geometry": {
        "type": "Polygon",
        "coordinates": [
          [
            [
              77.6316834,
              13.0103277
            ],
            [
              77.632267,
              13.01034
            ],
            [
              77.6322732,
              13.0097312
            ],
            [
              77.6316799,
              13.0097243
            ],
            [
              77.6316834,
              13.0103277
            ]
          ]
        ]
      }
    },
    {
      "type": "Feature",
      "properties": {
        "id": "train_093_REF_004",
        "parcel_id": "train_093_P_004",
        "parcel_layer": "REFERENCE",
        "boundary_representation": "REFERENCE",
        "land_use_class": "mixed_use",
        "area_sqm": 4389.38,
        "perimeter_m": 265.34,
        "source": "Synthetic Legacy Cadastral Map (Non-Authoritative Demo)"
      },
      "geometry": {
        "type": "Polygon",
        "coordinates": [
          [
            [
              77.6317131,
              13.0097229
            ],
            [
              77.6322957,
              13.0097219
            ],
            [
              77.6323113,
              13.0090934
            ],
            [
              77.6317276,
              13.0090984
            ],
            [
              77.6317131,
              13.0097229
            ]
          ]
        ]
      }
    },
    {
      "type": "Feature",
      "properties": {
        "id": "train_093_REF_005",
        "parcel_id": "train_093_P_005",
        "parcel_layer": "REFERENCE",
        "boundary_representation": "REFERENCE",
        "land_use_class": "mixed_use",
        "area_sqm": 3121.1,
        "perimeter_m": 228.05,
        "source": "Synthetic Legacy Cadastral Map (Non-Authoritative Demo)"
      },
      "geometry": {
        "type": "Polygon",
        "coordinates": [
          [
            [
              77.6324489,
              13.0103325
            ],
            [
              77.6328599,
              13.0103404
            ],
            [
              77.6328687,
              13.0097175
            ],
            [
              77.6324382,
              13.0097207
            ],
            [
              77.6324489,
              13.0103325
            ]
          ]
        ]
      }
    },
    {
      "type": "Feature",
      "properties": {
        "id": "train_093_REF_006",
        "parcel_id": "train_093_P_006",
        "parcel_layer": "REFERENCE",
        "boundary_representation": "REFERENCE",
        "land_use_class": "vacant",
        "area_sqm": 3109.62,
        "perimeter_m": 227.0,
        "source": "Synthetic Legacy Cadastral Map (Non-Authoritative Demo)"
      },
      "geometry": {
        "type": "Polygon",
        "coordinates": [
          [
            [
              77.6324453,
              13.0096893
            ],
            [
              77.6328697,
              13.0097068
            ],
            [
              77.6328797,
              13.0090882
            ],
            [
              77.632452,
              13.0090933
            ],
            [
              77.6324453,
              13.0096893
            ]
          ]
        ]
      }
    },
    {
      "type": "Feature",
      "properties": {
        "id": "train_093_REF_007",
        "parcel_id": "train_093_P_007",
        "parcel_layer": "REFERENCE",
        "boundary_representation": "REFERENCE",
        "land_use_class": "commercial",
        "area_sqm": 3163.0,
        "perimeter_m": 229.02,
        "source": "Synthetic Legacy Cadastral Map (Non-Authoritative Demo)"
      },
      "geometry": {
        "type": "Polygon",
        "coordinates": [
          [
            [
              77.6328815,
              13.0103284
            ],
            [
              77.6333142,
              13.0103242
            ],
            [
              77.6333224,
              13.0097156
            ],
            [
              77.6328972,
              13.0097097
            ],
            [
              77.6328815,
              13.0103284
            ]
          ]
        ]
      }
    },
    {
      "type": "Feature",
      "properties": {
        "id": "train_093_REF_008",
        "parcel_id": "train_093_P_008",
        "parcel_layer": "REFERENCE",
        "boundary_representation": "REFERENCE",
        "land_use_class": "industrial",
        "area_sqm": 3308.69,
        "perimeter_m": 234.0,
        "source": "Synthetic Legacy Cadastral Map (Non-Authoritative Demo)"
      },
      "geometry": {
        "type": "Polygon",
        "coordinates": [
          [
            [
              77.6329169,
              13.0097224
            ],
            [
              77.6333569,
              13.00972
            ],
            [
              77.6333603,
              13.0090995
            ],
            [
              77.6329186,
              13.0090937
            ],
            [
              77.6329169,
              13.0097224
            ]
          ]
        ]
      }
    },
    {
      "type": "Feature",
      "properties": {
        "id": "train_093_REF_009",
        "parcel_id": "train_093_P_009",
        "parcel_layer": "REFERENCE",
        "boundary_representation": "REFERENCE",
        "land_use_class": "commercial",
        "area_sqm": 2661.21,
        "perimeter_m": 211.07,
        "source": "Synthetic Legacy Cadastral Map (Non-Authoritative Demo)"
      },
      "geometry": {
        "type": "Polygon",
        "coordinates": [
          [
            [
              77.6310654,
              13.0088638
            ],
            [
              77.6316626,
              13.0088731
            ],
            [
              77.6316494,
              13.0084894
            ],
            [
              77.631071,
              13.0084939
            ],
            [
              77.6310654,
              13.0088638
            ]
          ]
        ]
      }
    },
    {
      "type": "Feature",
      "properties": {
        "id": "train_093_REF_010",
        "parcel_id": "train_093_P_010",
        "parcel_layer": "REFERENCE",
        "boundary_representation": "REFERENCE",
        "land_use_class": "residential",
        "area_sqm": 2668.73,
        "perimeter_m": 210.55,
        "source": "Synthetic Legacy Cadastral Map (Non-Authoritative Demo)"
      },
      "geometry": {
        "type": "Polygon",
        "coordinates": [
          [
            [
              77.6310762,
              13.0084769
            ],
            [
              77.6316532,
              13.0084703
            ],
            [
              77.6316616,
              13.0080841
            ],
            [
              77.6310842,
              13.0080933
            ],
            [
              77.6310762,
              13.0084769
            ]
          ]
        ]
      }
    },
    {
      "type": "Feature",
      "properties": {
        "id": "train_093_REF_011",
        "parcel_id": "train_093_P_011",
        "parcel_layer": "REFERENCE",
        "boundary_representation": "REFERENCE",
        "land_use_class": "mixed_use",
        "area_sqm": 2599.09,
        "perimeter_m": 209.04,
        "source": "Synthetic Legacy Cadastral Map (Non-Authoritative Demo)"
      },
      "geometry": {
        "type": "Polygon",
        "coordinates": [
          [
            [
              77.6316737,
              13.0088718
            ],
            [
              77.6322725,
              13.008863
            ],
            [
              77.6322649,
              13.0085012
            ],
            [
              77.6316908,
              13.0084959
            ],
            [
              77.6316737,
              13.0088718
            ]
          ]
        ]
      }
    },
    {
      "type": "Feature",
      "properties": {
        "id": "train_093_REF_012",
        "parcel_id": "train_093_P_012",
        "parcel_layer": "REFERENCE",
        "boundary_representation": "REFERENCE",
        "land_use_class": "commercial",
        "area_sqm": 2758.41,
        "perimeter_m": 214.15,
        "source": "Synthetic Legacy Cadastral Map (Non-Authoritative Demo)"
      },
      "geometry": {
        "type": "Polygon",
        "coordinates": [
          [
            [
              77.6317161,
              13.0084955
            ],
            [
              77.632311,
              13.0084799
            ],
            [
              77.6322952,
              13.0080974
            ],
            [
              77.6317131,
              13.0080981
            ],
            [
              77.6317161,
              13.0084955
            ]
          ]
        ]
      }
    },
    {
      "type": "Feature",
      "properties": {
        "id": "train_093_REF_013",
        "parcel_id": "train_093_P_013",
        "parcel_layer": "REFERENCE",
        "boundary_representation": "REFERENCE",
        "land_use_class": "mixed_use",
        "area_sqm": 1910.37,
        "perimeter_m": 175.13,
        "source": "Synthetic Legacy Cadastral Map (Non-Authoritative Demo)"
      },
      "geometry": {
        "type": "Polygon",
        "coordinates": [
          [
            [
              77.6324508,
              13.0088616
            ],
            [
              77.6328761,
              13.0088779
            ],
            [
              77.6328685,
              13.0085
            ],
            [
              77.6324498,
              13.0084857
            ],
            [
              77.6324508,
              13.0088616
            ]
          ]
        ]
      }
    },
    {
      "type": "Feature",
      "properties": {
        "id": "train_093_REF_014",
        "parcel_id": "train_093_P_014",
        "parcel_layer": "REFERENCE",
        "boundary_representation": "REFERENCE",
        "land_use_class": "vegetation",
        "area_sqm": 1959.64,
        "perimeter_m": 177.4,
        "source": "Synthetic Legacy Cadastral Map (Non-Authoritative Demo)"
      },
      "geometry": {
        "type": "Polygon",
        "coordinates": [
          [
            [
              77.632436,
              13.0084656
            ],
            [
              77.6328678,
              13.0084593
            ],
            [
              77.6328668,
              13.008089
            ],
            [
              77.6324325,
              13.0080827
            ],
            [
              77.632436,
              13.0084656
            ]
          ]
        ]
      }
    },
    {
      "type": "Feature",
      "properties": {
        "id": "train_093_REF_015",
        "parcel_id": "train_093_P_015",
        "parcel_layer": "REFERENCE",
        "boundary_representation": "REFERENCE",
        "land_use_class": "commercial",
        "area_sqm": 1899.67,
        "perimeter_m": 174.61,
        "source": "Synthetic Legacy Cadastral Map (Non-Authoritative Demo)"
      },
      "geometry": {
        "type": "Polygon",
        "coordinates": [
          [
            [
              77.6328946,
              13.0088829
            ],
            [
              77.6333189,
              13.008866
            ],
            [
              77.6333143,
              13.0085001
            ],
            [
              77.6328921,
              13.0085019
            ],
            [
              77.6328946,
              13.0088829
            ]
          ]
        ]
      }
    },
    {
      "type": "Feature",
      "properties": {
        "id": "train_093_REF_016",
        "parcel_id": "train_093_P_016",
        "parcel_layer": "REFERENCE",
        "boundary_representation": "REFERENCE",
        "land_use_class": "vacant",
        "area_sqm": 1901.95,
        "perimeter_m": 174.84,
        "source": "Synthetic Legacy Cadastral Map (Non-Authoritative Demo)"
      },
      "geometry": {
        "type": "Polygon",
        "coordinates": [
          [
            [
              77.632922,
              13.0084845
            ],
            [
              77.633351,
              13.0084801
            ],
            [
              77.6333501,
              13.0081164
            ],
            [
              77.6329199,
              13.0081113
            ],
            [
              77.632922,
              13.0084845
            ]
          ]
        ]
      }
    }
  ]
}