{
  "type": "FeatureCollection",
  "crs": {
    "type": "name",
    "properties": {
      "name": "EPSG:4326"
    }
  },
  "features": [
    {
      "type": "Feature",
      "properties": {
        "id": "train_027_BND_001",
        "parcel_id": "train_027_P_001",
        "boundary_type": "VISIBLE",
        "confidence": 0.914,
        "length_m": 36.18,
        "evidence_sources": [
          "Drone_RGB_Edge",
          "DSM_Breakline"
        ]
      },
      "geometry": {
        "type": "LineString",
        "coordinates": [
          [
            77.613069,
            12.9983435
          ],
          [
            77.6134015,
            12.9983214
          ]
        ]
      }
    },
    {
      "type": "Feature",
      "properties": {
        "id": "train_027_BND_002",
        "parcel_id": "train_027_P_001",
        "boundary_type": "VISIBLE",
        "confidence": 0.944,
        "length_m": 58.5,
        "evidence_sources": [
          "Drone_RGB_Edge",
          "DSM_Breakline"
        ]
      },
      "geometry": {
        "type": "LineString",
        "coordinates": [
          [
            77.6134015,
            12.9983214
          ],
          [
            77.6134138,
            12.9977931
          ]
        ]
      }
    },
    {
      "type": "Feature",
      "properties": {
        "id": "train_027_BND_003",
        "parcel_id": "train_027_P_001",
        "boundary_type": "INFERRED",
        "confidence": 0.708,
        "length_m": 38.75,
        "evidence_sources": [
          "Road_Corridor_Offset",
          "Adjacent_Parcel_Topology"
        ]
      },
      "geometry": {
        "type": "LineString",
        "coordinates": [
          [
            77.6134138,
            12.9977931
          ],
          [
            77.6130572,
            12.9978097
          ]
        ]
      }
    },
    {
      "type": "Feature",
      "properties": {
        "id": "train_027_BND_004",
        "parcel_id": "train_027_P_001",
        "boundary_type": "VISIBLE",
        "confidence": 0.923,
        "length_m": 59.1,
        "evidence_sources": [
          "Drone_RGB_Edge",
          "DSM_Breakline"
        ]
      },
      "geometry": {
        "type": "LineString",
        "coordinates": [
          [
            77.6130572,
            12.9978097
          ],
          [
            77.613069,
            12.9983435
          ]
        ]
      }
    },
    {
      "type": "Feature",
      "properties": {
        "id": "train_027_BND_005",
        "parcel_id": "train_027_P_002",
        "boundary_type": "VISIBLE",
        "confidence": 0.86,
        "length_m": 38.25,
        "evidence_sources": [
          "Drone_RGB_Edge",
          "DSM_Breakline"
        ]
      },
      "geometry": {
        "type": "LineString",
        "coordinates": [
          [
            77.6130611,
            12.9977897
          ],
          [
            77.6134135,
            12.9977895
          ]
        ]
      }
    },
    {
      "type": "Feature",
      "properties": {
        "id": "train_027_BND_006",
        "parcel_id": "train_027_P_002",
        "boundary_type": "INFERRED",
        "confidence": 0.766,
        "length_m": 59.89,
        "evidence_sources": [
          "Road_Corridor_Offset",
          "Adjacent_Parcel_Topology"
        ]
      },
      "geometry": {
        "type": "LineString",
        "coordinates": [
          [
            77.6134135,
            12.9977895
          ],
          [
            77.6134217,
            12.9972485
          ]
        ]
      }
    },
    {
      "type": "Feature",
      "properties": {
        "id": "train_027_BND_007",
        "parcel_id": "train_027_P_002",
        "boundary_type": "INFERRED",
        "confidence": 0.705,
        "length_m": 37.77,
        "evidence_sources": [
          "Road_Corridor_Offset",
          "Adjacent_Parcel_Topology"
        ]
      },
      "geometry": {
        "type": "LineString",
        "coordinates": [
          [
            77.6134217,
            12.9972485
          ],
          [
            77.6130739,
            12.9972377
          ]
        ]
      }
    },
    {
      "type": "Feature",
      "properties": {
        "id": "train_027_BND_008",
        "parcel_id": "train_027_P_002",
        "boundary_type": "VISIBLE",
        "confidence": 0.923,
        "length_m": 61.12,
        "evidence_sources": [
          "Drone_RGB_Edge",
          "DSM_Breakline"
        ]
      },
      "geometry": {
        "type": "LineString",
        "coordinates": [
          [
            77.6130739,
            12.9972377
          ],
          [
            77.6130611,
            12.9977897
          ]
        ]
      }
    },
    {
      "type": "Feature",
      "properties": {
        "id": "train_027_BND_009",
        "parcel_id": "train_027_P_003",
        "boundary_type": "VISIBLE",
        "confidence": 0.927,
        "length_m": 35.36,
        "evidence_sources": [
          "Drone_RGB_Edge",
          "DSM_Breakline"
        ]
      },
      "geometry": {
        "type": "LineString",
        "coordinates": [
          [
            77.6134429,
            12.9983237
          ],
          [
            77.6137686,
            12.9983252
          ]
        ]
      }
    },
    {
      "type": "Feature",
      "properties": {
        "id": "train_027_BND_010",
        "parcel_id": "train_027_P_003",
        "boundary_type": "VISIBLE",
        "confidence": 0.908,
        "length_m": 57.87,
        "evidence_sources": [
          "Drone_RGB_Edge",
          "DSM_Breakline"
        ]
      },
      "geometry": {
        "type": "LineString",
        "coordinates": [
          [
            77.6137686,
            12.9983252
          ],
          [
            77.6137732,
            12.9978024
          ]
        ]
      }
    },
    {
      "type": "Feature",
      "properties": {
        "id": "train_027_BND_011",
        "parcel_id": "train_027_P_003",
        "boundary_type": "VISIBLE",
        "confidence": 0.897,
        "length_m": 37.98,
        "evidence_sources": [
          "Drone_RGB_Edge",
          "DSM_Breakline"
        ]
      },
      "geometry": {
        "type": "LineString",
        "coordinates": [
          [
            77.6137732,
            12.9978024
          ],
          [
            77.6134233,
            12.9978041
          ]
        ]
      }
    },
    {
      "type": "Feature",
      "properties": {
        "id": "train_027_BND_012",
        "parcel_id": "train_027_P_003",
        "boundary_type": "VISIBLE",
        "confidence": 0.918,
        "length_m": 57.56,
        "evidence_sources": [
          "Drone_RGB_Edge",
          "DSM_Breakline"
        ]
      },
      "geometry": {
        "type": "LineString",
        "coordinates": [
          [
            77.6134233,
            12.9978041
          ],
          [
            77.6134429,
            12.9983237
          ]
        ]
      }
    },
    {
      "type": "Feature",
      "properties": {
        "id": "train_027_BND_013",
        "parcel_id": "train_027_P_004",
        "boundary_type": "VISIBLE",
        "confidence": 0.916,
        "length_m": 36.52,
        "evidence_sources": [
          "Drone_RGB_Edge",
          "DSM_Breakline"
        ]
      },
      "geometry": {
        "type": "LineString",
        "coordinates": [
          [
            77.6134342,
            12.9977887
          ],
          [
            77.61377,
            12.9977685
          ]
        ]
      }
    },
    {
      "type": "Feature",
      "properties": {
        "id": "train_027_BND_014",
        "parcel_id": "train_027_P_004",
        "boundary_type": "VISIBLE",
        "confidence": 0.9,
        "length_m": 57.35,
        "evidence_sources": [
          "Drone_RGB_Edge",
          "DSM_Breakline"
        ]
      },
      "geometry": {
        "type": "LineString",
        "coordinates": [
          [
            77.61377,
            12.9977685
          ],
          [
            77.6137768,
            12.9972505
          ]
        ]
      }
    },
    {
      "type": "Feature",
      "properties": {
        "id": "train_027_BND_015",
        "parcel_id": "train_027_P_004",
        "boundary_type": "VISIBLE",
        "confidence": 0.885,
        "length_m": 37.72,
        "evidence_sources": [
          "Drone_RGB_Edge",
          "DSM_Breakline"
        ]
      },
      "geometry": {
        "type": "LineString",
        "coordinates": [
          [
            77.6137768,
            12.9972505
          ],
          [
            77.6134293,
            12.9972539
          ]
        ]
      }
    },
    {
      "type": "Feature",
      "properties": {
        "id": "train_027_BND_016",
        "parcel_id": "train_027_P_004",
        "boundary_type": "VISIBLE",
        "confidence": 0.826,
        "length_m": 59.2,
        "evidence_sources": [
          "Drone_RGB_Edge",
          "DSM_Breakline"
        ]
      },
      "geometry": {
        "type": "LineString",
        "coordinates": [
          [
            77.6134293,
            12.9972539
          ],
          [
            77.6134342,
            12.9977887
          ]
        ]
      }
    },
    {
      "type": "Feature",
      "properties": {
        "id": "train_027_BND_017",
        "parcel_id": "train_027_P_005",
        "boundary_type": "VISIBLE",
        "confidence": 0.886,
        "length_m": 72.97,
        "evidence_sources": [
          "Drone_RGB_Edge",
          "DSM_Breakline"
        ]
      },
      "geometry": {
        "type": "LineString",
        "coordinates": [
          [
            77.613948,
            12.9983388
          ],
          [
            77.6146202,
            12.9983337
          ]
        ]
      }
    },
    {
      "type": "Feature",
      "properties": {
        "id": "train_027_BND_018",
        "parcel_id": "train_027_P_005",
        "boundary_type": "VISIBLE",
        "confidence": 0.87,
        "length_m": 60.09,
        "evidence_sources": [
          "Drone_RGB_Edge",
          "DSM_Breakline"
        ]
      },
      "geometry": {
        "type": "LineString",
        "coordinates": [
          [
            77.6146202,
            12.9983337
          ],
          [
            77.6146174,
            12.9977909
          ]
        ]
      }
    },
    {
      "type": "Feature",
      "properties": {
        "id": "train_027_BND_019",
        "parcel_id": "train_027_P_005",
        "boundary_type": "VISIBLE",
        "confidence": 0.958,
        "length_m": 73.82,
        "evidence_sources": [
          "Drone_RGB_Edge",
          "DSM_Breakline"
        ]
      },
      "geometry": {
        "type": "LineString",
        "coordinates": [
          [
            77.6146174,
            12.9977909
          ],
          [
            77.6139377,
            12.9978127
          ]
        ]
      }
    },
    {
      "type": "Feature",
      "properties": {
        "id": "train_027_BND_020",
        "parcel_id": "train_027_P_005",
        "boundary_type": "VISIBLE",
        "confidence": 0.837,
        "length_m": 58.25,
        "evidence_sources": [
          "Drone_RGB_Edge",
          "DSM_Breakline"
        ]
      },
      "geometry": {
        "type": "LineString",
        "coordinates": [
          [
            77.6139377,
            12.9978127
          ],
          [
            77.613948,
            12.9983388
          ]
        ]
      }
    },
    {
      "type": "Feature",
      "properties": {
        "id": "train_027_BND_021",
        "parcel_id": "train_027_P_006",
        "boundary_type": "VISIBLE",
        "confidence": 0.856,
        "length_m": 73.72,
        "evidence_sources": [
          "Drone_RGB_Edge",
          "DSM_Breakline"
        ]
      },
      "geometry": {
        "type": "LineString",
        "coordinates": [
          [
            77.6139446,
            12.9977857
          ],
          [
            77.6146237,
            12.9977835
          ]
        ]
      }
    },
    {
      "type": "Feature",
      "properties": {
        "id": "train_027_BND_022",
        "parcel_id": "train_027_P_006",
        "boundary_type": "VISIBLE",
        "confidence": 0.927,
        "length_m": 60.42,
        "evidence_sources": [
          "Drone_RGB_Edge",
          "DSM_Breakline"
        ]
      },
      "geometry": {
        "type": "LineString",
        "coordinates": [
          [
            77.6146237,
            12.9977835
          ],
          [
            77.6146126,
            12.9972378
          ]
        ]
      }
    },
    {
      "type": "Feature",
      "properties": {
        "id": "train_027_BND_023",
        "parcel_id": "train_027_P_006",
        "boundary_type": "VISIBLE",
        "confidence": 0.865,
        "length_m": 72.54,
        "evidence_sources": [
          "Drone_RGB_Edge",
          "DSM_Breakline"
        ]
      },
      "geometry": {
        "type": "LineString",
        "coordinates": [
          [
            77.6146126,
            12.9972378
          ],
          [
            77.6139444,
            12.9972438
          ]
        ]
      }
    },
    {
      "type": "Feature",
      "properties": {
        "id": "train_027_BND_024",
        "parcel_id": "train_027_P_006",
        "boundary_type": "VISIBLE",
        "confidence": 0.936,
        "length_m": 59.99,
        "evidence_sources": [
          "Drone_RGB_Edge",
          "DSM_Breakline"
        ]
      },
      "geometry": {
        "type": "LineString",
        "coordinates": [
          [
            77.6139444,
            12.9972438
          ],
          [
            77.6139446,
            12.9977857
          ]
        ]
      }
    },
    {
      "type": "Feature",
      "properties": {
        "id": "train_027_BND_025",
        "parcel_id": "train_027_P_007",
        "boundary_type": "VISIBLE",
        "confidence": 0.958,
        "length_m": 71.43,
        "evidence_sources": [
          "Drone_RGB_Edge",
          "DSM_Breakline"
        ]
      },
      "geometry": {
        "type": "LineString",
        "coordinates": [
          [
            77.614649,
            12.9983327
          ],
          [
            77.615307,
            12.9983227
          ]
        ]
      }
    },
    {
      "type": "Feature",
      "properties": {
        "id": "train_027_BND_026",
        "parcel_id": "train_027_P_007",
        "boundary_type": "VISIBLE",
        "confidence": 0.854,
        "length_m": 57.11,
        "evidence_sources": [
          "Drone_RGB_Edge",
          "DSM_Breakline"
        ]
      },
      "geometry": {
        "type": "LineString",
        "coordinates": [
          [
            77.615307,
            12.9983227
          ],
          [
            77.6153175,
            12.9978069
          ]
        ]
      }
    },
    {
      "type": "Feature",
      "properties": {
        "id": "train_027_BND_027",
        "parcel_id": "train_027_P_007",
        "boundary_type": "VISIBLE",
        "confidence": 0.832,
        "length_m": 72.47,
        "evidence_sources": [
          "Drone_RGB_Edge",
          "DSM_Breakline"
        ]
      },
      "geometry": {
        "type": "LineString",
        "coordinates": [
          [
            77.6153175,
            12.9978069
          ],
          [
            77.6146499,
            12.9978084
          ]
        ]
      }
    },
    {
      "type": "Feature",
      "properties": {
        "id": "train_027_BND_028",
        "parcel_id": "train_027_P_007",
        "boundary_type": "VISIBLE",
        "confidence": 0.903,
        "length_m": 58.04,
        "evidence_sources": [
          "Drone_RGB_Edge",
          "DSM_Breakline"
        ]
      },
      "geometry": {
        "type": "LineString",
        "coordinates": [
          [
            77.6146499,
            12.9978084
          ],
          [
            77.614649,
            12.9983327
          ]
        ]
      }
    },
    {
      "type": "Feature",
      "properties": {
        "id": "train_027_BND_029",
        "parcel_id": "train_027_P_008",
        "boundary_type": "INFERRED",
        "confidence": 0.672,
        "length_m": 72.35,
        "evidence_sources": [
          "Road_Corridor_Offset",
          "Adjacent_Parcel_Topology"
        ]
      },
      "geometry": {
        "type": "LineString",
        "coordinates": [
          [
            77.6146444,
            12.9977837
          ],
          [
            77.6153109,
            12.9977849
          ]
        ]
      }
    },
    {
      "type": "Feature",
      "properties": {
        "id": "train_027_BND_030",
        "parcel_id": "train_027_P_008",
        "boundary_type": "VISIBLE",
        "confidence": 0.902,
        "length_m": 58.67,
        "evidence_sources": [
          "Drone_RGB_Edge",
          "DSM_Breakline"
        ]
      },
      "geometry": {
        "type": "LineString",
        "coordinates": [
          [
            77.6153109,
            12.9977849
          ],
          [
            77.6153228,
            12.997255
          ]
        ]
      }
    },
    {
      "type": "Feature",
      "properties": {
        "id": "train_027_BND_031",
        "parcel_id": "train_027_P_008",
        "boundary_type": "VISIBLE",
        "confidence": 0.826,
        "length_m": 74.1,
        "evidence_sources": [
          "Drone_RGB_Edge",
          "DSM_Breakline"
        ]
      },
      "geometry": {
        "type": "LineString",
        "coordinates": [
          [
            77.6153228,
            12.997255
          ],
          [
            77.6146403,
            12.9972444
          ]
        ]
      }
    },
    {
      "type": "Feature",
      "properties": {
        "id": "train_027_BND_032",
        "parcel_id": "train_027_P_008",
        "boundary_type": "VISIBLE",
        "confidence": 0.896,
        "length_m": 59.7,
        "evidence_sources": [
          "Drone_RGB_Edge",
          "DSM_Breakline"
        ]
      },
      "geometry": {
        "type": "LineString",
        "coordinates": [
          [
            77.6146403,
            12.9972444
          ],
          [
            77.6146444,
            12.9977837
          ]
        ]
      }
    },
    {
      "type": "Feature",
      "properties": {
        "id": "train_027_BND_033",
        "parcel_id": "train_027_P_009",
        "boundary_type": "INFERRED",
        "confidence": 0.79,
        "length_m": 36.91,
        "evidence_sources": [
          "Road_Corridor_Offset",
          "Adjacent_Parcel_Topology"
        ]
      },
      "geometry": {
        "type": "LineString",
        "coordinates": [
          [
            77.6130737,
            12.9970435
          ],
          [
            77.6134137,
            12.9970374
          ]
        ]
      }
    },
    {
      "type": "Feature",
      "properties": {
        "id": "train_027_BND_034",
        "parcel_id": "train_027_P_009",
        "boundary_type": "VISIBLE",
        "confidence": 0.951,
        "length_m": 52.37,
        "evidence_sources": [
          "Drone_RGB_Edge",
          "DSM_Breakline"
        ]
      },
      "geometry": {
        "type": "LineString",
        "coordinates": [
          [
            77.6134137,
            12.9970374
          ],
          [
            77.6134029,
            12.9965644
          ]
        ]
      }
    },
    {
      "type": "Feature",
      "properties": {
        "id": "train_027_BND_035",
        "parcel_id": "train_027_P_009",
        "boundary_type": "INFERRED",
        "confidence": 0.677,
        "length_m": 37.3,
        "evidence_sources": [
          "Road_Corridor_Offset",
          "Adjacent_Parcel_Topology"
        ]
      },
      "geometry": {
        "type": "LineString",
        "coordinates": [
          [
            77.6134029,
            12.9965644
          ],
          [
            77.6130596,
            12.9965793
          ]
        ]
      }
    },
    {
      "type": "Feature",
      "properties": {
        "id": "train_027_BND_036",
        "parcel_id": "train_027_P_009",
        "boundary_type": "VISIBLE",
        "confidence": 0.934,
        "length_m": 51.41,
        "evidence_sources": [
          "Drone_RGB_Edge",
          "DSM_Breakline"
        ]
      },
      "geometry": {
        "type": "LineString",
        "coordinates": [
          [
            77.6130596,
            12.9965793
          ],
          [
            77.6130737,
            12.9970435
          ]
        ]
      }
    },
    {
      "type": "Feature",
      "properties": {
        "id": "train_027_BND_037",
        "parcel_id": "train_027_P_010",
        "boundary_type": "VISIBLE",
        "confidence": 0.881,
        "length_m": 37.62,
        "evidence_sources": [
          "Drone_RGB_Edge",
          "DSM_Breakline"
        ]
      },
      "geometry": {
        "type": "LineString",
        "coordinates": [
          [
            77.6130669,
            12.9965463
          ],
          [
            77.6134131,
            12.9965616
          ]
        ]
      }
    },
    {
      "type": "Feature",
      "properties": {
        "id": "train_027_BND_038",
        "parcel_id": "train_027_P_010",
        "boundary_type": "VISIBLE",
        "confidence": 0.896,
        "length_m": 51.62,
        "evidence_sources": [
          "Drone_RGB_Edge",
          "DSM_Breakline"
        ]
      },
      "geometry": {
        "type": "LineString",
        "coordinates": [
          [
            77.6134131,
            12.9965616
          ],
          [
            77.6134197,
            12.9960953
          ]
        ]
      }
    },
    {
      "type": "Feature",
      "properties": {
        "id": "train_027_BND_039",
        "parcel_id": "train_027_P_010",
        "boundary_type": "INFERRED",
        "confidence": 0.683,
        "length_m": 37.59,
        "evidence_sources": [
          "Road_Corridor_Offset",
          "Adjacent_Parcel_Topology"
        ]
      },
      "geometry": {
        "type": "LineString",
        "coordinates": [
          [
            77.6134197,
            12.9960953
          ],
          [
            77.6130734,
            12.9960919
          ]
        ]
      }
    },
    {
      "type": "Feature",
      "properties": {
        "id": "train_027_BND_040",
        "parcel_id": "train_027_P_010",
        "boundary_type": "VISIBLE",
        "confidence": 0.925,
        "length_m": 50.31,
        "evidence_sources": [
          "Drone_RGB_Edge",
          "DSM_Breakline"
        ]
      },
      "geometry": {
        "type": "LineString",
        "coordinates": [
          [
            77.6130734,
            12.9960919
          ],
          [
            77.6130669,
            12.9965463
          ]
        ]
      }
    },
    {
      "type": "Feature",
      "properties": {
        "id": "train_027_BND_041",
        "parcel_id": "train_027_P_011",
        "boundary_type": "VISIBLE",
        "confidence": 0.905,
        "length_m": 36.29,
        "evidence_sources": [
          "Drone_RGB_Edge",
          "DSM_Breakline"
        ]
      },
      "geometry": {
        "type": "LineString",
        "coordinates": [
          [
            77.6134318,
            12.9970307
          ],
          [
            77.6137661,
            12.9970352
          ]
        ]
      }
    },
    {
      "type": "Feature",
      "properties": {
        "id": "train_027_BND_042",
        "parcel_id": "train_027_P_011",
        "boundary_type": "VISIBLE",
        "confidence": 0.904,
        "length_m": 50.12,
        "evidence_sources": [
          "Drone_RGB_Edge",
          "DSM_Breakline"
        ]
      },
      "geometry": {
        "type": "LineString",
        "coordinates": [
          [
            77.6137661,
            12.9970352
          ],
          [
            77.6137742,
            12.9965825
          ]
        ]
      }
    },
    {
      "type": "Feature",
      "properties": {
        "id": "train_027_BND_043",
        "parcel_id": "train_027_P_011",
        "boundary_type": "INFERRED",
        "confidence": 0.746,
        "length_m": 37.28,
        "evidence_sources": [
          "Road_Corridor_Offset",
          "Adjacent_Parcel_Topology"
        ]
      },
      "geometry": {
        "type": "LineString",
        "coordinates": [
          [
            77.6137742,
            12.9965825
          ],
          [
            77.6134308,
            12.9965842
          ]
        ]
      }
    },
    {
      "type": "Feature",
      "properties": {
        "id": "train_027_BND_044",
        "parcel_id": "train_027_P_011",
        "boundary_type": "INFERRED",
        "confidence": 0.66,
        "length_m": 49.43,
        "evidence_sources": [
          "Road_Corridor_Offset",
          "Adjacent_Parcel_Topology"
        ]
      },
      "geometry": {
        "type": "LineString",
        "coordinates": [
          [
            77.6134308,
            12.9965842
          ],
          [
            77.6134318,
            12.9970307
          ]
        ]
      }
    },
    {
      "type": "Feature",
      "properties": {
        "id": "train_027_BND_045",
        "parcel_id": "train_027_P_012",
        "boundary_type": "VISIBLE",
        "confidence": 0.921,
        "length_m": 36.58,
        "evidence_sources": [
          "Drone_RGB_Edge",
          "DSM_Breakline"
        ]
      },
      "geometry": {
        "type": "LineString",
        "coordinates": [
          [
            77.61344,
            12.9965429
          ],
          [
            77.6137768,
            12.9965547
          ]
        ]
      }
    },
    {
      "type": "Feature",
      "properties": {
        "id": "train_027_BND_046",
        "parcel_id": "train_027_P_012",
        "boundary_type": "INFERRED",
        "confidence": 0.694,
        "length_m": 51.66,
        "evidence_sources": [
          "Road_Corridor_Offset",
          "Adjacent_Parcel_Topology"
        ]
      },
      "geometry": {
        "type": "LineString",
        "coordinates": [
          [
            77.6137768,
            12.9965547
          ],
          [
            77.613773,
            12.996088
          ]
        ]
      }
    },
    {
      "type": "Feature",
      "properties": {
        "id": "train_027_BND_047",
        "parcel_id": "train_027_P_012",
        "boundary_type": "INFERRED",
        "confidence": 0.729,
        "length_m": 37.39,
        "evidence_sources": [
          "Road_Corridor_Offset",
          "Adjacent_Parcel_Topology"
        ]
      },
      "geometry": {
        "type": "LineString",
        "coordinates": [
          [
            77.613773,
            12.996088
          ],
          [
            77.6134286,
            12.9960906
          ]
        ]
      }
    },
    {
      "type": "Feature",
      "properties": {
        "id": "train_027_BND_048",
        "parcel_id": "train_027_P_012",
        "boundary_type": "INFERRED",
        "confidence": 0.622,
        "length_m": 50.08,
        "evidence_sources": [
          "Road_Corridor_Offset",
          "Adjacent_Parcel_Topology"
        ]
      },
      "geometry": {
        "type": "LineString",
        "coordinates": [
          [
            77.6134286,
            12.9960906
          ],
          [
            77.61344,
            12.9965429
          ]
        ]
      }
    },
    {
      "type": "Feature",
      "properties": {
        "id": "train_027_BND_049",
        "parcel_id": "train_027_P_013",
        "boundary_type": "VISIBLE",
        "confidence": 0.917,
        "length_m": 72.23,
        "evidence_sources": [
          "Drone_RGB_Edge",
          "DSM_Breakline"
        ]
      },
      "geometry": {
        "type": "LineString",
        "coordinates": [
          [
            77.6139474,
            12.9970401
          ],
          [
            77.6146127,
            12.9970278
          ]
        ]
      }
    },
    {
      "type": "Feature",
      "properties": {
        "id": "train_027_BND_050",
        "parcel_id": "train_027_P_013",
        "boundary_type": "INFERRED",
        "confidence": 0.778,
        "length_m": 49.1,
        "evidence_sources": [
          "Road_Corridor_Offset",
          "Adjacent_Parcel_Topology"
        ]
      },
      "geometry": {
        "type": "LineString",
        "coordinates": [
          [
            77.6146127,
            12.9970278
          ],
          [
            77.6146261,
            12.9965844
          ]
        ]
      }
    },
    {
      "type": "Feature",
      "properties": {
        "id": "train_027_BND_051",
        "parcel_id": "train_027_P_013",
        "boundary_type": "VISIBLE",
        "confidence": 0.841,
        "length_m": 74.14,
        "evidence_sources": [
          "Drone_RGB_Edge",
          "DSM_Breakline"
        ]
      },
      "geometry": {
        "type": "LineString",
        "coordinates": [
          [
            77.6146261,
            12.9965844
          ],
          [
            77.6139431,
            12.9965796
          ]
        ]
      }
    },
    {
      "type": "Feature",
      "properties": {
        "id": "train_027_BND_052",
        "parcel_id": "train_027_P_013",
        "boundary_type": "VISIBLE",
        "confidence": 0.906,
        "length_m": 50.98,
        "evidence_sources": [
          "Drone_RGB_Edge",
          "DSM_Breakline"
        ]
      },
      "geometry": {
        "type": "LineString",
        "coordinates": [
          [
            77.6139431,
            12.9965796
          ],
          [
            77.6139474,
            12.9970401
          ]
        ]
      }
    },
    {
      "type": "Feature",
      "properties": {
        "id": "train_027_BND_053",
        "parcel_id": "train_027_P_014",
        "boundary_type": "INFERRED",
        "confidence": 0.788,
        "length_m": 72.58,
        "evidence_sources": [
          "Road_Corridor_Offset",
          "Adjacent_Parcel_Topology"
        ]
      },
      "geometry": {
        "type": "LineString",
        "coordinates": [
          [
            77.6139499,
            12.9965507
          ],
          [
            77.6146185,
            12.9965488
          ]
        ]
      }
    },
    {
      "type": "Feature",
      "properties": {
        "id": "train_027_BND_054",
        "parcel_id": "train_027_P_014",
        "boundary_type": "VISIBLE",
        "confidence": 0.822,
        "length_m": 52.4,
        "evidence_sources": [
          "Drone_RGB_Edge",
          "DSM_Breakline"
        ]
      },
      "geometry": {
        "type": "LineString",
        "coordinates": [
          [
            77.6146185,
            12.9965488
          ],
          [
            77.6146113,
            12.9960755
          ]
        ]
      }
    },
    {
      "type": "Feature",
      "properties": {
        "id": "train_027_BND_055",
        "parcel_id": "train_027_P_014",
        "boundary_type": "VISIBLE",
        "confidence": 0.906,
        "length_m": 73.18,
        "evidence_sources": [
          "Drone_RGB_Edge",
          "DSM_Breakline"
        ]
      },
      "geometry": {
        "type": "LineString",
        "coordinates": [
          [
            77.6146113,
            12.9960755
          ],
          [
            77.6139375,
            12.9960964
          ]
        ]
      }
    },
    {
      "type": "Feature",
      "properties": {
        "id": "train_027_BND_056",
        "parcel_id": "train_027_P_014",
        "boundary_type": "INFERRED",
        "confidence": 0.633,
        "length_m": 50.31,
        "evidence_sources": [
          "Road_Corridor_Offset",
          "Adjacent_Parcel_Topology"
        ]
      },
      "geometry": {
        "type": "LineString",
        "coordinates": [
          [
            77.6139375,
            12.9960964
          ],
          [
            77.6139499,
            12.9965507
          ]
        ]
      }
    },
    {
      "type": "Feature",
      "properties": {
        "id": "train_027_BND_057",
        "parcel_id": "train_027_P_015",
        "boundary_type": "VISIBLE",
        "confidence": 0.859,
        "length_m": 73.25,
        "evidence_sources": [
          "Drone_RGB_Edge",
          "DSM_Breakline"
        ]
      },
      "geometry": {
        "type": "LineString",
        "coordinates": [
          [
            77.6146326,
            12.9970459
          ],
          [
            77.6153074,
            12.9970385
          ]
        ]
      }
    },
    {
      "type": "Feature",
      "properties": {
        "id": "train_027_BND_058",
        "parcel_id": "train_027_P_015",
        "boundary_type": "INFERRED",
        "confidence": 0.649,
        "length_m": 51.72,
        "evidence_sources": [
          "Road_Corridor_Offset",
          "Adjacent_Parcel_Topology"
        ]
      },
      "geometry": {
        "type": "LineString",
        "coordinates": [
          [
            77.6153074,
            12.9970385
          ],
          [
            77.6153211,
            12.9965715
          ]
        ]
      }
    },
    {
      "type": "Feature",
      "properties": {
        "id": "train_027_BND_059",
        "parcel_id": "train_027_P_015",
        "boundary_type": "VISIBLE",
        "confidence": 0.894,
        "length_m": 73.24,
        "evidence_sources": [
          "Drone_RGB_Edge",
          "DSM_Breakline"
        ]
      },
      "geometry": {
        "type": "LineString",
        "coordinates": [
          [
            77.6153211,
            12.9965715
          ],
          [
            77.6146464,
            12.9965783
          ]
        ]
      }
    },
    {
      "type": "Feature",
      "properties": {
        "id": "train_027_BND_060",
        "parcel_id": "train_027_P_015",
        "boundary_type": "VISIBLE",
        "confidence": 0.87,
        "length_m": 51.78,
        "evidence_sources": [
          "Drone_RGB_Edge",
          "DSM_Breakline"
        ]
      },
      "geometry": {
        "type": "LineString",
        "coordinates": [
          [
            77.6146464,
            12.9965783
          ],
          [
            77.6146326,
            12.9970459
          ]
        ]
      }
    },
    {
      "type": "Feature",
      "properties": {
        "id": "train_027_BND_061",
        "parcel_id": "train_027_P_016",
        "boundary_type": "VISIBLE",
        "confidence": 0.861,
        "length_m": 73.11,
        "evidence_sources": [
          "Drone_RGB_Edge",
          "DSM_Breakline"
        ]
      },
      "geometry": {
        "type": "LineString",
        "coordinates": [
          [
            77.6146375,
            12.996551
          ],
          [
            77.615311,
            12.9965546
          ]
        ]
      }
    },
    {
      "type": "Feature",
      "properties": {
        "id": "train_027_BND_062",
        "parcel_id": "train_027_P_016",
        "boundary_type": "VISIBLE",
        "confidence": 0.853,
        "length_m": 52.96,
        "evidence_sources": [
          "Drone_RGB_Edge",
          "DSM_Breakline"
        ]
      },
      "geometry": {
        "type": "LineString",
        "coordinates": [
          [
            77.615311,
            12.9965546
          ],
          [
            77.6153221,
            12.9960763
          ]
        ]
      }
    },
    {
      "type": "Feature",
      "properties": {
        "id": "train_027_BND_063",
        "parcel_id": "train_027_P_016",
        "boundary_type": "VISIBLE",
        "confidence": 0.838,
        "length_m": 74.46,
        "evidence_sources": [
          "Drone_RGB_Edge",
          "DSM_Breakline"
        ]
      },
      "geometry": {
        "type": "LineString",
        "coordinates": [
          [
            77.6153221,
            12.9960763
          ],
          [
            77.6146364,
            12.9960956
          ]
        ]
      }
    },
    {
      "type": "Feature",
      "properties": {
        "id": "train_027_BND_064",
        "parcel_id": "train_027_P_016",
        "boundary_type": "VISIBLE",
        "confidence": 0.931,
        "length_m": 50.41,
        "evidence_sources": [
          "Drone_RGB_Edge",
          "DSM_Breakline"
        ]
      },
      "geometry": {
        "type": "LineString",
        "coordinates": [
          [
            77.6146364,
            12.9960956
          ],
          [
            77.6146375,
            12.996551
          ]
        ]
      }
    }
  ]
}