{
  "type": "FeatureCollection",
  "crs": {
    "type": "name",
    "properties": {
      "name": "EPSG:4326"
    }
  },
  "features": [
    {
      "type": "Feature",
      "properties": {
        "id": "train_012_BND_001",
        "parcel_id": "train_012_P_001",
        "boundary_type": "VISIBLE",
        "confidence": 0.849,
        "length_m": 47.06,
        "evidence_sources": [
          "Drone_RGB_Edge",
          "DSM_Breakline"
        ]
      },
      "geometry": {
        "type": "LineString",
        "coordinates": [
          [
            77.6130616,
            12.9953244
          ],
          [
            77.6134951,
            12.9953288
          ]
        ]
      }
    },
    {
      "type": "Feature",
      "properties": {
        "id": "train_012_BND_002",
        "parcel_id": "train_012_P_001",
        "boundary_type": "VISIBLE",
        "confidence": 0.91,
        "length_m": 63.4,
        "evidence_sources": [
          "Drone_RGB_Edge",
          "DSM_Breakline"
        ]
      },
      "geometry": {
        "type": "LineString",
        "coordinates": [
          [
            77.6134951,
            12.9953288
          ],
          [
            77.6134933,
            12.9947561
          ]
        ]
      }
    },
    {
      "type": "Feature",
      "properties": {
        "id": "train_012_BND_003",
        "parcel_id": "train_012_P_001",
        "boundary_type": "VISIBLE",
        "confidence": 0.888,
        "length_m": 45.05,
        "evidence_sources": [
          "Drone_RGB_Edge",
          "DSM_Breakline"
        ]
      },
      "geometry": {
        "type": "LineString",
        "coordinates": [
          [
            77.6134933,
            12.9947561
          ],
          [
            77.6130785,
            12.9947689
          ]
        ]
      }
    },
    {
      "type": "Feature",
      "properties": {
        "id": "train_012_BND_004",
        "parcel_id": "train_012_P_001",
        "boundary_type": "VISIBLE",
        "confidence": 0.867,
        "length_m": 61.52,
        "evidence_sources": [
          "Drone_RGB_Edge",
          "DSM_Breakline"
        ]
      },
      "geometry": {
        "type": "LineString",
        "coordinates": [
          [
            77.6130785,
            12.9947689
          ],
          [
            77.6130616,
            12.9953244
          ]
        ]
      }
    },
    {
      "type": "Feature",
      "properties": {
        "id": "train_012_BND_005",
        "parcel_id": "train_012_P_002",
        "boundary_type": "VISIBLE",
        "confidence": 0.879,
        "length_m": 46.77,
        "evidence_sources": [
          "Drone_RGB_Edge",
          "DSM_Breakline"
        ]
      },
      "geometry": {
        "type": "LineString",
        "coordinates": [
          [
            77.6130699,
            12.9947413
          ],
          [
            77.6135007,
            12.994735
          ]
        ]
      }
    },
    {
      "type": "Feature",
      "properties": {
        "id": "train_012_BND_006",
        "parcel_id": "train_012_P_002",
        "boundary_type": "VISIBLE",
        "confidence": 0.876,
        "length_m": 62.52,
        "evidence_sources": [
          "Drone_RGB_Edge",
          "DSM_Breakline"
        ]
      },
      "geometry": {
        "type": "LineString",
        "coordinates": [
          [
            77.6135007,
            12.994735
          ],
          [
            77.6134994,
            12.9941702
          ]
        ]
      }
    },
    {
      "type": "Feature",
      "properties": {
        "id": "train_012_BND_007",
        "parcel_id": "train_012_P_002",
        "boundary_type": "VISIBLE",
        "confidence": 0.92,
        "length_m": 45.81,
        "evidence_sources": [
          "Drone_RGB_Edge",
          "DSM_Breakline"
        ]
      },
      "geometry": {
        "type": "LineString",
        "coordinates": [
          [
            77.6134994,
            12.9941702
          ],
          [
            77.6130774,
            12.9941663
          ]
        ]
      }
    },
    {
      "type": "Feature",
      "properties": {
        "id": "train_012_BND_008",
        "parcel_id": "train_012_P_002",
        "boundary_type": "VISIBLE",
        "confidence": 0.834,
        "length_m": 63.66,
        "evidence_sources": [
          "Drone_RGB_Edge",
          "DSM_Breakline"
        ]
      },
      "geometry": {
        "type": "LineString",
        "coordinates": [
          [
            77.6130774,
            12.9941663
          ],
          [
            77.6130699,
            12.9947413
          ]
        ]
      }
    },
    {
      "type": "Feature",
      "properties": {
        "id": "train_012_BND_009",
        "parcel_id": "train_012_P_003",
        "boundary_type": "INFERRED",
        "confidence": 0.638,
        "length_m": 46.14,
        "evidence_sources": [
          "Road_Corridor_Offset",
          "Adjacent_Parcel_Topology"
        ]
      },
      "geometry": {
        "type": "LineString",
        "coordinates": [
          [
            77.6135205,
            12.9953401
          ],
          [
            77.6139455,
            12.9953347
          ]
        ]
      }
    },
    {
      "type": "Feature",
      "properties": {
        "id": "train_012_BND_010",
        "parcel_id": "train_012_P_003",
        "boundary_type": "VISIBLE",
        "confidence": 0.834,
        "length_m": 62.25,
        "evidence_sources": [
          "Drone_RGB_Edge",
          "DSM_Breakline"
        ]
      },
      "geometry": {
        "type": "LineString",
        "coordinates": [
          [
            77.6139455,
            12.9953347
          ],
          [
            77.61395,
            12.9947724
          ]
        ]
      }
    },
    {
      "type": "Feature",
      "properties": {
        "id": "train_012_BND_011",
        "parcel_id": "train_012_P_003",
        "boundary_type": "INFERRED",
        "confidence": 0.756,
        "length_m": 47.93,
        "evidence_sources": [
          "Road_Corridor_Offset",
          "Adjacent_Parcel_Topology"
        ]
      },
      "geometry": {
        "type": "LineString",
        "coordinates": [
          [
            77.61395,
            12.9947724
          ],
          [
            77.6135085,
            12.9947707
          ]
        ]
      }
    },
    {
      "type": "Feature",
      "properties": {
        "id": "train_012_BND_012",
        "parcel_id": "train_012_P_003",
        "boundary_type": "VISIBLE",
        "confidence": 0.857,
        "length_m": 63.04,
        "evidence_sources": [
          "Drone_RGB_Edge",
          "DSM_Breakline"
        ]
      },
      "geometry": {
        "type": "LineString",
        "coordinates": [
          [
            77.6135085,
            12.9947707
          ],
          [
            77.6135205,
            12.9953401
          ]
        ]
      }
    },
    {
      "type": "Feature",
      "properties": {
        "id": "train_012_BND_013",
        "parcel_id": "train_012_P_004",
        "boundary_type": "INFERRED",
        "confidence": 0.757,
        "length_m": 46.84,
        "evidence_sources": [
          "Road_Corridor_Offset",
          "Adjacent_Parcel_Topology"
        ]
      },
      "geometry": {
        "type": "LineString",
        "coordinates": [
          [
            77.6135101,
            12.9947315
          ],
          [
            77.6139416,
            12.9947361
          ]
        ]
      }
    },
    {
      "type": "Feature",
      "properties": {
        "id": "train_012_BND_014",
        "parcel_id": "train_012_P_004",
        "boundary_type": "VISIBLE",
        "confidence": 0.918,
        "length_m": 61.66,
        "evidence_sources": [
          "Drone_RGB_Edge",
          "DSM_Breakline"
        ]
      },
      "geometry": {
        "type": "LineString",
        "coordinates": [
          [
            77.6139416,
            12.9947361
          ],
          [
            77.613954,
            12.9941792
          ]
        ]
      }
    },
    {
      "type": "Feature",
      "properties": {
        "id": "train_012_BND_015",
        "parcel_id": "train_012_P_004",
        "boundary_type": "VISIBLE",
        "confidence": 0.941,
        "length_m": 47.92,
        "evidence_sources": [
          "Drone_RGB_Edge",
          "DSM_Breakline"
        ]
      },
      "geometry": {
        "type": "LineString",
        "coordinates": [
          [
            77.613954,
            12.9941792
          ],
          [
            77.6135126,
            12.9941714
          ]
        ]
      }
    },
    {
      "type": "Feature",
      "properties": {
        "id": "train_012_BND_016",
        "parcel_id": "train_012_P_004",
        "boundary_type": "INFERRED",
        "confidence": 0.728,
        "length_m": 62.0,
        "evidence_sources": [
          "Road_Corridor_Offset",
          "Adjacent_Parcel_Topology"
        ]
      },
      "geometry": {
        "type": "LineString",
        "coordinates": [
          [
            77.6135126,
            12.9941714
          ],
          [
            77.6135101,
            12.9947315
          ]
        ]
      }
    },
    {
      "type": "Feature",
      "properties": {
        "id": "train_012_BND_017",
        "parcel_id": "train_012_P_005",
        "boundary_type": "VISIBLE",
        "confidence": 0.879,
        "length_m": 60.84,
        "evidence_sources": [
          "Drone_RGB_Edge",
          "DSM_Breakline"
        ]
      },
      "geometry": {
        "type": "LineString",
        "coordinates": [
          [
            77.614162,
            12.9953248
          ],
          [
            77.6147225,
            12.9953236
          ]
        ]
      }
    },
    {
      "type": "Feature",
      "properties": {
        "id": "train_012_BND_018",
        "parcel_id": "train_012_P_005",
        "boundary_type": "VISIBLE",
        "confidence": 0.948,
        "length_m": 63.15,
        "evidence_sources": [
          "Drone_RGB_Edge",
          "DSM_Breakline"
        ]
      },
      "geometry": {
        "type": "LineString",
        "coordinates": [
          [
            77.6147225,
            12.9953236
          ],
          [
            77.6147141,
            12.9947532
          ]
        ]
      }
    },
    {
      "type": "Feature",
      "properties": {
        "id": "train_012_BND_019",
        "parcel_id": "train_012_P_005",
        "boundary_type": "VISIBLE",
        "confidence": 0.909,
        "length_m": 59.61,
        "evidence_sources": [
          "Drone_RGB_Edge",
          "DSM_Breakline"
        ]
      },
      "geometry": {
        "type": "LineString",
        "coordinates": [
          [
            77.6147141,
            12.9947532
          ],
          [
            77.6141651,
            12.9947668
          ]
        ]
      }
    },
    {
      "type": "Feature",
      "properties": {
        "id": "train_012_BND_020",
        "parcel_id": "train_012_P_005",
        "boundary_type": "VISIBLE",
        "confidence": 0.899,
        "length_m": 61.77,
        "evidence_sources": [
          "Drone_RGB_Edge",
          "DSM_Breakline"
        ]
      },
      "geometry": {
        "type": "LineString",
        "coordinates": [
          [
            77.6141651,
            12.9947668
          ],
          [
            77.614162,
            12.9953248
          ]
        ]
      }
    },
    {
      "type": "Feature",
      "properties": {
        "id": "train_012_BND_021",
        "parcel_id": "train_012_P_006",
        "boundary_type": "VISIBLE",
        "confidence": 0.909,
        "length_m": 61.16,
        "evidence_sources": [
          "Drone_RGB_Edge",
          "DSM_Breakline"
        ]
      },
      "geometry": {
        "type": "LineString",
        "coordinates": [
          [
            77.6141514,
            12.9947344
          ],
          [
            77.6147146,
            12.9947492
          ]
        ]
      }
    },
    {
      "type": "Feature",
      "properties": {
        "id": "train_012_BND_022",
        "parcel_id": "train_012_P_006",
        "boundary_type": "VISIBLE",
        "confidence": 0.847,
        "length_m": 64.53,
        "evidence_sources": [
          "Drone_RGB_Edge",
          "DSM_Breakline"
        ]
      },
      "geometry": {
        "type": "LineString",
        "coordinates": [
          [
            77.6147146,
            12.9947492
          ],
          [
            77.6147267,
            12.9941664
          ]
        ]
      }
    },
    {
      "type": "Feature",
      "properties": {
        "id": "train_012_BND_023",
        "parcel_id": "train_012_P_006",
        "boundary_type": "VISIBLE",
        "confidence": 0.929,
        "length_m": 61.42,
        "evidence_sources": [
          "Drone_RGB_Edge",
          "DSM_Breakline"
        ]
      },
      "geometry": {
        "type": "LineString",
        "coordinates": [
          [
            77.6147267,
            12.9941664
          ],
          [
            77.6141609,
            12.9941645
          ]
        ]
      }
    },
    {
      "type": "Feature",
      "properties": {
        "id": "train_012_BND_024",
        "parcel_id": "train_012_P_006",
        "boundary_type": "INFERRED",
        "confidence": 0.645,
        "length_m": 63.09,
        "evidence_sources": [
          "Road_Corridor_Offset",
          "Adjacent_Parcel_Topology"
        ]
      },
      "geometry": {
        "type": "LineString",
        "coordinates": [
          [
            77.6141609,
            12.9941645
          ],
          [
            77.6141514,
            12.9947344
          ]
        ]
      }
    },
    {
      "type": "Feature",
      "properties": {
        "id": "train_012_BND_025",
        "parcel_id": "train_012_P_007",
        "boundary_type": "INFERRED",
        "confidence": 0.628,
        "length_m": 61.15,
        "evidence_sources": [
          "Road_Corridor_Offset",
          "Adjacent_Parcel_Topology"
        ]
      },
      "geometry": {
        "type": "LineString",
        "coordinates": [
          [
            77.6147559,
            12.9953347
          ],
          [
            77.6153192,
            12.9953339
          ]
        ]
      }
    },
    {
      "type": "Feature",
      "properties": {
        "id": "train_012_BND_026",
        "parcel_id": "train_012_P_007",
        "boundary_type": "INFERRED",
        "confidence": 0.628,
        "length_m": 63.49,
        "evidence_sources": [
          "Road_Corridor_Offset",
          "Adjacent_Parcel_Topology"
        ]
      },
      "geometry": {
        "type": "LineString",
        "coordinates": [
          [
            77.6153192,
            12.9953339
          ],
          [
            77.6153025,
            12.9947606
          ]
        ]
      }
    },
    {
      "type": "Feature",
      "properties": {
        "id": "train_012_BND_027",
        "parcel_id": "train_012_P_007",
        "boundary_type": "INFERRED",
        "confidence": 0.697,
        "length_m": 59.79,
        "evidence_sources": [
          "Road_Corridor_Offset",
          "Adjacent_Parcel_Topology"
        ]
      },
      "geometry": {
        "type": "LineString",
        "coordinates": [
          [
            77.6153025,
            12.9947606
          ],
          [
            77.6147517,
            12.9947661
          ]
        ]
      }
    },
    {
      "type": "Feature",
      "properties": {
        "id": "train_012_BND_028",
        "parcel_id": "train_012_P_007",
        "boundary_type": "VISIBLE",
        "confidence": 0.942,
        "length_m": 62.94,
        "evidence_sources": [
          "Drone_RGB_Edge",
          "DSM_Breakline"
        ]
      },
      "geometry": {
        "type": "LineString",
        "coordinates": [
          [
            77.6147517,
            12.9947661
          ],
          [
            77.6147559,
            12.9953347
          ]
        ]
      }
    },
    {
      "type": "Feature",
      "properties": {
        "id": "train_012_BND_029",
        "parcel_id": "train_012_P_008",
        "boundary_type": "VISIBLE",
        "confidence": 0.831,
        "length_m": 61.79,
        "evidence_sources": [
          "Drone_RGB_Edge",
          "DSM_Breakline"
        ]
      },
      "geometry": {
        "type": "LineString",
        "coordinates": [
          [
            77.6147359,
            12.9947486
          ],
          [
            77.6153049,
            12.9947315
          ]
        ]
      }
    },
    {
      "type": "Feature",
      "properties": {
        "id": "train_012_BND_030",
        "parcel_id": "train_012_P_008",
        "boundary_type": "VISIBLE",
        "confidence": 0.847,
        "length_m": 61.72,
        "evidence_sources": [
          "Drone_RGB_Edge",
          "DSM_Breakline"
        ]
      },
      "geometry": {
        "type": "LineString",
        "coordinates": [
          [
            77.6153049,
            12.9947315
          ],
          [
            77.6153145,
            12.994174
          ]
        ]
      }
    },
    {
      "type": "Feature",
      "properties": {
        "id": "train_012_BND_031",
        "parcel_id": "train_012_P_008",
        "boundary_type": "VISIBLE",
        "confidence": 0.828,
        "length_m": 60.82,
        "evidence_sources": [
          "Drone_RGB_Edge",
          "DSM_Breakline"
        ]
      },
      "geometry": {
        "type": "LineString",
        "coordinates": [
          [
            77.6153145,
            12.994174
          ],
          [
            77.6147542,
            12.9941797
          ]
        ]
      }
    },
    {
      "type": "Feature",
      "properties": {
        "id": "train_012_BND_032",
        "parcel_id": "train_012_P_008",
        "boundary_type": "VISIBLE",
        "confidence": 0.908,
        "length_m": 63.01,
        "evidence_sources": [
          "Drone_RGB_Edge",
          "DSM_Breakline"
        ]
      },
      "geometry": {
        "type": "LineString",
        "coordinates": [
          [
            77.6147542,
            12.9941797
          ],
          [
            77.6147359,
            12.9947486
          ]
        ]
      }
    },
    {
      "type": "Feature",
      "properties": {
        "id": "train_012_BND_033",
        "parcel_id": "train_012_P_009",
        "boundary_type": "VISIBLE",
        "confidence": 0.84,
        "length_m": 45.08,
        "evidence_sources": [
          "Drone_RGB_Edge",
          "DSM_Breakline"
        ]
      },
      "geometry": {
        "type": "LineString",
        "coordinates": [
          [
            77.6130711,
            12.9939638
          ],
          [
            77.6134864,
            12.9939661
          ]
        ]
      }
    },
    {
      "type": "Feature",
      "properties": {
        "id": "train_012_BND_034",
        "parcel_id": "train_012_P_009",
        "boundary_type": "INFERRED",
        "confidence": 0.724,
        "length_m": 46.78,
        "evidence_sources": [
          "Road_Corridor_Offset",
          "Adjacent_Parcel_Topology"
        ]
      },
      "geometry": {
        "type": "LineString",
        "coordinates": [
          [
            77.6134864,
            12.9939661
          ],
          [
            77.6135046,
            12.9935439
          ]
        ]
      }
    },
    {
      "type": "Feature",
      "properties": {
        "id": "train_012_BND_035",
        "parcel_id": "train_012_P_009",
        "boundary_type": "VISIBLE",
        "confidence": 0.953,
        "length_m": 46.88,
        "evidence_sources": [
          "Drone_RGB_Edge",
          "DSM_Breakline"
        ]
      },
      "geometry": {
        "type": "LineString",
        "coordinates": [
          [
            77.6135046,
            12.9935439
          ],
          [
            77.6130728,
            12.9935368
          ]
        ]
      }
    },
    {
      "type": "Feature",
      "properties": {
        "id": "train_012_BND_036",
        "parcel_id": "train_012_P_009",
        "boundary_type": "INFERRED",
        "confidence": 0.647,
        "length_m": 47.27,
        "evidence_sources": [
          "Road_Corridor_Offset",
          "Adjacent_Parcel_Topology"
        ]
      },
      "geometry": {
        "type": "LineString",
        "coordinates": [
          [
            77.6130728,
            12.9935368
          ],
          [
            77.6130711,
            12.9939638
          ]
        ]
      }
    },
    {
      "type": "Feature",
      "properties": {
        "id": "train_012_BND_037",
        "parcel_id": "train_012_P_010",
        "boundary_type": "VISIBLE",
        "confidence": 0.873,
        "length_m": 47.77,
        "evidence_sources": [
          "Drone_RGB_Edge",
          "DSM_Breakline"
        ]
      },
      "geometry": {
        "type": "LineString",
        "coordinates": [
          [
            77.6130619,
            12.9935059
          ],
          [
            77.6135019,
            12.9935151
          ]
        ]
      }
    },
    {
      "type": "Feature",
      "properties": {
        "id": "train_012_BND_038",
        "parcel_id": "train_012_P_010",
        "boundary_type": "VISIBLE",
        "confidence": 0.941,
        "length_m": 48.35,
        "evidence_sources": [
          "Drone_RGB_Edge",
          "DSM_Breakline"
        ]
      },
      "geometry": {
        "type": "LineString",
        "coordinates": [
          [
            77.6135019,
            12.9935151
          ],
          [
            77.6134858,
            12.9930786
          ]
        ]
      }
    },
    {
      "type": "Feature",
      "properties": {
        "id": "train_012_BND_039",
        "parcel_id": "train_012_P_010",
        "boundary_type": "VISIBLE",
        "confidence": 0.954,
        "length_m": 46.46,
        "evidence_sources": [
          "Drone_RGB_Edge",
          "DSM_Breakline"
        ]
      },
      "geometry": {
        "type": "LineString",
        "coordinates": [
          [
            77.6134858,
            12.9930786
          ],
          [
            77.6130578,
            12.9930771
          ]
        ]
      }
    },
    {
      "type": "Feature",
      "properties": {
        "id": "train_012_BND_040",
        "parcel_id": "train_012_P_010",
        "boundary_type": "INFERRED",
        "confidence": 0.647,
        "length_m": 47.47,
        "evidence_sources": [
          "Road_Corridor_Offset",
          "Adjacent_Parcel_Topology"
        ]
      },
      "geometry": {
        "type": "LineString",
        "coordinates": [
          [
            77.6130578,
            12.9930771
          ],
          [
            77.6130619,
            12.9935059
          ]
        ]
      }
    },
    {
      "type": "Feature",
      "properties": {
        "id": "train_012_BND_041",
        "parcel_id": "train_012_P_011",
        "boundary_type": "VISIBLE",
        "confidence": 0.941,
        "length_m": 45.97,
        "evidence_sources": [
          "Drone_RGB_Edge",
          "DSM_Breakline"
        ]
      },
      "geometry": {
        "type": "LineString",
        "coordinates": [
          [
            77.613517,
            12.9939647
          ],
          [
            77.6139405,
            12.9939657
          ]
        ]
      }
    },
    {
      "type": "Feature",
      "properties": {
        "id": "train_012_BND_042",
        "parcel_id": "train_012_P_011",
        "boundary_type": "VISIBLE",
        "confidence": 0.873,
        "length_m": 46.42,
        "evidence_sources": [
          "Drone_RGB_Edge",
          "DSM_Breakline"
        ]
      },
      "geometry": {
        "type": "LineString",
        "coordinates": [
          [
            77.6139405,
            12.9939657
          ],
          [
            77.6139546,
            12.9935466
          ]
        ]
      }
    },
    {
      "type": "Feature",
      "properties": {
        "id": "train_012_BND_043",
        "parcel_id": "train_012_P_011",
        "boundary_type": "VISIBLE",
        "confidence": 0.849,
        "length_m": 46.45,
        "evidence_sources": [
          "Drone_RGB_Edge",
          "DSM_Breakline"
        ]
      },
      "geometry": {
        "type": "LineString",
        "coordinates": [
          [
            77.6139546,
            12.9935466
          ],
          [
            77.6135267,
            12.9935424
          ]
        ]
      }
    },
    {
      "type": "Feature",
      "properties": {
        "id": "train_012_BND_044",
        "parcel_id": "train_012_P_011",
        "boundary_type": "VISIBLE",
        "confidence": 0.916,
        "length_m": 46.76,
        "evidence_sources": [
          "Drone_RGB_Edge",
          "DSM_Breakline"
        ]
      },
      "geometry": {
        "type": "LineString",
        "coordinates": [
          [
            77.6135267,
            12.9935424
          ],
          [
            77.613517,
            12.9939647
          ]
        ]
      }
    },
    {
      "type": "Feature",
      "properties": {
        "id": "train_012_BND_045",
        "parcel_id": "train_012_P_012",
        "boundary_type": "VISIBLE",
        "confidence": 0.85,
        "length_m": 46.35,
        "evidence_sources": [
          "Drone_RGB_Edge",
          "DSM_Breakline"
        ]
      },
      "geometry": {
        "type": "LineString",
        "coordinates": [
          [
            77.6135274,
            12.9935089
          ],
          [
            77.6139544,
            12.9935063
          ]
        ]
      }
    },
    {
      "type": "Feature",
      "properties": {
        "id": "train_012_BND_046",
        "parcel_id": "train_012_P_012",
        "boundary_type": "VISIBLE",
        "confidence": 0.856,
        "length_m": 46.63,
        "evidence_sources": [
          "Drone_RGB_Edge",
          "DSM_Breakline"
        ]
      },
      "geometry": {
        "type": "LineString",
        "coordinates": [
          [
            77.6139544,
            12.9935063
          ],
          [
            77.6139488,
            12.9930851
          ]
        ]
      }
    },
    {
      "type": "Feature",
      "properties": {
        "id": "train_012_BND_047",
        "parcel_id": "train_012_P_012",
        "boundary_type": "VISIBLE",
        "confidence": 0.957,
        "length_m": 47.6,
        "evidence_sources": [
          "Drone_RGB_Edge",
          "DSM_Breakline"
        ]
      },
      "geometry": {
        "type": "LineString",
        "coordinates": [
          [
            77.6139488,
            12.9930851
          ],
          [
            77.6135104,
            12.9930922
          ]
        ]
      }
    },
    {
      "type": "Feature",
      "properties": {
        "id": "train_012_BND_048",
        "parcel_id": "train_012_P_012",
        "boundary_type": "VISIBLE",
        "confidence": 0.858,
        "length_m": 46.16,
        "evidence_sources": [
          "Drone_RGB_Edge",
          "DSM_Breakline"
        ]
      },
      "geometry": {
        "type": "LineString",
        "coordinates": [
          [
            77.6135104,
            12.9930922
          ],
          [
            77.6135274,
            12.9935089
          ]
        ]
      }
    },
    {
      "type": "Feature",
      "properties": {
        "id": "train_012_BND_049",
        "parcel_id": "train_012_P_013",
        "boundary_type": "VISIBLE",
        "confidence": 0.929,
        "length_m": 61.63,
        "evidence_sources": [
          "Drone_RGB_Edge",
          "DSM_Breakline"
        ]
      },
      "geometry": {
        "type": "LineString",
        "coordinates": [
          [
            77.6141646,
            12.9939555
          ],
          [
            77.6147322,
            12.9939664
          ]
        ]
      }
    },
    {
      "type": "Feature",
      "properties": {
        "id": "train_012_BND_050",
        "parcel_id": "train_012_P_013",
        "boundary_type": "INFERRED",
        "confidence": 0.648,
        "length_m": 48.41,
        "evidence_sources": [
          "Road_Corridor_Offset",
          "Adjacent_Parcel_Topology"
        ]
      },
      "geometry": {
        "type": "LineString",
        "coordinates": [
          [
            77.6147322,
            12.9939664
          ],
          [
            77.6147327,
            12.9935291
          ]
        ]
      }
    },
    {
      "type": "Feature",
      "properties": {
        "id": "train_012_BND_051",
        "parcel_id": "train_012_P_013",
        "boundary_type": "VISIBLE",
        "confidence": 0.839,
        "length_m": 62.68,
        "evidence_sources": [
          "Drone_RGB_Edge",
          "DSM_Breakline"
        ]
      },
      "geometry": {
        "type": "LineString",
        "coordinates": [
          [
            77.6147327,
            12.9935291
          ],
          [
            77.6141553,
            12.9935294
          ]
        ]
      }
    },
    {
      "type": "Feature",
      "properties": {
        "id": "train_012_BND_052",
        "parcel_id": "train_012_P_013",
        "boundary_type": "VISIBLE",
        "confidence": 0.877,
        "length_m": 47.18,
        "evidence_sources": [
          "Drone_RGB_Edge",
          "DSM_Breakline"
        ]
      },
      "geometry": {
        "type": "LineString",
        "coordinates": [
          [
            77.6141553,
            12.9935294
          ],
          [
            77.6141646,
            12.9939555
          ]
        ]
      }
    },
    {
      "type": "Feature",
      "properties": {
        "id": "train_012_BND_053",
        "parcel_id": "train_012_P_014",
        "boundary_type": "INFERRED",
        "confidence": 0.647,
        "length_m": 62.17,
        "evidence_sources": [
          "Road_Corridor_Offset",
          "Adjacent_Parcel_Topology"
        ]
      },
      "geometry": {
        "type": "LineString",
        "coordinates": [
          [
            77.6141544,
            12.9935207
          ],
          [
            77.614727,
            12.9935073
          ]
        ]
      }
    },
    {
      "type": "Feature",
      "properties": {
        "id": "train_012_BND_054",
        "parcel_id": "train_012_P_014",
        "boundary_type": "INFERRED",
        "confidence": 0.611,
        "length_m": 46.05,
        "evidence_sources": [
          "Road_Corridor_Offset",
          "Adjacent_Parcel_Topology"
        ]
      },
      "geometry": {
        "type": "LineString",
        "coordinates": [
          [
            77.614727,
            12.9935073
          ],
          [
            77.614725,
            12.9930913
          ]
        ]
      }
    },
    {
      "type": "Feature",
      "properties": {
        "id": "train_012_BND_055",
        "parcel_id": "train_012_P_014",
        "boundary_type": "VISIBLE",
        "confidence": 0.911,
        "length_m": 62.04,
        "evidence_sources": [
          "Drone_RGB_Edge",
          "DSM_Breakline"
        ]
      },
      "geometry": {
        "type": "LineString",
        "coordinates": [
          [
            77.614725,
            12.9930913
          ],
          [
            77.6141536,
            12.9930809
          ]
        ]
      }
    },
    {
      "type": "Feature",
      "properties": {
        "id": "train_012_BND_056",
        "parcel_id": "train_012_P_014",
        "boundary_type": "VISIBLE",
        "confidence": 0.891,
        "length_m": 48.68,
        "evidence_sources": [
          "Drone_RGB_Edge",
          "DSM_Breakline"
        ]
      },
      "geometry": {
        "type": "LineString",
        "coordinates": [
          [
            77.6141536,
            12.9930809
          ],
          [
            77.6141544,
            12.9935207
          ]
        ]
      }
    },
    {
      "type": "Feature",
      "properties": {
        "id": "train_012_BND_057",
        "parcel_id": "train_012_P_015",
        "boundary_type": "VISIBLE",
        "confidence": 0.863,
        "length_m": 62.81,
        "evidence_sources": [
          "Drone_RGB_Edge",
          "DSM_Breakline"
        ]
      },
      "geometry": {
        "type": "LineString",
        "coordinates": [
          [
            77.6147444,
            12.9939744
          ],
          [
            77.615323,
            12.9939731
          ]
        ]
      }
    },
    {
      "type": "Feature",
      "properties": {
        "id": "train_012_BND_058",
        "parcel_id": "train_012_P_015",
        "boundary_type": "INFERRED",
        "confidence": 0.708,
        "length_m": 48.29,
        "evidence_sources": [
          "Road_Corridor_Offset",
          "Adjacent_Parcel_Topology"
        ]
      },
      "geometry": {
        "type": "LineString",
        "coordinates": [
          [
            77.615323,
            12.9939731
          ],
          [
            77.6153051,
            12.9935372
          ]
        ]
      }
    },
    {
      "type": "Feature",
      "properties": {
        "id": "train_012_BND_059",
        "parcel_id": "train_012_P_015",
        "boundary_type": "INFERRED",
        "confidence": 0.629,
        "length_m": 61.26,
        "evidence_sources": [
          "Road_Corridor_Offset",
          "Adjacent_Parcel_Topology"
        ]
      },
      "geometry": {
        "type": "LineString",
        "coordinates": [
          [
            77.6153051,
            12.9935372
          ],
          [
            77.6147408,
            12.9935358
          ]
        ]
      }
    },
    {
      "type": "Feature",
      "properties": {
        "id": "train_012_BND_060",
        "parcel_id": "train_012_P_015",
        "boundary_type": "VISIBLE",
        "confidence": 0.93,
        "length_m": 48.55,
        "evidence_sources": [
          "Drone_RGB_Edge",
          "DSM_Breakline"
        ]
      },
      "geometry": {
        "type": "LineString",
        "coordinates": [
          [
            77.6147408,
            12.9935358
          ],
          [
            77.6147444,
            12.9939744
          ]
        ]
      }
    },
    {
      "type": "Feature",
      "properties": {
        "id": "train_012_BND_061",
        "parcel_id": "train_012_P_016",
        "boundary_type": "VISIBLE",
        "confidence": 0.954,
        "length_m": 61.44,
        "evidence_sources": [
          "Drone_RGB_Edge",
          "DSM_Breakline"
        ]
      },
      "geometry": {
        "type": "LineString",
        "coordinates": [
          [
            77.6147551,
            12.9935167
          ],
          [
            77.6153211,
            12.99352
          ]
        ]
      }
    },
    {
      "type": "Feature",
      "properties": {
        "id": "train_012_BND_062",
        "parcel_id": "train_012_P_016",
        "boundary_type": "VISIBLE",
        "confidence": 0.887,
        "length_m": 47.63,
        "evidence_sources": [
          "Drone_RGB_Edge",
          "DSM_Breakline"
        ]
      },
      "geometry": {
        "type": "LineString",
        "coordinates": [
          [
            77.6153211,
            12.99352
          ],
          [
            77.6153063,
            12.99309
          ]
        ]
      }
    },
    {
      "type": "Feature",
      "properties": {
        "id": "train_012_BND_063",
        "parcel_id": "train_012_P_016",
        "boundary_type": "VISIBLE",
        "confidence": 0.829,
        "length_m": 60.96,
        "evidence_sources": [
          "Drone_RGB_Edge",
          "DSM_Breakline"
        ]
      },
      "geometry": {
        "type": "LineString",
        "coordinates": [
          [
            77.6153063,
            12.99309
          ],
          [
            77.6147447,
            12.9930895
          ]
        ]
      }
    },
    {
      "type": "Feature",
      "properties": {
        "id": "train_012_BND_064",
        "parcel_id": "train_012_P_016",
        "boundary_type": "VISIBLE",
        "confidence": 0.941,
        "length_m": 47.3,
        "evidence_sources": [
          "Drone_RGB_Edge",
          "DSM_Breakline"
        ]
      },
      "geometry": {
        "type": "LineString",
        "coordinates": [
          [
            77.6147447,
            12.9930895
          ],
          [
            77.6147551,
            12.9935167
          ]
        ]
      }
    }
  ]
}