{
  "type": "FeatureCollection",
  "crs": {
    "type": "name",
    "properties": {
      "name": "EPSG:4326"
    }
  },
  "features": [
    {
      "type": "Feature",
      "properties": {
        "id": "train_032_REF_001",
        "parcel_id": "train_032_P_001",
        "parcel_layer": "REFERENCE",
        "boundary_representation": "REFERENCE",
        "land_use_class": "vegetation",
        "area_sqm": 3321.27,
        "perimeter_m": 233.35,
        "source": "Synthetic Legacy Cadastral Map (Non-Authoritative Demo)"
      },
      "geometry": {
        "type": "Polygon",
        "coordinates": [
          [
            [
              77.6280843,
              12.9983305
            ],
            [
              77.6286952,
              12.9983385
            ],
            [
              77.628708,
              12.9978834
            ],
            [
              77.6280786,
              12.9978942
            ],
            [
              77.6280843,
              12.9983305
            ]
          ]
        ]
      }
    },
    {
      "type": "Feature",
      "properties": {
        "id": "train_032_REF_002",
        "parcel_id": "train_032_P_002",
        "parcel_layer": "REFERENCE",
        "boundary_representation": "REFERENCE",
        "land_use_class": "vegetation",
        "area_sqm": 3351.02,
        "perimeter_m": 234.23,
        "source": "Synthetic Legacy Cadastral Map (Non-Authoritative Demo)"
      },
      "geometry": {
        "type": "Polygon",
        "coordinates": [
          [
            [
              77.6280823,
              12.9978745
            ],
            [
              77.6286921,
              12.9978608
            ],
            [
              77.6286963,
              12.9974235
            ],
            [
              77.6280667,
              12.9974118
            ],
            [
              77.6280823,
              12.9978745
            ]
          ]
        ]
      }
    },
    {
      "type": "Feature",
      "properties": {
        "id": "train_032_REF_003",
        "parcel_id": "train_032_P_003",
        "parcel_layer": "REFERENCE",
        "boundary_representation": "REFERENCE",
        "land_use_class": "vegetation",
        "area_sqm": 3270.35,
        "perimeter_m": 231.93,
        "source": "Synthetic Legacy Cadastral Map (Non-Authoritative Demo)"
      },
      "geometry": {
        "type": "Polygon",
        "coordinates": [
          [
            [
              77.6287278,
              12.9983357
            ],
            [
              77.6293523,
              12.9983334
            ],
            [
              77.6293489,
              12.9978948
            ],
            [
              77.6287287,
              12.9978997
            ],
            [
              77.6287278,
              12.9983357
            ]
          ]
        ]
      }
    },
    {
      "type": "Feature",
      "properties": {
        "id": "train_032_REF_004",
        "parcel_id": "train_032_P_004",
        "parcel_layer": "REFERENCE",
        "boundary_representation": "REFERENCE",
        "land_use_class": "vacant",
        "area_sqm": 3331.18,
        "perimeter_m": 233.59,
        "source": "Synthetic Legacy Cadastral Map (Non-Authoritative Demo)"
      },
      "geometry": {
        "type": "Polygon",
        "coordinates": [
          [
            [
              77.6287639,
              12.9978805
            ],
            [
              77.6293719,
              12.9978769
            ],
            [
              77.6293864,
              12.9974297
            ],
            [
              77.6287558,
              12.9974324
            ],
            [
              77.6287639,
              12.9978805
            ]
          ]
        ]
      }
    },
    {
      "type": "Feature",
      "properties": {
        "id": "train_032_REF_005",
        "parcel_id": "train_032_P_005",
        "parcel_layer": "REFERENCE",
        "boundary_representation": "REFERENCE",
        "land_use_class": "industrial",
        "area_sqm": 2166.4,
        "perimeter_m": 186.88,
        "source": "Synthetic Legacy Cadastral Map (Non-Authoritative Demo)"
      },
      "geometry": {
        "type": "Polygon",
        "coordinates": [
          [
            [
              77.6295118,
              12.9983373
            ],
            [
              77.6299049,
              12.9983413
            ],
            [
              77.6299127,
              12.997881
            ],
            [
              77.6295191,
              12.997881
            ],
            [
              77.6295118,
              12.9983373
            ]
          ]
        ]
      }
    },
    {
      "type": "Feature",
      "properties": {
        "id": "train_032_REF_006",
        "parcel_id": "train_032_P_006",
        "parcel_layer": "REFERENCE",
        "boundary_representation": "REFERENCE",
        "land_use_class": "residential",
        "area_sqm": 2090.83,
        "perimeter_m": 183.54,
        "source": "Synthetic Legacy Cadastral Map (Non-Authoritative Demo)"
      },
      "geometry": {
        "type": "Polygon",
        "coordinates": [
          [
            [
              77.6295156,
              12.997874
            ],
            [
              77.6299047,
              12.9978617
            ],
            [
              77.6299155,
              12.9974245
            ],
            [
              77.6295257,
              12.9974175
            ],
            [
              77.6295156,
              12.997874
            ]
          ]
        ]
      }
    },
    {
      "type": "Feature",
      "properties": {
        "id": "train_032_REF_007",
        "parcel_id": "train_032_P_007",
        "parcel_layer": "REFERENCE",
        "boundary_representation": "REFERENCE",
        "land_use_class": "residential",
        "area_sqm": 2026.69,
        "perimeter_m": 180.49,
        "source": "Synthetic Legacy Cadastral Map (Non-Authoritative Demo)"
      },
      "geometry": {
        "type": "Polygon",
        "coordinates": [
          [
            [
              77.6299204,
              12.9983246
            ],
            [
              77.6303241,
              12.9983356
            ],
            [
              77.6303114,
              12.9978973
            ],
            [
              77.6299362,
              12.9978968
            ],
            [
              77.6299204,
              12.9983246
            ]
          ]
        ]
      }
    },
    {
      "type": "Feature",
      "properties": {
        "id": "train_032_REF_008",
        "parcel_id": "train_032_P_008",
        "parcel_layer": "REFERENCE",
        "boundary_representation": "REFERENCE",
        "land_use_class": "vegetation",
        "area_sqm": 2038.85,
        "perimeter_m": 181.72,
        "source": "Synthetic Legacy Cadastral Map (Non-Authoritative Demo)"
      },
      "geometry": {
        "type": "Polygon",
        "coordinates": [
          [
            [
              77.6299731,
              12.9978928
            ],
            [
              77.6303467,
              12.9978866
            ],
            [
              77.6303469,
              12.9974358
            ],
            [
              77.6299755,
              12.9974326
            ],
            [
              77.6299731,
              12.9978928
            ]
          ]
        ]
      }
    },
    {
      "type": "Feature",
      "properties": {
        "id": "train_032_REF_009",
        "parcel_id": "train_032_P_009",
        "parcel_layer": "REFERENCE",
        "boundary_representation": "REFERENCE",
        "land_use_class": "commercial",
        "area_sqm": 3705.75,
        "perimeter_m": 244.51,
        "source": "Synthetic Legacy Cadastral Map (Non-Authoritative Demo)"
      },
      "geometry": {
        "type": "Polygon",
        "coordinates": [
          [
            [
              77.6280774,
              12.9971349
            ],
            [
              77.6286949,
              12.9971255
            ],
            [
              77.6286896,
              12.9966277
            ],
            [
              77.6280791,
              12.9966282
            ],
            [
              77.6280774,
              12.9971349
            ]
          ]
        ]
      }
    },
    {
      "type": "Feature",
      "properties": {
        "id": "train_032_REF_010",
        "parcel_id": "train_032_P_010",
        "parcel_layer": "REFERENCE",
        "boundary_representation": "REFERENCE",
        "land_use_class": "vegetation",
        "area_sqm": 3843.01,
        "perimeter_m": 249.06,
        "source": "Synthetic Legacy Cadastral Map (Non-Authoritative Demo)"
      },
      "geometry": {
        "type": "Polygon",
        "coordinates": [
          [
            [
              77.6280623,
              12.9965916
            ],
            [
              77.6286907,
              12.9965969
            ],
            [
              77.6286959,
              12.9960814
            ],
            [
              77.6280705,
              12.9960868
            ],
            [
              77.6280623,
              12.9965916
            ]
          ]
        ]
      }
    },
    {
      "type": "Feature",
      "properties": {
        "id": "train_032_REF_011",
        "parcel_id": "train_032_P_011",
        "parcel_layer": "REFERENCE",
        "boundary_representation": "REFERENCE",
        "land_use_class": "vegetation",
        "area_sqm": 3852.68,
        "perimeter_m": 249.27,
        "source": "Synthetic Legacy Cadastral Map (Non-Authoritative Demo)"
      },
      "geometry": {
        "type": "Polygon",
        "coordinates": [
          [
            [
              77.6287304,
              12.9971405
            ],
            [
              77.6293471,
              12.9971375
            ],
            [
              77.6293392,
              12.9966337
            ],
            [
              77.6287125,
              12.9966125
            ],
            [
              77.6287304,
              12.9971405
            ]
          ]
        ]
      }
    },
    {
      "type": "Feature",
      "properties": {
        "id": "train_032_REF_012",
        "parcel_id": "train_032_P_012",
        "parcel_layer": "REFERENCE",
        "boundary_representation": "REFERENCE",
        "land_use_class": "vegetation",
        "area_sqm": 3827.74,
        "perimeter_m": 248.64,
        "source": "Synthetic Legacy Cadastral Map (Non-Authoritative Demo)"
      },
      "geometry": {
        "type": "Polygon",
        "coordinates": [
          [
            [
              77.6287478,
              12.996622
            ],
            [
              77.6293703,
              12.9966093
            ],
            [
              77.6293886,
              12.9961049
            ],
            [
              77.6287611,
              12.9961067
            ],
            [
              77.6287478,
              12.996622
            ]
          ]
        ]
      }
    },
    {
      "type": "Feature",
      "properties": {
        "id": "train_032_REF_013",
        "parcel_id": "train_032_P_013",
        "parcel_layer": "REFERENCE",
        "boundary_representation": "REFERENCE",
        "land_use_class": "vegetation",
        "area_sqm": 2430.11,
        "perimeter_m": 199.61,
        "source": "Synthetic Legacy Cadastral Map (Non-Authoritative Demo)"
      },
      "geometry": {
        "type": "Polygon",
        "coordinates": [
          [
            [
              77.6295278,
              12.9971435
            ],
            [
              77.6299132,
              12.9971407
            ],
            [
              77.6299075,
              12.9966141
            ],
            [
              77.6295162,
              12.996629
            ],
            [
              77.6295278,
              12.9971435
            ]
          ]
        ]
      }
    },
    {
      "type": "Feature",
      "properties": {
        "id": "train_032_REF_014",
        "parcel_id": "train_032_P_014",
        "parcel_layer": "REFERENCE",
        "boundary_representation": "REFERENCE",
        "land_use_class": "industrial",
        "area_sqm": 2421.16,
        "perimeter_m": 199.44,
        "source": "Synthetic Legacy Cadastral Map (Non-Authoritative Demo)"
      },
      "geometry": {
        "type": "Polygon",
        "coordinates": [
          [
            [
              77.6295111,
              12.9966091
            ],
            [
              77.6299068,
              12.9965938
            ],
            [
              77.6299014,
              12.9960797
            ],
            [
              77.629525,
              12.9960792
            ],
            [
              77.6295111,
              12.9966091
            ]
          ]
        ]
      }
    },
    {
      "type": "Feature",
      "properties": {
        "id": "train_032_REF_015",
        "parcel_id": "train_032_P_015",
        "parcel_layer": "REFERENCE",
        "boundary_representation": "REFERENCE",
        "land_use_class": "industrial",
        "area_sqm": 2391.33,
        "perimeter_m": 198.22,
        "source": "Synthetic Legacy Cadastral Map (Non-Authoritative Demo)"
      },
      "geometry": {
        "type": "Polygon",
        "coordinates": [
          [
            [
              77.6299318,
              12.9971389
            ],
            [
              77.6303103,
              12.9971374
            ],
            [
              77.6303176,
              12.9966143
            ],
            [
              77.6299302,
              12.9966226
            ],
            [
              77.6299318,
              12.9971389
            ]
          ]
        ]
      }
    },
    {
      "type": "Feature",
      "properties": {
        "id": "train_032_REF_016",
        "parcel_id": "train_032_P_016",
        "parcel_layer": "REFERENCE",
        "boundary_representation": "REFERENCE",
        "land_use_class": "residential",
        "area_sqm": 2422.48,
        "perimeter_m": 198.59,
        "source": "Synthetic Legacy Cadastral Map (Non-Authoritative Demo)"
      },
      "geometry": {
        "type": "Polygon",
        "coordinates": [
          [
            [
              77.6299546,
              12.9966108
            ],
            [
              77.630352,
              12.9966098
            ],
            [
              77.630353,
              12.9961048
            ],
            [
              77.6299557,
              12.9961011
            ],
            [
              77.6299546,
              12.9966108
            ]
          ]
        ]
      }
    }
  ]
}