{
  "type": "FeatureCollection",
  "crs": {
    "type": "name",
    "properties": {
      "name": "EPSG:4326"
    }
  },
  "features": [
    {
      "type": "Feature",
      "properties": {
        "id": "train_098_BND_001",
        "parcel_id": "train_098_P_001",
        "boundary_type": "VISIBLE",
        "confidence": 0.82,
        "length_m": 54.02,
        "evidence_sources": [
          "Drone_RGB_Edge",
          "DSM_Breakline"
        ]
      },
      "geometry": {
        "type": "LineString",
        "coordinates": [
          [
            77.6010768,
            13.0133318
          ],
          [
            77.6015744,
            13.0133231
          ]
        ]
      }
    },
    {
      "type": "Feature",
      "properties": {
        "id": "train_098_BND_002",
        "parcel_id": "train_098_P_001",
        "boundary_type": "INFERRED",
        "confidence": 0.68,
        "length_m": 52.41,
        "evidence_sources": [
          "Road_Corridor_Offset",
          "Adjacent_Parcel_Topology"
        ]
      },
      "geometry": {
        "type": "LineString",
        "coordinates": [
          [
            77.6015744,
            13.0133231
          ],
          [
            77.6015719,
            13.0128496
          ]
        ]
      }
    },
    {
      "type": "Feature",
      "properties": {
        "id": "train_098_BND_003",
        "parcel_id": "train_098_P_001",
        "boundary_type": "INFERRED",
        "confidence": 0.638,
        "length_m": 54.42,
        "evidence_sources": [
          "Road_Corridor_Offset",
          "Adjacent_Parcel_Topology"
        ]
      },
      "geometry": {
        "type": "LineString",
        "coordinates": [
          [
            77.6015719,
            13.0128496
          ],
          [
            77.6010706,
            13.0128552
          ]
        ]
      }
    },
    {
      "type": "Feature",
      "properties": {
        "id": "train_098_BND_004",
        "parcel_id": "train_098_P_001",
        "boundary_type": "VISIBLE",
        "confidence": 0.943,
        "length_m": 52.76,
        "evidence_sources": [
          "Drone_RGB_Edge",
          "DSM_Breakline"
        ]
      },
      "geometry": {
        "type": "LineString",
        "coordinates": [
          [
            77.6010706,
            13.0128552
          ],
          [
            77.6010768,
            13.0133318
          ]
        ]
      }
    },
    {
      "type": "Feature",
      "properties": {
        "id": "train_098_BND_005",
        "parcel_id": "train_098_P_002",
        "boundary_type": "VISIBLE",
        "confidence": 0.831,
        "length_m": 54.45,
        "evidence_sources": [
          "Drone_RGB_Edge",
          "DSM_Breakline"
        ]
      },
      "geometry": {
        "type": "LineString",
        "coordinates": [
          [
            77.6010758,
            13.0128264
          ],
          [
            77.6015774,
            13.0128342
          ]
        ]
      }
    },
    {
      "type": "Feature",
      "properties": {
        "id": "train_098_BND_006",
        "parcel_id": "train_098_P_002",
        "boundary_type": "INFERRED",
        "confidence": 0.789,
        "length_m": 53.06,
        "evidence_sources": [
          "Road_Corridor_Offset",
          "Adjacent_Parcel_Topology"
        ]
      },
      "geometry": {
        "type": "LineString",
        "coordinates": [
          [
            77.6015774,
            13.0128342
          ],
          [
            77.601586,
            13.0123549
          ]
        ]
      }
    },
    {
      "type": "Feature",
      "properties": {
        "id": "train_098_BND_007",
        "parcel_id": "train_098_P_002",
        "boundary_type": "VISIBLE",
        "confidence": 0.863,
        "length_m": 55.43,
        "evidence_sources": [
          "Drone_RGB_Edge",
          "DSM_Breakline"
        ]
      },
      "geometry": {
        "type": "LineString",
        "coordinates": [
          [
            77.601586,
            13.0123549
          ],
          [
            77.6010754,
            13.0123642
          ]
        ]
      }
    },
    {
      "type": "Feature",
      "properties": {
        "id": "train_098_BND_008",
        "parcel_id": "train_098_P_002",
        "boundary_type": "INFERRED",
        "confidence": 0.632,
        "length_m": 51.16,
        "evidence_sources": [
          "Road_Corridor_Offset",
          "Adjacent_Parcel_Topology"
        ]
      },
      "geometry": {
        "type": "LineString",
        "coordinates": [
          [
            77.6010754,
            13.0123642
          ],
          [
            77.6010758,
            13.0128264
          ]
        ]
      }
    },
    {
      "type": "Feature",
      "properties": {
        "id": "train_098_BND_009",
        "parcel_id": "train_098_P_003",
        "boundary_type": "INFERRED",
        "confidence": 0.745,
        "length_m": 53.94,
        "evidence_sources": [
          "Road_Corridor_Offset",
          "Adjacent_Parcel_Topology"
        ]
      },
      "geometry": {
        "type": "LineString",
        "coordinates": [
          [
            77.6016116,
            13.0133242
          ],
          [
            77.6021085,
            13.0133298
          ]
        ]
      }
    },
    {
      "type": "Feature",
      "properties": {
        "id": "train_098_BND_010",
        "parcel_id": "train_098_P_003",
        "boundary_type": "VISIBLE",
        "confidence": 0.844,
        "length_m": 52.78,
        "evidence_sources": [
          "Drone_RGB_Edge",
          "DSM_Breakline"
        ]
      },
      "geometry": {
        "type": "LineString",
        "coordinates": [
          [
            77.6021085,
            13.0133298
          ],
          [
            77.6021033,
            13.012853
          ]
        ]
      }
    },
    {
      "type": "Feature",
      "properties": {
        "id": "train_098_BND_011",
        "parcel_id": "train_098_P_003",
        "boundary_type": "VISIBLE",
        "confidence": 0.82,
        "length_m": 55.11,
        "evidence_sources": [
          "Drone_RGB_Edge",
          "DSM_Breakline"
        ]
      },
      "geometry": {
        "type": "LineString",
        "coordinates": [
          [
            77.6021033,
            13.012853
          ],
          [
            77.6015957,
            13.0128658
          ]
        ]
      }
    },
    {
      "type": "Feature",
      "properties": {
        "id": "train_098_BND_012",
        "parcel_id": "train_098_P_003",
        "boundary_type": "INFERRED",
        "confidence": 0.76,
        "length_m": 50.77,
        "evidence_sources": [
          "Road_Corridor_Offset",
          "Adjacent_Parcel_Topology"
        ]
      },
      "geometry": {
        "type": "LineString",
        "coordinates": [
          [
            77.6015957,
            13.0128658
          ],
          [
            77.6016116,
            13.0133242
          ]
        ]
      }
    },
    {
      "type": "Feature",
      "properties": {
        "id": "train_098_BND_013",
        "parcel_id": "train_098_P_004",
        "boundary_type": "VISIBLE",
        "confidence": 0.871,
        "length_m": 55.46,
        "evidence_sources": [
          "Drone_RGB_Edge",
          "DSM_Breakline"
        ]
      },
      "geometry": {
        "type": "LineString",
        "coordinates": [
          [
            77.6015942,
            13.0128251
          ],
          [
            77.6021048,
            13.0128432
          ]
        ]
      }
    },
    {
      "type": "Feature",
      "properties": {
        "id": "train_098_BND_014",
        "parcel_id": "train_098_P_004",
        "boundary_type": "VISIBLE",
        "confidence": 0.912,
        "length_m": 52.75,
        "evidence_sources": [
          "Drone_RGB_Edge",
          "DSM_Breakline"
        ]
      },
      "geometry": {
        "type": "LineString",
        "coordinates": [
          [
            77.6021048,
            13.0128432
          ],
          [
            77.6021036,
            13.0123667
          ]
        ]
      }
    },
    {
      "type": "Feature",
      "properties": {
        "id": "train_098_BND_015",
        "parcel_id": "train_098_P_004",
        "boundary_type": "VISIBLE",
        "confidence": 0.929,
        "length_m": 54.41,
        "evidence_sources": [
          "Drone_RGB_Edge",
          "DSM_Breakline"
        ]
      },
      "geometry": {
        "type": "LineString",
        "coordinates": [
          [
            77.6021036,
            13.0123667
          ],
          [
            77.6016023,
            13.0123683
          ]
        ]
      }
    },
    {
      "type": "Feature",
      "properties": {
        "id": "train_098_BND_016",
        "parcel_id": "train_098_P_004",
        "boundary_type": "VISIBLE",
        "confidence": 0.917,
        "length_m": 50.57,
        "evidence_sources": [
          "Drone_RGB_Edge",
          "DSM_Breakline"
        ]
      },
      "geometry": {
        "type": "LineString",
        "coordinates": [
          [
            77.6016023,
            13.0123683
          ],
          [
            77.6015942,
            13.0128251
          ]
        ]
      }
    },
    {
      "type": "Feature",
      "properties": {
        "id": "train_098_BND_017",
        "parcel_id": "train_098_P_005",
        "boundary_type": "VISIBLE",
        "confidence": 0.833,
        "length_m": 55.15,
        "evidence_sources": [
          "Drone_RGB_Edge",
          "DSM_Breakline"
        ]
      },
      "geometry": {
        "type": "LineString",
        "coordinates": [
          [
            77.6022765,
            13.0133294
          ],
          [
            77.6027844,
            13.013343
          ]
        ]
      }
    },
    {
      "type": "Feature",
      "properties": {
        "id": "train_098_BND_018",
        "parcel_id": "train_098_P_005",
        "boundary_type": "VISIBLE",
        "confidence": 0.823,
        "length_m": 52.97,
        "evidence_sources": [
          "Drone_RGB_Edge",
          "DSM_Breakline"
        ]
      },
      "geometry": {
        "type": "LineString",
        "coordinates": [
          [
            77.6027844,
            13.013343
          ],
          [
            77.6027952,
            13.0128646
          ]
        ]
      }
    },
    {
      "type": "Feature",
      "properties": {
        "id": "train_098_BND_019",
        "parcel_id": "train_098_P_005",
        "boundary_type": "INFERRED",
        "confidence": 0.624,
        "length_m": 56.46,
        "evidence_sources": [
          "Road_Corridor_Offset",
          "Adjacent_Parcel_Topology"
        ]
      },
      "geometry": {
        "type": "LineString",
        "coordinates": [
          [
            77.6027952,
            13.0128646
          ],
          [
            77.6022753,
            13.0128496
          ]
        ]
      }
    },
    {
      "type": "Feature",
      "properties": {
        "id": "train_098_BND_020",
        "parcel_id": "train_098_P_005",
        "boundary_type": "INFERRED",
        "confidence": 0.651,
        "length_m": 53.11,
        "evidence_sources": [
          "Road_Corridor_Offset",
          "Adjacent_Parcel_Topology"
        ]
      },
      "geometry": {
        "type": "LineString",
        "coordinates": [
          [
            77.6022753,
            13.0128496
          ],
          [
            77.6022765,
            13.0133294
          ]
        ]
      }
    },
    {
      "type": "Feature",
      "properties": {
        "id": "train_098_BND_021",
        "parcel_id": "train_098_P_006",
        "boundary_type": "VISIBLE",
        "confidence": 0.908,
        "length_m": 54.5,
        "evidence_sources": [
          "Drone_RGB_Edge",
          "DSM_Breakline"
        ]
      },
      "geometry": {
        "type": "LineString",
        "coordinates": [
          [
            77.6022902,
            13.0128399
          ],
          [
            77.6027923,
            13.0128334
          ]
        ]
      }
    },
    {
      "type": "Feature",
      "properties": {
        "id": "train_098_BND_022",
        "parcel_id": "train_098_P_006",
        "boundary_type": "VISIBLE",
        "confidence": 0.89,
        "length_m": 53.46,
        "evidence_sources": [
          "Drone_RGB_Edge",
          "DSM_Breakline"
        ]
      },
      "geometry": {
        "type": "LineString",
        "coordinates": [
          [
            77.6027923,
            13.0128334
          ],
          [
            77.6027885,
            13.0123505
          ]
        ]
      }
    },
    {
      "type": "Feature",
      "properties": {
        "id": "train_098_BND_023",
        "parcel_id": "train_098_P_006",
        "boundary_type": "VISIBLE",
        "confidence": 0.885,
        "length_m": 53.6,
        "evidence_sources": [
          "Drone_RGB_Edge",
          "DSM_Breakline"
        ]
      },
      "geometry": {
        "type": "LineString",
        "coordinates": [
          [
            77.6027885,
            13.0123505
          ],
          [
            77.6022949,
            13.0123653
          ]
        ]
      }
    },
    {
      "type": "Feature",
      "properties": {
        "id": "train_098_BND_024",
        "parcel_id": "train_098_P_006",
        "boundary_type": "VISIBLE",
        "confidence": 0.907,
        "length_m": 52.54,
        "evidence_sources": [
          "Drone_RGB_Edge",
          "DSM_Breakline"
        ]
      },
      "geometry": {
        "type": "LineString",
        "coordinates": [
          [
            77.6022949,
            13.0123653
          ],
          [
            77.6022902,
            13.0128399
          ]
        ]
      }
    },
    {
      "type": "Feature",
      "properties": {
        "id": "train_098_BND_025",
        "parcel_id": "train_098_P_007",
        "boundary_type": "VISIBLE",
        "confidence": 0.911,
        "length_m": 54.4,
        "evidence_sources": [
          "Drone_RGB_Edge",
          "DSM_Breakline"
        ]
      },
      "geometry": {
        "type": "LineString",
        "coordinates": [
          [
            77.6028115,
            13.01333
          ],
          [
            77.6033127,
            13.013327
          ]
        ]
      }
    },
    {
      "type": "Feature",
      "properties": {
        "id": "train_098_BND_026",
        "parcel_id": "train_098_P_007",
        "boundary_type": "VISIBLE",
        "confidence": 0.874,
        "length_m": 53.02,
        "evidence_sources": [
          "Drone_RGB_Edge",
          "DSM_Breakline"
        ]
      },
      "geometry": {
        "type": "LineString",
        "coordinates": [
          [
            77.6033127,
            13.013327
          ],
          [
            77.6033053,
            13.0128481
          ]
        ]
      }
    },
    {
      "type": "Feature",
      "properties": {
        "id": "train_098_BND_027",
        "parcel_id": "train_098_P_007",
        "boundary_type": "VISIBLE",
        "confidence": 0.87,
        "length_m": 53.38,
        "evidence_sources": [
          "Drone_RGB_Edge",
          "DSM_Breakline"
        ]
      },
      "geometry": {
        "type": "LineString",
        "coordinates": [
          [
            77.6033053,
            13.0128481
          ],
          [
            77.6028135,
            13.0128489
          ]
        ]
      }
    },
    {
      "type": "Feature",
      "properties": {
        "id": "train_098_BND_028",
        "parcel_id": "train_098_P_007",
        "boundary_type": "VISIBLE",
        "confidence": 0.902,
        "length_m": 53.26,
        "evidence_sources": [
          "Drone_RGB_Edge",
          "DSM_Breakline"
        ]
      },
      "geometry": {
        "type": "LineString",
        "coordinates": [
          [
            77.6028135,
            13.0128489
          ],
          [
            77.6028115,
            13.01333
          ]
        ]
      }
    },
    {
      "type": "Feature",
      "properties": {
        "id": "train_098_BND_029",
        "parcel_id": "train_098_P_008",
        "boundary_type": "VISIBLE",
        "confidence": 0.848,
        "length_m": 54.73,
        "evidence_sources": [
          "Drone_RGB_Edge",
          "DSM_Breakline"
        ]
      },
      "geometry": {
        "type": "LineString",
        "coordinates": [
          [
            77.6028021,
            13.0128374
          ],
          [
            77.6033063,
            13.0128434
          ]
        ]
      }
    },
    {
      "type": "Feature",
      "properties": {
        "id": "train_098_BND_030",
        "parcel_id": "train_098_P_008",
        "boundary_type": "INFERRED",
        "confidence": 0.638,
        "length_m": 54.1,
        "evidence_sources": [
          "Road_Corridor_Offset",
          "Adjacent_Parcel_Topology"
        ]
      },
      "geometry": {
        "type": "LineString",
        "coordinates": [
          [
            77.6033063,
            13.0128434
          ],
          [
            77.6033045,
            13.0123547
          ]
        ]
      }
    },
    {
      "type": "Feature",
      "properties": {
        "id": "train_098_BND_031",
        "parcel_id": "train_098_P_008",
        "boundary_type": "VISIBLE",
        "confidence": 0.853,
        "length_m": 53.81,
        "evidence_sources": [
          "Drone_RGB_Edge",
          "DSM_Breakline"
        ]
      },
      "geometry": {
        "type": "LineString",
        "coordinates": [
          [
            77.6033045,
            13.0123547
          ],
          [
            77.6028089,
            13.0123679
          ]
        ]
      }
    },
    {
      "type": "Feature",
      "properties": {
        "id": "train_098_BND_032",
        "parcel_id": "train_098_P_008",
        "boundary_type": "VISIBLE",
        "confidence": 0.928,
        "length_m": 51.98,
        "evidence_sources": [
          "Drone_RGB_Edge",
          "DSM_Breakline"
        ]
      },
      "geometry": {
        "type": "LineString",
        "coordinates": [
          [
            77.6028089,
            13.0123679
          ],
          [
            77.6028021,
            13.0128374
          ]
        ]
      }
    },
    {
      "type": "Feature",
      "properties": {
        "id": "train_098_BND_033",
        "parcel_id": "train_098_P_009",
        "boundary_type": "VISIBLE",
        "confidence": 0.901,
        "length_m": 55.4,
        "evidence_sources": [
          "Drone_RGB_Edge",
          "DSM_Breakline"
        ]
      },
      "geometry": {
        "type": "LineString",
        "coordinates": [
          [
            77.6010787,
            13.0120673
          ],
          [
            77.6015891,
            13.0120702
          ]
        ]
      }
    },
    {
      "type": "Feature",
      "properties": {
        "id": "train_098_BND_034",
        "parcel_id": "train_098_P_009",
        "boundary_type": "VISIBLE",
        "confidence": 0.895,
        "length_m": 51.74,
        "evidence_sources": [
          "Drone_RGB_Edge",
          "DSM_Breakline"
        ]
      },
      "geometry": {
        "type": "LineString",
        "coordinates": [
          [
            77.6015891,
            13.0120702
          ],
          [
            77.6015793,
            13.0116029
          ]
        ]
      }
    },
    {
      "type": "Feature",
      "properties": {
        "id": "train_098_BND_035",
        "parcel_id": "train_098_P_009",
        "boundary_type": "VISIBLE",
        "confidence": 0.886,
        "length_m": 55.41,
        "evidence_sources": [
          "Drone_RGB_Edge",
          "DSM_Breakline"
        ]
      },
      "geometry": {
        "type": "LineString",
        "coordinates": [
          [
            77.6015793,
            13.0116029
          ],
          [
            77.601069,
            13.0115902
          ]
        ]
      }
    },
    {
      "type": "Feature",
      "properties": {
        "id": "train_098_BND_036",
        "parcel_id": "train_098_P_009",
        "boundary_type": "VISIBLE",
        "confidence": 0.852,
        "length_m": 52.82,
        "evidence_sources": [
          "Drone_RGB_Edge",
          "DSM_Breakline"
        ]
      },
      "geometry": {
        "type": "LineString",
        "coordinates": [
          [
            77.601069,
            13.0115902
          ],
          [
            77.6010787,
            13.0120673
          ]
        ]
      }
    },
    {
      "type": "Feature",
      "properties": {
        "id": "train_098_BND_037",
        "parcel_id": "train_098_P_010",
        "boundary_type": "VISIBLE",
        "confidence": 0.904,
        "length_m": 55.91,
        "evidence_sources": [
          "Drone_RGB_Edge",
          "DSM_Breakline"
        ]
      },
      "geometry": {
        "type": "LineString",
        "coordinates": [
          [
            77.601065,
            13.0115697
          ],
          [
            77.6015801,
            13.0115702
          ]
        ]
      }
    },
    {
      "type": "Feature",
      "properties": {
        "id": "train_098_BND_038",
        "parcel_id": "train_098_P_010",
        "boundary_type": "VISIBLE",
        "confidence": 0.863,
        "length_m": 54.51,
        "evidence_sources": [
          "Drone_RGB_Edge",
          "DSM_Breakline"
        ]
      },
      "geometry": {
        "type": "LineString",
        "coordinates": [
          [
            77.6015801,
            13.0115702
          ],
          [
            77.6015744,
            13.0110778
          ]
        ]
      }
    },
    {
      "type": "Feature",
      "properties": {
        "id": "train_098_BND_039",
        "parcel_id": "train_098_P_010",
        "boundary_type": "INFERRED",
        "confidence": 0.658,
        "length_m": 54.35,
        "evidence_sources": [
          "Road_Corridor_Offset",
          "Adjacent_Parcel_Topology"
        ]
      },
      "geometry": {
        "type": "LineString",
        "coordinates": [
          [
            77.6015744,
            13.0110778
          ],
          [
            77.601074,
            13.0110956
          ]
        ]
      }
    },
    {
      "type": "Feature",
      "properties": {
        "id": "train_098_BND_040",
        "parcel_id": "train_098_P_010",
        "boundary_type": "VISIBLE",
        "confidence": 0.868,
        "length_m": 52.49,
        "evidence_sources": [
          "Drone_RGB_Edge",
          "DSM_Breakline"
        ]
      },
      "geometry": {
        "type": "LineString",
        "coordinates": [
          [
            77.601074,
            13.0110956
          ],
          [
            77.601065,
            13.0115697
          ]
        ]
      }
    },
    {
      "type": "Feature",
      "properties": {
        "id": "train_098_BND_041",
        "parcel_id": "train_098_P_011",
        "boundary_type": "VISIBLE",
        "confidence": 0.925,
        "length_m": 57.05,
        "evidence_sources": [
          "Drone_RGB_Edge",
          "DSM_Breakline"
        ]
      },
      "geometry": {
        "type": "LineString",
        "coordinates": [
          [
            77.6015956,
            13.0120854
          ],
          [
            77.6021211,
            13.0120777
          ]
        ]
      }
    },
    {
      "type": "Feature",
      "properties": {
        "id": "train_098_BND_042",
        "parcel_id": "train_098_P_011",
        "boundary_type": "INFERRED",
        "confidence": 0.703,
        "length_m": 53.78,
        "evidence_sources": [
          "Road_Corridor_Offset",
          "Adjacent_Parcel_Topology"
        ]
      },
      "geometry": {
        "type": "LineString",
        "coordinates": [
          [
            77.6021211,
            13.0120777
          ],
          [
            77.6021107,
            13.011592
          ]
        ]
      }
    },
    {
      "type": "Feature",
      "properties": {
        "id": "train_098_BND_043",
        "parcel_id": "train_098_P_011",
        "boundary_type": "VISIBLE",
        "confidence": 0.917,
        "length_m": 54.36,
        "evidence_sources": [
          "Drone_RGB_Edge",
          "DSM_Breakline"
        ]
      },
      "geometry": {
        "type": "LineString",
        "coordinates": [
          [
            77.6021107,
            13.011592
          ],
          [
            77.6016099,
            13.0115921
          ]
        ]
      }
    },
    {
      "type": "Feature",
      "properties": {
        "id": "train_098_BND_044",
        "parcel_id": "train_098_P_011",
        "boundary_type": "VISIBLE",
        "confidence": 0.896,
        "length_m": 54.63,
        "evidence_sources": [
          "Drone_RGB_Edge",
          "DSM_Breakline"
        ]
      },
      "geometry": {
        "type": "LineString",
        "coordinates": [
          [
            77.6016099,
            13.0115921
          ],
          [
            77.6015956,
            13.0120854
          ]
        ]
      }
    },
    {
      "type": "Feature",
      "properties": {
        "id": "train_098_BND_045",
        "parcel_id": "train_098_P_012",
        "boundary_type": "VISIBLE",
        "confidence": 0.858,
        "length_m": 55.43,
        "evidence_sources": [
          "Drone_RGB_Edge",
          "DSM_Breakline"
        ]
      },
      "geometry": {
        "type": "LineString",
        "coordinates": [
          [
            77.6016053,
            13.0115789
          ],
          [
            77.602116,
            13.0115772
          ]
        ]
      }
    },
    {
      "type": "Feature",
      "properties": {
        "id": "train_098_BND_046",
        "parcel_id": "train_098_P_012",
        "boundary_type": "INFERRED",
        "confidence": 0.782,
        "length_m": 53.36,
        "evidence_sources": [
          "Road_Corridor_Offset",
          "Adjacent_Parcel_Topology"
        ]
      },
      "geometry": {
        "type": "LineString",
        "coordinates": [
          [
            77.602116,
            13.0115772
          ],
          [
            77.6021095,
            13.0110952
          ]
        ]
      }
    },
    {
      "type": "Feature",
      "properties": {
        "id": "train_098_BND_047",
        "parcel_id": "train_098_P_012",
        "boundary_type": "VISIBLE",
        "confidence": 0.869,
        "length_m": 56.15,
        "evidence_sources": [
          "Drone_RGB_Edge",
          "DSM_Breakline"
        ]
      },
      "geometry": {
        "type": "LineString",
        "coordinates": [
          [
            77.6021095,
            13.0110952
          ],
          [
            77.6015922,
            13.0110962
          ]
        ]
      }
    },
    {
      "type": "Feature",
      "properties": {
        "id": "train_098_BND_048",
        "parcel_id": "train_098_P_012",
        "boundary_type": "INFERRED",
        "confidence": 0.752,
        "length_m": 53.45,
        "evidence_sources": [
          "Road_Corridor_Offset",
          "Adjacent_Parcel_Topology"
        ]
      },
      "geometry": {
        "type": "LineString",
        "coordinates": [
          [
            77.6015922,
            13.0110962
          ],
          [
            77.6016053,
            13.0115789
          ]
        ]
      }
    },
    {
      "type": "Feature",
      "properties": {
        "id": "train_098_BND_049",
        "parcel_id": "train_098_P_013",
        "boundary_type": "VISIBLE",
        "confidence": 0.862,
        "length_m": 54.08,
        "evidence_sources": [
          "Drone_RGB_Edge",
          "DSM_Breakline"
        ]
      },
      "geometry": {
        "type": "LineString",
        "coordinates": [
          [
            77.6022937,
            13.0120868
          ],
          [
            77.6027915,
            13.0120661
          ]
        ]
      }
    },
    {
      "type": "Feature",
      "properties": {
        "id": "train_098_BND_050",
        "parcel_id": "train_098_P_013",
        "boundary_type": "INFERRED",
        "confidence": 0.738,
        "length_m": 52.32,
        "evidence_sources": [
          "Road_Corridor_Offset",
          "Adjacent_Parcel_Topology"
        ]
      },
      "geometry": {
        "type": "LineString",
        "coordinates": [
          [
            77.6027915,
            13.0120661
          ],
          [
            77.602798,
            13.0115935
          ]
        ]
      }
    },
    {
      "type": "Feature",
      "properties": {
        "id": "train_098_BND_051",
        "parcel_id": "train_098_P_013",
        "boundary_type": "INFERRED",
        "confidence": 0.621,
        "length_m": 55.19,
        "evidence_sources": [
          "Road_Corridor_Offset",
          "Adjacent_Parcel_Topology"
        ]
      },
      "geometry": {
        "type": "LineString",
        "coordinates": [
          [
            77.602798,
            13.0115935
          ],
          [
            77.6022896,
            13.0115892
          ]
        ]
      }
    },
    {
      "type": "Feature",
      "properties": {
        "id": "train_098_BND_052",
        "parcel_id": "train_098_P_013",
        "boundary_type": "VISIBLE",
        "confidence": 0.884,
        "length_m": 55.08,
        "evidence_sources": [
          "Drone_RGB_Edge",
          "DSM_Breakline"
        ]
      },
      "geometry": {
        "type": "LineString",
        "coordinates": [
          [
            77.6022896,
            13.0115892
          ],
          [
            77.6022937,
            13.0120868
          ]
        ]
      }
    },
    {
      "type": "Feature",
      "properties": {
        "id": "train_098_BND_053",
        "parcel_id": "train_098_P_014",
        "boundary_type": "VISIBLE",
        "confidence": 0.824,
        "length_m": 54.97,
        "evidence_sources": [
          "Drone_RGB_Edge",
          "DSM_Breakline"
        ]
      },
      "geometry": {
        "type": "LineString",
        "coordinates": [
          [
            77.6022918,
            13.0115707
          ],
          [
            77.6027982,
            13.0115641
          ]
        ]
      }
    },
    {
      "type": "Feature",
      "properties": {
        "id": "train_098_BND_054",
        "parcel_id": "train_098_P_014",
        "boundary_type": "INFERRED",
        "confidence": 0.698,
        "length_m": 52.97,
        "evidence_sources": [
          "Road_Corridor_Offset",
          "Adjacent_Parcel_Topology"
        ]
      },
      "geometry": {
        "type": "LineString",
        "coordinates": [
          [
            77.6027982,
            13.0115641
          ],
          [
            77.6027907,
            13.0110856
          ]
        ]
      }
    },
    {
      "type": "Feature",
      "properties": {
        "id": "train_098_BND_055",
        "parcel_id": "train_098_P_014",
        "boundary_type": "VISIBLE",
        "confidence": 0.827,
        "length_m": 53.62,
        "evidence_sources": [
          "Drone_RGB_Edge",
          "DSM_Breakline"
        ]
      },
      "geometry": {
        "type": "LineString",
        "coordinates": [
          [
            77.6027907,
            13.0110856
          ],
          [
            77.6022968,
            13.0110971
          ]
        ]
      }
    },
    {
      "type": "Feature",
      "properties": {
        "id": "train_098_BND_056",
        "parcel_id": "train_098_P_014",
        "boundary_type": "VISIBLE",
        "confidence": 0.897,
        "length_m": 52.43,
        "evidence_sources": [
          "Drone_RGB_Edge",
          "DSM_Breakline"
        ]
      },
      "geometry": {
        "type": "LineString",
        "coordinates": [
          [
            77.6022968,
            13.0110971
          ],
          [
            77.6022918,
            13.0115707
          ]
        ]
      }
    },
    {
      "type": "Feature",
      "properties": {
        "id": "train_098_BND_057",
        "parcel_id": "train_098_P_015",
        "boundary_type": "VISIBLE",
        "confidence": 0.942,
        "length_m": 54.45,
        "evidence_sources": [
          "Drone_RGB_Edge",
          "DSM_Breakline"
        ]
      },
      "geometry": {
        "type": "LineString",
        "coordinates": [
          [
            77.6028138,
            13.012085
          ],
          [
            77.6033154,
            13.0120857
          ]
        ]
      }
    },
    {
      "type": "Feature",
      "properties": {
        "id": "train_098_BND_058",
        "parcel_id": "train_098_P_015",
        "boundary_type": "VISIBLE",
        "confidence": 0.825,
        "length_m": 55.47,
        "evidence_sources": [
          "Drone_RGB_Edge",
          "DSM_Breakline"
        ]
      },
      "geometry": {
        "type": "LineString",
        "coordinates": [
          [
            77.6033154,
            13.0120857
          ],
          [
            77.603304,
            13.0115847
          ]
        ]
      }
    },
    {
      "type": "Feature",
      "properties": {
        "id": "train_098_BND_059",
        "parcel_id": "train_098_P_015",
        "boundary_type": "INFERRED",
        "confidence": 0.635,
        "length_m": 52.56,
        "evidence_sources": [
          "Road_Corridor_Offset",
          "Adjacent_Parcel_Topology"
        ]
      },
      "geometry": {
        "type": "LineString",
        "coordinates": [
          [
            77.603304,
            13.0115847
          ],
          [
            77.60282,
            13.0115997
          ]
        ]
      }
    },
    {
      "type": "Feature",
      "properties": {
        "id": "train_098_BND_060",
        "parcel_id": "train_098_P_015",
        "boundary_type": "VISIBLE",
        "confidence": 0.881,
        "length_m": 53.72,
        "evidence_sources": [
          "Drone_RGB_Edge",
          "DSM_Breakline"
        ]
      },
      "geometry": {
        "type": "LineString",
        "coordinates": [
          [
            77.60282,
            13.0115997
          ],
          [
            77.6028138,
            13.012085
          ]
        ]
      }
    },
    {
      "type": "Feature",
      "properties": {
        "id": "train_098_BND_061",
        "parcel_id": "train_098_P_016",
        "boundary_type": "INFERRED",
        "confidence": 0.736,
        "length_m": 52.67,
        "evidence_sources": [
          "Road_Corridor_Offset",
          "Adjacent_Parcel_Topology"
        ]
      },
      "geometry": {
        "type": "LineString",
        "coordinates": [
          [
            77.6028201,
            13.0115668
          ],
          [
            77.6033053,
            13.0115743
          ]
        ]
      }
    },
    {
      "type": "Feature",
      "properties": {
        "id": "train_098_BND_062",
        "parcel_id": "train_098_P_016",
        "boundary_type": "VISIBLE",
        "confidence": 0.903,
        "length_m": 54.9,
        "evidence_sources": [
          "Drone_RGB_Edge",
          "DSM_Breakline"
        ]
      },
      "geometry": {
        "type": "LineString",
        "coordinates": [
          [
            77.6033053,
            13.0115743
          ],
          [
            77.603322,
            13.0110786
          ]
        ]
      }
    },
    {
      "type": "Feature",
      "properties": {
        "id": "train_098_BND_063",
        "parcel_id": "train_098_P_016",
        "boundary_type": "INFERRED",
        "confidence": 0.669,
        "length_m": 54.71,
        "evidence_sources": [
          "Road_Corridor_Offset",
          "Adjacent_Parcel_Topology"
        ]
      },
      "geometry": {
        "type": "LineString",
        "coordinates": [
          [
            77.603322,
            13.0110786
          ],
          [
            77.602818,
            13.0110873
          ]
        ]
      }
    },
    {
      "type": "Feature",
      "properties": {
        "id": "train_098_BND_064",
        "parcel_id": "train_098_P_016",
        "boundary_type": "INFERRED",
        "confidence": 0.65,
        "length_m": 53.08,
        "evidence_sources": [
          "Road_Corridor_Offset",
          "Adjacent_Parcel_Topology"
        ]
      },
      "geometry": {
        "type": "LineString",
        "coordinates": [
          [
            77.602818,
            13.0110873
          ],
          [
            77.6028201,
            13.0115668
          ]
        ]
      }
    }
  ]
}