{
  "type": "FeatureCollection",
  "crs": {
    "type": "name",
    "properties": {
      "name": "EPSG:4326"
    }
  },
  "features": [
    {
      "type": "Feature",
      "properties": {
        "id": "train_096_BND_001",
        "parcel_id": "train_096_P_001",
        "boundary_type": "VISIBLE",
        "confidence": 0.927,
        "length_m": 66.27,
        "evidence_sources": [
          "Drone_RGB_Edge",
          "DSM_Breakline"
        ]
      },
      "geometry": {
        "type": "LineString",
        "coordinates": [
          [
            77.5950722,
            13.0132797
          ],
          [
            77.5956811,
            13.0133232
          ]
        ]
      }
    },
    {
      "type": "Feature",
      "properties": {
        "id": "train_096_BND_002",
        "parcel_id": "train_096_P_001",
        "boundary_type": "INFERRED",
        "confidence": 0.716,
        "length_m": 55.03,
        "evidence_sources": [
          "Road_Corridor_Offset",
          "Adjacent_Parcel_Topology"
        ]
      },
      "geometry": {
        "type": "LineString",
        "coordinates": [
          [
            77.5956811,
            13.0133232
          ],
          [
            77.5956995,
            13.0128264
          ]
        ]
      }
    },
    {
      "type": "Feature",
      "properties": {
        "id": "train_096_BND_003",
        "parcel_id": "train_096_P_001",
        "boundary_type": "INFERRED",
        "confidence": 0.625,
        "length_m": 64.05,
        "evidence_sources": [
          "Road_Corridor_Offset",
          "Adjacent_Parcel_Topology"
        ]
      },
      "geometry": {
        "type": "LineString",
        "coordinates": [
          [
            77.5956995,
            13.0128264
          ],
          [
            77.5951096,
            13.0128111
          ]
        ]
      }
    },
    {
      "type": "Feature",
      "properties": {
        "id": "train_096_BND_004",
        "parcel_id": "train_096_P_001",
        "boundary_type": "VISIBLE",
        "confidence": 0.896,
        "length_m": 52.03,
        "evidence_sources": [
          "Drone_RGB_Edge",
          "DSM_Breakline"
        ]
      },
      "geometry": {
        "type": "LineString",
        "coordinates": [
          [
            77.5951096,
            13.0128111
          ],
          [
            77.5950722,
            13.0132797
          ]
        ]
      }
    },
    {
      "type": "Feature",
      "properties": {
        "id": "train_096_BND_005",
        "parcel_id": "train_096_P_002",
        "boundary_type": "VISIBLE",
        "confidence": 0.953,
        "length_m": 63.9,
        "evidence_sources": [
          "Drone_RGB_Edge",
          "DSM_Breakline"
        ]
      },
      "geometry": {
        "type": "LineString",
        "coordinates": [
          [
            77.595094,
            13.0127678
          ],
          [
            77.595682,
            13.0127953
          ]
        ]
      }
    },
    {
      "type": "Feature",
      "properties": {
        "id": "train_096_BND_006",
        "parcel_id": "train_096_P_002",
        "boundary_type": "VISIBLE",
        "confidence": 0.914,
        "length_m": 50.83,
        "evidence_sources": [
          "Drone_RGB_Edge",
          "DSM_Breakline"
        ]
      },
      "geometry": {
        "type": "LineString",
        "coordinates": [
          [
            77.595682,
            13.0127953
          ],
          [
            77.5956976,
            13.0123364
          ]
        ]
      }
    },
    {
      "type": "Feature",
      "properties": {
        "id": "train_096_BND_007",
        "parcel_id": "train_096_P_002",
        "boundary_type": "INFERRED",
        "confidence": 0.788,
        "length_m": 67.66,
        "evidence_sources": [
          "Road_Corridor_Offset",
          "Adjacent_Parcel_Topology"
        ]
      },
      "geometry": {
        "type": "LineString",
        "coordinates": [
          [
            77.5956976,
            13.0123364
          ],
          [
            77.5950743,
            13.0123264
          ]
        ]
      }
    },
    {
      "type": "Feature",
      "properties": {
        "id": "train_096_BND_008",
        "parcel_id": "train_096_P_002",
        "boundary_type": "VISIBLE",
        "confidence": 0.832,
        "length_m": 48.91,
        "evidence_sources": [
          "Drone_RGB_Edge",
          "DSM_Breakline"
        ]
      },
      "geometry": {
        "type": "LineString",
        "coordinates": [
          [
            77.5950743,
            13.0123264
          ],
          [
            77.595094,
            13.0127678
          ]
        ]
      }
    },
    {
      "type": "Feature",
      "properties": {
        "id": "train_096_BND_009",
        "parcel_id": "train_096_P_003",
        "boundary_type": "VISIBLE",
        "confidence": 0.838,
        "length_m": 60.14,
        "evidence_sources": [
          "Drone_RGB_Edge",
          "DSM_Breakline"
        ]
      },
      "geometry": {
        "type": "LineString",
        "coordinates": [
          [
            77.5957799,
            13.0133115
          ],
          [
            77.5963337,
            13.0132948
          ]
        ]
      }
    },
    {
      "type": "Feature",
      "properties": {
        "id": "train_096_BND_010",
        "parcel_id": "train_096_P_003",
        "boundary_type": "VISIBLE",
        "confidence": 0.92,
        "length_m": 51.95,
        "evidence_sources": [
          "Drone_RGB_Edge",
          "DSM_Breakline"
        ]
      },
      "geometry": {
        "type": "LineString",
        "coordinates": [
          [
            77.5963337,
            13.0132948
          ],
          [
            77.5963348,
            13.0128255
          ]
        ]
      }
    },
    {
      "type": "Feature",
      "properties": {
        "id": "train_096_BND_011",
        "parcel_id": "train_096_P_003",
        "boundary_type": "VISIBLE",
        "confidence": 0.835,
        "length_m": 63.1,
        "evidence_sources": [
          "Drone_RGB_Edge",
          "DSM_Breakline"
        ]
      },
      "geometry": {
        "type": "LineString",
        "coordinates": [
          [
            77.5963348,
            13.0128255
          ],
          [
            77.5957535,
            13.0128184
          ]
        ]
      }
    },
    {
      "type": "Feature",
      "properties": {
        "id": "train_096_BND_012",
        "parcel_id": "train_096_P_003",
        "boundary_type": "VISIBLE",
        "confidence": 0.863,
        "length_m": 54.66,
        "evidence_sources": [
          "Drone_RGB_Edge",
          "DSM_Breakline"
        ]
      },
      "geometry": {
        "type": "LineString",
        "coordinates": [
          [
            77.5957535,
            13.0128184
          ],
          [
            77.5957799,
            13.0133115
          ]
        ]
      }
    },
    {
      "type": "Feature",
      "properties": {
        "id": "train_096_BND_013",
        "parcel_id": "train_096_P_004",
        "boundary_type": "VISIBLE",
        "confidence": 0.856,
        "length_m": 60.51,
        "evidence_sources": [
          "Drone_RGB_Edge",
          "DSM_Breakline"
        ]
      },
      "geometry": {
        "type": "LineString",
        "coordinates": [
          [
            77.595775,
            13.0128046
          ],
          [
            77.5963325,
            13.0128073
          ]
        ]
      }
    },
    {
      "type": "Feature",
      "properties": {
        "id": "train_096_BND_014",
        "parcel_id": "train_096_P_004",
        "boundary_type": "VISIBLE",
        "confidence": 0.911,
        "length_m": 56.64,
        "evidence_sources": [
          "Drone_RGB_Edge",
          "DSM_Breakline"
        ]
      },
      "geometry": {
        "type": "LineString",
        "coordinates": [
          [
            77.5963325,
            13.0128073
          ],
          [
            77.596331,
            13.0122956
          ]
        ]
      }
    },
    {
      "type": "Feature",
      "properties": {
        "id": "train_096_BND_015",
        "parcel_id": "train_096_P_004",
        "boundary_type": "VISIBLE",
        "confidence": 0.867,
        "length_m": 64.12,
        "evidence_sources": [
          "Drone_RGB_Edge",
          "DSM_Breakline"
        ]
      },
      "geometry": {
        "type": "LineString",
        "coordinates": [
          [
            77.596331,
            13.0122956
          ],
          [
            77.5957417,
            13.0123358
          ]
        ]
      }
    },
    {
      "type": "Feature",
      "properties": {
        "id": "train_096_BND_016",
        "parcel_id": "train_096_P_004",
        "boundary_type": "VISIBLE",
        "confidence": 0.946,
        "length_m": 52.02,
        "evidence_sources": [
          "Drone_RGB_Edge",
          "DSM_Breakline"
        ]
      },
      "geometry": {
        "type": "LineString",
        "coordinates": [
          [
            77.5957417,
            13.0123358
          ],
          [
            77.595775,
            13.0128046
          ]
        ]
      }
    },
    {
      "type": "Feature",
      "properties": {
        "id": "train_096_BND_017",
        "parcel_id": "train_096_P_005",
        "boundary_type": "INFERRED",
        "confidence": 0.727,
        "length_m": 36.29,
        "evidence_sources": [
          "Road_Corridor_Offset",
          "Adjacent_Parcel_Topology"
        ]
      },
      "geometry": {
        "type": "LineString",
        "coordinates": [
          [
            77.5966106,
            13.0133246
          ],
          [
            77.5969443,
            13.0133046
          ]
        ]
      }
    },
    {
      "type": "Feature",
      "properties": {
        "id": "train_096_BND_018",
        "parcel_id": "train_096_P_005",
        "boundary_type": "INFERRED",
        "confidence": 0.639,
        "length_m": 50.89,
        "evidence_sources": [
          "Road_Corridor_Offset",
          "Adjacent_Parcel_Topology"
        ]
      },
      "geometry": {
        "type": "LineString",
        "coordinates": [
          [
            77.5969443,
            13.0133046
          ],
          [
            77.5969085,
            13.0128462
          ]
        ]
      }
    },
    {
      "type": "Feature",
      "properties": {
        "id": "train_096_BND_019",
        "parcel_id": "train_096_P_005",
        "boundary_type": "VISIBLE",
        "confidence": 0.955,
        "length_m": 34.86,
        "evidence_sources": [
          "Drone_RGB_Edge",
          "DSM_Breakline"
        ]
      },
      "geometry": {
        "type": "LineString",
        "coordinates": [
          [
            77.5969085,
            13.0128462
          ],
          [
            77.5965874,
            13.0128534
          ]
        ]
      }
    },
    {
      "type": "Feature",
      "properties": {
        "id": "train_096_BND_020",
        "parcel_id": "train_096_P_005",
        "boundary_type": "VISIBLE",
        "confidence": 0.895,
        "length_m": 52.22,
        "evidence_sources": [
          "Drone_RGB_Edge",
          "DSM_Breakline"
        ]
      },
      "geometry": {
        "type": "LineString",
        "coordinates": [
          [
            77.5965874,
            13.0128534
          ],
          [
            77.5966106,
            13.0133246
          ]
        ]
      }
    },
    {
      "type": "Feature",
      "properties": {
        "id": "train_096_BND_021",
        "parcel_id": "train_096_P_006",
        "boundary_type": "VISIBLE",
        "confidence": 0.885,
        "length_m": 31.79,
        "evidence_sources": [
          "Drone_RGB_Edge",
          "DSM_Breakline"
        ]
      },
      "geometry": {
        "type": "LineString",
        "coordinates": [
          [
            77.596618,
            13.0128065
          ],
          [
            77.5969092,
            13.0127761
          ]
        ]
      }
    },
    {
      "type": "Feature",
      "properties": {
        "id": "train_096_BND_022",
        "parcel_id": "train_096_P_006",
        "boundary_type": "VISIBLE",
        "confidence": 0.836,
        "length_m": 49.38,
        "evidence_sources": [
          "Drone_RGB_Edge",
          "DSM_Breakline"
        ]
      },
      "geometry": {
        "type": "LineString",
        "coordinates": [
          [
            77.5969092,
            13.0127761
          ],
          [
            77.5969499,
            13.0123318
          ]
        ]
      }
    },
    {
      "type": "Feature",
      "properties": {
        "id": "train_096_BND_023",
        "parcel_id": "train_096_P_006",
        "boundary_type": "VISIBLE",
        "confidence": 0.893,
        "length_m": 35.51,
        "evidence_sources": [
          "Drone_RGB_Edge",
          "DSM_Breakline"
        ]
      },
      "geometry": {
        "type": "LineString",
        "coordinates": [
          [
            77.5969499,
            13.0123318
          ],
          [
            77.5966228,
            13.0123244
          ]
        ]
      }
    },
    {
      "type": "Feature",
      "properties": {
        "id": "train_096_BND_024",
        "parcel_id": "train_096_P_006",
        "boundary_type": "INFERRED",
        "confidence": 0.681,
        "length_m": 53.37,
        "evidence_sources": [
          "Road_Corridor_Offset",
          "Adjacent_Parcel_Topology"
        ]
      },
      "geometry": {
        "type": "LineString",
        "coordinates": [
          [
            77.5966228,
            13.0123244
          ],
          [
            77.596618,
            13.0128065
          ]
        ]
      }
    },
    {
      "type": "Feature",
      "properties": {
        "id": "train_096_BND_025",
        "parcel_id": "train_096_P_007",
        "boundary_type": "VISIBLE",
        "confidence": 0.861,
        "length_m": 37.57,
        "evidence_sources": [
          "Drone_RGB_Edge",
          "DSM_Breakline"
        ]
      },
      "geometry": {
        "type": "LineString",
        "coordinates": [
          [
            77.5969782,
            13.0132927
          ],
          [
            77.5973243,
            13.0132951
          ]
        ]
      }
    },
    {
      "type": "Feature",
      "properties": {
        "id": "train_096_BND_026",
        "parcel_id": "train_096_P_007",
        "boundary_type": "INFERRED",
        "confidence": 0.709,
        "length_m": 53.3,
        "evidence_sources": [
          "Road_Corridor_Offset",
          "Adjacent_Parcel_Topology"
        ]
      },
      "geometry": {
        "type": "LineString",
        "coordinates": [
          [
            77.5973243,
            13.0132951
          ],
          [
            77.5972953,
            13.0128144
          ]
        ]
      }
    },
    {
      "type": "Feature",
      "properties": {
        "id": "train_096_BND_027",
        "parcel_id": "train_096_P_007",
        "boundary_type": "VISIBLE",
        "confidence": 0.849,
        "length_m": 32.06,
        "evidence_sources": [
          "Drone_RGB_Edge",
          "DSM_Breakline"
        ]
      },
      "geometry": {
        "type": "LineString",
        "coordinates": [
          [
            77.5972953,
            13.0128144
          ],
          [
            77.5969999,
            13.0128119
          ]
        ]
      }
    },
    {
      "type": "Feature",
      "properties": {
        "id": "train_096_BND_028",
        "parcel_id": "train_096_P_007",
        "boundary_type": "VISIBLE",
        "confidence": 0.927,
        "length_m": 53.27,
        "evidence_sources": [
          "Drone_RGB_Edge",
          "DSM_Breakline"
        ]
      },
      "geometry": {
        "type": "LineString",
        "coordinates": [
          [
            77.5969999,
            13.0128119
          ],
          [
            77.5969782,
            13.0132927
          ]
        ]
      }
    },
    {
      "type": "Feature",
      "properties": {
        "id": "train_096_BND_029",
        "parcel_id": "train_096_P_008",
        "boundary_type": "INFERRED",
        "confidence": 0.686,
        "length_m": 36.78,
        "evidence_sources": [
          "Road_Corridor_Offset",
          "Adjacent_Parcel_Topology"
        ]
      },
      "geometry": {
        "type": "LineString",
        "coordinates": [
          [
            77.5969535,
            13.0127671
          ],
          [
            77.5972912,
            13.0127949
          ]
        ]
      }
    },
    {
      "type": "Feature",
      "properties": {
        "id": "train_096_BND_030",
        "parcel_id": "train_096_P_008",
        "boundary_type": "VISIBLE",
        "confidence": 0.948,
        "length_m": 55.87,
        "evidence_sources": [
          "Drone_RGB_Edge",
          "DSM_Breakline"
        ]
      },
      "geometry": {
        "type": "LineString",
        "coordinates": [
          [
            77.5972912,
            13.0127949
          ],
          [
            77.5972731,
            13.0122905
          ]
        ]
      }
    },
    {
      "type": "Feature",
      "properties": {
        "id": "train_096_BND_031",
        "parcel_id": "train_096_P_008",
        "boundary_type": "VISIBLE",
        "confidence": 0.917,
        "length_m": 31.62,
        "evidence_sources": [
          "Drone_RGB_Edge",
          "DSM_Breakline"
        ]
      },
      "geometry": {
        "type": "LineString",
        "coordinates": [
          [
            77.5972731,
            13.0122905
          ],
          [
            77.5969818,
            13.0122904
          ]
        ]
      }
    },
    {
      "type": "Feature",
      "properties": {
        "id": "train_096_BND_032",
        "parcel_id": "train_096_P_008",
        "boundary_type": "INFERRED",
        "confidence": 0.704,
        "length_m": 52.86,
        "evidence_sources": [
          "Road_Corridor_Offset",
          "Adjacent_Parcel_Topology"
        ]
      },
      "geometry": {
        "type": "LineString",
        "coordinates": [
          [
            77.5969818,
            13.0122904
          ],
          [
            77.5969535,
            13.0127671
          ]
        ]
      }
    },
    {
      "type": "Feature",
      "properties": {
        "id": "train_096_BND_033",
        "parcel_id": "train_096_P_009",
        "boundary_type": "VISIBLE",
        "confidence": 0.88,
        "length_m": 61.31,
        "evidence_sources": [
          "Drone_RGB_Edge",
          "DSM_Breakline"
        ]
      },
      "geometry": {
        "type": "LineString",
        "coordinates": [
          [
            77.5950952,
            13.012071
          ],
          [
            77.5956588,
            13.0120339
          ]
        ]
      }
    },
    {
      "type": "Feature",
      "properties": {
        "id": "train_096_BND_034",
        "parcel_id": "train_096_P_009",
        "boundary_type": "VISIBLE",
        "confidence": 0.861,
        "length_m": 47.54,
        "evidence_sources": [
          "Drone_RGB_Edge",
          "DSM_Breakline"
        ]
      },
      "geometry": {
        "type": "LineString",
        "coordinates": [
          [
            77.5956588,
            13.0120339
          ],
          [
            77.5956948,
            13.0116059
          ]
        ]
      }
    },
    {
      "type": "Feature",
      "properties": {
        "id": "train_096_BND_035",
        "parcel_id": "train_096_P_009",
        "boundary_type": "INFERRED",
        "confidence": 0.652,
        "length_m": 63.11,
        "evidence_sources": [
          "Road_Corridor_Offset",
          "Adjacent_Parcel_Topology"
        ]
      },
      "geometry": {
        "type": "LineString",
        "coordinates": [
          [
            77.5956948,
            13.0116059
          ],
          [
            77.5951134,
            13.0116113
          ]
        ]
      }
    },
    {
      "type": "Feature",
      "properties": {
        "id": "train_096_BND_036",
        "parcel_id": "train_096_P_009",
        "boundary_type": "VISIBLE",
        "confidence": 0.947,
        "length_m": 50.92,
        "evidence_sources": [
          "Drone_RGB_Edge",
          "DSM_Breakline"
        ]
      },
      "geometry": {
        "type": "LineString",
        "coordinates": [
          [
            77.5951134,
            13.0116113
          ],
          [
            77.5950952,
            13.012071
          ]
        ]
      }
    },
    {
      "type": "Feature",
      "properties": {
        "id": "train_096_BND_037",
        "parcel_id": "train_096_P_010",
        "boundary_type": "INFERRED",
        "confidence": 0.647,
        "length_m": 67.16,
        "evidence_sources": [
          "Road_Corridor_Offset",
          "Adjacent_Parcel_Topology"
        ]
      },
      "geometry": {
        "type": "LineString",
        "coordinates": [
          [
            77.5950973,
            13.0115455
          ],
          [
            77.595716,
            13.011541
          ]
        ]
      }
    },
    {
      "type": "Feature",
      "properties": {
        "id": "train_096_BND_038",
        "parcel_id": "train_096_P_010",
        "boundary_type": "VISIBLE",
        "confidence": 0.927,
        "length_m": 50.61,
        "evidence_sources": [
          "Drone_RGB_Edge",
          "DSM_Breakline"
        ]
      },
      "geometry": {
        "type": "LineString",
        "coordinates": [
          [
            77.595716,
            13.011541
          ],
          [
            77.5956601,
            13.0110871
          ]
        ]
      }
    },
    {
      "type": "Feature",
      "properties": {
        "id": "train_096_BND_039",
        "parcel_id": "train_096_P_010",
        "boundary_type": "VISIBLE",
        "confidence": 0.886,
        "length_m": 65.42,
        "evidence_sources": [
          "Drone_RGB_Edge",
          "DSM_Breakline"
        ]
      },
      "geometry": {
        "type": "LineString",
        "coordinates": [
          [
            77.5956601,
            13.0110871
          ],
          [
            77.5950584,
            13.011121
          ]
        ]
      }
    },
    {
      "type": "Feature",
      "properties": {
        "id": "train_096_BND_040",
        "parcel_id": "train_096_P_010",
        "boundary_type": "VISIBLE",
        "confidence": 0.895,
        "length_m": 47.18,
        "evidence_sources": [
          "Drone_RGB_Edge",
          "DSM_Breakline"
        ]
      },
      "geometry": {
        "type": "LineString",
        "coordinates": [
          [
            77.5950584,
            13.011121
          ],
          [
            77.5950973,
            13.0115455
          ]
        ]
      }
    },
    {
      "type": "Feature",
      "properties": {
        "id": "train_096_BND_041",
        "parcel_id": "train_096_P_011",
        "boundary_type": "VISIBLE",
        "confidence": 0.93,
        "length_m": 67.01,
        "evidence_sources": [
          "Drone_RGB_Edge",
          "DSM_Breakline"
        ]
      },
      "geometry": {
        "type": "LineString",
        "coordinates": [
          [
            77.595762,
            13.0120708
          ],
          [
            77.5963783,
            13.0120358
          ]
        ]
      }
    },
    {
      "type": "Feature",
      "properties": {
        "id": "train_096_BND_042",
        "parcel_id": "train_096_P_011",
        "boundary_type": "VISIBLE",
        "confidence": 0.924,
        "length_m": 43.74,
        "evidence_sources": [
          "Drone_RGB_Edge",
          "DSM_Breakline"
        ]
      },
      "geometry": {
        "type": "LineString",
        "coordinates": [
          [
            77.5963783,
            13.0120358
          ],
          [
            77.5963864,
            13.0116407
          ]
        ]
      }
    },
    {
      "type": "Feature",
      "properties": {
        "id": "train_096_BND_043",
        "parcel_id": "train_096_P_011",
        "boundary_type": "VISIBLE",
        "confidence": 0.851,
        "length_m": 67.53,
        "evidence_sources": [
          "Drone_RGB_Edge",
          "DSM_Breakline"
        ]
      },
      "geometry": {
        "type": "LineString",
        "coordinates": [
          [
            77.5963864,
            13.0116407
          ],
          [
            77.5957645,
            13.0116221
          ]
        ]
      }
    },
    {
      "type": "Feature",
      "properties": {
        "id": "train_096_BND_044",
        "parcel_id": "train_096_P_011",
        "boundary_type": "VISIBLE",
        "confidence": 0.933,
        "length_m": 49.67,
        "evidence_sources": [
          "Drone_RGB_Edge",
          "DSM_Breakline"
        ]
      },
      "geometry": {
        "type": "LineString",
        "coordinates": [
          [
            77.5957645,
            13.0116221
          ],
          [
            77.595762,
            13.0120708
          ]
        ]
      }
    },
    {
      "type": "Feature",
      "properties": {
        "id": "train_096_BND_045",
        "parcel_id": "train_096_P_012",
        "boundary_type": "VISIBLE",
        "confidence": 0.911,
        "length_m": 65.11,
        "evidence_sources": [
          "Drone_RGB_Edge",
          "DSM_Breakline"
        ]
      },
      "geometry": {
        "type": "LineString",
        "coordinates": [
          [
            77.5957729,
            13.0115719
          ],
          [
            77.5963728,
            13.011572
          ]
        ]
      }
    },
    {
      "type": "Feature",
      "properties": {
        "id": "train_096_BND_046",
        "parcel_id": "train_096_P_012",
        "boundary_type": "INFERRED",
        "confidence": 0.696,
        "length_m": 49.94,
        "evidence_sources": [
          "Road_Corridor_Offset",
          "Adjacent_Parcel_Topology"
        ]
      },
      "geometry": {
        "type": "LineString",
        "coordinates": [
          [
            77.5963728,
            13.011572
          ],
          [
            77.5963689,
            13.0111209
          ]
        ]
      }
    },
    {
      "type": "Feature",
      "properties": {
        "id": "train_096_BND_047",
        "parcel_id": "train_096_P_012",
        "boundary_type": "INFERRED",
        "confidence": 0.638,
        "length_m": 70.27,
        "evidence_sources": [
          "Road_Corridor_Offset",
          "Adjacent_Parcel_Topology"
        ]
      },
      "geometry": {
        "type": "LineString",
        "coordinates": [
          [
            77.5963689,
            13.0111209
          ],
          [
            77.5957226,
            13.0110835
          ]
        ]
      }
    },
    {
      "type": "Feature",
      "properties": {
        "id": "train_096_BND_048",
        "parcel_id": "train_096_P_012",
        "boundary_type": "INFERRED",
        "confidence": 0.657,
        "length_m": 54.34,
        "evidence_sources": [
          "Road_Corridor_Offset",
          "Adjacent_Parcel_Topology"
        ]
      },
      "geometry": {
        "type": "LineString",
        "coordinates": [
          [
            77.5957226,
            13.0110835
          ],
          [
            77.5957729,
            13.0115719
          ]
        ]
      }
    },
    {
      "type": "Feature",
      "properties": {
        "id": "train_096_BND_049",
        "parcel_id": "train_096_P_013",
        "boundary_type": "INFERRED",
        "confidence": 0.762,
        "length_m": 33.88,
        "evidence_sources": [
          "Road_Corridor_Offset",
          "Adjacent_Parcel_Topology"
        ]
      },
      "geometry": {
        "type": "LineString",
        "coordinates": [
          [
            77.5965867,
            13.0120418
          ],
          [
            77.5968988,
            13.0120432
          ]
        ]
      }
    },
    {
      "type": "Feature",
      "properties": {
        "id": "train_096_BND_050",
        "parcel_id": "train_096_P_013",
        "boundary_type": "VISIBLE",
        "confidence": 0.947,
        "length_m": 44.39,
        "evidence_sources": [
          "Drone_RGB_Edge",
          "DSM_Breakline"
        ]
      },
      "geometry": {
        "type": "LineString",
        "coordinates": [
          [
            77.5968988,
            13.0120432
          ],
          [
            77.5969459,
            13.0116449
          ]
        ]
      }
    },
    {
      "type": "Feature",
      "properties": {
        "id": "train_096_BND_051",
        "parcel_id": "train_096_P_013",
        "boundary_type": "VISIBLE",
        "confidence": 0.844,
        "length_m": 38.37,
        "evidence_sources": [
          "Drone_RGB_Edge",
          "DSM_Breakline"
        ]
      },
      "geometry": {
        "type": "LineString",
        "coordinates": [
          [
            77.5969459,
            13.0116449
          ],
          [
            77.5965932,
            13.0116211
          ]
        ]
      }
    },
    {
      "type": "Feature",
      "properties": {
        "id": "train_096_BND_052",
        "parcel_id": "train_096_P_013",
        "boundary_type": "INFERRED",
        "confidence": 0.768,
        "length_m": 46.57,
        "evidence_sources": [
          "Road_Corridor_Offset",
          "Adjacent_Parcel_Topology"
        ]
      },
      "geometry": {
        "type": "LineString",
        "coordinates": [
          [
            77.5965932,
            13.0116211
          ],
          [
            77.5965867,
            13.0120418
          ]
        ]
      }
    },
    {
      "type": "Feature",
      "properties": {
        "id": "train_096_BND_053",
        "parcel_id": "train_096_P_014",
        "boundary_type": "INFERRED",
        "confidence": 0.686,
        "length_m": 35.16,
        "evidence_sources": [
          "Road_Corridor_Offset",
          "Adjacent_Parcel_Topology"
        ]
      },
      "geometry": {
        "type": "LineString",
        "coordinates": [
          [
            77.5965802,
            13.0115239
          ],
          [
            77.596904,
            13.0115159
          ]
        ]
      }
    },
    {
      "type": "Feature",
      "properties": {
        "id": "train_096_BND_054",
        "parcel_id": "train_096_P_014",
        "boundary_type": "VISIBLE",
        "confidence": 0.867,
        "length_m": 44.76,
        "evidence_sources": [
          "Drone_RGB_Edge",
          "DSM_Breakline"
        ]
      },
      "geometry": {
        "type": "LineString",
        "coordinates": [
          [
            77.596904,
            13.0115159
          ],
          [
            77.5968936,
            13.0111117
          ]
        ]
      }
    },
    {
      "type": "Feature",
      "properties": {
        "id": "train_096_BND_055",
        "parcel_id": "train_096_P_014",
        "boundary_type": "VISIBLE",
        "confidence": 0.95,
        "length_m": 32.33,
        "evidence_sources": [
          "Drone_RGB_Edge",
          "DSM_Breakline"
        ]
      },
      "geometry": {
        "type": "LineString",
        "coordinates": [
          [
            77.5968936,
            13.0111117
          ],
          [
            77.5965979,
            13.0110768
          ]
        ]
      }
    },
    {
      "type": "Feature",
      "properties": {
        "id": "train_096_BND_056",
        "parcel_id": "train_096_P_014",
        "boundary_type": "INFERRED",
        "confidence": 0.684,
        "length_m": 49.53,
        "evidence_sources": [
          "Road_Corridor_Offset",
          "Adjacent_Parcel_Topology"
        ]
      },
      "geometry": {
        "type": "LineString",
        "coordinates": [
          [
            77.5965979,
            13.0110768
          ],
          [
            77.5965802,
            13.0115239
          ]
        ]
      }
    },
    {
      "type": "Feature",
      "properties": {
        "id": "train_096_BND_057",
        "parcel_id": "train_096_P_015",
        "boundary_type": "VISIBLE",
        "confidence": 0.959,
        "length_m": 36.48,
        "evidence_sources": [
          "Drone_RGB_Edge",
          "DSM_Breakline"
        ]
      },
      "geometry": {
        "type": "LineString",
        "coordinates": [
          [
            77.5969646,
            13.0120478
          ],
          [
            77.5973004,
            13.0120346
          ]
        ]
      }
    },
    {
      "type": "Feature",
      "properties": {
        "id": "train_096_BND_058",
        "parcel_id": "train_096_P_015",
        "boundary_type": "VISIBLE",
        "confidence": 0.874,
        "length_m": 44.74,
        "evidence_sources": [
          "Drone_RGB_Edge",
          "DSM_Breakline"
        ]
      },
      "geometry": {
        "type": "LineString",
        "coordinates": [
          [
            77.5973004,
            13.0120346
          ],
          [
            77.5972607,
            13.0116323
          ]
        ]
      }
    },
    {
      "type": "Feature",
      "properties": {
        "id": "train_096_BND_059",
        "parcel_id": "train_096_P_015",
        "boundary_type": "VISIBLE",
        "confidence": 0.822,
        "length_m": 30.06,
        "evidence_sources": [
          "Drone_RGB_Edge",
          "DSM_Breakline"
        ]
      },
      "geometry": {
        "type": "LineString",
        "coordinates": [
          [
            77.5972607,
            13.0116323
          ],
          [
            77.596984,
            13.0116217
          ]
        ]
      }
    },
    {
      "type": "Feature",
      "properties": {
        "id": "train_096_BND_060",
        "parcel_id": "train_096_P_015",
        "boundary_type": "INFERRED",
        "confidence": 0.693,
        "length_m": 47.21,
        "evidence_sources": [
          "Road_Corridor_Offset",
          "Adjacent_Parcel_Topology"
        ]
      },
      "geometry": {
        "type": "LineString",
        "coordinates": [
          [
            77.596984,
            13.0116217
          ],
          [
            77.5969646,
            13.0120478
          ]
        ]
      }
    },
    {
      "type": "Feature",
      "properties": {
        "id": "train_096_BND_061",
        "parcel_id": "train_096_P_016",
        "boundary_type": "INFERRED",
        "confidence": 0.769,
        "length_m": 30.04,
        "evidence_sources": [
          "Road_Corridor_Offset",
          "Adjacent_Parcel_Topology"
        ]
      },
      "geometry": {
        "type": "LineString",
        "coordinates": [
          [
            77.5970074,
            13.0115694
          ],
          [
            77.5972841,
            13.0115728
          ]
        ]
      }
    },
    {
      "type": "Feature",
      "properties": {
        "id": "train_096_BND_062",
        "parcel_id": "train_096_P_016",
        "boundary_type": "INFERRED",
        "confidence": 0.709,
        "length_m": 49.4,
        "evidence_sources": [
          "Road_Corridor_Offset",
          "Adjacent_Parcel_Topology"
        ]
      },
      "geometry": {
        "type": "LineString",
        "coordinates": [
          [
            77.5972841,
            13.0115728
          ],
          [
            77.5972843,
            13.0111265
          ]
        ]
      }
    },
    {
      "type": "Feature",
      "properties": {
        "id": "train_096_BND_063",
        "parcel_id": "train_096_P_016",
        "boundary_type": "VISIBLE",
        "confidence": 0.863,
        "length_m": 33.75,
        "evidence_sources": [
          "Drone_RGB_Edge",
          "DSM_Breakline"
        ]
      },
      "geometry": {
        "type": "LineString",
        "coordinates": [
          [
            77.5972843,
            13.0111265
          ],
          [
            77.5969775,
            13.0110768
          ]
        ]
      }
    },
    {
      "type": "Feature",
      "properties": {
        "id": "train_096_BND_064",
        "parcel_id": "train_096_P_016",
        "boundary_type": "VISIBLE",
        "confidence": 0.9,
        "length_m": 54.62,
        "evidence_sources": [
          "Drone_RGB_Edge",
          "DSM_Breakline"
        ]
      },
      "geometry": {
        "type": "LineString",
        "coordinates": [
          [
            77.5969775,
            13.0110768
          ],
          [
            77.5970074,
            13.0115694
          ]
        ]
      }
    }
  ]
}