{
  "type": "FeatureCollection",
  "crs": {
    "type": "name",
    "properties": {
      "name": "EPSG:4326"
    }
  },
  "features": [
    {
      "type": "Feature",
      "properties": {
        "id": "train_096_BLDG_001",
        "parcel_id": "train_096_P_004",
        "area_sqm": 1586.13,
        "perimeter_m": 159.51,
        "centroid_lon": 77.5960347,
        "centroid_lat": 13.0125422,
        "height_m": 9.36,
        "confidence": 0.878,
        "temporal_epoch": "T1"
      },
      "geometry": {
        "type": "Polygon",
        "coordinates": [
          [
            [
              77.5958417,
              13.0127132
            ],
            [
              77.5962277,
              13.0127132
            ],
            [
              77.5962277,
              13.0123712
            ],
            [
              77.5958417,
              13.0123712
            ],
            [
              77.5958417,
              13.0127132
            ]
          ]
        ]
      }
    },
    {
      "type": "Feature",
      "properties": {
        "id": "train_096_BLDG_002",
        "parcel_id": "train_096_P_005",
        "area_sqm": 893.74,
        "perimeter_m": 122.93,
        "centroid_lon": 77.5967513,
        "centroid_lat": 13.0130766,
        "height_m": 5.65,
        "confidence": 0.784,
        "temporal_epoch": "T1"
      },
      "geometry": {
        "type": "Polygon",
        "coordinates": [
          [
            [
              77.5966425,
              13.0132476
            ],
            [
              77.59686,
              13.0132476
            ],
            [
              77.59686,
              13.0129056
            ],
            [
              77.5966425,
              13.0129056
            ],
            [
              77.5966425,
              13.0132476
            ]
          ]
        ]
      }
    },
    {
      "type": "Feature",
      "properties": {
        "id": "train_096_BLDG_003",
        "parcel_id": "train_096_P_006",
        "area_sqm": 893.74,
        "perimeter_m": 122.93,
        "centroid_lon": 77.5967513,
        "centroid_lat": 13.0125422,
        "height_m": 10.73,
        "confidence": 0.819,
        "temporal_epoch": "T1"
      },
      "geometry": {
        "type": "Polygon",
        "coordinates": [
          [
            [
              77.5966425,
              13.0127132
            ],
            [
              77.59686,
              13.0127132
            ],
            [
              77.59686,
              13.0123712
            ],
            [
              77.5966425,
              13.0123712
            ],
            [
              77.5966425,
              13.0127132
            ]
          ]
        ]
      }
    },
    {
      "type": "Feature",
      "properties": {
        "id": "train_096_BLDG_004",
        "parcel_id": "train_096_P_007",
        "area_sqm": 893.74,
        "perimeter_m": 122.93,
        "centroid_lon": 77.5971263,
        "centroid_lat": 13.0130766,
        "height_m": 9.01,
        "confidence": 0.848,
        "temporal_epoch": "T1"
      },
      "geometry": {
        "type": "Polygon",
        "coordinates": [
          [
            [
              77.5970175,
              13.0132476
            ],
            [
              77.597235,
              13.0132476
            ],
            [
              77.597235,
              13.0129056
            ],
            [
              77.5970175,
              13.0129056
            ],
            [
              77.5970175,
              13.0132476
            ]
          ]
        ]
      }
    },
    {
      "type": "Feature",
      "properties": {
        "id": "train_096_BLDG_005",
        "parcel_id": "train_096_P_008",
        "area_sqm": 893.74,
        "perimeter_m": 122.93,
        "centroid_lon": 77.5971263,
        "centroid_lat": 13.0125422,
        "height_m": 11.14,
        "confidence": 0.877,
        "temporal_epoch": "T1"
      },
      "geometry": {
        "type": "Polygon",
        "coordinates": [
          [
            [
              77.5970175,
              13.0127132
            ],
            [
              77.597235,
              13.0127132
            ],
            [
              77.597235,
              13.0123712
            ],
            [
              77.5970175,
              13.0123712
            ],
            [
              77.5970175,
              13.0127132
            ]
          ]
        ]
      }
    },
    {
      "type": "Feature",
      "properties": {
        "id": "train_096_BLDG_006",
        "parcel_id": "train_096_P_009",
        "area_sqm": 1502.66,
        "perimeter_m": 155.53,
        "centroid_lon": 77.5953691,
        "centroid_lat": 13.0118344,
        "height_m": 10.42,
        "confidence": 0.848,
        "temporal_epoch": "T1"
      },
      "geometry": {
        "type": "Polygon",
        "coordinates": [
          [
            [
              77.5951761,
              13.0119964
            ],
            [
              77.5955621,
              13.0119964
            ],
            [
              77.5955621,
              13.0116724
            ],
            [
              77.5951761,
              13.0116724
            ],
            [
              77.5951761,
              13.0119964
            ]
          ]
        ]
      }
    },
    {
      "type": "Feature",
      "properties": {
        "id": "train_096_BLDG_007",
        "parcel_id": "train_096_P_013",
        "area_sqm": 846.71,
        "perimeter_m": 118.95,
        "centroid_lon": 77.5967512,
        "centroid_lat": 13.0118344,
        "height_m": 8.2,
        "confidence": 0.827,
        "temporal_epoch": "T1"
      },
      "geometry": {
        "type": "Polygon",
        "coordinates": [
          [
            [
              77.5966425,
              13.0119964
            ],
            [
              77.59686,
              13.0119964
            ],
            [
              77.59686,
              13.0116724
            ],
            [
              77.5966425,
              13.0116724
            ],
            [
              77.5966425,
              13.0119964
            ]
          ]
        ]
      }
    },
    {
      "type": "Feature",
      "properties": {
        "id": "train_096_BLDG_008",
        "parcel_id": "train_096_P_014",
        "area_sqm": 846.71,
        "perimeter_m": 118.95,
        "centroid_lon": 77.5967512,
        "centroid_lat": 13.0113281,
        "height_m": 8.5,
        "confidence": 0.938,
        "temporal_epoch": "T1"
      },
      "geometry": {
        "type": "Polygon",
        "coordinates": [
          [
            [
              77.5966425,
              13.0114901
            ],
            [
              77.59686,
              13.0114901
            ],
            [
              77.59686,
              13.0111661
            ],
            [
              77.5966425,
              13.0111661
            ],
            [
              77.5966425,
              13.0114901
            ]
          ]
        ]
      }
    },
    {
      "type": "Feature",
      "properties": {
        "id": "train_096_BLDG_009",
        "parcel_id": "train_096_P_015",
        "area_sqm": 846.71,
        "perimeter_m": 118.95,
        "centroid_lon": 77.5971263,
        "centroid_lat": 13.0118344,
        "height_m": 6.04,
        "confidence": 0.903,
        "temporal_epoch": "T1"
      },
      "geometry": {
        "type": "Polygon",
        "coordinates": [
          [
            [
              77.5970175,
              13.0119964
            ],
            [
              77.597235,
              13.0119964
            ],
            [
              77.597235,
              13.0116724
            ],
            [
              77.5970175,
              13.0116724
            ],
            [
              77.5970175,
              13.0119964
            ]
          ]
        ]
      }
    },
    {
      "type": "Feature",
      "properties": {
        "id": "train_096_BLDG_010",
        "parcel_id": "train_096_P_016",
        "area_sqm": 846.71,
        "perimeter_m": 118.95,
        "centroid_lon": 77.5971263,
        "centroid_lat": 13.0113281,
        "height_m": 10.73,
        "confidence": 0.861,
        "temporal_epoch": "T1"
      },
      "geometry": {
        "type": "Polygon",
        "coordinates": [
          [
            [
              77.5970175,
              13.0114901
            ],
            [
              77.597235,
              13.0114901
            ],
            [
              77.597235,
              13.0111661
            ],
            [
              77.5970175,
              13.0111661
            ],
            [
              77.5970175,
              13.0114901
            ]
          ]
        ]
      }
    }
  ]
}