{
  "type": "FeatureCollection",
  "crs": {
    "type": "name",
    "properties": {
      "name": "EPSG:4326"
    }
  },
  "features": [
    {
      "type": "Feature",
      "properties": {
        "id": "train_096_REF_001",
        "parcel_id": "train_096_P_001",
        "parcel_layer": "REFERENCE",
        "boundary_representation": "REFERENCE",
        "land_use_class": "vegetation",
        "area_sqm": 3486.48,
        "perimeter_m": 237.39,
        "source": "Synthetic Legacy Cadastral Map (Non-Authoritative Demo)"
      },
      "geometry": {
        "type": "Polygon",
        "coordinates": [
          [
            [
              77.5950778,
              13.0132825
            ],
            [
              77.5956867,
              13.013326
            ],
            [
              77.5957052,
              13.0128292
            ],
            [
              77.5951152,
              13.0128139
            ],
            [
              77.5950778,
              13.0132825
            ]
          ]
        ]
      }
    },
    {
      "type": "Feature",
      "properties": {
        "id": "train_096_REF_002",
        "parcel_id": "train_096_P_002",
        "parcel_layer": "REFERENCE",
        "boundary_representation": "REFERENCE",
        "land_use_class": "vacant",
        "area_sqm": 3274.99,
        "perimeter_m": 231.28,
        "source": "Synthetic Legacy Cadastral Map (Non-Authoritative Demo)"
      },
      "geometry": {
        "type": "Polygon",
        "coordinates": [
          [
            [
              77.5950996,
              13.0127706
            ],
            [
              77.5956876,
              13.0127981
            ],
            [
              77.5957032,
              13.0123392
            ],
            [
              77.59508,
              13.0123292
            ],
            [
              77.5950996,
              13.0127706
            ]
          ]
        ]
      }
    },
    {
      "type": "Feature",
      "properties": {
        "id": "train_096_REF_003",
        "parcel_id": "train_096_P_003",
        "parcel_layer": "REFERENCE",
        "boundary_representation": "REFERENCE",
        "land_use_class": "vacant",
        "area_sqm": 3282.15,
        "perimeter_m": 229.85,
        "source": "Synthetic Legacy Cadastral Map (Non-Authoritative Demo)"
      },
      "geometry": {
        "type": "Polygon",
        "coordinates": [
          [
            [
              77.5957856,
              13.0133143
            ],
            [
              77.5963393,
              13.0132977
            ],
            [
              77.5963404,
              13.0128283
            ],
            [
              77.5957591,
              13.0128212
            ],
            [
              77.5957856,
              13.0133143
            ]
          ]
        ]
      }
    },
    {
      "type": "Feature",
      "properties": {
        "id": "train_096_REF_004",
        "parcel_id": "train_096_P_004",
        "parcel_layer": "REFERENCE",
        "boundary_representation": "REFERENCE",
        "land_use_class": "industrial",
        "area_sqm": 3381.11,
        "perimeter_m": 233.28,
        "source": "Synthetic Legacy Cadastral Map (Non-Authoritative Demo)"
      },
      "geometry": {
        "type": "Polygon",
        "coordinates": [
          [
            [
              77.5958162,
              13.0128252
            ],
            [
              77.5963737,
              13.0128279
            ],
            [
              77.5963723,
              13.0123162
            ],
            [
              77.595783,
              13.0123565
            ],
            [
              77.5958162,
              13.0128252
            ]
          ]
        ]
      }
    },
    {
      "type": "Feature",
      "properties": {
        "id": "train_096_REF_005",
        "parcel_id": "train_096_P_005",
        "parcel_layer": "REFERENCE",
        "boundary_representation": "REFERENCE",
        "land_use_class": "residential",
        "area_sqm": 1833.22,
        "perimeter_m": 174.26,
        "source": "Synthetic Legacy Cadastral Map (Non-Authoritative Demo)"
      },
      "geometry": {
        "type": "Polygon",
        "coordinates": [
          [
            [
              77.5966162,
              13.0133274
            ],
            [
              77.5969499,
              13.0133074
            ],
            [
              77.5969141,
              13.012849
            ],
            [
              77.596593,
              13.0128562
            ],
            [
              77.5966162,
              13.0133274
            ]
          ]
        ]
      }
    },
    {
      "type": "Feature",
      "properties": {
        "id": "train_096_REF_006",
        "parcel_id": "train_096_P_006",
        "parcel_layer": "REFERENCE",
        "boundary_representation": "REFERENCE",
        "land_use_class": "residential",
        "area_sqm": 1717.13,
        "perimeter_m": 170.04,
        "source": "Synthetic Legacy Cadastral Map (Non-Authoritative Demo)"
      },
      "geometry": {
        "type": "Polygon",
        "coordinates": [
          [
            [
              77.5966237,
              13.0128093
            ],
            [
              77.5969148,
              13.0127789
            ],
            [
              77.5969555,
              13.0123346
            ],
            [
              77.5966284,
              13.0123272
            ],
            [
              77.5966237,
              13.0128093
            ]
          ]
        ]
      }
    },
    {
      "type": "Feature",
      "properties": {
        "id": "train_096_REF_007",
        "parcel_id": "train_096_P_007",
        "parcel_layer": "REFERENCE",
        "boundary_representation": "REFERENCE",
        "land_use_class": "residential",
        "area_sqm": 1852.24,
        "perimeter_m": 176.2,
        "source": "Synthetic Legacy Cadastral Map (Non-Authoritative Demo)"
      },
      "geometry": {
        "type": "Polygon",
        "coordinates": [
          [
            [
              77.5969839,
              13.0132955
            ],
            [
              77.5973299,
              13.013298
            ],
            [
              77.5973009,
              13.0128172
            ],
            [
              77.5970056,
              13.0128147
            ],
            [
              77.5969839,
              13.0132955
            ]
          ]
        ]
      }
    },
    {
      "type": "Feature",
      "properties": {
        "id": "train_096_REF_008",
        "parcel_id": "train_096_P_008",
        "parcel_layer": "REFERENCE",
        "boundary_representation": "REFERENCE",
        "land_use_class": "commercial",
        "area_sqm": 1854.54,
        "perimeter_m": 177.13,
        "source": "Synthetic Legacy Cadastral Map (Non-Authoritative Demo)"
      },
      "geometry": {
        "type": "Polygon",
        "coordinates": [
          [
            [
              77.5969947,
              13.0127877
            ],
            [
              77.5973324,
              13.0128155
            ],
            [
              77.5973144,
              13.0123111
            ],
            [
              77.5970231,
              13.012311
            ],
            [
              77.5969947,
              13.0127877
            ]
          ]
        ]
      }
    },
    {
      "type": "Feature",
      "properties": {
        "id": "train_096_REF_009",
        "parcel_id": "train_096_P_009",
        "parcel_layer": "REFERENCE",
        "boundary_representation": "REFERENCE",
        "land_use_class": "mixed_use",
        "area_sqm": 3046.53,
        "perimeter_m": 222.9,
        "source": "Synthetic Legacy Cadastral Map (Non-Authoritative Demo)"
      },
      "geometry": {
        "type": "Polygon",
        "coordinates": [
          [
            [
              77.5951009,
              13.0120738
            ],
            [
              77.5956644,
              13.0120368
            ],
            [
              77.5957005,
              13.0116087
            ],
            [
              77.595119,
              13.0116141
            ],
            [
              77.5951009,
              13.0120738
            ]
          ]
        ]
      }
    },
    {
      "type": "Feature",
      "properties": {
        "id": "train_096_REF_010",
        "parcel_id": "train_096_P_010",
        "parcel_layer": "REFERENCE",
        "boundary_representation": "REFERENCE",
        "land_use_class": "vegetation",
        "area_sqm": 3230.71,
        "perimeter_m": 230.35,
        "source": "Synthetic Legacy Cadastral Map (Non-Authoritative Demo)"
      },
      "geometry": {
        "type": "Polygon",
        "coordinates": [
          [
            [
              77.5951029,
              13.0115483
            ],
            [
              77.5957216,
              13.0115438
            ],
            [
              77.5956657,
              13.0110899
            ],
            [
              77.5950641,
              13.0111238
            ],
            [
              77.5951029,
              13.0115483
            ]
          ]
        ]
      }
    },
    {
      "type": "Feature",
      "properties": {
        "id": "train_096_REF_011",
        "parcel_id": "train_096_P_011",
        "parcel_layer": "REFERENCE",
        "boundary_representation": "REFERENCE",
        "land_use_class": "vegetation",
        "area_sqm": 3138.06,
        "perimeter_m": 227.97,
        "source": "Synthetic Legacy Cadastral Map (Non-Authoritative Demo)"
      },
      "geometry": {
        "type": "Polygon",
        "coordinates": [
          [
            [
              77.5957676,
              13.0120736
            ],
            [
              77.596384,
              13.0120386
            ],
            [
              77.596392,
              13.0116435
            ],
            [
              77.5957701,
              13.0116249
            ],
            [
              77.5957676,
              13.0120736
            ]
          ]
        ]
      }
    },
    {
      "type": "Feature",
      "properties": {
        "id": "train_096_REF_012",
        "parcel_id": "train_096_P_012",
        "parcel_layer": "REFERENCE",
        "boundary_representation": "REFERENCE",
        "land_use_class": "vacant",
        "area_sqm": 3510.74,
        "perimeter_m": 239.66,
        "source": "Synthetic Legacy Cadastral Map (Non-Authoritative Demo)"
      },
      "geometry": {
        "type": "Polygon",
        "coordinates": [
          [
            [
              77.5958142,
              13.0115925
            ],
            [
              77.596414,
              13.0115926
            ],
            [
              77.5964102,
              13.0111415
            ],
            [
              77.5957638,
              13.0111041
            ],
            [
              77.5958142,
              13.0115925
            ]
          ]
        ]
      }
    },
    {
      "type": "Feature",
      "properties": {
        "id": "train_096_REF_013",
        "parcel_id": "train_096_P_013",
        "parcel_layer": "REFERENCE",
        "boundary_representation": "REFERENCE",
        "land_use_class": "industrial",
        "area_sqm": 1639.77,
        "perimeter_m": 163.22,
        "source": "Synthetic Legacy Cadastral Map (Non-Authoritative Demo)"
      },
      "geometry": {
        "type": "Polygon",
        "coordinates": [
          [
            [
              77.5965923,
              13.0120446
            ],
            [
              77.5969045,
              13.012046
            ],
            [
              77.5969515,
              13.0116477
            ],
            [
              77.5965988,
              13.0116239
            ],
            [
              77.5965923,
              13.0120446
            ]
          ]
        ]
      }
    },
    {
      "type": "Feature",
      "properties": {
        "id": "train_096_REF_014",
        "parcel_id": "train_096_P_014",
        "parcel_layer": "REFERENCE",
        "boundary_representation": "REFERENCE",
        "land_use_class": "residential",
        "area_sqm": 1584.73,
        "perimeter_m": 161.77,
        "source": "Synthetic Legacy Cadastral Map (Non-Authoritative Demo)"
      },
      "geometry": {
        "type": "Polygon",
        "coordinates": [
          [
            [
              77.5965858,
              13.0115267
            ],
            [
              77.5969096,
              13.0115187
            ],
            [
              77.5968992,
              13.0111145
            ],
            [
              77.5966035,
              13.0110796
            ],
            [
              77.5965858,
              13.0115267
            ]
          ]
        ]
      }
    },
    {
      "type": "Feature",
      "properties": {
        "id": "train_096_REF_015",
        "parcel_id": "train_096_P_015",
        "parcel_layer": "REFERENCE",
        "boundary_representation": "REFERENCE",
        "land_use_class": "residential",
        "area_sqm": 1523.83,
        "perimeter_m": 158.47,
        "source": "Synthetic Legacy Cadastral Map (Non-Authoritative Demo)"
      },
      "geometry": {
        "type": "Polygon",
        "coordinates": [
          [
            [
              77.5969703,
              13.0120506
            ],
            [
              77.597306,
              13.0120374
            ],
            [
              77.5972663,
              13.0116352
            ],
            [
              77.5969896,
              13.0116245
            ],
            [
              77.5969703,
              13.0120506
            ]
          ]
        ]
      }
    },
    {
      "type": "Feature",
      "properties": {
        "id": "train_096_REF_016",
        "parcel_id": "train_096_P_016",
        "parcel_layer": "REFERENCE",
        "boundary_representation": "REFERENCE",
        "land_use_class": "residential",
        "area_sqm": 1641.05,
        "perimeter_m": 167.83,
        "source": "Synthetic Legacy Cadastral Map (Non-Authoritative Demo)"
      },
      "geometry": {
        "type": "Polygon",
        "coordinates": [
          [
            [
              77.5970487,
              13.01159
            ],
            [
              77.5973254,
              13.0115935
            ],
            [
              77.5973256,
              13.0111471
            ],
            [
              77.5970188,
              13.0110974
            ],
            [
              77.5970487,
              13.01159
            ]
          ]
        ]
      }
    }
  ]
}