{
  "type": "FeatureCollection",
  "crs": {
    "type": "name",
    "properties": {
      "name": "EPSG:4326"
    }
  },
  "features": [
    {
      "type": "Feature",
      "properties": {
        "id": "train_088_BND_001",
        "parcel_id": "train_088_P_001",
        "boundary_type": "VISIBLE",
        "confidence": 0.946,
        "length_m": 54.88,
        "evidence_sources": [
          "Drone_RGB_Edge",
          "DSM_Breakline"
        ]
      },
      "geometry": {
        "type": "LineString",
        "coordinates": [
          [
            77.6160758,
            13.0103365
          ],
          [
            77.6165814,
            13.0103402
          ]
        ]
      }
    },
    {
      "type": "Feature",
      "properties": {
        "id": "train_088_BND_002",
        "parcel_id": "train_088_P_001",
        "boundary_type": "VISIBLE",
        "confidence": 0.928,
        "length_m": 38.85,
        "evidence_sources": [
          "Drone_RGB_Edge",
          "DSM_Breakline"
        ]
      },
      "geometry": {
        "type": "LineString",
        "coordinates": [
          [
            77.6165814,
            13.0103402
          ],
          [
            77.6165944,
            13.0099895
          ]
        ]
      }
    },
    {
      "type": "Feature",
      "properties": {
        "id": "train_088_BND_003",
        "parcel_id": "train_088_P_001",
        "boundary_type": "VISIBLE",
        "confidence": 0.88,
        "length_m": 57.69,
        "evidence_sources": [
          "Drone_RGB_Edge",
          "DSM_Breakline"
        ]
      },
      "geometry": {
        "type": "LineString",
        "coordinates": [
          [
            77.6165944,
            13.0099895
          ],
          [
            77.6160629,
            13.0099873
          ]
        ]
      }
    },
    {
      "type": "Feature",
      "properties": {
        "id": "train_088_BND_004",
        "parcel_id": "train_088_P_001",
        "boundary_type": "VISIBLE",
        "confidence": 0.89,
        "length_m": 38.68,
        "evidence_sources": [
          "Drone_RGB_Edge",
          "DSM_Breakline"
        ]
      },
      "geometry": {
        "type": "LineString",
        "coordinates": [
          [
            77.6160629,
            13.0099873
          ],
          [
            77.6160758,
            13.0103365
          ]
        ]
      }
    },
    {
      "type": "Feature",
      "properties": {
        "id": "train_088_BND_005",
        "parcel_id": "train_088_P_002",
        "boundary_type": "INFERRED",
        "confidence": 0.706,
        "length_m": 57.51,
        "evidence_sources": [
          "Road_Corridor_Offset",
          "Adjacent_Parcel_Topology"
        ]
      },
      "geometry": {
        "type": "LineString",
        "coordinates": [
          [
            77.6160652,
            13.0099644
          ],
          [
            77.616595,
            13.0099602
          ]
        ]
      }
    },
    {
      "type": "Feature",
      "properties": {
        "id": "train_088_BND_006",
        "parcel_id": "train_088_P_002",
        "boundary_type": "VISIBLE",
        "confidence": 0.863,
        "length_m": 39.84,
        "evidence_sources": [
          "Drone_RGB_Edge",
          "DSM_Breakline"
        ]
      },
      "geometry": {
        "type": "LineString",
        "coordinates": [
          [
            77.616595,
            13.0099602
          ],
          [
            77.616597,
            13.0096003
          ]
        ]
      }
    },
    {
      "type": "Feature",
      "properties": {
        "id": "train_088_BND_007",
        "parcel_id": "train_088_P_002",
        "boundary_type": "INFERRED",
        "confidence": 0.622,
        "length_m": 56.42,
        "evidence_sources": [
          "Road_Corridor_Offset",
          "Adjacent_Parcel_Topology"
        ]
      },
      "geometry": {
        "type": "LineString",
        "coordinates": [
          [
            77.616597,
            13.0096003
          ],
          [
            77.6160774,
            13.0096145
          ]
        ]
      }
    },
    {
      "type": "Feature",
      "properties": {
        "id": "train_088_BND_008",
        "parcel_id": "train_088_P_002",
        "boundary_type": "INFERRED",
        "confidence": 0.64,
        "length_m": 38.76,
        "evidence_sources": [
          "Road_Corridor_Offset",
          "Adjacent_Parcel_Topology"
        ]
      },
      "geometry": {
        "type": "LineString",
        "coordinates": [
          [
            77.6160774,
            13.0096145
          ],
          [
            77.6160652,
            13.0099644
          ]
        ]
      }
    },
    {
      "type": "Feature",
      "properties": {
        "id": "train_088_BND_009",
        "parcel_id": "train_088_P_003",
        "boundary_type": "INFERRED",
        "confidence": 0.687,
        "length_m": 55.48,
        "evidence_sources": [
          "Road_Corridor_Offset",
          "Adjacent_Parcel_Topology"
        ]
      },
      "geometry": {
        "type": "LineString",
        "coordinates": [
          [
            77.6166148,
            13.0103373
          ],
          [
            77.6171259,
            13.0103437
          ]
        ]
      }
    },
    {
      "type": "Feature",
      "properties": {
        "id": "train_088_BND_010",
        "parcel_id": "train_088_P_003",
        "boundary_type": "VISIBLE",
        "confidence": 0.832,
        "length_m": 41.31,
        "evidence_sources": [
          "Drone_RGB_Edge",
          "DSM_Breakline"
        ]
      },
      "geometry": {
        "type": "LineString",
        "coordinates": [
          [
            77.6171259,
            13.0103437
          ],
          [
            77.6171278,
            13.0099705
          ]
        ]
      }
    },
    {
      "type": "Feature",
      "properties": {
        "id": "train_088_BND_011",
        "parcel_id": "train_088_P_003",
        "boundary_type": "VISIBLE",
        "confidence": 0.83,
        "length_m": 55.7,
        "evidence_sources": [
          "Drone_RGB_Edge",
          "DSM_Breakline"
        ]
      },
      "geometry": {
        "type": "LineString",
        "coordinates": [
          [
            77.6171278,
            13.0099705
          ],
          [
            77.6166147,
            13.0099742
          ]
        ]
      }
    },
    {
      "type": "Feature",
      "properties": {
        "id": "train_088_BND_012",
        "parcel_id": "train_088_P_003",
        "boundary_type": "VISIBLE",
        "confidence": 0.876,
        "length_m": 40.19,
        "evidence_sources": [
          "Drone_RGB_Edge",
          "DSM_Breakline"
        ]
      },
      "geometry": {
        "type": "LineString",
        "coordinates": [
          [
            77.6166147,
            13.0099742
          ],
          [
            77.6166148,
            13.0103373
          ]
        ]
      }
    },
    {
      "type": "Feature",
      "properties": {
        "id": "train_088_BND_013",
        "parcel_id": "train_088_P_004",
        "boundary_type": "VISIBLE",
        "confidence": 0.836,
        "length_m": 56.44,
        "evidence_sources": [
          "Drone_RGB_Edge",
          "DSM_Breakline"
        ]
      },
      "geometry": {
        "type": "LineString",
        "coordinates": [
          [
            77.6166128,
            13.0099641
          ],
          [
            77.6171328,
            13.0099615
          ]
        ]
      }
    },
    {
      "type": "Feature",
      "properties": {
        "id": "train_088_BND_014",
        "parcel_id": "train_088_P_004",
        "boundary_type": "INFERRED",
        "confidence": 0.686,
        "length_m": 38.87,
        "evidence_sources": [
          "Road_Corridor_Offset",
          "Adjacent_Parcel_Topology"
        ]
      },
      "geometry": {
        "type": "LineString",
        "coordinates": [
          [
            77.6171328,
            13.0099615
          ],
          [
            77.61713,
            13.0096104
          ]
        ]
      }
    },
    {
      "type": "Feature",
      "properties": {
        "id": "train_088_BND_015",
        "parcel_id": "train_088_P_004",
        "boundary_type": "INFERRED",
        "confidence": 0.711,
        "length_m": 56.52,
        "evidence_sources": [
          "Road_Corridor_Offset",
          "Adjacent_Parcel_Topology"
        ]
      },
      "geometry": {
        "type": "LineString",
        "coordinates": [
          [
            77.61713,
            13.0096104
          ],
          [
            77.6166093,
            13.0096038
          ]
        ]
      }
    },
    {
      "type": "Feature",
      "properties": {
        "id": "train_088_BND_016",
        "parcel_id": "train_088_P_004",
        "boundary_type": "VISIBLE",
        "confidence": 0.835,
        "length_m": 39.89,
        "evidence_sources": [
          "Drone_RGB_Edge",
          "DSM_Breakline"
        ]
      },
      "geometry": {
        "type": "LineString",
        "coordinates": [
          [
            77.6166093,
            13.0096038
          ],
          [
            77.6166128,
            13.0099641
          ]
        ]
      }
    },
    {
      "type": "Feature",
      "properties": {
        "id": "train_088_BND_017",
        "parcel_id": "train_088_P_005",
        "boundary_type": "VISIBLE",
        "confidence": 0.936,
        "length_m": 53.6,
        "evidence_sources": [
          "Drone_RGB_Edge",
          "DSM_Breakline"
        ]
      },
      "geometry": {
        "type": "LineString",
        "coordinates": [
          [
            77.6173134,
            13.0103283
          ],
          [
            77.6178072,
            13.0103306
          ]
        ]
      }
    },
    {
      "type": "Feature",
      "properties": {
        "id": "train_088_BND_018",
        "parcel_id": "train_088_P_005",
        "boundary_type": "VISIBLE",
        "confidence": 0.849,
        "length_m": 39.22,
        "evidence_sources": [
          "Drone_RGB_Edge",
          "DSM_Breakline"
        ]
      },
      "geometry": {
        "type": "LineString",
        "coordinates": [
          [
            77.6178072,
            13.0103306
          ],
          [
            77.617805,
            13.0099763
          ]
        ]
      }
    },
    {
      "type": "Feature",
      "properties": {
        "id": "train_088_BND_019",
        "parcel_id": "train_088_P_005",
        "boundary_type": "VISIBLE",
        "confidence": 0.828,
        "length_m": 53.32,
        "evidence_sources": [
          "Drone_RGB_Edge",
          "DSM_Breakline"
        ]
      },
      "geometry": {
        "type": "LineString",
        "coordinates": [
          [
            77.617805,
            13.0099763
          ],
          [
            77.617314,
            13.0099912
          ]
        ]
      }
    },
    {
      "type": "Feature",
      "properties": {
        "id": "train_088_BND_020",
        "parcel_id": "train_088_P_005",
        "boundary_type": "INFERRED",
        "confidence": 0.633,
        "length_m": 37.32,
        "evidence_sources": [
          "Road_Corridor_Offset",
          "Adjacent_Parcel_Topology"
        ]
      },
      "geometry": {
        "type": "LineString",
        "coordinates": [
          [
            77.617314,
            13.0099912
          ],
          [
            77.6173134,
            13.0103283
          ]
        ]
      }
    },
    {
      "type": "Feature",
      "properties": {
        "id": "train_088_BND_021",
        "parcel_id": "train_088_P_006",
        "boundary_type": "VISIBLE",
        "confidence": 0.955,
        "length_m": 52.75,
        "evidence_sources": [
          "Drone_RGB_Edge",
          "DSM_Breakline"
        ]
      },
      "geometry": {
        "type": "LineString",
        "coordinates": [
          [
            77.6173049,
            13.0099649
          ],
          [
            77.6177909,
            13.0099658
          ]
        ]
      }
    },
    {
      "type": "Feature",
      "properties": {
        "id": "train_088_BND_022",
        "parcel_id": "train_088_P_006",
        "boundary_type": "VISIBLE",
        "confidence": 0.834,
        "length_m": 38.82,
        "evidence_sources": [
          "Drone_RGB_Edge",
          "DSM_Breakline"
        ]
      },
      "geometry": {
        "type": "LineString",
        "coordinates": [
          [
            77.6177909,
            13.0099658
          ],
          [
            77.6177899,
            13.0096151
          ]
        ]
      }
    },
    {
      "type": "Feature",
      "properties": {
        "id": "train_088_BND_023",
        "parcel_id": "train_088_P_006",
        "boundary_type": "INFERRED",
        "confidence": 0.746,
        "length_m": 52.06,
        "evidence_sources": [
          "Road_Corridor_Offset",
          "Adjacent_Parcel_Topology"
        ]
      },
      "geometry": {
        "type": "LineString",
        "coordinates": [
          [
            77.6177899,
            13.0096151
          ],
          [
            77.6173103,
            13.0096129
          ]
        ]
      }
    },
    {
      "type": "Feature",
      "properties": {
        "id": "train_088_BND_024",
        "parcel_id": "train_088_P_006",
        "boundary_type": "INFERRED",
        "confidence": 0.641,
        "length_m": 38.97,
        "evidence_sources": [
          "Road_Corridor_Offset",
          "Adjacent_Parcel_Topology"
        ]
      },
      "geometry": {
        "type": "LineString",
        "coordinates": [
          [
            77.6173103,
            13.0096129
          ],
          [
            77.6173049,
            13.0099649
          ]
        ]
      }
    },
    {
      "type": "Feature",
      "properties": {
        "id": "train_088_BND_025",
        "parcel_id": "train_088_P_007",
        "boundary_type": "VISIBLE",
        "confidence": 0.95,
        "length_m": 52.18,
        "evidence_sources": [
          "Drone_RGB_Edge",
          "DSM_Breakline"
        ]
      },
      "geometry": {
        "type": "LineString",
        "coordinates": [
          [
            77.6178312,
            13.0103311
          ],
          [
            77.6183118,
            13.0103421
          ]
        ]
      }
    },
    {
      "type": "Feature",
      "properties": {
        "id": "train_088_BND_026",
        "parcel_id": "train_088_P_007",
        "boundary_type": "INFERRED",
        "confidence": 0.702,
        "length_m": 41.21,
        "evidence_sources": [
          "Road_Corridor_Offset",
          "Adjacent_Parcel_Topology"
        ]
      },
      "geometry": {
        "type": "LineString",
        "coordinates": [
          [
            77.6183118,
            13.0103421
          ],
          [
            77.6183222,
            13.00997
          ]
        ]
      }
    },
    {
      "type": "Feature",
      "properties": {
        "id": "train_088_BND_027",
        "parcel_id": "train_088_P_007",
        "boundary_type": "VISIBLE",
        "confidence": 0.893,
        "length_m": 54.48,
        "evidence_sources": [
          "Drone_RGB_Edge",
          "DSM_Breakline"
        ]
      },
      "geometry": {
        "type": "LineString",
        "coordinates": [
          [
            77.6183222,
            13.00997
          ],
          [
            77.6178203,
            13.0099705
          ]
        ]
      }
    },
    {
      "type": "Feature",
      "properties": {
        "id": "train_088_BND_028",
        "parcel_id": "train_088_P_007",
        "boundary_type": "INFERRED",
        "confidence": 0.683,
        "length_m": 39.93,
        "evidence_sources": [
          "Road_Corridor_Offset",
          "Adjacent_Parcel_Topology"
        ]
      },
      "geometry": {
        "type": "LineString",
        "coordinates": [
          [
            77.6178203,
            13.0099705
          ],
          [
            77.6178312,
            13.0103311
          ]
        ]
      }
    },
    {
      "type": "Feature",
      "properties": {
        "id": "train_088_BND_029",
        "parcel_id": "train_088_P_008",
        "boundary_type": "VISIBLE",
        "confidence": 0.939,
        "length_m": 53.69,
        "evidence_sources": [
          "Drone_RGB_Edge",
          "DSM_Breakline"
        ]
      },
      "geometry": {
        "type": "LineString",
        "coordinates": [
          [
            77.6178133,
            13.0099635
          ],
          [
            77.6183079,
            13.0099554
          ]
        ]
      }
    },
    {
      "type": "Feature",
      "properties": {
        "id": "train_088_BND_030",
        "parcel_id": "train_088_P_008",
        "boundary_type": "INFERRED",
        "confidence": 0.747,
        "length_m": 39.69,
        "evidence_sources": [
          "Road_Corridor_Offset",
          "Adjacent_Parcel_Topology"
        ]
      },
      "geometry": {
        "type": "LineString",
        "coordinates": [
          [
            77.6183079,
            13.0099554
          ],
          [
            77.6183066,
            13.0095969
          ]
        ]
      }
    },
    {
      "type": "Feature",
      "properties": {
        "id": "train_088_BND_031",
        "parcel_id": "train_088_P_008",
        "boundary_type": "VISIBLE",
        "confidence": 0.878,
        "length_m": 52.79,
        "evidence_sources": [
          "Drone_RGB_Edge",
          "DSM_Breakline"
        ]
      },
      "geometry": {
        "type": "LineString",
        "coordinates": [
          [
            77.6183066,
            13.0095969
          ],
          [
            77.6178203,
            13.0095973
          ]
        ]
      }
    },
    {
      "type": "Feature",
      "properties": {
        "id": "train_088_BND_032",
        "parcel_id": "train_088_P_008",
        "boundary_type": "VISIBLE",
        "confidence": 0.901,
        "length_m": 40.54,
        "evidence_sources": [
          "Drone_RGB_Edge",
          "DSM_Breakline"
        ]
      },
      "geometry": {
        "type": "LineString",
        "coordinates": [
          [
            77.6178203,
            13.0095973
          ],
          [
            77.6178133,
            13.0099635
          ]
        ]
      }
    },
    {
      "type": "Feature",
      "properties": {
        "id": "train_088_BND_033",
        "parcel_id": "train_088_P_009",
        "boundary_type": "INFERRED",
        "confidence": 0.751,
        "length_m": 57.48,
        "evidence_sources": [
          "Road_Corridor_Offset",
          "Adjacent_Parcel_Topology"
        ]
      },
      "geometry": {
        "type": "LineString",
        "coordinates": [
          [
            77.6160564,
            13.0093541
          ],
          [
            77.6165859,
            13.0093575
          ]
        ]
      }
    },
    {
      "type": "Feature",
      "properties": {
        "id": "train_088_BND_034",
        "parcel_id": "train_088_P_009",
        "boundary_type": "VISIBLE",
        "confidence": 0.91,
        "length_m": 70.19,
        "evidence_sources": [
          "Drone_RGB_Edge",
          "DSM_Breakline"
        ]
      },
      "geometry": {
        "type": "LineString",
        "coordinates": [
          [
            77.6165859,
            13.0093575
          ],
          [
            77.6165983,
            13.0087235
          ]
        ]
      }
    },
    {
      "type": "Feature",
      "properties": {
        "id": "train_088_BND_035",
        "parcel_id": "train_088_P_009",
        "boundary_type": "VISIBLE",
        "confidence": 0.855,
        "length_m": 57.56,
        "evidence_sources": [
          "Drone_RGB_Edge",
          "DSM_Breakline"
        ]
      },
      "geometry": {
        "type": "LineString",
        "coordinates": [
          [
            77.6165983,
            13.0087235
          ],
          [
            77.6160681,
            13.0087332
          ]
        ]
      }
    },
    {
      "type": "Feature",
      "properties": {
        "id": "train_088_BND_036",
        "parcel_id": "train_088_P_009",
        "boundary_type": "VISIBLE",
        "confidence": 0.828,
        "length_m": 68.74,
        "evidence_sources": [
          "Drone_RGB_Edge",
          "DSM_Breakline"
        ]
      },
      "geometry": {
        "type": "LineString",
        "coordinates": [
          [
            77.6160681,
            13.0087332
          ],
          [
            77.6160564,
            13.0093541
          ]
        ]
      }
    },
    {
      "type": "Feature",
      "properties": {
        "id": "train_088_BND_037",
        "parcel_id": "train_088_P_010",
        "boundary_type": "VISIBLE",
        "confidence": 0.834,
        "length_m": 57.02,
        "evidence_sources": [
          "Drone_RGB_Edge",
          "DSM_Breakline"
        ]
      },
      "geometry": {
        "type": "LineString",
        "coordinates": [
          [
            77.6160701,
            13.0087114
          ],
          [
            77.6165953,
            13.0087031
          ]
        ]
      }
    },
    {
      "type": "Feature",
      "properties": {
        "id": "train_088_BND_038",
        "parcel_id": "train_088_P_010",
        "boundary_type": "VISIBLE",
        "confidence": 0.822,
        "length_m": 67.55,
        "evidence_sources": [
          "Drone_RGB_Edge",
          "DSM_Breakline"
        ]
      },
      "geometry": {
        "type": "LineString",
        "coordinates": [
          [
            77.6165953,
            13.0087031
          ],
          [
            77.6165937,
            13.0080929
          ]
        ]
      }
    },
    {
      "type": "Feature",
      "properties": {
        "id": "train_088_BND_039",
        "parcel_id": "train_088_P_010",
        "boundary_type": "VISIBLE",
        "confidence": 0.943,
        "length_m": 56.26,
        "evidence_sources": [
          "Drone_RGB_Edge",
          "DSM_Breakline"
        ]
      },
      "geometry": {
        "type": "LineString",
        "coordinates": [
          [
            77.6165937,
            13.0080929
          ],
          [
            77.6160756,
            13.008078
          ]
        ]
      }
    },
    {
      "type": "Feature",
      "properties": {
        "id": "train_088_BND_040",
        "parcel_id": "train_088_P_010",
        "boundary_type": "VISIBLE",
        "confidence": 0.886,
        "length_m": 70.12,
        "evidence_sources": [
          "Drone_RGB_Edge",
          "DSM_Breakline"
        ]
      },
      "geometry": {
        "type": "LineString",
        "coordinates": [
          [
            77.6160756,
            13.008078
          ],
          [
            77.6160701,
            13.0087114
          ]
        ]
      }
    },
    {
      "type": "Feature",
      "properties": {
        "id": "train_088_BND_041",
        "parcel_id": "train_088_P_011",
        "boundary_type": "VISIBLE",
        "confidence": 0.893,
        "length_m": 54.71,
        "evidence_sources": [
          "Drone_RGB_Edge",
          "DSM_Breakline"
        ]
      },
      "geometry": {
        "type": "LineString",
        "coordinates": [
          [
            77.6166213,
            13.0093497
          ],
          [
            77.6171253,
            13.0093532
          ]
        ]
      }
    },
    {
      "type": "Feature",
      "properties": {
        "id": "train_088_BND_042",
        "parcel_id": "train_088_P_011",
        "boundary_type": "VISIBLE",
        "confidence": 0.859,
        "length_m": 68.75,
        "evidence_sources": [
          "Drone_RGB_Edge",
          "DSM_Breakline"
        ]
      },
      "geometry": {
        "type": "LineString",
        "coordinates": [
          [
            77.6171253,
            13.0093532
          ],
          [
            77.6171251,
            13.0087321
          ]
        ]
      }
    },
    {
      "type": "Feature",
      "properties": {
        "id": "train_088_BND_043",
        "parcel_id": "train_088_P_011",
        "boundary_type": "INFERRED",
        "confidence": 0.699,
        "length_m": 56.77,
        "evidence_sources": [
          "Road_Corridor_Offset",
          "Adjacent_Parcel_Topology"
        ]
      },
      "geometry": {
        "type": "LineString",
        "coordinates": [
          [
            77.6171251,
            13.0087321
          ],
          [
            77.6166022,
            13.0087415
          ]
        ]
      }
    },
    {
      "type": "Feature",
      "properties": {
        "id": "train_088_BND_044",
        "parcel_id": "train_088_P_011",
        "boundary_type": "VISIBLE",
        "confidence": 0.901,
        "length_m": 67.36,
        "evidence_sources": [
          "Drone_RGB_Edge",
          "DSM_Breakline"
        ]
      },
      "geometry": {
        "type": "LineString",
        "coordinates": [
          [
            77.6166022,
            13.0087415
          ],
          [
            77.6166213,
            13.0093497
          ]
        ]
      }
    },
    {
      "type": "Feature",
      "properties": {
        "id": "train_088_BND_045",
        "parcel_id": "train_088_P_012",
        "boundary_type": "VISIBLE",
        "confidence": 0.893,
        "length_m": 56.71,
        "evidence_sources": [
          "Drone_RGB_Edge",
          "DSM_Breakline"
        ]
      },
      "geometry": {
        "type": "LineString",
        "coordinates": [
          [
            77.6166086,
            13.0087178
          ],
          [
            77.617131,
            13.0087105
          ]
        ]
      }
    },
    {
      "type": "Feature",
      "properties": {
        "id": "train_088_BND_046",
        "parcel_id": "train_088_P_012",
        "boundary_type": "VISIBLE",
        "confidence": 0.923,
        "length_m": 70.16,
        "evidence_sources": [
          "Drone_RGB_Edge",
          "DSM_Breakline"
        ]
      },
      "geometry": {
        "type": "LineString",
        "coordinates": [
          [
            77.617131,
            13.0087105
          ],
          [
            77.6171213,
            13.0080768
          ]
        ]
      }
    },
    {
      "type": "Feature",
      "properties": {
        "id": "train_088_BND_047",
        "parcel_id": "train_088_P_012",
        "boundary_type": "VISIBLE",
        "confidence": 0.929,
        "length_m": 55.4,
        "evidence_sources": [
          "Drone_RGB_Edge",
          "DSM_Breakline"
        ]
      },
      "geometry": {
        "type": "LineString",
        "coordinates": [
          [
            77.6171213,
            13.0080768
          ],
          [
            77.6166111,
            13.0080901
          ]
        ]
      }
    },
    {
      "type": "Feature",
      "properties": {
        "id": "train_088_BND_048",
        "parcel_id": "train_088_P_012",
        "boundary_type": "INFERRED",
        "confidence": 0.752,
        "length_m": 69.48,
        "evidence_sources": [
          "Road_Corridor_Offset",
          "Adjacent_Parcel_Topology"
        ]
      },
      "geometry": {
        "type": "LineString",
        "coordinates": [
          [
            77.6166111,
            13.0080901
          ],
          [
            77.6166086,
            13.0087178
          ]
        ]
      }
    },
    {
      "type": "Feature",
      "properties": {
        "id": "train_088_BND_049",
        "parcel_id": "train_088_P_013",
        "boundary_type": "VISIBLE",
        "confidence": 0.95,
        "length_m": 52.15,
        "evidence_sources": [
          "Drone_RGB_Edge",
          "DSM_Breakline"
        ]
      },
      "geometry": {
        "type": "LineString",
        "coordinates": [
          [
            77.6173087,
            13.0093608
          ],
          [
            77.617789,
            13.0093506
          ]
        ]
      }
    },
    {
      "type": "Feature",
      "properties": {
        "id": "train_088_BND_050",
        "parcel_id": "train_088_P_013",
        "boundary_type": "VISIBLE",
        "confidence": 0.926,
        "length_m": 67.24,
        "evidence_sources": [
          "Drone_RGB_Edge",
          "DSM_Breakline"
        ]
      },
      "geometry": {
        "type": "LineString",
        "coordinates": [
          [
            77.617789,
            13.0093506
          ],
          [
            77.6177975,
            13.0087432
          ]
        ]
      }
    },
    {
      "type": "Feature",
      "properties": {
        "id": "train_088_BND_051",
        "parcel_id": "train_088_P_013",
        "boundary_type": "VISIBLE",
        "confidence": 0.823,
        "length_m": 52.25,
        "evidence_sources": [
          "Drone_RGB_Edge",
          "DSM_Breakline"
        ]
      },
      "geometry": {
        "type": "LineString",
        "coordinates": [
          [
            77.6177975,
            13.0087432
          ],
          [
            77.6173161,
            13.0087406
          ]
        ]
      }
    },
    {
      "type": "Feature",
      "properties": {
        "id": "train_088_BND_052",
        "parcel_id": "train_088_P_013",
        "boundary_type": "VISIBLE",
        "confidence": 0.916,
        "length_m": 68.66,
        "evidence_sources": [
          "Drone_RGB_Edge",
          "DSM_Breakline"
        ]
      },
      "geometry": {
        "type": "LineString",
        "coordinates": [
          [
            77.6173161,
            13.0087406
          ],
          [
            77.6173087,
            13.0093608
          ]
        ]
      }
    },
    {
      "type": "Feature",
      "properties": {
        "id": "train_088_BND_053",
        "parcel_id": "train_088_P_014",
        "boundary_type": "VISIBLE",
        "confidence": 0.884,
        "length_m": 52.73,
        "evidence_sources": [
          "Drone_RGB_Edge",
          "DSM_Breakline"
        ]
      },
      "geometry": {
        "type": "LineString",
        "coordinates": [
          [
            77.6173087,
            13.0087162
          ],
          [
            77.6177945,
            13.0087151
          ]
        ]
      }
    },
    {
      "type": "Feature",
      "properties": {
        "id": "train_088_BND_054",
        "parcel_id": "train_088_P_014",
        "boundary_type": "INFERRED",
        "confidence": 0.613,
        "length_m": 68.48,
        "evidence_sources": [
          "Road_Corridor_Offset",
          "Adjacent_Parcel_Topology"
        ]
      },
      "geometry": {
        "type": "LineString",
        "coordinates": [
          [
            77.6177945,
            13.0087151
          ],
          [
            77.617797,
            13.0080965
          ]
        ]
      }
    },
    {
      "type": "Feature",
      "properties": {
        "id": "train_088_BND_055",
        "parcel_id": "train_088_P_014",
        "boundary_type": "INFERRED",
        "confidence": 0.647,
        "length_m": 52.38,
        "evidence_sources": [
          "Road_Corridor_Offset",
          "Adjacent_Parcel_Topology"
        ]
      },
      "geometry": {
        "type": "LineString",
        "coordinates": [
          [
            77.617797,
            13.0080965
          ],
          [
            77.6173144,
            13.0080958
          ]
        ]
      }
    },
    {
      "type": "Feature",
      "properties": {
        "id": "train_088_BND_056",
        "parcel_id": "train_088_P_014",
        "boundary_type": "VISIBLE",
        "confidence": 0.863,
        "length_m": 68.68,
        "evidence_sources": [
          "Drone_RGB_Edge",
          "DSM_Breakline"
        ]
      },
      "geometry": {
        "type": "LineString",
        "coordinates": [
          [
            77.6173144,
            13.0080958
          ],
          [
            77.6173087,
            13.0087162
          ]
        ]
      }
    },
    {
      "type": "Feature",
      "properties": {
        "id": "train_088_BND_057",
        "parcel_id": "train_088_P_015",
        "boundary_type": "VISIBLE",
        "confidence": 0.823,
        "length_m": 53.58,
        "evidence_sources": [
          "Drone_RGB_Edge",
          "DSM_Breakline"
        ]
      },
      "geometry": {
        "type": "LineString",
        "coordinates": [
          [
            77.617811,
            13.0093544
          ],
          [
            77.6183046,
            13.0093566
          ]
        ]
      }
    },
    {
      "type": "Feature",
      "properties": {
        "id": "train_088_BND_058",
        "parcel_id": "train_088_P_015",
        "boundary_type": "INFERRED",
        "confidence": 0.745,
        "length_m": 70.04,
        "evidence_sources": [
          "Road_Corridor_Offset",
          "Adjacent_Parcel_Topology"
        ]
      },
      "geometry": {
        "type": "LineString",
        "coordinates": [
          [
            77.6183046,
            13.0093566
          ],
          [
            77.618307,
            13.0087239
          ]
        ]
      }
    },
    {
      "type": "Feature",
      "properties": {
        "id": "train_088_BND_059",
        "parcel_id": "train_088_P_015",
        "boundary_type": "INFERRED",
        "confidence": 0.662,
        "length_m": 52.02,
        "evidence_sources": [
          "Road_Corridor_Offset",
          "Adjacent_Parcel_Topology"
        ]
      },
      "geometry": {
        "type": "LineString",
        "coordinates": [
          [
            77.618307,
            13.0087239
          ],
          [
            77.6178278,
            13.008732
          ]
        ]
      }
    },
    {
      "type": "Feature",
      "properties": {
        "id": "train_088_BND_060",
        "parcel_id": "train_088_P_015",
        "boundary_type": "VISIBLE",
        "confidence": 0.919,
        "length_m": 68.92,
        "evidence_sources": [
          "Drone_RGB_Edge",
          "DSM_Breakline"
        ]
      },
      "geometry": {
        "type": "LineString",
        "coordinates": [
          [
            77.6178278,
            13.008732
          ],
          [
            77.617811,
            13.0093544
          ]
        ]
      }
    },
    {
      "type": "Feature",
      "properties": {
        "id": "train_088_BND_061",
        "parcel_id": "train_088_P_016",
        "boundary_type": "VISIBLE",
        "confidence": 0.941,
        "length_m": 55.05,
        "evidence_sources": [
          "Drone_RGB_Edge",
          "DSM_Breakline"
        ]
      },
      "geometry": {
        "type": "LineString",
        "coordinates": [
          [
            77.6178139,
            13.0087064
          ],
          [
            77.618321,
            13.0087002
          ]
        ]
      }
    },
    {
      "type": "Feature",
      "properties": {
        "id": "train_088_BND_062",
        "parcel_id": "train_088_P_016",
        "boundary_type": "VISIBLE",
        "confidence": 0.888,
        "length_m": 67.96,
        "evidence_sources": [
          "Drone_RGB_Edge",
          "DSM_Breakline"
        ]
      },
      "geometry": {
        "type": "LineString",
        "coordinates": [
          [
            77.618321,
            13.0087002
          ],
          [
            77.6183135,
            13.0080863
          ]
        ]
      }
    },
    {
      "type": "Feature",
      "properties": {
        "id": "train_088_BND_063",
        "parcel_id": "train_088_P_016",
        "boundary_type": "INFERRED",
        "confidence": 0.624,
        "length_m": 54.7,
        "evidence_sources": [
          "Road_Corridor_Offset",
          "Adjacent_Parcel_Topology"
        ]
      },
      "geometry": {
        "type": "LineString",
        "coordinates": [
          [
            77.6183135,
            13.0080863
          ],
          [
            77.6178096,
            13.008082
          ]
        ]
      }
    },
    {
      "type": "Feature",
      "properties": {
        "id": "train_088_BND_064",
        "parcel_id": "train_088_P_016",
        "boundary_type": "VISIBLE",
        "confidence": 0.851,
        "length_m": 69.12,
        "evidence_sources": [
          "Drone_RGB_Edge",
          "DSM_Breakline"
        ]
      },
      "geometry": {
        "type": "LineString",
        "coordinates": [
          [
            77.6178096,
            13.008082
          ],
          [
            77.6178139,
            13.0087064
          ]
        ]
      }
    }
  ]
}