{
  "type": "FeatureCollection",
  "crs": {
    "type": "name",
    "properties": {
      "name": "EPSG:4326"
    }
  },
  "features": [
    {
      "type": "Feature",
      "properties": {
        "id": "train_088_BLDG_001",
        "parcel_id": "train_088_P_001",
        "area_sqm": 909.53,
        "perimeter_m": 121.6,
        "centroid_lon": 77.6163118,
        "centroid_lat": 13.0101562,
        "height_m": 11.4,
        "confidence": 0.819,
        "temporal_epoch": "T1"
      },
      "geometry": {
        "type": "Polygon",
        "coordinates": [
          [
            [
              77.6161541,
              13.0102762
            ],
            [
              77.6164695,
              13.0102762
            ],
            [
              77.6164695,
              13.0100362
            ],
            [
              77.6161541,
              13.0100362
            ],
            [
              77.6161541,
              13.0102762
            ]
          ]
        ]
      }
    },
    {
      "type": "Feature",
      "properties": {
        "id": "train_088_BLDG_002",
        "parcel_id": "train_088_P_003",
        "area_sqm": 1420.82,
        "perimeter_m": 160.09,
        "centroid_lon": 77.6169443,
        "centroid_lat": 13.0101562,
        "height_m": 4.64,
        "confidence": 0.853,
        "temporal_epoch": "T1"
      },
      "geometry": {
        "type": "Polygon",
        "coordinates": [
          [
            [
              77.6166979,
              13.0102762
            ],
            [
              77.6171906,
              13.0102762
            ],
            [
              77.6171906,
              13.0100362
            ],
            [
              77.6166979,
              13.0100362
            ],
            [
              77.6166979,
              13.0102762
            ]
          ]
        ]
      }
    },
    {
      "type": "Feature",
      "properties": {
        "id": "train_088_BLDG_003",
        "parcel_id": "train_088_P_005",
        "area_sqm": 862.24,
        "perimeter_m": 118.04,
        "centroid_lon": 77.6175361,
        "centroid_lat": 13.0101562,
        "height_m": 10.63,
        "confidence": 0.844,
        "temporal_epoch": "T1"
      },
      "geometry": {
        "type": "Polygon",
        "coordinates": [
          [
            [
              77.6173866,
              13.0102762
            ],
            [
              77.6176856,
              13.0102762
            ],
            [
              77.6176856,
              13.0100362
            ],
            [
              77.6173866,
              13.0100362
            ],
            [
              77.6173866,
              13.0102762
            ]
          ]
        ]
      }
    },
    {
      "type": "Feature",
      "properties": {
        "id": "train_088_BLDG_004",
        "parcel_id": "train_088_P_006",
        "area_sqm": 862.24,
        "perimeter_m": 118.04,
        "centroid_lon": 77.6175361,
        "centroid_lat": 13.0097812,
        "height_m": 8.7,
        "confidence": 0.909,
        "temporal_epoch": "T1"
      },
      "geometry": {
        "type": "Polygon",
        "coordinates": [
          [
            [
              77.6173866,
              13.0099012
            ],
            [
              77.6176856,
              13.0099012
            ],
            [
              77.6176856,
              13.0096612
            ],
            [
              77.6173866,
              13.0096612
            ],
            [
              77.6173866,
              13.0099012
            ]
          ]
        ]
      }
    },
    {
      "type": "Feature",
      "properties": {
        "id": "train_088_BLDG_005",
        "parcel_id": "train_088_P_007",
        "area_sqm": 862.24,
        "perimeter_m": 118.04,
        "centroid_lon": 77.6180517,
        "centroid_lat": 13.0101562,
        "height_m": 5.0,
        "confidence": 0.819,
        "temporal_epoch": "T1"
      },
      "geometry": {
        "type": "Polygon",
        "coordinates": [
          [
            [
              77.6179022,
              13.0102762
            ],
            [
              77.6182012,
              13.0102762
            ],
            [
              77.6182012,
              13.0100362
            ],
            [
              77.6179022,
              13.0100362
            ],
            [
              77.6179022,
              13.0102762
            ]
          ]
        ]
      }
    },
    {
      "type": "Feature",
      "properties": {
        "id": "train_088_BLDG_006",
        "parcel_id": "train_088_P_008",
        "area_sqm": 862.24,
        "perimeter_m": 118.04,
        "centroid_lon": 77.6180517,
        "centroid_lat": 13.0097812,
        "height_m": 8.65,
        "confidence": 0.787,
        "temporal_epoch": "T1"
      },
      "geometry": {
        "type": "Polygon",
        "coordinates": [
          [
            [
              77.6179022,
              13.0099012
            ],
            [
              77.6182012,
              13.0099012
            ],
            [
              77.6182012,
              13.0096612
            ],
            [
              77.6179022,
              13.0096612
            ],
            [
              77.6179022,
              13.0099012
            ]
          ]
        ]
      }
    },
    {
      "type": "Feature",
      "properties": {
        "id": "train_088_BLDG_007",
        "parcel_id": "train_088_P_009",
        "area_sqm": 1568.95,
        "perimeter_m": 160.13,
        "centroid_lon": 77.6163118,
        "centroid_lat": 13.0090453,
        "height_m": 5.76,
        "confidence": 0.884,
        "temporal_epoch": "T1"
      },
      "geometry": {
        "type": "Polygon",
        "coordinates": [
          [
            [
              77.6161541,
              13.0092523
            ],
            [
              77.6164695,
              13.0092523
            ],
            [
              77.6164695,
              13.0088383
            ],
            [
              77.6161541,
              13.0088383
            ],
            [
              77.6161541,
              13.0092523
            ]
          ]
        ]
      }
    },
    {
      "type": "Feature",
      "properties": {
        "id": "train_088_BLDG_008",
        "parcel_id": "train_088_P_010",
        "area_sqm": 1568.95,
        "perimeter_m": 160.13,
        "centroid_lon": 77.6163118,
        "centroid_lat": 13.0083984,
        "height_m": 6.73,
        "confidence": 0.863,
        "temporal_epoch": "T1"
      },
      "geometry": {
        "type": "Polygon",
        "coordinates": [
          [
            [
              77.6161541,
              13.0086054
            ],
            [
              77.6164695,
              13.0086054
            ],
            [
              77.6164695,
              13.0081914
            ],
            [
              77.6161541,
              13.0081914
            ],
            [
              77.6161541,
              13.0086054
            ]
          ]
        ]
      }
    },
    {
      "type": "Feature",
      "properties": {
        "id": "train_088_BLDG_009",
        "parcel_id": "train_088_P_011",
        "area_sqm": 1568.45,
        "perimeter_m": 160.11,
        "centroid_lon": 77.6168555,
        "centroid_lat": 13.0090453,
        "height_m": 10.53,
        "confidence": 0.9,
        "temporal_epoch": "T1"
      },
      "geometry": {
        "type": "Polygon",
        "coordinates": [
          [
            [
              77.6166979,
              13.0092523
            ],
            [
              77.6170132,
              13.0092523
            ],
            [
              77.6170132,
              13.0088383
            ],
            [
              77.6166979,
              13.0088383
            ],
            [
              77.6166979,
              13.0092523
            ]
          ]
        ]
      }
    },
    {
      "type": "Feature",
      "properties": {
        "id": "train_088_BLDG_010",
        "parcel_id": "train_088_P_013",
        "area_sqm": 1487.37,
        "perimeter_m": 156.57,
        "centroid_lon": 77.6175361,
        "centroid_lat": 13.0090453,
        "height_m": 9.74,
        "confidence": 0.915,
        "temporal_epoch": "T1"
      },
      "geometry": {
        "type": "Polygon",
        "coordinates": [
          [
            [
              77.6173866,
              13.0092523
            ],
            [
              77.6176856,
              13.0092523
            ],
            [
              77.6176856,
              13.0088383
            ],
            [
              77.6173866,
              13.0088383
            ],
            [
              77.6173866,
              13.0092523
            ]
          ]
        ]
      }
    },
    {
      "type": "Feature",
      "properties": {
        "id": "train_088_BLDG_011",
        "parcel_id": "train_088_P_014",
        "area_sqm": 1487.37,
        "perimeter_m": 156.57,
        "centroid_lon": 77.6175361,
        "centroid_lat": 13.0083984,
        "height_m": 8.31,
        "confidence": 0.822,
        "temporal_epoch": "T1"
      },
      "geometry": {
        "type": "Polygon",
        "coordinates": [
          [
            [
              77.6173866,
              13.0086054
            ],
            [
              77.6176856,
              13.0086054
            ],
            [
              77.6176856,
              13.0081914
            ],
            [
              77.6173866,
              13.0081914
            ],
            [
              77.6173866,
              13.0086054
            ]
          ]
        ]
      }
    },
    {
      "type": "Feature",
      "properties": {
        "id": "train_088_BLDG_012",
        "parcel_id": "train_088_P_015",
        "area_sqm": 1487.37,
        "perimeter_m": 156.57,
        "centroid_lon": 77.6180517,
        "centroid_lat": 13.0090453,
        "height_m": 10.29,
        "confidence": 0.9,
        "temporal_epoch": "T1"
      },
      "geometry": {
        "type": "Polygon",
        "coordinates": [
          [
            [
              77.6179022,
              13.0092523
            ],
            [
              77.6182012,
              13.0092523
            ],
            [
              77.6182012,
              13.0088383
            ],
            [
              77.6179022,
              13.0088383
            ],
            [
              77.6179022,
              13.0092523
            ]
          ]
        ]
      }
    },
    {
      "type": "Feature",
      "properties": {
        "id": "train_088_BLDG_013",
        "parcel_id": "train_088_P_016",
        "area_sqm": 1487.37,
        "perimeter_m": 156.57,
        "centroid_lon": 77.6180517,
        "centroid_lat": 13.0083984,
        "height_m": 6.86,
        "confidence": 0.805,
        "temporal_epoch": "T1"
      },
      "geometry": {
        "type": "Polygon",
        "coordinates": [
          [
            [
              77.6179022,
              13.0086054
            ],
            [
              77.6182012,
              13.0086054
            ],
            [
              77.6182012,
              13.0081914
            ],
            [
              77.6179022,
              13.0081914
            ],
            [
              77.6179022,
              13.0086054
            ]
          ]
        ]
      }
    }
  ]
}